<?xml version="1.0" encoding="UTF-8"?>
<gpx version="1.1" creator="carnet-trek seed (OpenStreetMap, EU-DEM)" xmlns="http://www.topografix.com/GPX/1/1">
  <metadata>
    <name>GR10 – Granges d&apos;Astau → Bagnères-de-Luchon</name>
    <copyright author="OpenStreetMap contributors"><license>https://opendatacommons.org/licenses/odbl/</license></copyright>
  </metadata>
  <wpt lat="42.765616" lon="0.499918">
    <name>Granges d&apos;Astau</name>
    <sym>Lodging</sym>
  </wpt>
  <wpt lat="42.750817" lon="0.530219">
    <name>Point culminant (2270 m)</name>
    <sym>Summit</sym>
  </wpt>
  <wpt lat="42.730519" lon="0.499570">
    <name>Refuge d&apos;Espingo</name>
    <sym>Lodging</sym>
  </wpt>
  <wpt lat="42.744538" lon="0.490870">
    <name>Refuge du Lac d&apos;Oô</name>
    <sym>Lodging</sym>
  </wpt>
  <wpt lat="42.791278" lon="0.591148">
    <name>Bagnères-de-Luchon</name>
    <sym>Convenience Store</sym>
  </wpt>
  <trk>
    <name>GR10 – Granges d&apos;Astau → Bagnères-de-Luchon</name>
    <type>hike</type>
    <trkseg>
      <trkpt lat="42.765616" lon="0.499918">
        <ele>1124.8</ele>
        <time>2025-07-10T07:30:00.000Z</time>
      </trkpt>
      <trkpt lat="42.765760" lon="0.500254">
        <ele>1124.7</ele>
        <time>2025-07-10T07:30:27.699Z</time>
      </trkpt>
      <trkpt lat="42.766268" lon="0.500503">
        <ele>1125.5</ele>
        <time>2025-07-10T07:31:29.269Z</time>
      </trkpt>
      <trkpt lat="42.766483" lon="0.500710">
        <ele>1126.1</ele>
        <time>2025-07-10T07:32:00.993Z</time>
      </trkpt>
      <trkpt lat="42.766618" lon="0.501035">
        <ele>1126.5</ele>
        <time>2025-07-10T07:32:33.486Z</time>
      </trkpt>
      <trkpt lat="42.766823" lon="0.501214">
        <ele>1126.8</ele>
        <time>2025-07-10T07:33:03.241Z</time>
      </trkpt>
      <trkpt lat="42.766745" lon="0.501327">
        <ele>1127.8</ele>
        <time>2025-07-10T07:33:38.572Z</time>
      </trkpt>
      <trkpt lat="42.766420" lon="0.501438">
        <ele>1129.2</ele>
        <time>2025-07-10T07:34:24.089Z</time>
      </trkpt>
      <trkpt lat="42.766089" lon="0.501414">
        <ele>1129.7</ele>
        <time>2025-07-10T07:35:01.200Z</time>
      </trkpt>
      <trkpt lat="42.765676" lon="0.501422">
        <ele>1130.7</ele>
        <time>2025-07-10T07:35:50.743Z</time>
      </trkpt>
      <trkpt lat="42.765399" lon="0.501514">
        <ele>1131.6</ele>
        <time>2025-07-10T07:36:27.434Z</time>
      </trkpt>
      <trkpt lat="42.765135" lon="0.501650">
        <ele>1132.7</ele>
        <time>2025-07-10T07:37:05.538Z</time>
      </trkpt>
      <trkpt lat="42.764777" lon="0.501752">
        <ele>1134.0</ele>
        <time>2025-07-10T07:37:54.411Z</time>
      </trkpt>
      <trkpt lat="42.764428" lon="0.501781">
        <ele>1135.2</ele>
        <time>2025-07-10T07:38:39.784Z</time>
      </trkpt>
      <trkpt lat="42.764172" lon="0.501865">
        <ele>1137.4</ele>
        <time>2025-07-10T07:39:27.398Z</time>
      </trkpt>
      <trkpt lat="42.763943" lon="0.501960">
        <ele>1139.4</ele>
        <time>2025-07-10T07:40:11.990Z</time>
      </trkpt>
      <trkpt lat="42.763711" lon="0.501929">
        <ele>1140.3</ele>
        <time>2025-07-10T07:40:43.439Z</time>
      </trkpt>
      <trkpt lat="42.763382" lon="0.501873">
        <ele>1141.6</ele>
        <time>2025-07-10T07:41:28.222Z</time>
      </trkpt>
      <trkpt lat="42.763062" lon="0.501825">
        <ele>1144.0</ele>
        <time>2025-07-10T07:42:23.454Z</time>
      </trkpt>
      <trkpt lat="42.762828" lon="0.501777">
        <ele>1145.7</ele>
        <time>2025-07-10T07:43:04.040Z</time>
      </trkpt>
      <trkpt lat="42.762594" lon="0.501645">
        <ele>1147.5</ele>
        <time>2025-07-10T07:43:46.953Z</time>
      </trkpt>
      <trkpt lat="42.762099" lon="0.501649">
        <ele>1152.1</ele>
        <time>2025-07-10T07:45:20.950Z</time>
      </trkpt>
      <trkpt lat="42.761857" lon="0.501660">
        <ele>1154.6</ele>
        <time>2025-07-10T07:46:09.732Z</time>
      </trkpt>
      <trkpt lat="42.761612" lon="0.501711">
        <ele>1158.5</ele>
        <time>2025-07-10T07:47:13.633Z</time>
      </trkpt>
      <trkpt lat="42.761420" lon="0.501907">
        <ele>1162.3</ele>
        <time>2025-07-10T07:48:15.399Z</time>
      </trkpt>
      <trkpt lat="42.761221" lon="0.501863">
        <ele>1163.5</ele>
        <time>2025-07-10T07:48:50.032Z</time>
      </trkpt>
      <trkpt lat="42.760661" lon="0.501806">
        <ele>1166.8</ele>
        <time>2025-07-10T07:50:18.016Z</time>
      </trkpt>
      <trkpt lat="42.760393" lon="0.501917">
        <ele>1170.9</ele>
        <time>2025-07-10T07:51:28.372Z</time>
      </trkpt>
      <trkpt lat="42.760056" lon="0.502071">
        <ele>1176.0</ele>
        <time>2025-07-10T07:52:55.482Z</time>
      </trkpt>
      <trkpt lat="42.759813" lon="0.502321">
        <ele>1179.8</ele>
        <time>2025-07-10T07:54:04.551Z</time>
      </trkpt>
      <trkpt lat="42.759490" lon="0.502610">
        <ele>1188.4</ele>
        <time>2025-07-10T07:56:08.937Z</time>
      </trkpt>
      <trkpt lat="42.759247" lon="0.502567">
        <ele>1190.6</ele>
        <time>2025-07-10T07:56:57.179Z</time>
      </trkpt>
      <trkpt lat="42.758949" lon="0.502444">
        <ele>1190.2</ele>
        <time>2025-07-10T07:57:29.866Z</time>
      </trkpt>
      <trkpt lat="42.758651" lon="0.502464">
        <ele>1194.1</ele>
        <time>2025-07-10T07:58:38.347Z</time>
      </trkpt>
      <trkpt lat="42.758067" lon="0.502336">
        <ele>1201.8</ele>
        <time>2025-07-10T08:00:53.602Z</time>
      </trkpt>
      <trkpt lat="42.757402" lon="0.502101">
        <ele>1211.8</ele>
        <time>2025-07-10T08:03:41.985Z</time>
      </trkpt>
      <trkpt lat="42.757220" lon="0.501838">
        <ele>1211.2</ele>
        <time>2025-07-10T08:04:10.984Z</time>
      </trkpt>
      <trkpt lat="42.756849" lon="0.501476">
        <ele>1218.7</ele>
        <time>2025-07-10T08:06:12.149Z</time>
      </trkpt>
      <trkpt lat="42.756635" lon="0.501353">
        <ele>1225.6</ele>
        <time>2025-07-10T08:07:44.822Z</time>
      </trkpt>
      <trkpt lat="42.756222" lon="0.500856">
        <ele>1235.8</ele>
        <time>2025-07-10T08:10:22.558Z</time>
      </trkpt>
      <trkpt lat="42.756106" lon="0.500573">
        <ele>1235.9</ele>
        <time>2025-07-10T08:10:46.601Z</time>
      </trkpt>
      <trkpt lat="42.755689" lon="0.500025">
        <ele>1236.2</ele>
        <time>2025-07-10T08:11:45.077Z</time>
      </trkpt>
      <trkpt lat="42.754853" lon="0.499552">
        <ele>1248.4</ele>
        <time>2025-07-10T08:15:17.305Z</time>
      </trkpt>
      <trkpt lat="42.754514" lon="0.499516">
        <ele>1254.1</ele>
        <time>2025-07-10T08:16:48.145Z</time>
      </trkpt>
      <trkpt lat="42.754255" lon="0.499560">
        <ele>1258.4</ele>
        <time>2025-07-10T08:17:57.866Z</time>
      </trkpt>
      <trkpt lat="42.754016" lon="0.499641">
        <ele>1265.9</ele>
        <time>2025-07-10T08:19:38.401Z</time>
      </trkpt>
      <trkpt lat="42.753796" lon="0.499553">
        <ele>1273.1</ele>
        <time>2025-07-10T08:21:14.746Z</time>
      </trkpt>
      <trkpt lat="42.753395" lon="0.499296">
        <ele>1281.8</ele>
        <time>2025-07-10T08:23:26.395Z</time>
      </trkpt>
      <trkpt lat="42.753060" lon="0.499057">
        <ele>1289.0</ele>
        <time>2025-07-10T08:25:17.010Z</time>
      </trkpt>
      <trkpt lat="42.752852" lon="0.498895">
        <ele>1293.5</ele>
        <time>2025-07-10T08:26:25.493Z</time>
      </trkpt>
      <trkpt lat="42.752647" lon="0.498765">
        <ele>1297.6</ele>
        <time>2025-07-10T08:27:30.086Z</time>
      </trkpt>
      <trkpt lat="42.752206" lon="0.498235">
        <ele>1304.9</ele>
        <time>2025-07-10T08:29:40.330Z</time>
      </trkpt>
      <trkpt lat="42.752114" lon="0.497889">
        <ele>1305.7</ele>
        <time>2025-07-10T08:30:14.475Z</time>
      </trkpt>
      <trkpt lat="42.751857" lon="0.497570">
        <ele>1310.3</ele>
        <time>2025-07-10T08:31:36.447Z</time>
      </trkpt>
      <trkpt lat="42.751745" lon="0.497168">
        <ele>1319.6</ele>
        <time>2025-07-10T08:33:42.748Z</time>
      </trkpt>
      <trkpt lat="42.751499" lon="0.496523">
        <ele>1337.9</ele>
        <time>2025-07-10T08:37:42.823Z</time>
      </trkpt>
      <trkpt lat="42.751465" lon="0.497039">
        <ele>1342.2</ele>
        <time>2025-07-10T08:39:07.579Z</time>
      </trkpt>
      <trkpt lat="42.751359" lon="0.496860">
        <ele>1349.7</ele>
        <time>2025-07-10T08:40:48.417Z</time>
      </trkpt>
      <trkpt lat="42.751222" lon="0.496542">
        <ele>1358.9</ele>
        <time>2025-07-10T08:42:48.785Z</time>
      </trkpt>
      <trkpt lat="42.751219" lon="0.496912">
        <ele>1358.9</ele>
        <time>2025-07-10T08:43:21.922Z</time>
      </trkpt>
      <trkpt lat="42.751178" lon="0.497134">
        <ele>1361.8</ele>
        <time>2025-07-10T08:44:13.576Z</time>
      </trkpt>
      <trkpt lat="42.751038" lon="0.496765">
        <ele>1371.4</ele>
        <time>2025-07-10T08:46:21.677Z</time>
      </trkpt>
      <trkpt lat="42.750955" lon="0.496857">
        <ele>1375.8</ele>
        <time>2025-07-10T08:47:35.965Z</time>
      </trkpt>
      <trkpt lat="42.750956" lon="0.497161">
        <ele>1377.3</ele>
        <time>2025-07-10T08:48:13.698Z</time>
      </trkpt>
      <trkpt lat="42.750743" lon="0.496819">
        <ele>1389.0</ele>
        <time>2025-07-10T08:50:46.608Z</time>
      </trkpt>
      <trkpt lat="42.750544" lon="0.496654">
        <ele>1397.3</ele>
        <time>2025-07-10T08:52:34.320Z</time>
      </trkpt>
      <trkpt lat="42.750458" lon="0.496375">
        <ele>1398.4</ele>
        <time>2025-07-10T08:53:06.800Z</time>
      </trkpt>
      <trkpt lat="42.750507" lon="0.495963">
        <ele>1399.8</ele>
        <time>2025-07-10T08:53:50.718Z</time>
      </trkpt>
      <trkpt lat="42.750684" lon="0.495738">
        <ele>1389.9</ele>
        <time>2025-07-10T08:55:14.741Z</time>
      </trkpt>
      <trkpt lat="42.750837" lon="0.495527">
        <ele>1381.3</ele>
        <time>2025-07-10T08:56:28.225Z</time>
      </trkpt>
      <trkpt lat="42.750917" lon="0.495207">
        <ele>1382.9</ele>
        <time>2025-07-10T08:57:10.208Z</time>
      </trkpt>
      <trkpt lat="42.750723" lon="0.495194">
        <ele>1384.5</ele>
        <time>2025-07-10T08:57:51.173Z</time>
      </trkpt>
      <trkpt lat="42.750587" lon="0.494984">
        <ele>1383.2</ele>
        <time>2025-07-10T08:58:24.049Z</time>
      </trkpt>
      <trkpt lat="42.750684" lon="0.494665">
        <ele>1381.8</ele>
        <time>2025-07-10T08:58:56.358Z</time>
      </trkpt>
      <trkpt lat="42.750511" lon="0.494825">
        <ele>1393.8</ele>
        <time>2025-07-10T09:01:23.519Z</time>
      </trkpt>
      <trkpt lat="42.750300" lon="0.495059">
        <ele>1406.6</ele>
        <time>2025-07-10T09:04:01.109Z</time>
      </trkpt>
      <trkpt lat="42.750082" lon="0.495126">
        <ele>1416.4</ele>
        <time>2025-07-10T09:06:05.246Z</time>
      </trkpt>
      <trkpt lat="42.749988" lon="0.494916">
        <ele>1425.5</ele>
        <time>2025-07-10T09:08:02.644Z</time>
      </trkpt>
      <trkpt lat="42.750059" lon="0.494593">
        <ele>1428.5</ele>
        <time>2025-07-10T09:08:58.428Z</time>
      </trkpt>
      <trkpt lat="42.749867" lon="0.494749">
        <ele>1433.2</ele>
        <time>2025-07-10T09:10:10.836Z</time>
      </trkpt>
      <trkpt lat="42.749805" lon="0.495106">
        <ele>1444.7</ele>
        <time>2025-07-10T09:12:34.936Z</time>
      </trkpt>
      <trkpt lat="42.749753" lon="0.495111">
        <ele>1453.0</ele>
        <time>2025-07-10T09:14:23.829Z</time>
      </trkpt>
      <trkpt lat="42.749665" lon="0.495266">
        <ele>1460.5</ele>
        <time>2025-07-10T09:16:08.897Z</time>
      </trkpt>
      <trkpt lat="42.749588" lon="0.495042">
        <ele>1460.5</ele>
        <time>2025-07-10T09:16:34.585Z</time>
      </trkpt>
      <trkpt lat="42.749587" lon="0.494820">
        <ele>1458.4</ele>
        <time>2025-07-10T09:17:12.213Z</time>
      </trkpt>
      <trkpt lat="42.749427" lon="0.494758">
        <ele>1462.0</ele>
        <time>2025-07-10T09:18:16.261Z</time>
      </trkpt>
      <trkpt lat="42.749428" lon="0.494438">
        <ele>1464.8</ele>
        <time>2025-07-10T09:19:08.247Z</time>
      </trkpt>
      <trkpt lat="42.749282" lon="0.494439">
        <ele>1466.2</ele>
        <time>2025-07-10T09:19:48.184Z</time>
      </trkpt>
      <trkpt lat="42.749253" lon="0.494134">
        <ele>1468.4</ele>
        <time>2025-07-10T09:20:33.642Z</time>
      </trkpt>
      <trkpt lat="42.749052" lon="0.493967">
        <ele>1472.9</ele>
        <time>2025-07-10T09:21:42.968Z</time>
      </trkpt>
      <trkpt lat="42.748939" lon="0.493673">
        <ele>1474.9</ele>
        <time>2025-07-10T09:22:27.367Z</time>
      </trkpt>
      <trkpt lat="42.748790" lon="0.493391">
        <ele>1472.9</ele>
        <time>2025-07-10T09:23:03.712Z</time>
      </trkpt>
      <trkpt lat="42.748575" lon="0.493103">
        <ele>1472.6</ele>
        <time>2025-07-10T09:23:35.370Z</time>
      </trkpt>
      <trkpt lat="42.748324" lon="0.492840">
        <ele>1473.7</ele>
        <time>2025-07-10T09:24:17.240Z</time>
      </trkpt>
      <trkpt lat="42.748127" lon="0.492582">
        <ele>1471.9</ele>
        <time>2025-07-10T09:24:54.018Z</time>
      </trkpt>
      <trkpt lat="42.748042" lon="0.492295">
        <ele>1470.4</ele>
        <time>2025-07-10T09:25:24.965Z</time>
      </trkpt>
      <trkpt lat="42.747812" lon="0.492062">
        <ele>1477.0</ele>
        <time>2025-07-10T09:27:00.122Z</time>
      </trkpt>
      <trkpt lat="42.747591" lon="0.491916">
        <ele>1482.5</ele>
        <time>2025-07-10T09:28:20.598Z</time>
      </trkpt>
      <trkpt lat="42.747412" lon="0.491672">
        <ele>1486.4</ele>
        <time>2025-07-10T09:29:24.877Z</time>
      </trkpt>
      <trkpt lat="42.747163" lon="0.491502">
        <ele>1490.7</ele>
        <time>2025-07-10T09:30:35.168Z</time>
      </trkpt>
      <trkpt lat="42.746937" lon="0.491325">
        <ele>1493.1</ele>
        <time>2025-07-10T09:31:24.876Z</time>
      </trkpt>
      <trkpt lat="42.746712" lon="0.491284">
        <ele>1495.2</ele>
        <time>2025-07-10T09:32:08.694Z</time>
      </trkpt>
      <trkpt lat="42.746446" lon="0.491284">
        <ele>1497.8</ele>
        <time>2025-07-10T09:33:00.049Z</time>
      </trkpt>
      <trkpt lat="42.746167" lon="0.491329">
        <ele>1499.5</ele>
        <time>2025-07-10T09:33:45.440Z</time>
      </trkpt>
      <trkpt lat="42.745923" lon="0.491338">
        <ele>1498.8</ele>
        <time>2025-07-10T09:34:13.279Z</time>
      </trkpt>
      <trkpt lat="42.745705" lon="0.491245">
        <ele>1498.1</ele>
        <time>2025-07-10T09:34:39.206Z</time>
      </trkpt>
      <trkpt lat="42.745354" lon="0.491288">
        <ele>1496.7</ele>
        <time>2025-07-10T09:35:21.680Z</time>
      </trkpt>
      <trkpt lat="42.745141" lon="0.491427">
        <ele>1496.1</ele>
        <time>2025-07-10T09:35:47.349Z</time>
      </trkpt>
      <trkpt lat="42.744949" lon="0.491479">
        <ele>1498.3</ele>
        <time>2025-07-10T09:36:32.194Z</time>
      </trkpt>
      <trkpt lat="42.744768" lon="0.491609">
        <ele>1500.0</ele>
        <time>2025-07-10T09:37:10.748Z</time>
      </trkpt>
      <trkpt lat="42.744536" lon="0.491679">
        <ele>1498.3</ele>
        <time>2025-07-10T09:37:45.374Z</time>
      </trkpt>
      <trkpt lat="42.744292" lon="0.491752">
        <ele>1497.1</ele>
        <time>2025-07-10T09:38:17.319Z</time>
      </trkpt>
      <trkpt lat="42.744167" lon="0.492030">
        <ele>1497.1</ele>
        <time>2025-07-10T09:38:40.697Z</time>
      </trkpt>
      <trkpt lat="42.744007" lon="0.492334">
        <ele>1497.6</ele>
        <time>2025-07-10T09:39:13.021Z</time>
      </trkpt>
      <trkpt lat="42.743894" lon="0.492766">
        <ele>1498.9</ele>
        <time>2025-07-10T09:40:01.320Z</time>
      </trkpt>
      <trkpt lat="42.743794" lon="0.493442">
        <ele>1518.1</ele>
        <time>2025-07-10T09:44:06.667Z</time>
      </trkpt>
      <trkpt lat="42.743614" lon="0.493758">
        <ele>1516.0</ele>
        <time>2025-07-10T09:44:47.659Z</time>
      </trkpt>
      <trkpt lat="42.743370" lon="0.494125">
        <ele>1516.7</ele>
        <time>2025-07-10T09:45:30.094Z</time>
      </trkpt>
      <trkpt lat="42.743248" lon="0.494419">
        <ele>1520.4</ele>
        <time>2025-07-10T09:46:31.128Z</time>
      </trkpt>
      <trkpt lat="42.743187" lon="0.494719">
        <ele>1523.7</ele>
        <time>2025-07-10T09:47:27.299Z</time>
      </trkpt>
      <trkpt lat="42.743043" lon="0.495220">
        <ele>1533.5</ele>
        <time>2025-07-10T09:49:48.324Z</time>
      </trkpt>
      <trkpt lat="42.742751" lon="0.495564">
        <ele>1537.5</ele>
        <time>2025-07-10T09:51:07.590Z</time>
      </trkpt>
      <trkpt lat="42.742452" lon="0.495920">
        <ele>1541.0</ele>
        <time>2025-07-10T09:52:21.393Z</time>
      </trkpt>
      <trkpt lat="42.742188" lon="0.496124">
        <ele>1544.6</ele>
        <time>2025-07-10T09:53:26.791Z</time>
      </trkpt>
      <trkpt lat="42.742016" lon="0.496450">
        <ele>1557.9</ele>
        <time>2025-07-10T09:56:13.027Z</time>
      </trkpt>
      <trkpt lat="42.741917" lon="0.496774">
        <ele>1566.8</ele>
        <time>2025-07-10T09:58:09.417Z</time>
      </trkpt>
      <trkpt lat="42.741717" lon="0.496870">
        <ele>1566.1</ele>
        <time>2025-07-10T09:58:36.787Z</time>
      </trkpt>
      <trkpt lat="42.741469" lon="0.497005">
        <ele>1569.8</ele>
        <time>2025-07-10T09:59:42.553Z</time>
      </trkpt>
      <trkpt lat="42.741300" lon="0.497277">
        <ele>1579.3</ele>
        <time>2025-07-10T10:01:45.525Z</time>
      </trkpt>
      <trkpt lat="42.741411" lon="0.497303">
        <ele>1584.6</ele>
        <time>2025-07-10T10:03:01.928Z</time>
      </trkpt>
      <trkpt lat="42.741489" lon="0.497368">
        <ele>1589.9</ele>
        <time>2025-07-10T10:04:26.616Z</time>
      </trkpt>
      <trkpt lat="42.741572" lon="0.497511">
        <ele>1600.9</ele>
        <time>2025-07-10T10:06:56.044Z</time>
      </trkpt>
      <trkpt lat="42.741443" lon="0.497738">
        <ele>1609.2</ele>
        <time>2025-07-10T10:08:47.859Z</time>
      </trkpt>
      <trkpt lat="42.741629" lon="0.497783">
        <ele>1617.8</ele>
        <time>2025-07-10T10:10:43.839Z</time>
      </trkpt>
      <trkpt lat="42.741568" lon="0.497990">
        <ele>1627.1</ele>
        <time>2025-07-10T10:12:44.965Z</time>
      </trkpt>
      <trkpt lat="42.741642" lon="0.498092">
        <ele>1636.9</ele>
        <time>2025-07-10T10:14:51.237Z</time>
      </trkpt>
      <trkpt lat="42.741748" lon="0.498237">
        <ele>1642.2</ele>
        <time>2025-07-10T10:16:08.151Z</time>
      </trkpt>
      <trkpt lat="42.741693" lon="0.498329">
        <ele>1646.3</ele>
        <time>2025-07-10T10:17:13.304Z</time>
      </trkpt>
      <trkpt lat="42.741622" lon="0.498389">
        <ele>1650.3</ele>
        <time>2025-07-10T10:18:18.523Z</time>
      </trkpt>
      <trkpt lat="42.741613" lon="0.498480">
        <ele>1653.7</ele>
        <time>2025-07-10T10:19:16.962Z</time>
      </trkpt>
      <trkpt lat="42.741292" lon="0.498482">
        <ele>1656.2</ele>
        <time>2025-07-10T10:20:12.986Z</time>
      </trkpt>
      <trkpt lat="42.740956" lon="0.498712">
        <ele>1658.2</ele>
        <time>2025-07-10T10:21:09.152Z</time>
      </trkpt>
      <trkpt lat="42.740724" lon="0.498797">
        <ele>1660.5</ele>
        <time>2025-07-10T10:21:56.499Z</time>
      </trkpt>
      <trkpt lat="42.740423" lon="0.498902">
        <ele>1664.1</ele>
        <time>2025-07-10T10:23:03.312Z</time>
      </trkpt>
      <trkpt lat="42.740142" lon="0.498878">
        <ele>1668.5</ele>
        <time>2025-07-10T10:24:15.504Z</time>
      </trkpt>
      <trkpt lat="42.739849" lon="0.498936">
        <ele>1674.4</ele>
        <time>2025-07-10T10:25:43.639Z</time>
      </trkpt>
      <trkpt lat="42.739551" lon="0.498918">
        <ele>1681.4</ele>
        <time>2025-07-10T10:27:24.908Z</time>
      </trkpt>
      <trkpt lat="42.739309" lon="0.498824">
        <ele>1680.3</ele>
        <time>2025-07-10T10:27:56.459Z</time>
      </trkpt>
      <trkpt lat="42.739150" lon="0.499093">
        <ele>1679.2</ele>
        <time>2025-07-10T10:28:28.127Z</time>
      </trkpt>
      <trkpt lat="42.738943" lon="0.499281">
        <ele>1671.2</ele>
        <time>2025-07-10T10:29:39.886Z</time>
      </trkpt>
      <trkpt lat="42.738782" lon="0.499180">
        <ele>1663.5</ele>
        <time>2025-07-10T10:30:48.512Z</time>
      </trkpt>
      <trkpt lat="42.738539" lon="0.498919">
        <ele>1672.7</ele>
        <time>2025-07-10T10:32:52.637Z</time>
      </trkpt>
      <trkpt lat="42.738310" lon="0.498950">
        <ele>1681.8</ele>
        <time>2025-07-10T10:34:50.371Z</time>
      </trkpt>
      <trkpt lat="42.738001" lon="0.499132">
        <ele>1699.1</ele>
        <time>2025-07-10T10:38:21.182Z</time>
      </trkpt>
      <trkpt lat="42.737783" lon="0.499261">
        <ele>1706.7</ele>
        <time>2025-07-10T10:40:01.932Z</time>
      </trkpt>
      <trkpt lat="42.737657" lon="0.499039">
        <ele>1708.5</ele>
        <time>2025-07-10T10:40:43.188Z</time>
      </trkpt>
      <trkpt lat="42.737569" lon="0.498966">
        <ele>1699.6</ele>
        <time>2025-07-10T10:42:06.598Z</time>
      </trkpt>
      <trkpt lat="42.737412" lon="0.498727">
        <ele>1688.0</ele>
        <time>2025-07-10T10:43:38.741Z</time>
      </trkpt>
      <trkpt lat="42.737238" lon="0.498815">
        <ele>1692.9</ele>
        <time>2025-07-10T10:44:52.049Z</time>
      </trkpt>
      <trkpt lat="42.737052" lon="0.498711">
        <ele>1700.5</ele>
        <time>2025-07-10T10:46:34.411Z</time>
      </trkpt>
      <trkpt lat="42.736949" lon="0.498946">
        <ele>1716.1</ele>
        <time>2025-07-10T10:49:40.299Z</time>
      </trkpt>
      <trkpt lat="42.737126" lon="0.499193">
        <ele>1730.2</ele>
        <time>2025-07-10T10:52:29.675Z</time>
      </trkpt>
      <trkpt lat="42.736949" lon="0.499276">
        <ele>1738.0</ele>
        <time>2025-07-10T10:54:12.782Z</time>
      </trkpt>
      <trkpt lat="42.736700" lon="0.499189">
        <ele>1747.3</ele>
        <time>2025-07-10T10:56:14.557Z</time>
      </trkpt>
      <trkpt lat="42.736494" lon="0.499112">
        <ele>1754.3</ele>
        <time>2025-07-10T10:57:48.908Z</time>
      </trkpt>
      <trkpt lat="42.736272" lon="0.499183">
        <ele>1763.8</ele>
        <time>2025-07-10T10:59:48.571Z</time>
      </trkpt>
      <trkpt lat="42.735934" lon="0.499333">
        <ele>1783.8</ele>
        <time>2025-07-10T11:03:51.310Z</time>
      </trkpt>
      <trkpt lat="42.735619" lon="0.499274">
        <ele>1797.8</ele>
        <time>2025-07-10T11:06:50.103Z</time>
      </trkpt>
      <trkpt lat="42.735527" lon="0.499420">
        <ele>1809.6</ele>
        <time>2025-07-10T11:09:20.392Z</time>
      </trkpt>
      <trkpt lat="42.735348" lon="0.499499">
        <ele>1818.9</ele>
        <time>2025-07-10T11:11:17.545Z</time>
      </trkpt>
      <trkpt lat="42.735101" lon="0.499605">
        <ele>1828.9</ele>
        <time>2025-07-10T11:13:25.662Z</time>
      </trkpt>
      <trkpt lat="42.734935" lon="0.499667">
        <ele>1838.9</ele>
        <time>2025-07-10T11:15:35.342Z</time>
      </trkpt>
      <trkpt lat="42.734759" lon="0.499684">
        <ele>1842.9</ele>
        <time>2025-07-10T11:16:38.651Z</time>
      </trkpt>
      <trkpt lat="42.734661" lon="0.499510">
        <ele>1847.6</ele>
        <time>2025-07-10T11:17:54.863Z</time>
      </trkpt>
      <trkpt lat="42.734491" lon="0.499715">
        <ele>1855.3</ele>
        <time>2025-07-10T11:19:40.910Z</time>
      </trkpt>
      <trkpt lat="42.734355" lon="0.499889">
        <ele>1863.0</ele>
        <time>2025-07-10T11:21:26.050Z</time>
      </trkpt>
      <trkpt lat="42.734115" lon="0.499899">
        <ele>1871.9</ele>
        <time>2025-07-10T11:23:21.460Z</time>
      </trkpt>
      <trkpt lat="42.733898" lon="0.499789">
        <ele>1879.7</ele>
        <time>2025-07-10T11:25:05.663Z</time>
      </trkpt>
      <trkpt lat="42.733703" lon="0.499832">
        <ele>1885.6</ele>
        <time>2025-07-10T11:26:30.225Z</time>
      </trkpt>
      <trkpt lat="42.733545" lon="0.500112">
        <ele>1892.4</ele>
        <time>2025-07-10T11:28:05.585Z</time>
      </trkpt>
      <trkpt lat="42.733268" lon="0.500095">
        <ele>1899.7</ele>
        <time>2025-07-10T11:29:48.509Z</time>
      </trkpt>
      <trkpt lat="42.733028" lon="0.500198">
        <ele>1907.5</ele>
        <time>2025-07-10T11:31:32.467Z</time>
      </trkpt>
      <trkpt lat="42.732753" lon="0.500256">
        <ele>1916.3</ele>
        <time>2025-07-10T11:33:31.027Z</time>
      </trkpt>
      <trkpt lat="42.732478" lon="0.500415">
        <ele>1923.5</ele>
        <time>2025-07-10T11:35:13.953Z</time>
      </trkpt>
      <trkpt lat="42.732363" lon="0.500560">
        <ele>1929.2</ele>
        <time>2025-07-10T11:36:36.844Z</time>
      </trkpt>
      <trkpt lat="42.732211" lon="0.500534">
        <ele>1934.4</ele>
        <time>2025-07-10T11:37:52.240Z</time>
      </trkpt>
      <trkpt lat="42.732261" lon="0.500680">
        <ele>1933.3</ele>
        <time>2025-07-10T11:38:28.039Z</time>
      </trkpt>
      <trkpt lat="42.732429" lon="0.500783">
        <ele>1928.8</ele>
        <time>2025-07-10T11:39:17.075Z</time>
      </trkpt>
      <trkpt lat="42.732781" lon="0.500720">
        <ele>1919.6</ele>
        <time>2025-07-10T11:40:46.940Z</time>
      </trkpt>
      <trkpt lat="42.733097" lon="0.500683">
        <ele>1912.4</ele>
        <time>2025-07-10T11:42:01.130Z</time>
      </trkpt>
      <trkpt lat="42.733336" lon="0.500721">
        <ele>1908.3</ele>
        <time>2025-07-10T11:42:48.956Z</time>
      </trkpt>
      <trkpt lat="42.733621" lon="0.500686">
        <ele>1905.1</ele>
        <time>2025-07-10T11:43:35.171Z</time>
      </trkpt>
      <trkpt lat="42.733867" lon="0.500848">
        <ele>1902.8</ele>
        <time>2025-07-10T11:44:15.433Z</time>
      </trkpt>
      <trkpt lat="42.734095" lon="0.500929">
        <ele>1904.8</ele>
        <time>2025-07-10T11:44:59.572Z</time>
      </trkpt>
      <trkpt lat="42.734338" lon="0.501155">
        <ele>1907.3</ele>
        <time>2025-07-10T11:45:53.296Z</time>
      </trkpt>
      <trkpt lat="42.734609" lon="0.501383">
        <ele>1906.1</ele>
        <time>2025-07-10T11:46:31.208Z</time>
      </trkpt>
      <trkpt lat="42.734847" lon="0.501451">
        <ele>1905.1</ele>
        <time>2025-07-10T11:47:00.182Z</time>
      </trkpt>
      <trkpt lat="42.735107" lon="0.501581">
        <ele>1901.9</ele>
        <time>2025-07-10T11:47:45.834Z</time>
      </trkpt>
      <trkpt lat="42.735450" lon="0.501602">
        <ele>1900.9</ele>
        <time>2025-07-10T11:48:24.776Z</time>
      </trkpt>
      <trkpt lat="42.735670" lon="0.501745">
        <ele>1902.6</ele>
        <time>2025-07-10T11:49:05.618Z</time>
      </trkpt>
      <trkpt lat="42.735981" lon="0.501889">
        <ele>1905.1</ele>
        <time>2025-07-10T11:50:02.459Z</time>
      </trkpt>
      <trkpt lat="42.736290" lon="0.501973">
        <ele>1907.6</ele>
        <time>2025-07-10T11:50:58.291Z</time>
      </trkpt>
      <trkpt lat="42.736608" lon="0.502289">
        <ele>1914.4</ele>
        <time>2025-07-10T11:52:45.675Z</time>
      </trkpt>
      <trkpt lat="42.737048" lon="0.502501">
        <ele>1925.7</ele>
        <time>2025-07-10T11:55:26.861Z</time>
      </trkpt>
      <trkpt lat="42.737218" lon="0.502774">
        <ele>1933.6</ele>
        <time>2025-07-10T11:57:12.563Z</time>
      </trkpt>
      <trkpt lat="42.737462" lon="0.503025">
        <ele>1935.1</ele>
        <time>2025-07-10T11:57:58.604Z</time>
      </trkpt>
      <trkpt lat="42.737730" lon="0.502971">
        <ele>1939.6</ele>
        <time>2025-07-10T11:59:12.777Z</time>
      </trkpt>
      <trkpt lat="42.737869" lon="0.503275">
        <ele>1946.8</ele>
        <time>2025-07-10T12:00:52.336Z</time>
      </trkpt>
      <trkpt lat="42.737659" lon="0.503296">
        <ele>1953.1</ele>
        <time>2025-07-10T12:02:20.239Z</time>
      </trkpt>
      <trkpt lat="42.737830" lon="0.503555">
        <ele>1959.5</ele>
        <time>2025-07-10T12:03:50.854Z</time>
      </trkpt>
      <trkpt lat="42.737651" lon="0.503605">
        <ele>1966.5</ele>
        <time>2025-07-10T12:05:24.979Z</time>
      </trkpt>
      <trkpt lat="42.737834" lon="0.503895">
        <ele>1977.8</ele>
        <time>2025-07-10T12:07:47.880Z</time>
      </trkpt>
      <trkpt lat="42.737911" lon="0.504091">
        <ele>1985.8</ele>
        <time>2025-07-10T12:09:36.129Z</time>
      </trkpt>
      <trkpt lat="42.737641" lon="0.504099">
        <ele>1991.9</ele>
        <time>2025-07-10T12:11:05.067Z</time>
      </trkpt>
      <trkpt lat="42.737838" lon="0.504284">
        <ele>2000.2</ele>
        <time>2025-07-10T12:12:53.781Z</time>
      </trkpt>
      <trkpt lat="42.738122" lon="0.504668">
        <ele>2013.9</ele>
        <time>2025-07-10T12:15:53.561Z</time>
      </trkpt>
      <trkpt lat="42.738427" lon="0.504940">
        <ele>2026.5</ele>
        <time>2025-07-10T12:18:37.387Z</time>
      </trkpt>
      <trkpt lat="42.738667" lon="0.504967">
        <ele>2034.4</ele>
        <time>2025-07-10T12:20:22.863Z</time>
      </trkpt>
      <trkpt lat="42.738950" lon="0.505090">
        <ele>2042.9</ele>
        <time>2025-07-10T12:22:19.150Z</time>
      </trkpt>
      <trkpt lat="42.738961" lon="0.505257">
        <ele>2049.4</ele>
        <time>2025-07-10T12:24:01.895Z</time>
      </trkpt>
      <trkpt lat="42.739371" lon="0.505107">
        <ele>2053.7</ele>
        <time>2025-07-10T12:25:27.621Z</time>
      </trkpt>
      <trkpt lat="42.739846" lon="0.505190">
        <ele>2058.0</ele>
        <time>2025-07-10T12:26:57.148Z</time>
      </trkpt>
      <trkpt lat="42.739636" lon="0.505342">
        <ele>2063.8</ele>
        <time>2025-07-10T12:28:21.489Z</time>
      </trkpt>
      <trkpt lat="42.739999" lon="0.505431">
        <ele>2072.5</ele>
        <time>2025-07-10T12:30:26.114Z</time>
      </trkpt>
      <trkpt lat="42.739955" lon="0.505614">
        <ele>2085.2</ele>
        <time>2025-07-10T12:33:12.197Z</time>
      </trkpt>
      <trkpt lat="42.740301" lon="0.505817">
        <ele>2094.1</ele>
        <time>2025-07-10T12:35:22.748Z</time>
      </trkpt>
      <trkpt lat="42.740672" lon="0.505722">
        <ele>2099.8</ele>
        <time>2025-07-10T12:36:57.315Z</time>
      </trkpt>
      <trkpt lat="42.740803" lon="0.505842">
        <ele>2102.7</ele>
        <time>2025-07-10T12:38:04.174Z</time>
      </trkpt>
      <trkpt lat="42.741023" lon="0.505797">
        <ele>2106.3</ele>
        <time>2025-07-10T12:39:03.864Z</time>
      </trkpt>
      <trkpt lat="42.740809" lon="0.506142">
        <ele>2123.0</ele>
        <time>2025-07-10T12:42:27.962Z</time>
      </trkpt>
      <trkpt lat="42.740582" lon="0.506457">
        <ele>2133.5</ele>
        <time>2025-07-10T12:44:47.066Z</time>
      </trkpt>
      <trkpt lat="42.740992" lon="0.506419">
        <ele>2140.5</ele>
        <time>2025-07-10T12:46:39.475Z</time>
      </trkpt>
      <trkpt lat="42.740945" lon="0.506636">
        <ele>2151.5</ele>
        <time>2025-07-10T12:48:58.162Z</time>
      </trkpt>
      <trkpt lat="42.741092" lon="0.506744">
        <ele>2163.2</ele>
        <time>2025-07-10T12:51:27.078Z</time>
      </trkpt>
      <trkpt lat="42.740904" lon="0.506930">
        <ele>2173.1</ele>
        <time>2025-07-10T12:53:32.214Z</time>
      </trkpt>
      <trkpt lat="42.741154" lon="0.507027">
        <ele>2183.9</ele>
        <time>2025-07-10T12:55:48.142Z</time>
      </trkpt>
      <trkpt lat="42.740973" lon="0.507174">
        <ele>2192.5</ele>
        <time>2025-07-10T12:57:40.249Z</time>
      </trkpt>
      <trkpt lat="42.741405" lon="0.507400">
        <ele>2209.1</ele>
        <time>2025-07-10T13:01:16.070Z</time>
      </trkpt>
      <trkpt lat="42.741683" lon="0.507513">
        <ele>2213.6</ele>
        <time>2025-07-10T13:02:30.368Z</time>
      </trkpt>
      <trkpt lat="42.741415" lon="0.507592">
        <ele>2218.1</ele>
        <time>2025-07-10T13:03:43.475Z</time>
      </trkpt>
      <trkpt lat="42.741201" lon="0.507690">
        <ele>2222.8</ele>
        <time>2025-07-10T13:04:55.168Z</time>
      </trkpt>
      <trkpt lat="42.741459" lon="0.507844">
        <ele>2228.2</ele>
        <time>2025-07-10T13:06:17.867Z</time>
      </trkpt>
      <trkpt lat="42.741741" lon="0.508085">
        <ele>2232.4</ele>
        <time>2025-07-10T13:07:32.667Z</time>
      </trkpt>
      <trkpt lat="42.742086" lon="0.508376">
        <ele>2236.0</ele>
        <time>2025-07-10T13:08:48.243Z</time>
      </trkpt>
      <trkpt lat="42.741817" lon="0.508518">
        <ele>2237.5</ele>
        <time>2025-07-10T13:09:33.095Z</time>
      </trkpt>
      <trkpt lat="42.742161" lon="0.508824">
        <ele>2227.6</ele>
        <time>2025-07-10T13:11:12.925Z</time>
      </trkpt>
      <trkpt lat="42.741876" lon="0.508870">
        <ele>2226.2</ele>
        <time>2025-07-10T13:11:49.425Z</time>
      </trkpt>
      <trkpt lat="42.741721" lon="0.509219">
        <ele>2228.1</ele>
        <time>2025-07-10T13:12:37.688Z</time>
      </trkpt>
      <trkpt lat="42.741545" lon="0.509544">
        <ele>2227.5</ele>
        <time>2025-07-10T13:13:11.031Z</time>
      </trkpt>
      <trkpt lat="42.741329" lon="0.509927">
        <ele>2227.4</ele>
        <time>2025-07-10T13:13:45.896Z</time>
      </trkpt>
      <trkpt lat="42.741280" lon="0.510320">
        <ele>2227.7</ele>
        <time>2025-07-10T13:14:18.562Z</time>
      </trkpt>
      <trkpt lat="42.741363" lon="0.510621">
        <ele>2218.8</ele>
        <time>2025-07-10T13:15:34.350Z</time>
      </trkpt>
      <trkpt lat="42.741450" lon="0.510988">
        <ele>2208.1</ele>
        <time>2025-07-10T13:17:05.646Z</time>
      </trkpt>
      <trkpt lat="42.741506" lon="0.511332">
        <ele>2204.0</ele>
        <time>2025-07-10T13:17:55.828Z</time>
      </trkpt>
      <trkpt lat="42.741565" lon="0.511916">
        <ele>2197.1</ele>
        <time>2025-07-10T13:19:18.472Z</time>
      </trkpt>
      <trkpt lat="42.741579" lon="0.512383">
        <ele>2191.6</ele>
        <time>2025-07-10T13:20:23.872Z</time>
      </trkpt>
      <trkpt lat="42.741660" lon="0.512999">
        <ele>2185.0</ele>
        <time>2025-07-10T13:21:47.435Z</time>
      </trkpt>
      <trkpt lat="42.741793" lon="0.513266">
        <ele>2177.2</ele>
        <time>2025-07-10T13:22:56.488Z</time>
      </trkpt>
      <trkpt lat="42.741867" lon="0.513630">
        <ele>2168.1</ele>
        <time>2025-07-10T13:24:17.587Z</time>
      </trkpt>
      <trkpt lat="42.741940" lon="0.513992">
        <ele>2164.2</ele>
        <time>2025-07-10T13:25:07.770Z</time>
      </trkpt>
      <trkpt lat="42.742017" lon="0.514368">
        <ele>2158.6</ele>
        <time>2025-07-10T13:26:08.752Z</time>
      </trkpt>
      <trkpt lat="42.742141" lon="0.514314">
        <ele>2149.1</ele>
        <time>2025-07-10T13:27:36.102Z</time>
      </trkpt>
      <trkpt lat="42.742275" lon="0.514454">
        <ele>2141.2</ele>
        <time>2025-07-10T13:29:05.082Z</time>
      </trkpt>
      <trkpt lat="42.742356" lon="0.514772">
        <ele>2138.5</ele>
        <time>2025-07-10T13:29:45.211Z</time>
      </trkpt>
      <trkpt lat="42.742536" lon="0.514995">
        <ele>2133.2</ele>
        <time>2025-07-10T13:30:39.828Z</time>
      </trkpt>
      <trkpt lat="42.742764" lon="0.515363">
        <ele>2125.6</ele>
        <time>2025-07-10T13:31:59.283Z</time>
      </trkpt>
      <trkpt lat="42.742967" lon="0.515645">
        <ele>2119.1</ele>
        <time>2025-07-10T13:33:05.973Z</time>
      </trkpt>
      <trkpt lat="42.743288" lon="0.515881">
        <ele>2115.8</ele>
        <time>2025-07-10T13:34:01.458Z</time>
      </trkpt>
      <trkpt lat="42.743575" lon="0.516264">
        <ele>2117.2</ele>
        <time>2025-07-10T13:34:54.619Z</time>
      </trkpt>
      <trkpt lat="42.743906" lon="0.516420">
        <ele>2118.5</ele>
        <time>2025-07-10T13:35:43.003Z</time>
      </trkpt>
      <trkpt lat="42.744124" lon="0.516706">
        <ele>2119.9</ele>
        <time>2025-07-10T13:36:26.289Z</time>
      </trkpt>
      <trkpt lat="42.744362" lon="0.516872">
        <ele>2121.4</ele>
        <time>2025-07-10T13:37:07.968Z</time>
      </trkpt>
      <trkpt lat="42.744570" lon="0.517060">
        <ele>2123.7</ele>
        <time>2025-07-10T13:37:57.287Z</time>
      </trkpt>
      <trkpt lat="42.744853" lon="0.517172">
        <ele>2127.3</ele>
        <time>2025-07-10T13:39:04.349Z</time>
      </trkpt>
      <trkpt lat="42.745093" lon="0.517369">
        <ele>2131.1</ele>
        <time>2025-07-10T13:40:10.309Z</time>
      </trkpt>
      <trkpt lat="42.745318" lon="0.517512">
        <ele>2135.7</ele>
        <time>2025-07-10T13:41:22.034Z</time>
      </trkpt>
      <trkpt lat="42.745499" lon="0.517739">
        <ele>2143.6</ele>
        <time>2025-07-10T13:43:08.123Z</time>
      </trkpt>
      <trkpt lat="42.745638" lon="0.518093">
        <ele>2151.8</ele>
        <time>2025-07-10T13:45:01.078Z</time>
      </trkpt>
      <trkpt lat="42.745864" lon="0.518431">
        <ele>2157.5</ele>
        <time>2025-07-10T13:46:31.227Z</time>
      </trkpt>
      <trkpt lat="42.746099" lon="0.518612">
        <ele>2159.8</ele>
        <time>2025-07-10T13:47:23.043Z</time>
      </trkpt>
      <trkpt lat="42.746342" lon="0.518721">
        <ele>2161.0</ele>
        <time>2025-07-10T13:48:00.306Z</time>
      </trkpt>
      <trkpt lat="42.746632" lon="0.518762">
        <ele>2158.9</ele>
        <time>2025-07-10T13:48:42.854Z</time>
      </trkpt>
      <trkpt lat="42.746836" lon="0.518748">
        <ele>2159.9</ele>
        <time>2025-07-10T13:49:13.901Z</time>
      </trkpt>
      <trkpt lat="42.746613" lon="0.519125">
        <ele>2169.2</ele>
        <time>2025-07-10T13:51:23.632Z</time>
      </trkpt>
      <trkpt lat="42.746411" lon="0.519450">
        <ele>2175.1</ele>
        <time>2025-07-10T13:52:54.279Z</time>
      </trkpt>
      <trkpt lat="42.746616" lon="0.519440">
        <ele>2177.7</ele>
        <time>2025-07-10T13:53:43.699Z</time>
      </trkpt>
      <trkpt lat="42.746432" lon="0.519689">
        <ele>2177.9</ele>
        <time>2025-07-10T13:54:10.875Z</time>
      </trkpt>
      <trkpt lat="42.746774" lon="0.519579">
        <ele>2174.0</ele>
        <time>2025-07-10T13:55:09.377Z</time>
      </trkpt>
      <trkpt lat="42.746799" lon="0.519909">
        <ele>2179.0</ele>
        <time>2025-07-10T13:56:30.058Z</time>
      </trkpt>
      <trkpt lat="42.746840" lon="0.520234">
        <ele>2183.5</ele>
        <time>2025-07-10T13:57:39.072Z</time>
      </trkpt>
      <trkpt lat="42.746758" lon="0.520612">
        <ele>2190.0</ele>
        <time>2025-07-10T13:59:14.416Z</time>
      </trkpt>
      <trkpt lat="42.746812" lon="0.520995">
        <ele>2194.0</ele>
        <time>2025-07-10T14:00:23.299Z</time>
      </trkpt>
      <trkpt lat="42.746751" lon="0.521364">
        <ele>2196.8</ele>
        <time>2025-07-10T14:01:25.995Z</time>
      </trkpt>
      <trkpt lat="42.746493" lon="0.521512">
        <ele>2195.9</ele>
        <time>2025-07-10T14:01:58.813Z</time>
      </trkpt>
      <trkpt lat="42.746747" lon="0.521578">
        <ele>2195.1</ele>
        <time>2025-07-10T14:02:30.941Z</time>
      </trkpt>
      <trkpt lat="42.747053" lon="0.521613">
        <ele>2185.6</ele>
        <time>2025-07-10T14:03:57.401Z</time>
      </trkpt>
      <trkpt lat="42.746982" lon="0.521872">
        <ele>2181.1</ele>
        <time>2025-07-10T14:04:51.441Z</time>
      </trkpt>
      <trkpt lat="42.746807" lon="0.522196">
        <ele>2183.2</ele>
        <time>2025-07-10T14:05:42.121Z</time>
      </trkpt>
      <trkpt lat="42.746716" lon="0.522537">
        <ele>2182.0</ele>
        <time>2025-07-10T14:06:15.150Z</time>
      </trkpt>
      <trkpt lat="42.746886" lon="0.522888">
        <ele>2175.2</ele>
        <time>2025-07-10T14:07:25.450Z</time>
      </trkpt>
      <trkpt lat="42.747082" lon="0.523134">
        <ele>2168.5</ele>
        <time>2025-07-10T14:08:31.886Z</time>
      </trkpt>
      <trkpt lat="42.747177" lon="0.523439">
        <ele>2162.3</ele>
        <time>2025-07-10T14:09:32.405Z</time>
      </trkpt>
      <trkpt lat="42.747306" lon="0.523730">
        <ele>2155.9</ele>
        <time>2025-07-10T14:10:34.191Z</time>
      </trkpt>
      <trkpt lat="42.747380" lon="0.524057">
        <ele>2152.5</ele>
        <time>2025-07-10T14:11:19.031Z</time>
      </trkpt>
      <trkpt lat="42.747523" lon="0.524361">
        <ele>2149.6</ele>
        <time>2025-07-10T14:12:01.949Z</time>
      </trkpt>
      <trkpt lat="42.747623" lon="0.524670">
        <ele>2149.1</ele>
        <time>2025-07-10T14:12:28.959Z</time>
      </trkpt>
      <trkpt lat="42.747872" lon="0.524853">
        <ele>2148.8</ele>
        <time>2025-07-10T14:12:57.498Z</time>
      </trkpt>
      <trkpt lat="42.748065" lon="0.525052">
        <ele>2148.9</ele>
        <time>2025-07-10T14:13:21.713Z</time>
      </trkpt>
      <trkpt lat="42.748344" lon="0.525320">
        <ele>2149.2</ele>
        <time>2025-07-10T14:13:57.243Z</time>
      </trkpt>
      <trkpt lat="42.748690" lon="0.525603">
        <ele>2149.7</ele>
        <time>2025-07-10T14:14:40.923Z</time>
      </trkpt>
      <trkpt lat="42.748915" lon="0.525683">
        <ele>2150.8</ele>
        <time>2025-07-10T14:15:14.728Z</time>
      </trkpt>
      <trkpt lat="42.749153" lon="0.525828">
        <ele>2152.0</ele>
        <time>2025-07-10T14:15:52.887Z</time>
      </trkpt>
      <trkpt lat="42.749422" lon="0.525899">
        <ele>2149.3</ele>
        <time>2025-07-10T14:16:35.810Z</time>
      </trkpt>
      <trkpt lat="42.749725" lon="0.525832">
        <ele>2144.6</ele>
        <time>2025-07-10T14:17:33.782Z</time>
      </trkpt>
      <trkpt lat="42.749918" lon="0.525600">
        <ele>2137.1</ele>
        <time>2025-07-10T14:18:44.182Z</time>
      </trkpt>
      <trkpt lat="42.750143" lon="0.525632">
        <ele>2132.5</ele>
        <time>2025-07-10T14:19:33.960Z</time>
      </trkpt>
      <trkpt lat="42.750361" lon="0.525674">
        <ele>2130.0</ele>
        <time>2025-07-10T14:20:14.293Z</time>
      </trkpt>
      <trkpt lat="42.750585" lon="0.525705">
        <ele>2133.1</ele>
        <time>2025-07-10T14:21:10.083Z</time>
      </trkpt>
      <trkpt lat="42.750675" lon="0.526003">
        <ele>2138.6</ele>
        <time>2025-07-10T14:22:30.786Z</time>
      </trkpt>
      <trkpt lat="42.750915" lon="0.526580">
        <ele>2147.8</ele>
        <time>2025-07-10T14:24:52.009Z</time>
      </trkpt>
      <trkpt lat="42.751090" lon="0.527120">
        <ele>2157.9</ele>
        <time>2025-07-10T14:27:17.409Z</time>
      </trkpt>
      <trkpt lat="42.751081" lon="0.527428">
        <ele>2164.1</ele>
        <time>2025-07-10T14:28:42.558Z</time>
      </trkpt>
      <trkpt lat="42.751422" lon="0.527652">
        <ele>2172.8</ele>
        <time>2025-07-10T14:30:48.717Z</time>
      </trkpt>
      <trkpt lat="42.751448" lon="0.527820">
        <ele>2177.1</ele>
        <time>2025-07-10T14:31:59.426Z</time>
      </trkpt>
      <trkpt lat="42.751176" lon="0.527815">
        <ele>2179.9</ele>
        <time>2025-07-10T14:32:54.381Z</time>
      </trkpt>
      <trkpt lat="42.751408" lon="0.527977">
        <ele>2186.8</ele>
        <time>2025-07-10T14:34:29.722Z</time>
      </trkpt>
      <trkpt lat="42.751681" lon="0.528028">
        <ele>2195.3</ele>
        <time>2025-07-10T14:36:24.027Z</time>
      </trkpt>
      <trkpt lat="42.751943" lon="0.528075">
        <ele>2203.4</ele>
        <time>2025-07-10T14:38:12.255Z</time>
      </trkpt>
      <trkpt lat="42.751706" lon="0.528308">
        <ele>2212.4</ele>
        <time>2025-07-10T14:40:12.822Z</time>
      </trkpt>
      <trkpt lat="42.751460" lon="0.528410">
        <ele>2218.6</ele>
        <time>2025-07-10T14:41:40.733Z</time>
      </trkpt>
      <trkpt lat="42.751319" lon="0.528602">
        <ele>2225.9</ele>
        <time>2025-07-10T14:43:24.214Z</time>
      </trkpt>
      <trkpt lat="42.751183" lon="0.528858">
        <ele>2239.7</ele>
        <time>2025-07-10T14:46:35.159Z</time>
      </trkpt>
      <trkpt lat="42.751481" lon="0.528942">
        <ele>2245.2</ele>
        <time>2025-07-10T14:48:01.835Z</time>
      </trkpt>
      <trkpt lat="42.751230" lon="0.529134">
        <ele>2250.4</ele>
        <time>2025-07-10T14:49:22.028Z</time>
      </trkpt>
      <trkpt lat="42.750913" lon="0.529323">
        <ele>2256.5</ele>
        <time>2025-07-10T14:50:58.154Z</time>
      </trkpt>
      <trkpt lat="42.750850" lon="0.529607">
        <ele>2263.2</ele>
        <time>2025-07-10T14:52:28.399Z</time>
      </trkpt>
      <trkpt lat="42.750936" lon="0.529872">
        <ele>2269.9</ele>
        <time>2025-07-10T14:53:59.026Z</time>
      </trkpt>
      <trkpt lat="42.750901" lon="0.530028">
        <ele>2270.1</ele>
        <time>2025-07-10T14:54:24.729Z</time>
      </trkpt>
      <trkpt lat="42.750817" lon="0.530219">
        <ele>2270.4</ele>
        <time>2025-07-10T14:54:58.503Z</time>
      </trkpt>
      <trkpt lat="42.750645" lon="0.530490">
        <ele>2264.4</ele>
        <time>2025-07-10T14:56:02.192Z</time>
      </trkpt>
      <trkpt lat="42.750475" lon="0.530762">
        <ele>2258.8</ele>
        <time>2025-07-10T14:57:01.055Z</time>
      </trkpt>
      <trkpt lat="42.750299" lon="0.531113">
        <ele>2250.8</ele>
        <time>2025-07-10T14:58:19.000Z</time>
      </trkpt>
      <trkpt lat="42.750213" lon="0.531390">
        <ele>2245.1</ele>
        <time>2025-07-10T14:59:15.302Z</time>
      </trkpt>
      <trkpt lat="42.750179" lon="0.531656">
        <ele>2236.9</ele>
        <time>2025-07-10T15:00:26.736Z</time>
      </trkpt>
      <trkpt lat="42.750328" lon="0.532250">
        <ele>2220.6</ele>
        <time>2025-07-10T15:02:49.038Z</time>
      </trkpt>
      <trkpt lat="42.750473" lon="0.532576">
        <ele>2215.5</ele>
        <time>2025-07-10T15:03:46.506Z</time>
      </trkpt>
      <trkpt lat="42.750675" lon="0.532758">
        <ele>2211.1</ele>
        <time>2025-07-10T15:04:36.053Z</time>
      </trkpt>
      <trkpt lat="42.750826" lon="0.533001">
        <ele>2209.1</ele>
        <time>2025-07-10T15:05:10.518Z</time>
      </trkpt>
      <trkpt lat="42.751241" lon="0.533567">
        <ele>2203.9</ele>
        <time>2025-07-10T15:06:37.342Z</time>
      </trkpt>
      <trkpt lat="42.751343" lon="0.533947">
        <ele>2196.8</ele>
        <time>2025-07-10T15:07:48.486Z</time>
      </trkpt>
      <trkpt lat="42.751367" lon="0.534524">
        <ele>2186.6</ele>
        <time>2025-07-10T15:09:30.322Z</time>
      </trkpt>
      <trkpt lat="42.751208" lon="0.534763">
        <ele>2178.3</ele>
        <time>2025-07-10T15:10:45.964Z</time>
      </trkpt>
      <trkpt lat="42.750980" lon="0.534654">
        <ele>2170.7</ele>
        <time>2025-07-10T15:11:56.311Z</time>
      </trkpt>
      <trkpt lat="42.750817" lon="0.534349">
        <ele>2170.4</ele>
        <time>2025-07-10T15:12:24.629Z</time>
      </trkpt>
      <trkpt lat="42.750695" lon="0.534375">
        <ele>2167.4</ele>
        <time>2025-07-10T15:13:10.789Z</time>
      </trkpt>
      <trkpt lat="42.750588" lon="0.534929">
        <ele>2156.5</ele>
        <time>2025-07-10T15:14:56.501Z</time>
      </trkpt>
      <trkpt lat="42.750582" lon="0.535335">
        <ele>2149.7</ele>
        <time>2025-07-10T15:16:06.098Z</time>
      </trkpt>
      <trkpt lat="42.750687" lon="0.535743">
        <ele>2142.6</ele>
        <time>2025-07-10T15:17:18.816Z</time>
      </trkpt>
      <trkpt lat="42.750826" lon="0.536033">
        <ele>2138.9</ele>
        <time>2025-07-10T15:18:05.305Z</time>
      </trkpt>
      <trkpt lat="42.751017" lon="0.536247">
        <ele>2135.3</ele>
        <time>2025-07-10T15:18:50.606Z</time>
      </trkpt>
      <trkpt lat="42.751215" lon="0.536433">
        <ele>2134.5</ele>
        <time>2025-07-10T15:19:19.732Z</time>
      </trkpt>
      <trkpt lat="42.751403" lon="0.536829">
        <ele>2133.4</ele>
        <time>2025-07-10T15:19:59.557Z</time>
      </trkpt>
      <trkpt lat="42.751521" lon="0.537362">
        <ele>2120.2</ele>
        <time>2025-07-10T15:21:57.760Z</time>
      </trkpt>
      <trkpt lat="42.751489" lon="0.537689">
        <ele>2110.2</ele>
        <time>2025-07-10T15:23:20.880Z</time>
      </trkpt>
      <trkpt lat="42.751468" lon="0.538195">
        <ele>2092.7</ele>
        <time>2025-07-10T15:25:41.481Z</time>
      </trkpt>
      <trkpt lat="42.751290" lon="0.538376">
        <ele>2082.1</ele>
        <time>2025-07-10T15:27:12.266Z</time>
      </trkpt>
      <trkpt lat="42.751355" lon="0.538680">
        <ele>2074.6</ele>
        <time>2025-07-10T15:28:20.012Z</time>
      </trkpt>
      <trkpt lat="42.751464" lon="0.538952">
        <ele>2070.7</ele>
        <time>2025-07-10T15:29:07.018Z</time>
      </trkpt>
      <trkpt lat="42.751576" lon="0.539172">
        <ele>2066.3</ele>
        <time>2025-07-10T15:30:01.706Z</time>
      </trkpt>
      <trkpt lat="42.751823" lon="0.539489">
        <ele>2064.9</ele>
        <time>2025-07-10T15:30:41.861Z</time>
      </trkpt>
      <trkpt lat="42.751919" lon="0.539795">
        <ele>2062.4</ele>
        <time>2025-07-10T15:31:20.191Z</time>
      </trkpt>
      <trkpt lat="42.752029" lon="0.540255">
        <ele>2052.9</ele>
        <time>2025-07-10T15:32:51.647Z</time>
      </trkpt>
      <trkpt lat="42.752161" lon="0.540577">
        <ele>2049.4</ele>
        <time>2025-07-10T15:33:38.166Z</time>
      </trkpt>
      <trkpt lat="42.751959" lon="0.540273">
        <ele>2049.2</ele>
        <time>2025-07-10T15:34:08.498Z</time>
      </trkpt>
      <trkpt lat="42.751782" lon="0.540069">
        <ele>2046.0</ele>
        <time>2025-07-10T15:34:50.356Z</time>
      </trkpt>
      <trkpt lat="42.751550" lon="0.539949">
        <ele>2042.5</ele>
        <time>2025-07-10T15:35:35.116Z</time>
      </trkpt>
      <trkpt lat="42.751649" lon="0.540241">
        <ele>2036.8</ele>
        <time>2025-07-10T15:36:31.725Z</time>
      </trkpt>
      <trkpt lat="42.751710" lon="0.540678">
        <ele>2028.9</ele>
        <time>2025-07-10T15:37:50.223Z</time>
      </trkpt>
      <trkpt lat="42.751766" lon="0.541094">
        <ele>2023.6</ele>
        <time>2025-07-10T15:38:51.532Z</time>
      </trkpt>
      <trkpt lat="42.751717" lon="0.541149">
        <ele>2019.2</ele>
        <time>2025-07-10T15:39:42.533Z</time>
      </trkpt>
      <trkpt lat="42.751469" lon="0.540903">
        <ele>2016.6</ele>
        <time>2025-07-10T15:40:28.222Z</time>
      </trkpt>
      <trkpt lat="42.751182" lon="0.540772">
        <ele>2016.0</ele>
        <time>2025-07-10T15:41:01.659Z</time>
      </trkpt>
      <trkpt lat="42.750991" lon="0.541065">
        <ele>2017.1</ele>
        <time>2025-07-10T15:41:40.440Z</time>
      </trkpt>
      <trkpt lat="42.750912" lon="0.541377">
        <ele>2015.3</ele>
        <time>2025-07-10T15:42:14.184Z</time>
      </trkpt>
      <trkpt lat="42.750774" lon="0.541917">
        <ele>2008.2</ele>
        <time>2025-07-10T15:43:39.822Z</time>
      </trkpt>
      <trkpt lat="42.750800" lon="0.542391">
        <ele>2001.2</ele>
        <time>2025-07-10T15:44:55.279Z</time>
      </trkpt>
      <trkpt lat="42.750959" lon="0.542635">
        <ele>1995.1</ele>
        <time>2025-07-10T15:46:10.439Z</time>
      </trkpt>
      <trkpt lat="42.750987" lon="0.543049">
        <ele>1979.3</ele>
        <time>2025-07-10T15:48:14.800Z</time>
      </trkpt>
      <trkpt lat="42.750969" lon="0.543375">
        <ele>1968.3</ele>
        <time>2025-07-10T15:49:43.886Z</time>
      </trkpt>
      <trkpt lat="42.750757" lon="0.543261">
        <ele>1961.6</ele>
        <time>2025-07-10T15:50:45.483Z</time>
      </trkpt>
      <trkpt lat="42.750747" lon="0.543428">
        <ele>1950.8</ele>
        <time>2025-07-10T15:52:19.615Z</time>
      </trkpt>
      <trkpt lat="42.750766" lon="0.543707">
        <ele>1932.8</ele>
        <time>2025-07-10T15:54:42.677Z</time>
      </trkpt>
      <trkpt lat="42.750878" lon="0.543950">
        <ele>1921.8</ele>
        <time>2025-07-10T15:56:12.034Z</time>
      </trkpt>
      <trkpt lat="42.751005" lon="0.544084">
        <ele>1910.4</ele>
        <time>2025-07-10T15:57:45.364Z</time>
      </trkpt>
      <trkpt lat="42.751274" lon="0.544263">
        <ele>1901.2</ele>
        <time>2025-07-10T15:59:08.753Z</time>
      </trkpt>
      <trkpt lat="42.751250" lon="0.544513">
        <ele>1896.7</ele>
        <time>2025-07-10T15:59:59.844Z</time>
      </trkpt>
      <trkpt lat="42.751324" lon="0.544904">
        <ele>1896.8</ele>
        <time>2025-07-10T16:00:29.327Z</time>
      </trkpt>
      <trkpt lat="42.751417" lon="0.545312">
        <ele>1897.0</ele>
        <time>2025-07-10T16:01:00.886Z</time>
      </trkpt>
      <trkpt lat="42.751571" lon="0.545755">
        <ele>1897.2</ele>
        <time>2025-07-10T16:01:37.768Z</time>
      </trkpt>
      <trkpt lat="42.751393" lon="0.545833">
        <ele>1896.5</ele>
        <time>2025-07-10T16:02:17.568Z</time>
      </trkpt>
      <trkpt lat="42.751167" lon="0.545895">
        <ele>1896.0</ele>
        <time>2025-07-10T16:02:42.284Z</time>
      </trkpt>
      <trkpt lat="42.751141" lon="0.546185">
        <ele>1889.8</ele>
        <time>2025-07-10T16:03:41.894Z</time>
      </trkpt>
      <trkpt lat="42.751193" lon="0.546583">
        <ele>1882.7</ele>
        <time>2025-07-10T16:04:53.139Z</time>
      </trkpt>
      <trkpt lat="42.751417" lon="0.546479">
        <ele>1879.3</ele>
        <time>2025-07-10T16:05:36.643Z</time>
      </trkpt>
      <trkpt lat="42.751662" lon="0.546866">
        <ele>1870.2</ele>
        <time>2025-07-10T16:07:09.497Z</time>
      </trkpt>
      <trkpt lat="42.751677" lon="0.547073">
        <ele>1860.9</ele>
        <time>2025-07-10T16:08:34.005Z</time>
      </trkpt>
      <trkpt lat="42.751485" lon="0.547346">
        <ele>1852.5</ele>
        <time>2025-07-10T16:09:50.890Z</time>
      </trkpt>
      <trkpt lat="42.751517" lon="0.547713">
        <ele>1843.7</ele>
        <time>2025-07-10T16:11:09.769Z</time>
      </trkpt>
      <trkpt lat="42.751624" lon="0.548127">
        <ele>1825.9</ele>
        <time>2025-07-10T16:13:41.216Z</time>
      </trkpt>
      <trkpt lat="42.751692" lon="0.548433">
        <ele>1816.1</ele>
        <time>2025-07-10T16:15:05.652Z</time>
      </trkpt>
      <trkpt lat="42.751647" lon="0.548681">
        <ele>1806.9</ele>
        <time>2025-07-10T16:16:24.351Z</time>
      </trkpt>
      <trkpt lat="42.751628" lon="0.549025">
        <ele>1800.3</ele>
        <time>2025-07-10T16:17:30.722Z</time>
      </trkpt>
      <trkpt lat="42.751844" lon="0.548921">
        <ele>1794.2</ele>
        <time>2025-07-10T16:18:31.874Z</time>
      </trkpt>
      <trkpt lat="42.751895" lon="0.549106">
        <ele>1787.0</ele>
        <time>2025-07-10T16:19:37.658Z</time>
      </trkpt>
      <trkpt lat="42.751935" lon="0.549362">
        <ele>1777.4</ele>
        <time>2025-07-10T16:21:05.614Z</time>
      </trkpt>
      <trkpt lat="42.752013" lon="0.549518">
        <ele>1770.8</ele>
        <time>2025-07-10T16:22:08.108Z</time>
      </trkpt>
      <trkpt lat="42.752066" lon="0.549681">
        <ele>1764.0</ele>
        <time>2025-07-10T16:23:12.856Z</time>
      </trkpt>
      <trkpt lat="42.752009" lon="0.549972">
        <ele>1757.8</ele>
        <time>2025-07-10T16:24:11.435Z</time>
      </trkpt>
      <trkpt lat="42.751982" lon="0.550366">
        <ele>1749.9</ele>
        <time>2025-07-10T16:25:26.779Z</time>
      </trkpt>
      <trkpt lat="42.752117" lon="0.550274">
        <ele>1743.3</ele>
        <time>2025-07-10T16:26:28.492Z</time>
      </trkpt>
      <trkpt lat="42.752299" lon="0.550180">
        <ele>1736.8</ele>
        <time>2025-07-10T16:27:29.039Z</time>
      </trkpt>
      <trkpt lat="42.752521" lon="0.550275">
        <ele>1729.6</ele>
        <time>2025-07-10T16:28:41.254Z</time>
      </trkpt>
      <trkpt lat="42.752710" lon="0.550491">
        <ele>1725.8</ele>
        <time>2025-07-10T16:29:31.211Z</time>
      </trkpt>
      <trkpt lat="42.752944" lon="0.550843">
        <ele>1725.0</ele>
        <time>2025-07-10T16:30:09.516Z</time>
      </trkpt>
      <trkpt lat="42.753107" lon="0.551094">
        <ele>1721.6</ele>
        <time>2025-07-10T16:30:53.599Z</time>
      </trkpt>
      <trkpt lat="42.753233" lon="0.551435">
        <ele>1717.8</ele>
        <time>2025-07-10T16:31:43.670Z</time>
      </trkpt>
      <trkpt lat="42.753475" lon="0.551799">
        <ele>1721.7</ele>
        <time>2025-07-10T16:32:59.047Z</time>
      </trkpt>
      <trkpt lat="42.753783" lon="0.552307">
        <ele>1725.7</ele>
        <time>2025-07-10T16:34:26.030Z</time>
      </trkpt>
      <trkpt lat="42.754057" lon="0.552770">
        <ele>1728.5</ele>
        <time>2025-07-10T16:35:36.923Z</time>
      </trkpt>
      <trkpt lat="42.754231" lon="0.553000">
        <ele>1733.1</ele>
        <time>2025-07-10T16:36:46.868Z</time>
      </trkpt>
      <trkpt lat="42.754438" lon="0.553193">
        <ele>1737.8</ele>
        <time>2025-07-10T16:37:59.567Z</time>
      </trkpt>
      <trkpt lat="42.754674" lon="0.553849">
        <ele>1734.7</ele>
        <time>2025-07-10T16:39:10.401Z</time>
      </trkpt>
      <trkpt lat="42.754742" lon="0.554152">
        <ele>1732.7</ele>
        <time>2025-07-10T16:39:44.880Z</time>
      </trkpt>
      <trkpt lat="42.754873" lon="0.554577">
        <ele>1729.7</ele>
        <time>2025-07-10T16:40:35.025Z</time>
      </trkpt>
      <trkpt lat="42.755249" lon="0.555061">
        <ele>1736.5</ele>
        <time>2025-07-10T16:42:34.592Z</time>
      </trkpt>
      <trkpt lat="42.755562" lon="0.555347">
        <ele>1741.8</ele>
        <time>2025-07-10T16:44:05.255Z</time>
      </trkpt>
      <trkpt lat="42.755729" lon="0.555632">
        <ele>1743.4</ele>
        <time>2025-07-10T16:44:47.102Z</time>
      </trkpt>
      <trkpt lat="42.755911" lon="0.556105">
        <ele>1740.9</ele>
        <time>2025-07-10T16:45:39.452Z</time>
      </trkpt>
      <trkpt lat="42.756052" lon="0.556443">
        <ele>1744.3</ele>
        <time>2025-07-10T16:46:41.778Z</time>
      </trkpt>
      <trkpt lat="42.756217" lon="0.556711">
        <ele>1747.4</ele>
        <time>2025-07-10T16:47:37.930Z</time>
      </trkpt>
      <trkpt lat="42.756418" lon="0.556959">
        <ele>1750.6</ele>
        <time>2025-07-10T16:48:36.832Z</time>
      </trkpt>
      <trkpt lat="42.756630" lon="0.557207">
        <ele>1753.9</ele>
        <time>2025-07-10T16:49:37.477Z</time>
      </trkpt>
      <trkpt lat="42.756842" lon="0.557317">
        <ele>1757.6</ele>
        <time>2025-07-10T16:50:37.606Z</time>
      </trkpt>
      <trkpt lat="42.757114" lon="0.557597">
        <ele>1756.2</ele>
        <time>2025-07-10T16:51:19.121Z</time>
      </trkpt>
      <trkpt lat="42.757133" lon="0.557994">
        <ele>1743.8</ele>
        <time>2025-07-10T16:53:01.508Z</time>
      </trkpt>
      <trkpt lat="42.757218" lon="0.558504">
        <ele>1727.6</ele>
        <time>2025-07-10T16:55:15.409Z</time>
      </trkpt>
      <trkpt lat="42.757274" lon="0.558854">
        <ele>1724.9</ele>
        <time>2025-07-10T16:55:56.616Z</time>
      </trkpt>
      <trkpt lat="42.757475" lon="0.559253">
        <ele>1721.2</ele>
        <time>2025-07-10T16:56:52.842Z</time>
      </trkpt>
      <trkpt lat="42.757822" lon="0.559384">
        <ele>1733.9</ele>
        <time>2025-07-10T16:59:38.577Z</time>
      </trkpt>
      <trkpt lat="42.758243" lon="0.559526">
        <ele>1749.0</ele>
        <time>2025-07-10T17:02:55.069Z</time>
      </trkpt>
      <trkpt lat="42.758651" lon="0.559770">
        <ele>1764.8</ele>
        <time>2025-07-10T17:06:20.764Z</time>
      </trkpt>
      <trkpt lat="42.758906" lon="0.560278">
        <ele>1771.2</ele>
        <time>2025-07-10T17:08:10.089Z</time>
      </trkpt>
      <trkpt lat="42.759015" lon="0.560683">
        <ele>1773.8</ele>
        <time>2025-07-10T17:09:06.698Z</time>
      </trkpt>
      <trkpt lat="42.759184" lon="0.561219">
        <ele>1777.3</ele>
        <time>2025-07-10T17:10:23.254Z</time>
      </trkpt>
      <trkpt lat="42.759319" lon="0.561519">
        <ele>1784.3</ele>
        <time>2025-07-10T17:11:59.885Z</time>
      </trkpt>
      <trkpt lat="42.759741" lon="0.561997">
        <ele>1799.2</ele>
        <time>2025-07-10T17:15:25.373Z</time>
      </trkpt>
      <trkpt lat="42.760196" lon="0.562639">
        <ele>1803.8</ele>
        <time>2025-07-10T17:17:15.578Z</time>
      </trkpt>
      <trkpt lat="42.760363" lon="0.562863">
        <ele>1806.4</ele>
        <time>2025-07-10T17:18:05.037Z</time>
      </trkpt>
      <trkpt lat="42.760554" lon="0.563207">
        <ele>1810.0</ele>
        <time>2025-07-10T17:19:11.723Z</time>
      </trkpt>
      <trkpt lat="42.760738" lon="0.563705">
        <ele>1809.4</ele>
        <time>2025-07-10T17:19:54.561Z</time>
      </trkpt>
      <trkpt lat="42.760946" lon="0.564313">
        <ele>1808.6</ele>
        <time>2025-07-10T17:20:46.019Z</time>
      </trkpt>
      <trkpt lat="42.761113" lon="0.564784">
        <ele>1810.6</ele>
        <time>2025-07-10T17:21:43.509Z</time>
      </trkpt>
      <trkpt lat="42.761328" lon="0.565074">
        <ele>1815.6</ele>
        <time>2025-07-10T17:23:03.806Z</time>
      </trkpt>
      <trkpt lat="42.761676" lon="0.565584">
        <ele>1830.9</ele>
        <time>2025-07-10T17:26:30.151Z</time>
      </trkpt>
      <trkpt lat="42.761790" lon="0.565913">
        <ele>1832.0</ele>
        <time>2025-07-10T17:27:07.148Z</time>
      </trkpt>
      <trkpt lat="42.761901" lon="0.566198">
        <ele>1833.0</ele>
        <time>2025-07-10T17:27:39.886Z</time>
      </trkpt>
      <trkpt lat="42.762025" lon="0.566529">
        <ele>1832.4</ele>
        <time>2025-07-10T17:28:09.724Z</time>
      </trkpt>
      <trkpt lat="42.762099" lon="0.566795">
        <ele>1832.6</ele>
        <time>2025-07-10T17:28:33.050Z</time>
      </trkpt>
      <trkpt lat="42.762250" lon="0.566474">
        <ele>1837.4</ele>
        <time>2025-07-10T17:29:49.895Z</time>
      </trkpt>
      <trkpt lat="42.762476" lon="0.566455">
        <ele>1841.2</ele>
        <time>2025-07-10T17:30:50.389Z</time>
      </trkpt>
      <trkpt lat="42.762657" lon="0.566678">
        <ele>1838.2</ele>
        <time>2025-07-10T17:31:38.204Z</time>
      </trkpt>
      <trkpt lat="42.762921" lon="0.567232">
        <ele>1829.1</ele>
        <time>2025-07-10T17:33:18.920Z</time>
      </trkpt>
      <trkpt lat="42.763011" lon="0.567573">
        <ele>1824.5</ele>
        <time>2025-07-10T17:34:12.209Z</time>
      </trkpt>
      <trkpt lat="42.762934" lon="0.568371">
        <ele>1823.9</ele>
        <time>2025-07-10T17:35:11.825Z</time>
      </trkpt>
      <trkpt lat="42.762908" lon="0.568722">
        <ele>1822.4</ele>
        <time>2025-07-10T17:35:45.634Z</time>
      </trkpt>
      <trkpt lat="42.762998" lon="0.569450">
        <ele>1819.2</ele>
        <time>2025-07-10T17:36:56.561Z</time>
      </trkpt>
      <trkpt lat="42.763082" lon="0.569784">
        <ele>1817.0</ele>
        <time>2025-07-10T17:37:34.884Z</time>
      </trkpt>
      <trkpt lat="42.763275" lon="0.570212">
        <ele>1813.7</ele>
        <time>2025-07-10T17:38:29.422Z</time>
      </trkpt>
      <trkpt lat="42.763351" lon="0.570573">
        <ele>1811.9</ele>
        <time>2025-07-10T17:39:06.690Z</time>
      </trkpt>
      <trkpt lat="42.763353" lon="0.570973">
        <ele>1810.0</ele>
        <time>2025-07-10T17:39:46.045Z</time>
      </trkpt>
      <trkpt lat="42.763251" lon="0.571882">
        <ele>1810.3</ele>
        <time>2025-07-10T17:40:52.581Z</time>
      </trkpt>
      <trkpt lat="42.763243" lon="0.572550">
        <ele>1806.0</ele>
        <time>2025-07-10T17:42:05.036Z</time>
      </trkpt>
      <trkpt lat="42.763295" lon="0.573517">
        <ele>1798.5</ele>
        <time>2025-07-10T17:43:57.950Z</time>
      </trkpt>
      <trkpt lat="42.763324" lon="0.573901">
        <ele>1797.0</ele>
        <time>2025-07-10T17:44:33.722Z</time>
      </trkpt>
      <trkpt lat="42.763379" lon="0.574256">
        <ele>1795.7</ele>
        <time>2025-07-10T17:45:07.180Z</time>
      </trkpt>
      <trkpt lat="42.763206" lon="0.574697">
        <ele>1799.4</ele>
        <time>2025-07-10T17:46:20.940Z</time>
      </trkpt>
      <trkpt lat="42.763055" lon="0.575356">
        <ele>1804.5</ele>
        <time>2025-07-10T17:48:01.683Z</time>
      </trkpt>
      <trkpt lat="42.763095" lon="0.576008">
        <ele>1807.5</ele>
        <time>2025-07-10T17:49:18.916Z</time>
      </trkpt>
      <trkpt lat="42.763207" lon="0.576313">
        <ele>1806.4</ele>
        <time>2025-07-10T17:49:49.162Z</time>
      </trkpt>
      <trkpt lat="42.763360" lon="0.576612">
        <ele>1805.3</ele>
        <time>2025-07-10T17:50:21.647Z</time>
      </trkpt>
      <trkpt lat="42.764026" lon="0.576705">
        <ele>1793.0</ele>
        <time>2025-07-10T17:52:39.346Z</time>
      </trkpt>
      <trkpt lat="42.764371" lon="0.576693">
        <ele>1787.2</ele>
        <time>2025-07-10T17:53:47.354Z</time>
      </trkpt>
      <trkpt lat="42.765612" lon="0.576062">
        <ele>1773.0</ele>
        <time>2025-07-10T17:57:19.139Z</time>
      </trkpt>
      <trkpt lat="42.765918" lon="0.576007">
        <ele>1773.3</ele>
        <time>2025-07-10T17:57:51.786Z</time>
      </trkpt>
      <trkpt lat="42.766189" lon="0.576035">
        <ele>1773.6</ele>
        <time>2025-07-10T17:58:20.654Z</time>
      </trkpt>
      <trkpt lat="42.766565" lon="0.576131">
        <ele>1773.6</ele>
        <time>2025-07-10T17:58:57.247Z</time>
      </trkpt>
      <trkpt lat="42.767050" lon="0.575613">
        <ele>1773.6</ele>
        <time>2025-07-10T17:59:56.136Z</time>
      </trkpt>
      <trkpt lat="42.767357" lon="0.575245">
        <ele>1767.6</ele>
        <time>2025-07-10T18:01:10.865Z</time>
      </trkpt>
      <trkpt lat="42.767499" lon="0.574956">
        <ele>1761.7</ele>
        <time>2025-07-10T18:02:10.451Z</time>
      </trkpt>
      <trkpt lat="42.767650" lon="0.574591">
        <ele>1752.6</ele>
        <time>2025-07-10T18:03:34.787Z</time>
      </trkpt>
      <trkpt lat="42.768031" lon="0.574066">
        <ele>1736.4</ele>
        <time>2025-07-10T18:06:03.529Z</time>
      </trkpt>
      <trkpt lat="42.768317" lon="0.573698">
        <ele>1717.3</ele>
        <time>2025-07-10T18:08:35.341Z</time>
      </trkpt>
      <trkpt lat="42.768572" lon="0.573495">
        <ele>1706.9</ele>
        <time>2025-07-10T18:10:06.849Z</time>
      </trkpt>
      <trkpt lat="42.769020" lon="0.573358">
        <ele>1693.5</ele>
        <time>2025-07-10T18:12:10.597Z</time>
      </trkpt>
      <trkpt lat="42.769260" lon="0.573226">
        <ele>1686.9</ele>
        <time>2025-07-10T18:13:15.184Z</time>
      </trkpt>
      <trkpt lat="42.769830" lon="0.572715">
        <ele>1670.5</ele>
        <time>2025-07-10T18:15:59.100Z</time>
      </trkpt>
      <trkpt lat="42.770155" lon="0.572368">
        <ele>1661.3</ele>
        <time>2025-07-10T18:17:33.313Z</time>
      </trkpt>
      <trkpt lat="42.770452" lon="0.571943">
        <ele>1651.9</ele>
        <time>2025-07-10T18:19:11.028Z</time>
      </trkpt>
      <trkpt lat="42.770512" lon="0.571394">
        <ele>1640.6</ele>
        <time>2025-07-10T18:20:57.518Z</time>
      </trkpt>
      <trkpt lat="42.770796" lon="0.570943">
        <ele>1631.2</ele>
        <time>2025-07-10T18:22:35.565Z</time>
      </trkpt>
      <trkpt lat="42.771056" lon="0.570782">
        <ele>1626.3</ele>
        <time>2025-07-10T18:23:32.796Z</time>
      </trkpt>
      <trkpt lat="42.771280" lon="0.570812">
        <ele>1625.2</ele>
        <time>2025-07-10T18:24:00.672Z</time>
      </trkpt>
      <trkpt lat="42.771684" lon="0.571596">
        <ele>1621.9</ele>
        <time>2025-07-10T18:25:27.693Z</time>
      </trkpt>
      <trkpt lat="42.771979" lon="0.572216">
        <ele>1612.5</ele>
        <time>2025-07-10T18:27:15.606Z</time>
      </trkpt>
      <trkpt lat="42.772002" lon="0.571163">
        <ele>1600.6</ele>
        <time>2025-07-10T18:29:52.549Z</time>
      </trkpt>
      <trkpt lat="42.772459" lon="0.571619">
        <ele>1574.5</ele>
        <time>2025-07-10T18:33:32.566Z</time>
      </trkpt>
      <trkpt lat="42.773041" lon="0.572766">
        <ele>1545.4</ele>
        <time>2025-07-10T18:38:04.612Z</time>
      </trkpt>
      <trkpt lat="42.773599" lon="0.573853">
        <ele>1528.5</ele>
        <time>2025-07-10T18:41:18.747Z</time>
      </trkpt>
      <trkpt lat="42.773730" lon="0.573574">
        <ele>1524.8</ele>
        <time>2025-07-10T18:42:09.145Z</time>
      </trkpt>
      <trkpt lat="42.773512" lon="0.572922">
        <ele>1518.3</ele>
        <time>2025-07-10T18:43:38.423Z</time>
      </trkpt>
      <trkpt lat="42.774635" lon="0.574398">
        <ele>1486.6</ele>
        <time>2025-07-10T18:49:22.384Z</time>
      </trkpt>
      <trkpt lat="42.774421" lon="0.573676">
        <ele>1483.0</ele>
        <time>2025-07-10T18:50:42.532Z</time>
      </trkpt>
      <trkpt lat="42.774381" lon="0.573376">
        <ele>1477.8</ele>
        <time>2025-07-10T18:51:35.294Z</time>
      </trkpt>
      <trkpt lat="42.774789" lon="0.573756">
        <ele>1466.1</ele>
        <time>2025-07-10T18:53:34.261Z</time>
      </trkpt>
      <trkpt lat="42.775004" lon="0.574226">
        <ele>1466.9</ele>
        <time>2025-07-10T18:54:21.162Z</time>
      </trkpt>
      <trkpt lat="42.775177" lon="0.574968">
        <ele>1468.0</ele>
        <time>2025-07-10T18:55:27.071Z</time>
      </trkpt>
      <trkpt lat="42.775447" lon="0.575677">
        <ele>1456.9</ele>
        <time>2025-07-10T18:57:29.467Z</time>
      </trkpt>
      <trkpt lat="42.775643" lon="0.575931">
        <ele>1453.8</ele>
        <time>2025-07-10T18:58:13.659Z</time>
      </trkpt>
      <trkpt lat="42.775847" lon="0.576490">
        <ele>1448.6</ele>
        <time>2025-07-10T18:59:28.555Z</time>
      </trkpt>
      <trkpt lat="42.776221" lon="0.576639">
        <ele>1435.5</ele>
        <time>2025-07-10T19:01:25.306Z</time>
      </trkpt>
      <trkpt lat="42.776521" lon="0.576726">
        <ele>1425.3</ele>
        <time>2025-07-10T19:02:55.593Z</time>
      </trkpt>
      <trkpt lat="42.776747" lon="0.576967">
        <ele>1427.8</ele>
        <time>2025-07-10T19:03:48.957Z</time>
      </trkpt>
      <trkpt lat="42.776957" lon="0.577165">
        <ele>1430.0</ele>
        <time>2025-07-10T19:04:36.060Z</time>
      </trkpt>
      <trkpt lat="42.777466" lon="0.577435">
        <ele>1428.9</ele>
        <time>2025-07-10T19:05:35.845Z</time>
      </trkpt>
      <trkpt lat="42.777944" lon="0.577500">
        <ele>1424.6</ele>
        <time>2025-07-10T19:06:47.840Z</time>
      </trkpt>
      <trkpt lat="42.778406" lon="0.577487">
        <ele>1416.5</ele>
        <time>2025-07-10T19:08:20.315Z</time>
      </trkpt>
      <trkpt lat="42.778635" lon="0.577531">
        <ele>1410.5</ele>
        <time>2025-07-10T19:09:18.111Z</time>
      </trkpt>
      <trkpt lat="42.778682" lon="0.576767">
        <ele>1396.0</ele>
        <time>2025-07-10T19:11:39.576Z</time>
      </trkpt>
      <trkpt lat="42.778677" lon="0.576456">
        <ele>1388.9</ele>
        <time>2025-07-10T19:12:43.755Z</time>
      </trkpt>
      <trkpt lat="42.778642" lon="0.576133">
        <ele>1381.4</ele>
        <time>2025-07-10T19:13:52.026Z</time>
      </trkpt>
      <trkpt lat="42.778992" lon="0.576022">
        <ele>1375.0</ele>
        <time>2025-07-10T19:15:05.221Z</time>
      </trkpt>
      <trkpt lat="42.779206" lon="0.576258">
        <ele>1369.3</ele>
        <time>2025-07-10T19:16:10.391Z</time>
      </trkpt>
      <trkpt lat="42.779485" lon="0.576444">
        <ele>1363.6</ele>
        <time>2025-07-10T19:17:14.055Z</time>
      </trkpt>
      <trkpt lat="42.779645" lon="0.576852">
        <ele>1357.5</ele>
        <time>2025-07-10T19:18:22.991Z</time>
      </trkpt>
      <trkpt lat="42.779682" lon="0.577694">
        <ele>1361.9</ele>
        <time>2025-07-10T19:20:06.857Z</time>
      </trkpt>
      <trkpt lat="42.779730" lon="0.578080">
        <ele>1355.4</ele>
        <time>2025-07-10T19:21:13.018Z</time>
      </trkpt>
      <trkpt lat="42.779953" lon="0.577245">
        <ele>1339.9</ele>
        <time>2025-07-10T19:23:52.490Z</time>
      </trkpt>
      <trkpt lat="42.780185" lon="0.576648">
        <ele>1318.5</ele>
        <time>2025-07-10T19:26:48.190Z</time>
      </trkpt>
      <trkpt lat="42.780259" lon="0.576353">
        <ele>1318.1</ele>
        <time>2025-07-10T19:27:12.454Z</time>
      </trkpt>
      <trkpt lat="42.780180" lon="0.575926">
        <ele>1317.5</ele>
        <time>2025-07-10T19:27:47.309Z</time>
      </trkpt>
      <trkpt lat="42.780085" lon="0.575643">
        <ele>1317.2</ele>
        <time>2025-07-10T19:28:11.142Z</time>
      </trkpt>
      <trkpt lat="42.780116" lon="0.575154">
        <ele>1316.6</ele>
        <time>2025-07-10T19:28:48.886Z</time>
      </trkpt>
      <trkpt lat="42.780414" lon="0.575173">
        <ele>1305.5</ele>
        <time>2025-07-10T19:30:29.557Z</time>
      </trkpt>
      <trkpt lat="42.780681" lon="0.575605">
        <ele>1294.6</ele>
        <time>2025-07-10T19:32:15.622Z</time>
      </trkpt>
      <trkpt lat="42.780721" lon="0.575919">
        <ele>1289.7</ele>
        <time>2025-07-10T19:33:07.244Z</time>
      </trkpt>
      <trkpt lat="42.780850" lon="0.576573">
        <ele>1279.3</ele>
        <time>2025-07-10T19:34:57.358Z</time>
      </trkpt>
      <trkpt lat="42.780938" lon="0.577064">
        <ele>1267.2</ele>
        <time>2025-07-10T19:36:45.777Z</time>
      </trkpt>
      <trkpt lat="42.781018" lon="0.577358">
        <ele>1259.8</ele>
        <time>2025-07-10T19:37:51.824Z</time>
      </trkpt>
      <trkpt lat="42.780848" lon="0.577807">
        <ele>1262.0</ele>
        <time>2025-07-10T19:38:49.984Z</time>
      </trkpt>
      <trkpt lat="42.780923" lon="0.578397">
        <ele>1260.9</ele>
        <time>2025-07-10T19:39:38.883Z</time>
      </trkpt>
      <trkpt lat="42.780882" lon="0.578968">
        <ele>1256.9</ele>
        <time>2025-07-10T19:40:42.536Z</time>
      </trkpt>
      <trkpt lat="42.781064" lon="0.579556">
        <ele>1241.3</ele>
        <time>2025-07-10T19:43:01.072Z</time>
      </trkpt>
      <trkpt lat="42.781028" lon="0.579975">
        <ele>1239.9</ele>
        <time>2025-07-10T19:43:39.627Z</time>
      </trkpt>
      <trkpt lat="42.780968" lon="0.580640">
        <ele>1236.0</ele>
        <time>2025-07-10T19:44:50.137Z</time>
      </trkpt>
      <trkpt lat="42.780879" lon="0.581191">
        <ele>1233.3</ele>
        <time>2025-07-10T19:45:45.712Z</time>
      </trkpt>
      <trkpt lat="42.780717" lon="0.581669">
        <ele>1232.1</ele>
        <time>2025-07-10T19:46:29.897Z</time>
      </trkpt>
      <trkpt lat="42.780445" lon="0.582105">
        <ele>1231.6</ele>
        <time>2025-07-10T19:47:12.882Z</time>
      </trkpt>
      <trkpt lat="42.780265" lon="0.582420">
        <ele>1230.0</ele>
        <time>2025-07-10T19:47:50.691Z</time>
      </trkpt>
      <trkpt lat="42.780040" lon="0.582743">
        <ele>1227.5</ele>
        <time>2025-07-10T19:48:36.590Z</time>
      </trkpt>
      <trkpt lat="42.780299" lon="0.582665">
        <ele>1222.0</ele>
        <time>2025-07-10T19:49:38.773Z</time>
      </trkpt>
      <trkpt lat="42.780687" lon="0.582510">
        <ele>1216.2</ele>
        <time>2025-07-10T19:50:52.497Z</time>
      </trkpt>
      <trkpt lat="42.781230" lon="0.582087">
        <ele>1209.5</ele>
        <time>2025-07-10T19:52:33.570Z</time>
      </trkpt>
      <trkpt lat="42.781483" lon="0.581794">
        <ele>1204.7</ele>
        <time>2025-07-10T19:53:33.831Z</time>
      </trkpt>
      <trkpt lat="42.781796" lon="0.581647">
        <ele>1199.5</ele>
        <time>2025-07-10T19:54:37.378Z</time>
      </trkpt>
      <trkpt lat="42.781954" lon="0.581384">
        <ele>1195.4</ele>
        <time>2025-07-10T19:55:25.524Z</time>
      </trkpt>
      <trkpt lat="42.782231" lon="0.581140">
        <ele>1187.1</ele>
        <time>2025-07-10T19:56:47.529Z</time>
      </trkpt>
      <trkpt lat="42.782441" lon="0.581258">
        <ele>1182.1</ele>
        <time>2025-07-10T19:57:40.785Z</time>
      </trkpt>
      <trkpt lat="42.782411" lon="0.581599">
        <ele>1179.4</ele>
        <time>2025-07-10T19:58:21.475Z</time>
      </trkpt>
      <trkpt lat="42.782206" lon="0.581881">
        <ele>1175.7</ele>
        <time>2025-07-10T19:59:11.931Z</time>
      </trkpt>
      <trkpt lat="42.782518" lon="0.581850">
        <ele>1168.3</ele>
        <time>2025-07-10T20:00:30.014Z</time>
      </trkpt>
      <trkpt lat="42.782789" lon="0.581741">
        <ele>1162.6</ele>
        <time>2025-07-10T20:01:31.473Z</time>
      </trkpt>
      <trkpt lat="42.782987" lon="0.581335">
        <ele>1158.1</ele>
        <time>2025-07-10T20:02:32.517Z</time>
      </trkpt>
      <trkpt lat="42.783137" lon="0.581476">
        <ele>1155.2</ele>
        <time>2025-07-10T20:03:11.730Z</time>
      </trkpt>
      <trkpt lat="42.783078" lon="0.581936">
        <ele>1150.8</ele>
        <time>2025-07-10T20:04:11.585Z</time>
      </trkpt>
      <trkpt lat="42.783097" lon="0.582121">
        <ele>1146.9</ele>
        <time>2025-07-10T20:04:59.195Z</time>
      </trkpt>
      <trkpt lat="42.783330" lon="0.581915">
        <ele>1141.6</ele>
        <time>2025-07-10T20:05:57.664Z</time>
      </trkpt>
      <trkpt lat="42.783651" lon="0.581720">
        <ele>1133.8</ele>
        <time>2025-07-10T20:07:18.000Z</time>
      </trkpt>
      <trkpt lat="42.783840" lon="0.581702">
        <ele>1127.3</ele>
        <time>2025-07-10T20:08:20.502Z</time>
      </trkpt>
      <trkpt lat="42.783903" lon="0.582043">
        <ele>1122.3</ele>
        <time>2025-07-10T20:09:16.028Z</time>
      </trkpt>
      <trkpt lat="42.783594" lon="0.582761">
        <ele>1113.6</ele>
        <time>2025-07-10T20:11:06.718Z</time>
      </trkpt>
      <trkpt lat="42.784208" lon="0.582660">
        <ele>1099.8</ele>
        <time>2025-07-10T20:13:35.383Z</time>
      </trkpt>
      <trkpt lat="42.784532" lon="0.582425">
        <ele>1092.3</ele>
        <time>2025-07-10T20:14:55.499Z</time>
      </trkpt>
      <trkpt lat="42.784840" lon="0.582250">
        <ele>1085.5</ele>
        <time>2025-07-10T20:16:08.132Z</time>
      </trkpt>
      <trkpt lat="42.784980" lon="0.581992">
        <ele>1081.8</ele>
        <time>2025-07-10T20:16:52.646Z</time>
      </trkpt>
      <trkpt lat="42.785071" lon="0.582222">
        <ele>1078.1</ele>
        <time>2025-07-10T20:17:36.955Z</time>
      </trkpt>
      <trkpt lat="42.785077" lon="0.582533">
        <ele>1074.9</ele>
        <time>2025-07-10T20:18:17.813Z</time>
      </trkpt>
      <trkpt lat="42.785548" lon="0.581831">
        <ele>1064.4</ele>
        <time>2025-07-10T20:20:33.799Z</time>
      </trkpt>
      <trkpt lat="42.785681" lon="0.581519">
        <ele>1057.2</ele>
        <time>2025-07-10T20:21:42.820Z</time>
      </trkpt>
      <trkpt lat="42.786003" lon="0.581290">
        <ele>1047.4</ele>
        <time>2025-07-10T20:23:18.092Z</time>
      </trkpt>
      <trkpt lat="42.786144" lon="0.581015">
        <ele>1041.6</ele>
        <time>2025-07-10T20:24:16.175Z</time>
      </trkpt>
      <trkpt lat="42.786155" lon="0.580304">
        <ele>1029.2</ele>
        <time>2025-07-10T20:26:21.481Z</time>
      </trkpt>
      <trkpt lat="42.786326" lon="0.580446">
        <ele>1025.8</ele>
        <time>2025-07-10T20:27:05.485Z</time>
      </trkpt>
      <trkpt lat="42.786553" lon="0.580757">
        <ele>1021.4</ele>
        <time>2025-07-10T20:28:02.954Z</time>
      </trkpt>
      <trkpt lat="42.786776" lon="0.580873">
        <ele>1012.8</ele>
        <time>2025-07-10T20:29:24.291Z</time>
      </trkpt>
      <trkpt lat="42.786948" lon="0.580456">
        <ele>1003.2</ele>
        <time>2025-07-10T20:30:55.346Z</time>
      </trkpt>
      <trkpt lat="42.787277" lon="0.580477">
        <ele>993.5</ele>
        <time>2025-07-10T20:32:25.285Z</time>
      </trkpt>
      <trkpt lat="42.787323" lon="0.580800">
        <ele>988.3</ele>
        <time>2025-07-10T20:33:20.418Z</time>
      </trkpt>
      <trkpt lat="42.787368" lon="0.581144">
        <ele>985.6</ele>
        <time>2025-07-10T20:34:01.204Z</time>
      </trkpt>
      <trkpt lat="42.787712" lon="0.581029">
        <ele>973.9</ele>
        <time>2025-07-10T20:35:46.992Z</time>
      </trkpt>
      <trkpt lat="42.787965" lon="0.581164">
        <ele>958.5</ele>
        <time>2025-07-10T20:37:51.943Z</time>
      </trkpt>
      <trkpt lat="42.788041" lon="0.581623">
        <ele>952.6</ele>
        <time>2025-07-10T20:39:00.707Z</time>
      </trkpt>
      <trkpt lat="42.788217" lon="0.581835">
        <ele>945.7</ele>
        <time>2025-07-10T20:40:06.741Z</time>
      </trkpt>
      <trkpt lat="42.788415" lon="0.581457">
        <ele>932.7</ele>
        <time>2025-07-10T20:41:57.019Z</time>
      </trkpt>
      <trkpt lat="42.788642" lon="0.581372">
        <ele>921.5</ele>
        <time>2025-07-10T20:43:27.711Z</time>
      </trkpt>
      <trkpt lat="42.788883" lon="0.581270">
        <ele>909.9</ele>
        <time>2025-07-10T20:45:01.583Z</time>
      </trkpt>
      <trkpt lat="42.789050" lon="0.582018">
        <ele>896.9</ele>
        <time>2025-07-10T20:47:17.733Z</time>
      </trkpt>
      <trkpt lat="42.788981" lon="0.583216">
        <ele>881.0</ele>
        <time>2025-07-10T20:50:17.573Z</time>
      </trkpt>
      <trkpt lat="42.788676" lon="0.584060">
        <ele>856.2</ele>
        <time>2025-07-10T20:53:52.255Z</time>
      </trkpt>
      <trkpt lat="42.788309" lon="0.584737">
        <ele>851.6</ele>
        <time>2025-07-10T20:55:18.306Z</time>
      </trkpt>
      <trkpt lat="42.788179" lon="0.585029">
        <ele>835.3</ele>
        <time>2025-07-10T20:57:19.827Z</time>
      </trkpt>
      <trkpt lat="42.788362" lon="0.585195">
        <ele>815.9</ele>
        <time>2025-07-10T20:59:44.984Z</time>
      </trkpt>
      <trkpt lat="42.788614" lon="0.584935">
        <ele>811.1</ele>
        <time>2025-07-10T21:00:43.924Z</time>
      </trkpt>
      <trkpt lat="42.788465" lon="0.585273">
        <ele>806.0</ele>
        <time>2025-07-10T21:01:47.016Z</time>
      </trkpt>
      <trkpt lat="42.787914" lon="0.586312">
        <ele>809.2</ele>
        <time>2025-07-10T21:03:50.214Z</time>
      </trkpt>
      <trkpt lat="42.787703" lon="0.586585">
        <ele>809.7</ele>
        <time>2025-07-10T21:04:22.401Z</time>
      </trkpt>
      <trkpt lat="42.787406" lon="0.586879">
        <ele>810.2</ele>
        <time>2025-07-10T21:05:03.122Z</time>
      </trkpt>
      <trkpt lat="42.787320" lon="0.587233">
        <ele>797.0</ele>
        <time>2025-07-10T21:06:49.917Z</time>
      </trkpt>
      <trkpt lat="42.787557" lon="0.587145">
        <ele>783.8</ele>
        <time>2025-07-10T21:08:36.023Z</time>
      </trkpt>
      <trkpt lat="42.787622" lon="0.587321">
        <ele>766.0</ele>
        <time>2025-07-10T21:11:02.072Z</time>
      </trkpt>
      <trkpt lat="42.788065" lon="0.587222">
        <ele>745.9</ele>
        <time>2025-07-10T21:13:49.336Z</time>
      </trkpt>
      <trkpt lat="42.787879" lon="0.587500">
        <ele>735.4</ele>
        <time>2025-07-10T21:15:23.270Z</time>
      </trkpt>
      <trkpt lat="42.788183" lon="0.587591">
        <ele>725.6</ele>
        <time>2025-07-10T21:16:52.417Z</time>
      </trkpt>
      <trkpt lat="42.788665" lon="0.587182">
        <ele>711.6</ele>
        <time>2025-07-10T21:19:11.123Z</time>
      </trkpt>
      <trkpt lat="42.788584" lon="0.587476">
        <ele>704.7</ele>
        <time>2025-07-10T21:20:17.501Z</time>
      </trkpt>
      <trkpt lat="42.788821" lon="0.587305">
        <ele>697.3</ele>
        <time>2025-07-10T21:21:30.193Z</time>
      </trkpt>
      <trkpt lat="42.789246" lon="0.586999">
        <ele>690.6</ele>
        <time>2025-07-10T21:22:56.037Z</time>
      </trkpt>
      <trkpt lat="42.789498" lon="0.586817">
        <ele>690.8</ele>
        <time>2025-07-10T21:23:25.134Z</time>
      </trkpt>
      <trkpt lat="42.789851" lon="0.586604">
        <ele>691.0</ele>
        <time>2025-07-10T21:24:04.498Z</time>
      </trkpt>
      <trkpt lat="42.790250" lon="0.586474">
        <ele>682.9</ele>
        <time>2025-07-10T21:25:32.183Z</time>
      </trkpt>
      <trkpt lat="42.790514" lon="0.586466">
        <ele>676.7</ele>
        <time>2025-07-10T21:26:34.626Z</time>
      </trkpt>
      <trkpt lat="42.791088" lon="0.586543">
        <ele>660.8</ele>
        <time>2025-07-10T21:29:05.325Z</time>
      </trkpt>
      <trkpt lat="42.791212" lon="0.586996">
        <ele>652.5</ele>
        <time>2025-07-10T21:30:28.837Z</time>
      </trkpt>
      <trkpt lat="42.791343" lon="0.587689">
        <ele>640.2</ele>
        <time>2025-07-10T21:32:32.545Z</time>
      </trkpt>
      <trkpt lat="42.791411" lon="0.588023">
        <ele>638.8</ele>
        <time>2025-07-10T21:33:05.233Z</time>
      </trkpt>
      <trkpt lat="42.791709" lon="0.588280">
        <ele>636.6</ele>
        <time>2025-07-10T21:33:56.141Z</time>
      </trkpt>
      <trkpt lat="42.791698" lon="0.588577">
        <ele>635.9</ele>
        <time>2025-07-10T21:34:24.925Z</time>
      </trkpt>
      <trkpt lat="42.791632" lon="0.588925">
        <ele>635.1</ele>
        <time>2025-07-10T21:34:54.764Z</time>
      </trkpt>
      <trkpt lat="42.791545" lon="0.589376">
        <ele>634.6</ele>
        <time>2025-07-10T21:35:30.211Z</time>
      </trkpt>
      <trkpt lat="42.791387" lon="0.590345">
        <ele>635.2</ele>
        <time>2025-07-10T21:36:45.835Z</time>
      </trkpt>
      <trkpt lat="42.791334" lon="0.590672">
        <ele>635.5</ele>
        <time>2025-07-10T21:37:12.386Z</time>
      </trkpt>
      <trkpt lat="42.791279" lon="0.591004">
        <ele>635.9</ele>
        <time>2025-07-10T21:37:39.296Z</time>
      </trkpt>
      <trkpt lat="42.791278" lon="0.591148">
        <ele>635.7</ele>
        <time>2025-07-10T21:37:50.107Z</time>
      </trkpt>
    </trkseg>
  </trk>
</gpx>
