<?xml version="1.0" encoding="UTF-8"?>
<gpx version="1.1" creator="carnet-trek seed (OpenStreetMap, EU-DEM)" xmlns="http://www.topografix.com/GPX/1/1">
  <metadata>
    <name>GR10 – Moulin de la Palette → Las Illas</name>
    <copyright author="OpenStreetMap contributors"><license>https://opendatacommons.org/licenses/odbl/</license></copyright>
  </metadata>
  <wpt lat="42.435877" lon="2.699585">
    <name>Moulin de la Palette</name>
    <sym>Convenience Store</sym>
  </wpt>
  <wpt lat="42.421597" lon="2.715870">
    <name>Point culminant (1373 m)</name>
    <sym>Summit</sym>
  </wpt>
  <wpt lat="42.425404" lon="2.784579">
    <name>Gîte d’étape municipal Las Illas</name>
    <sym>Lodging</sym>
  </wpt>
  <wpt lat="42.424636" lon="2.784254">
    <name>Hostal dels Trabucayres</name>
    <sym>Lodging</sym>
  </wpt>
  <wpt lat="42.446871" lon="2.798520">
    <name>Las Illas</name>
    <sym>Convenience Store</sym>
  </wpt>
  <trk>
    <name>GR10 – Moulin de la Palette → Las Illas</name>
    <type>hike</type>
    <trkseg>
      <trkpt lat="42.435877" lon="2.699585">
        <ele>736.9</ele>
        <time>2025-08-01T07:30:00.000Z</time>
      </trkpt>
      <trkpt lat="42.435457" lon="2.699890">
        <ele>743.3</ele>
        <time>2025-08-01T07:31:51.139Z</time>
      </trkpt>
      <trkpt lat="42.435311" lon="2.700168">
        <ele>737.1</ele>
        <time>2025-08-01T07:32:52.186Z</time>
      </trkpt>
      <trkpt lat="42.435446" lon="2.700570">
        <ele>729.2</ele>
        <time>2025-08-01T07:34:11.187Z</time>
      </trkpt>
      <trkpt lat="42.435370" lon="2.701412">
        <ele>728.5</ele>
        <time>2025-08-01T07:35:15.442Z</time>
      </trkpt>
      <trkpt lat="42.435112" lon="2.701764">
        <ele>732.1</ele>
        <time>2025-08-01T07:36:28.754Z</time>
      </trkpt>
      <trkpt lat="42.434658" lon="2.701338">
        <ele>743.0</ele>
        <time>2025-08-01T07:39:17.220Z</time>
      </trkpt>
      <trkpt lat="42.434789" lon="2.702465">
        <ele>738.3</ele>
        <time>2025-08-01T07:41:13.989Z</time>
      </trkpt>
      <trkpt lat="42.434699" lon="2.703227">
        <ele>748.0</ele>
        <time>2025-08-01T07:43:48.142Z</time>
      </trkpt>
      <trkpt lat="42.434608" lon="2.703990">
        <ele>759.2</ele>
        <time>2025-08-01T07:46:37.681Z</time>
      </trkpt>
      <trkpt lat="42.434390" lon="2.704949">
        <ele>771.5</ele>
        <time>2025-08-01T07:49:55.353Z</time>
      </trkpt>
      <trkpt lat="42.433991" lon="2.705244">
        <ele>779.6</ele>
        <time>2025-08-01T07:52:01.140Z</time>
      </trkpt>
      <trkpt lat="42.433410" lon="2.705023">
        <ele>794.4</ele>
        <time>2025-08-01T07:55:31.292Z</time>
      </trkpt>
      <trkpt lat="42.433138" lon="2.704754">
        <ele>799.3</ele>
        <time>2025-08-01T07:56:53.844Z</time>
      </trkpt>
      <trkpt lat="42.433111" lon="2.705311">
        <ele>797.0</ele>
        <time>2025-08-01T07:57:52.208Z</time>
      </trkpt>
      <trkpt lat="42.433053" lon="2.705642">
        <ele>794.8</ele>
        <time>2025-08-01T07:58:30.959Z</time>
      </trkpt>
      <trkpt lat="42.432660" lon="2.705503">
        <ele>799.8</ele>
        <time>2025-08-01T08:00:01.038Z</time>
      </trkpt>
      <trkpt lat="42.432381" lon="2.705068">
        <ele>806.1</ele>
        <time>2025-08-01T08:01:47.046Z</time>
      </trkpt>
      <trkpt lat="42.431885" lon="2.704580">
        <ele>817.0</ele>
        <time>2025-08-01T08:04:37.500Z</time>
      </trkpt>
      <trkpt lat="42.431465" lon="2.704479">
        <ele>822.0</ele>
        <time>2025-08-01T08:06:11.227Z</time>
      </trkpt>
      <trkpt lat="42.431703" lon="2.704246">
        <ele>824.1</ele>
        <time>2025-08-01T08:07:05.124Z</time>
      </trkpt>
      <trkpt lat="42.432520" lon="2.703817">
        <ele>821.1</ele>
        <time>2025-08-01T08:08:53.616Z</time>
      </trkpt>
      <trkpt lat="42.432626" lon="2.703282">
        <ele>823.4</ele>
        <time>2025-08-01T08:09:56.064Z</time>
      </trkpt>
      <trkpt lat="42.432829" lon="2.702833">
        <ele>825.6</ele>
        <time>2025-08-01T08:10:55.369Z</time>
      </trkpt>
      <trkpt lat="42.432010" lon="2.702503">
        <ele>840.2</ele>
        <time>2025-08-01T08:14:46.821Z</time>
      </trkpt>
      <trkpt lat="42.430868" lon="2.702612">
        <ele>875.9</ele>
        <time>2025-08-01T08:22:43.231Z</time>
      </trkpt>
      <trkpt lat="42.430465" lon="2.702313">
        <ele>893.5</ele>
        <time>2025-08-01T08:26:28.404Z</time>
      </trkpt>
      <trkpt lat="42.429965" lon="2.702061">
        <ele>913.3</ele>
        <time>2025-08-01T08:30:42.642Z</time>
      </trkpt>
      <trkpt lat="42.429519" lon="2.702089">
        <ele>930.7</ele>
        <time>2025-08-01T08:34:24.170Z</time>
      </trkpt>
      <trkpt lat="42.429313" lon="2.701874">
        <ele>940.0</ele>
        <time>2025-08-01T08:36:25.223Z</time>
      </trkpt>
      <trkpt lat="42.429043" lon="2.701599">
        <ele>951.3</ele>
        <time>2025-08-01T08:38:54.206Z</time>
      </trkpt>
      <trkpt lat="42.428882" lon="2.701675">
        <ele>958.1</ele>
        <time>2025-08-01T08:40:26.782Z</time>
      </trkpt>
      <trkpt lat="42.428676" lon="2.701872">
        <ele>965.3</ele>
        <time>2025-08-01T08:42:04.852Z</time>
      </trkpt>
      <trkpt lat="42.427246" lon="2.702423">
        <ele>1015.1</ele>
        <time>2025-08-01T08:52:58.456Z</time>
      </trkpt>
      <trkpt lat="42.426606" lon="2.702723">
        <ele>1029.7</ele>
        <time>2025-08-01T08:56:33.738Z</time>
      </trkpt>
      <trkpt lat="42.426303" lon="2.702689">
        <ele>1037.4</ele>
        <time>2025-08-01T08:58:21.891Z</time>
      </trkpt>
      <trkpt lat="42.425815" lon="2.702437">
        <ele>1050.6</ele>
        <time>2025-08-01T09:01:27.396Z</time>
      </trkpt>
      <trkpt lat="42.425582" lon="2.702642">
        <ele>1053.8</ele>
        <time>2025-08-01T09:02:26.863Z</time>
      </trkpt>
      <trkpt lat="42.425386" lon="2.702805">
        <ele>1056.5</ele>
        <time>2025-08-01T09:03:16.658Z</time>
      </trkpt>
      <trkpt lat="42.425110" lon="2.702969">
        <ele>1061.6</ele>
        <time>2025-08-01T09:04:37.912Z</time>
      </trkpt>
      <trkpt lat="42.424893" lon="2.703171">
        <ele>1066.1</ele>
        <time>2025-08-01T09:05:48.997Z</time>
      </trkpt>
      <trkpt lat="42.424673" lon="2.703372">
        <ele>1070.2</ele>
        <time>2025-08-01T09:06:56.812Z</time>
      </trkpt>
      <trkpt lat="42.424464" lon="2.703662">
        <ele>1074.6</ele>
        <time>2025-08-01T09:08:11.264Z</time>
      </trkpt>
      <trkpt lat="42.424277" lon="2.703891">
        <ele>1079.9</ele>
        <time>2025-08-01T09:09:30.014Z</time>
      </trkpt>
      <trkpt lat="42.424135" lon="2.704163">
        <ele>1085.3</ele>
        <time>2025-08-01T09:10:48.949Z</time>
      </trkpt>
      <trkpt lat="42.423813" lon="2.704587">
        <ele>1093.5</ele>
        <time>2025-08-01T09:12:56.740Z</time>
      </trkpt>
      <trkpt lat="42.423701" lon="2.704883">
        <ele>1100.2</ele>
        <time>2025-08-01T09:14:32.907Z</time>
      </trkpt>
      <trkpt lat="42.423569" lon="2.705254">
        <ele>1107.8</ele>
        <time>2025-08-01T09:16:21.238Z</time>
      </trkpt>
      <trkpt lat="42.423467" lon="2.705849">
        <ele>1127.3</ele>
        <time>2025-08-01T09:20:27.252Z</time>
      </trkpt>
      <trkpt lat="42.423458" lon="2.706544">
        <ele>1148.8</ele>
        <time>2025-08-01T09:24:56.762Z</time>
      </trkpt>
      <trkpt lat="42.423287" lon="2.707081">
        <ele>1160.5</ele>
        <time>2025-08-01T09:27:39.205Z</time>
      </trkpt>
      <trkpt lat="42.423260" lon="2.707325">
        <ele>1167.0</ele>
        <time>2025-08-01T09:29:09.049Z</time>
      </trkpt>
      <trkpt lat="42.423314" lon="2.707960">
        <ele>1178.7</ele>
        <time>2025-08-01T09:31:54.443Z</time>
      </trkpt>
      <trkpt lat="42.423061" lon="2.708497">
        <ele>1192.5</ele>
        <time>2025-08-01T09:35:01.151Z</time>
      </trkpt>
      <trkpt lat="42.423076" lon="2.708993">
        <ele>1197.0</ele>
        <time>2025-08-01T09:36:24.623Z</time>
      </trkpt>
      <trkpt lat="42.423071" lon="2.709522">
        <ele>1204.9</ele>
        <time>2025-08-01T09:38:22.948Z</time>
      </trkpt>
      <trkpt lat="42.423034" lon="2.710047">
        <ele>1216.4</ele>
        <time>2025-08-01T09:41:01.086Z</time>
      </trkpt>
      <trkpt lat="42.423171" lon="2.710324">
        <ele>1224.1</ele>
        <time>2025-08-01T09:42:44.168Z</time>
      </trkpt>
      <trkpt lat="42.423229" lon="2.710707">
        <ele>1231.7</ele>
        <time>2025-08-01T09:44:31.794Z</time>
      </trkpt>
      <trkpt lat="42.422941" lon="2.711246">
        <ele>1242.0</ele>
        <time>2025-08-01T09:47:04.480Z</time>
      </trkpt>
      <trkpt lat="42.422670" lon="2.711410">
        <ele>1251.7</ele>
        <time>2025-08-01T09:49:12.588Z</time>
      </trkpt>
      <trkpt lat="42.422399" lon="2.712074">
        <ele>1270.2</ele>
        <time>2025-08-01T09:53:16.503Z</time>
      </trkpt>
      <trkpt lat="42.422307" lon="2.712393">
        <ele>1278.5</ele>
        <time>2025-08-01T09:55:06.149Z</time>
      </trkpt>
      <trkpt lat="42.422265" lon="2.712787">
        <ele>1288.2</ele>
        <time>2025-08-01T09:57:13.437Z</time>
      </trkpt>
      <trkpt lat="42.421957" lon="2.713272">
        <ele>1308.8</ele>
        <time>2025-08-01T10:01:30.819Z</time>
      </trkpt>
      <trkpt lat="42.421823" lon="2.713859">
        <ele>1325.0</ele>
        <time>2025-08-01T10:05:03.068Z</time>
      </trkpt>
      <trkpt lat="42.421814" lon="2.714434">
        <ele>1338.9</ele>
        <time>2025-08-01T10:08:08.107Z</time>
      </trkpt>
      <trkpt lat="42.421597" lon="2.715870">
        <ele>1373.3</ele>
        <time>2025-08-01T10:15:47.143Z</time>
      </trkpt>
      <trkpt lat="42.421716" lon="2.716293">
        <ele>1372.9</ele>
        <time>2025-08-01T10:16:21.402Z</time>
      </trkpt>
      <trkpt lat="42.421750" lon="2.716739">
        <ele>1372.7</ele>
        <time>2025-08-01T10:16:54.768Z</time>
      </trkpt>
      <trkpt lat="42.421818" lon="2.717069">
        <ele>1372.5</ele>
        <time>2025-08-01T10:17:19.591Z</time>
      </trkpt>
      <trkpt lat="42.421864" lon="2.717426">
        <ele>1371.3</ele>
        <time>2025-08-01T10:17:52.975Z</time>
      </trkpt>
      <trkpt lat="42.421948" lon="2.717856">
        <ele>1367.5</ele>
        <time>2025-08-01T10:18:47.370Z</time>
      </trkpt>
      <trkpt lat="42.422109" lon="2.718200">
        <ele>1364.8</ele>
        <time>2025-08-01T10:19:32.004Z</time>
      </trkpt>
      <trkpt lat="42.422238" lon="2.718857">
        <ele>1362.3</ele>
        <time>2025-08-01T10:20:35.153Z</time>
      </trkpt>
      <trkpt lat="42.422175" lon="2.719583">
        <ele>1364.2</ele>
        <time>2025-08-01T10:21:46.559Z</time>
      </trkpt>
      <trkpt lat="42.422151" lon="2.719921">
        <ele>1360.4</ele>
        <time>2025-08-01T10:22:33.462Z</time>
      </trkpt>
      <trkpt lat="42.422111" lon="2.720234">
        <ele>1356.8</ele>
        <time>2025-08-01T10:23:17.166Z</time>
      </trkpt>
      <trkpt lat="42.422185" lon="2.720514">
        <ele>1353.7</ele>
        <time>2025-08-01T10:23:57.119Z</time>
      </trkpt>
      <trkpt lat="42.422305" lon="2.720845">
        <ele>1350.0</ele>
        <time>2025-08-01T10:24:46.378Z</time>
      </trkpt>
      <trkpt lat="42.422347" lon="2.721155">
        <ele>1350.6</ele>
        <time>2025-08-01T10:25:15.901Z</time>
      </trkpt>
      <trkpt lat="42.422571" lon="2.721311">
        <ele>1351.6</ele>
        <time>2025-08-01T10:25:51.048Z</time>
      </trkpt>
      <trkpt lat="42.422693" lon="2.721601">
        <ele>1353.8</ele>
        <time>2025-08-01T10:26:38.467Z</time>
      </trkpt>
      <trkpt lat="42.423067" lon="2.722081">
        <ele>1355.0</ele>
        <time>2025-08-01T10:27:39.509Z</time>
      </trkpt>
      <trkpt lat="42.423233" lon="2.722333">
        <ele>1354.6</ele>
        <time>2025-08-01T10:28:05.472Z</time>
      </trkpt>
      <trkpt lat="42.423508" lon="2.722852">
        <ele>1355.5</ele>
        <time>2025-08-01T10:29:01.482Z</time>
      </trkpt>
      <trkpt lat="42.423728" lon="2.723211">
        <ele>1350.6</ele>
        <time>2025-08-01T10:30:03.595Z</time>
      </trkpt>
      <trkpt lat="42.424042" lon="2.723369">
        <ele>1345.9</ele>
        <time>2025-08-01T10:31:04.002Z</time>
      </trkpt>
      <trkpt lat="42.424583" lon="2.723795">
        <ele>1331.1</ele>
        <time>2025-08-01T10:33:32.195Z</time>
      </trkpt>
      <trkpt lat="42.425362" lon="2.723502">
        <ele>1304.8</ele>
        <time>2025-08-01T10:37:33.071Z</time>
      </trkpt>
      <trkpt lat="42.424256" lon="2.724642">
        <ele>1353.1</ele>
        <time>2025-08-01T10:48:03.331Z</time>
      </trkpt>
      <trkpt lat="42.424090" lon="2.725114">
        <ele>1356.7</ele>
        <time>2025-08-01T10:49:19.297Z</time>
      </trkpt>
      <trkpt lat="42.424019" lon="2.725575">
        <ele>1355.1</ele>
        <time>2025-08-01T10:50:03.473Z</time>
      </trkpt>
      <trkpt lat="42.424134" lon="2.725886">
        <ele>1348.6</ele>
        <time>2025-08-01T10:51:09.558Z</time>
      </trkpt>
      <trkpt lat="42.424312" lon="2.726836">
        <ele>1342.4</ele>
        <time>2025-08-01T10:52:59.304Z</time>
      </trkpt>
      <trkpt lat="42.424256" lon="2.727345">
        <ele>1345.0</ele>
        <time>2025-08-01T10:54:01.595Z</time>
      </trkpt>
      <trkpt lat="42.424312" lon="2.727673">
        <ele>1346.6</ele>
        <time>2025-08-01T10:54:42.204Z</time>
      </trkpt>
      <trkpt lat="42.424546" lon="2.728300">
        <ele>1337.3</ele>
        <time>2025-08-01T10:56:27.599Z</time>
      </trkpt>
      <trkpt lat="42.424763" lon="2.728681">
        <ele>1328.7</ele>
        <time>2025-08-01T10:57:52.850Z</time>
      </trkpt>
      <trkpt lat="42.425001" lon="2.728836">
        <ele>1321.5</ele>
        <time>2025-08-01T10:59:06.646Z</time>
      </trkpt>
      <trkpt lat="42.425064" lon="2.729217">
        <ele>1314.8</ele>
        <time>2025-08-01T11:00:17.727Z</time>
      </trkpt>
      <trkpt lat="42.424926" lon="2.729550">
        <ele>1318.4</ele>
        <time>2025-08-01T11:01:21.891Z</time>
      </trkpt>
      <trkpt lat="42.424957" lon="2.729850">
        <ele>1321.2</ele>
        <time>2025-08-01T11:02:12.328Z</time>
      </trkpt>
      <trkpt lat="42.425048" lon="2.730274">
        <ele>1321.2</ele>
        <time>2025-08-01T11:02:46.376Z</time>
      </trkpt>
      <trkpt lat="42.425187" lon="2.730714">
        <ele>1316.7</ele>
        <time>2025-08-01T11:03:47.475Z</time>
      </trkpt>
      <trkpt lat="42.425456" lon="2.730859">
        <ele>1308.5</ele>
        <time>2025-08-01T11:05:04.077Z</time>
      </trkpt>
      <trkpt lat="42.425908" lon="2.730891">
        <ele>1290.9</ele>
        <time>2025-08-01T11:07:33.255Z</time>
      </trkpt>
      <trkpt lat="42.426137" lon="2.731213">
        <ele>1297.1</ele>
        <time>2025-08-01T11:09:09.286Z</time>
      </trkpt>
      <trkpt lat="42.426502" lon="2.731551">
        <ele>1299.2</ele>
        <time>2025-08-01T11:10:13.103Z</time>
      </trkpt>
      <trkpt lat="42.426751" lon="2.731610">
        <ele>1298.6</ele>
        <time>2025-08-01T11:10:40.615Z</time>
      </trkpt>
      <trkpt lat="42.426949" lon="2.731798">
        <ele>1300.5</ele>
        <time>2025-08-01T11:11:22.782Z</time>
      </trkpt>
      <trkpt lat="42.427147" lon="2.732152">
        <ele>1303.1</ele>
        <time>2025-08-01T11:12:22.425Z</time>
      </trkpt>
      <trkpt lat="42.427090" lon="2.732728">
        <ele>1313.1</ele>
        <time>2025-08-01T11:14:46.865Z</time>
      </trkpt>
      <trkpt lat="42.427111" lon="2.733219">
        <ele>1321.7</ele>
        <time>2025-08-01T11:16:49.189Z</time>
      </trkpt>
      <trkpt lat="42.427096" lon="2.733723">
        <ele>1322.0</ele>
        <time>2025-08-01T11:17:27.677Z</time>
      </trkpt>
      <trkpt lat="42.427151" lon="2.734051">
        <ele>1322.2</ele>
        <time>2025-08-01T11:17:53.279Z</time>
      </trkpt>
      <trkpt lat="42.427131" lon="2.734426">
        <ele>1322.5</ele>
        <time>2025-08-01T11:18:23.599Z</time>
      </trkpt>
      <trkpt lat="42.426917" lon="2.734888">
        <ele>1326.0</ele>
        <time>2025-08-01T11:19:39.385Z</time>
      </trkpt>
      <trkpt lat="42.426628" lon="2.735086">
        <ele>1330.8</ele>
        <time>2025-08-01T11:20:59.267Z</time>
      </trkpt>
      <trkpt lat="42.426422" lon="2.735365">
        <ele>1330.1</ele>
        <time>2025-08-01T11:21:32.816Z</time>
      </trkpt>
      <trkpt lat="42.426193" lon="2.735467">
        <ele>1329.5</ele>
        <time>2025-08-01T11:21:59.075Z</time>
      </trkpt>
      <trkpt lat="42.425919" lon="2.735564">
        <ele>1328.2</ele>
        <time>2025-08-01T11:22:33.910Z</time>
      </trkpt>
      <trkpt lat="42.425634" lon="2.736116">
        <ele>1316.7</ele>
        <time>2025-08-01T11:24:31.723Z</time>
      </trkpt>
      <trkpt lat="42.425496" lon="2.736438">
        <ele>1307.4</ele>
        <time>2025-08-01T11:25:53.814Z</time>
      </trkpt>
      <trkpt lat="42.425262" lon="2.737114">
        <ele>1294.3</ele>
        <time>2025-08-01T11:28:05.874Z</time>
      </trkpt>
      <trkpt lat="42.425029" lon="2.737543">
        <ele>1289.1</ele>
        <time>2025-08-01T11:29:14.328Z</time>
      </trkpt>
      <trkpt lat="42.424791" lon="2.737983">
        <ele>1283.9</ele>
        <time>2025-08-01T11:30:24.301Z</time>
      </trkpt>
      <trkpt lat="42.424557" lon="2.738240">
        <ele>1279.8</ele>
        <time>2025-08-01T11:31:17.323Z</time>
      </trkpt>
      <trkpt lat="42.424340" lon="2.738688">
        <ele>1269.2</ele>
        <time>2025-08-01T11:32:59.892Z</time>
      </trkpt>
      <trkpt lat="42.424212" lon="2.739211">
        <ele>1252.7</ele>
        <time>2025-08-01T11:35:17.466Z</time>
      </trkpt>
      <trkpt lat="42.424083" lon="2.739701">
        <ele>1244.0</ele>
        <time>2025-08-01T11:36:46.528Z</time>
      </trkpt>
      <trkpt lat="42.424161" lon="2.739993">
        <ele>1240.0</ele>
        <time>2025-08-01T11:37:33.055Z</time>
      </trkpt>
      <trkpt lat="42.424361" lon="2.740070">
        <ele>1236.6</ele>
        <time>2025-08-01T11:38:16.372Z</time>
      </trkpt>
      <trkpt lat="42.424592" lon="2.740057">
        <ele>1232.5</ele>
        <time>2025-08-01T11:39:05.134Z</time>
      </trkpt>
      <trkpt lat="42.424771" lon="2.740291">
        <ele>1227.5</ele>
        <time>2025-08-01T11:40:01.037Z</time>
      </trkpt>
      <trkpt lat="42.425038" lon="2.740297">
        <ele>1221.6</ele>
        <time>2025-08-01T11:41:02.437Z</time>
      </trkpt>
      <trkpt lat="42.425282" lon="2.740301">
        <ele>1215.0</ele>
        <time>2025-08-01T11:42:07.119Z</time>
      </trkpt>
      <trkpt lat="42.425476" lon="2.740308">
        <ele>1208.5</ele>
        <time>2025-08-01T11:43:08.247Z</time>
      </trkpt>
      <trkpt lat="42.425646" lon="2.740723">
        <ele>1198.2</ele>
        <time>2025-08-01T11:44:43.577Z</time>
      </trkpt>
      <trkpt lat="42.425961" lon="2.741207">
        <ele>1183.6</ele>
        <time>2025-08-01T11:46:57.024Z</time>
      </trkpt>
      <trkpt lat="42.426071" lon="2.741506">
        <ele>1179.1</ele>
        <time>2025-08-01T11:47:49.752Z</time>
      </trkpt>
      <trkpt lat="42.426320" lon="2.741963">
        <ele>1172.2</ele>
        <time>2025-08-01T11:49:11.184Z</time>
      </trkpt>
      <trkpt lat="42.426625" lon="2.742457">
        <ele>1161.1</ele>
        <time>2025-08-01T11:51:03.446Z</time>
      </trkpt>
      <trkpt lat="42.426863" lon="2.742708">
        <ele>1151.2</ele>
        <time>2025-08-01T11:52:32.792Z</time>
      </trkpt>
      <trkpt lat="42.427045" lon="2.743020">
        <ele>1142.5</ele>
        <time>2025-08-01T11:53:52.800Z</time>
      </trkpt>
      <trkpt lat="42.427199" lon="2.743350">
        <ele>1134.8</ele>
        <time>2025-08-01T11:55:06.397Z</time>
      </trkpt>
      <trkpt lat="42.427427" lon="2.743588">
        <ele>1127.1</ele>
        <time>2025-08-01T11:56:20.116Z</time>
      </trkpt>
      <trkpt lat="42.427459" lon="2.743942">
        <ele>1124.6</ele>
        <time>2025-08-01T11:57:01.006Z</time>
      </trkpt>
      <trkpt lat="42.427597" lon="2.744319">
        <ele>1120.7</ele>
        <time>2025-08-01T11:57:57.351Z</time>
      </trkpt>
      <trkpt lat="42.427666" lon="2.744724">
        <ele>1116.1</ele>
        <time>2025-08-01T11:58:54.073Z</time>
      </trkpt>
      <trkpt lat="42.427717" lon="2.745308">
        <ele>1109.8</ele>
        <time>2025-08-01T12:00:13.591Z</time>
      </trkpt>
      <trkpt lat="42.427860" lon="2.745684">
        <ele>1098.9</ele>
        <time>2025-08-01T12:01:50.144Z</time>
      </trkpt>
      <trkpt lat="42.427993" lon="2.745955">
        <ele>1090.9</ele>
        <time>2025-08-01T12:03:00.913Z</time>
      </trkpt>
      <trkpt lat="42.428294" lon="2.746770">
        <ele>1067.3</ele>
        <time>2025-08-01T12:06:26.539Z</time>
      </trkpt>
      <trkpt lat="42.428307" lon="2.747100">
        <ele>1067.7</ele>
        <time>2025-08-01T12:06:54.001Z</time>
      </trkpt>
      <trkpt lat="42.428212" lon="2.747435">
        <ele>1068.2</ele>
        <time>2025-08-01T12:07:23.818Z</time>
      </trkpt>
      <trkpt lat="42.428272" lon="2.748323">
        <ele>1067.6</ele>
        <time>2025-08-01T12:08:29.962Z</time>
      </trkpt>
      <trkpt lat="42.428412" lon="2.748466">
        <ele>1064.7</ele>
        <time>2025-08-01T12:09:09.697Z</time>
      </trkpt>
      <trkpt lat="42.428620" lon="2.748535">
        <ele>1061.1</ele>
        <time>2025-08-01T12:09:57.563Z</time>
      </trkpt>
      <trkpt lat="42.429001" lon="2.748652">
        <ele>1053.7</ele>
        <time>2025-08-01T12:11:18.928Z</time>
      </trkpt>
      <trkpt lat="42.429347" lon="2.748738">
        <ele>1047.6</ele>
        <time>2025-08-01T12:12:30.737Z</time>
      </trkpt>
      <trkpt lat="42.429635" lon="2.748769">
        <ele>1043.3</ele>
        <time>2025-08-01T12:13:23.848Z</time>
      </trkpt>
      <trkpt lat="42.429929" lon="2.748988">
        <ele>1043.0</ele>
        <time>2025-08-01T12:13:59.047Z</time>
      </trkpt>
      <trkpt lat="42.430255" lon="2.749313">
        <ele>1042.6</ele>
        <time>2025-08-01T12:14:39.953Z</time>
      </trkpt>
      <trkpt lat="42.430546" lon="2.749644">
        <ele>1036.9</ele>
        <time>2025-08-01T12:15:49.901Z</time>
      </trkpt>
      <trkpt lat="42.430979" lon="2.749761">
        <ele>1030.4</ele>
        <time>2025-08-01T12:17:11.323Z</time>
      </trkpt>
      <trkpt lat="42.431399" lon="2.749949">
        <ele>1017.6</ele>
        <time>2025-08-01T12:19:10.281Z</time>
      </trkpt>
      <trkpt lat="42.431687" lon="2.750197">
        <ele>1007.7</ele>
        <time>2025-08-01T12:20:41.892Z</time>
      </trkpt>
      <trkpt lat="42.431744" lon="2.750503">
        <ele>1014.1</ele>
        <time>2025-08-01T12:22:09.205Z</time>
      </trkpt>
      <trkpt lat="42.431556" lon="2.750807">
        <ele>1022.0</ele>
        <time>2025-08-01T12:23:58.638Z</time>
      </trkpt>
      <trkpt lat="42.431532" lon="2.751241">
        <ele>1022.3</ele>
        <time>2025-08-01T12:24:32.277Z</time>
      </trkpt>
      <trkpt lat="42.431608" lon="2.751570">
        <ele>1022.5</ele>
        <time>2025-08-01T12:24:58.848Z</time>
      </trkpt>
      <trkpt lat="42.431571" lon="2.751882">
        <ele>1022.8</ele>
        <time>2025-08-01T12:25:23.866Z</time>
      </trkpt>
      <trkpt lat="42.431907" lon="2.752119">
        <ele>1023.2</ele>
        <time>2025-08-01T12:26:04.379Z</time>
      </trkpt>
      <trkpt lat="42.432062" lon="2.752359">
        <ele>1020.6</ele>
        <time>2025-08-01T12:26:42.824Z</time>
      </trkpt>
      <trkpt lat="42.432562" lon="2.752206">
        <ele>1014.8</ele>
        <time>2025-08-01T12:28:06.497Z</time>
      </trkpt>
      <trkpt lat="42.432945" lon="2.752298">
        <ele>1008.8</ele>
        <time>2025-08-01T12:29:19.315Z</time>
      </trkpt>
      <trkpt lat="42.433294" lon="2.752085">
        <ele>1003.0</ele>
        <time>2025-08-01T12:30:30.881Z</time>
      </trkpt>
      <trkpt lat="42.433578" lon="2.752182">
        <ele>1001.8</ele>
        <time>2025-08-01T12:31:05.555Z</time>
      </trkpt>
      <trkpt lat="42.435255" lon="2.752015">
        <ele>995.4</ele>
        <time>2025-08-01T12:34:24.549Z</time>
      </trkpt>
      <trkpt lat="42.435626" lon="2.752254">
        <ele>997.4</ele>
        <time>2025-08-01T12:35:24.112Z</time>
      </trkpt>
      <trkpt lat="42.435768" lon="2.752996">
        <ele>1000.1</ele>
        <time>2025-08-01T12:36:46.077Z</time>
      </trkpt>
      <trkpt lat="42.436288" lon="2.753386">
        <ele>983.7</ele>
        <time>2025-08-01T12:39:21.013Z</time>
      </trkpt>
      <trkpt lat="42.436531" lon="2.753684">
        <ele>979.8</ele>
        <time>2025-08-01T12:40:16.041Z</time>
      </trkpt>
      <trkpt lat="42.436551" lon="2.754275">
        <ele>977.1</ele>
        <time>2025-08-01T12:41:15.484Z</time>
      </trkpt>
      <trkpt lat="42.436677" lon="2.754790">
        <ele>976.9</ele>
        <time>2025-08-01T12:41:57.455Z</time>
      </trkpt>
      <trkpt lat="42.436750" lon="2.755240">
        <ele>978.6</ele>
        <time>2025-08-01T12:42:48.786Z</time>
      </trkpt>
      <trkpt lat="42.436479" lon="2.755877">
        <ele>981.3</ele>
        <time>2025-08-01T12:44:07.705Z</time>
      </trkpt>
      <trkpt lat="42.436388" lon="2.756238">
        <ele>979.4</ele>
        <time>2025-08-01T12:44:45.729Z</time>
      </trkpt>
      <trkpt lat="42.436524" lon="2.756772">
        <ele>977.8</ele>
        <time>2025-08-01T12:45:35.742Z</time>
      </trkpt>
      <trkpt lat="42.437073" lon="2.758591">
        <ele>976.2</ele>
        <time>2025-08-01T12:48:03.601Z</time>
      </trkpt>
      <trkpt lat="42.437339" lon="2.759047">
        <ele>982.3</ele>
        <time>2025-08-01T12:49:46.791Z</time>
      </trkpt>
      <trkpt lat="42.437733" lon="2.759290">
        <ele>988.4</ele>
        <time>2025-08-01T12:51:31.116Z</time>
      </trkpt>
      <trkpt lat="42.438194" lon="2.759294">
        <ele>983.6</ele>
        <time>2025-08-01T12:52:44.185Z</time>
      </trkpt>
      <trkpt lat="42.438933" lon="2.759241">
        <ele>984.1</ele>
        <time>2025-08-01T12:53:59.867Z</time>
      </trkpt>
      <trkpt lat="42.439196" lon="2.759396">
        <ele>986.5</ele>
        <time>2025-08-01T12:54:52.567Z</time>
      </trkpt>
      <trkpt lat="42.439680" lon="2.759224">
        <ele>990.8</ele>
        <time>2025-08-01T12:56:24.619Z</time>
      </trkpt>
      <trkpt lat="42.440049" lon="2.759252">
        <ele>994.5</ele>
        <time>2025-08-01T12:57:38.078Z</time>
      </trkpt>
      <trkpt lat="42.440535" lon="2.759342">
        <ele>999.5</ele>
        <time>2025-08-01T12:59:15.405Z</time>
      </trkpt>
      <trkpt lat="42.440351" lon="2.759805">
        <ele>999.1</ele>
        <time>2025-08-01T12:59:54.604Z</time>
      </trkpt>
      <trkpt lat="42.440093" lon="2.759987">
        <ele>998.8</ele>
        <time>2025-08-01T13:00:23.994Z</time>
      </trkpt>
      <trkpt lat="42.439589" lon="2.760062">
        <ele>1002.9</ele>
        <time>2025-08-01T13:01:55.733Z</time>
      </trkpt>
      <trkpt lat="42.439396" lon="2.760707">
        <ele>1005.6</ele>
        <time>2025-08-01T13:03:12.659Z</time>
      </trkpt>
      <trkpt lat="42.438818" lon="2.761894">
        <ele>1000.6</ele>
        <time>2025-08-01T13:05:22.740Z</time>
      </trkpt>
      <trkpt lat="42.438498" lon="2.762284">
        <ele>995.6</ele>
        <time>2025-08-01T13:06:33.913Z</time>
      </trkpt>
      <trkpt lat="42.438328" lon="2.762533">
        <ele>992.6</ele>
        <time>2025-08-01T13:07:15.464Z</time>
      </trkpt>
      <trkpt lat="42.438330" lon="2.763133">
        <ele>975.6</ele>
        <time>2025-08-01T13:09:41.105Z</time>
      </trkpt>
      <trkpt lat="42.438598" lon="2.763696">
        <ele>958.4</ele>
        <time>2025-08-01T13:12:11.727Z</time>
      </trkpt>
      <trkpt lat="42.438775" lon="2.763925">
        <ele>951.5</ele>
        <time>2025-08-01T13:13:16.075Z</time>
      </trkpt>
      <trkpt lat="42.438826" lon="2.764385">
        <ele>942.0</ele>
        <time>2025-08-01T13:14:46.119Z</time>
      </trkpt>
      <trkpt lat="42.438957" lon="2.764960">
        <ele>931.4</ele>
        <time>2025-08-01T13:16:31.888Z</time>
      </trkpt>
      <trkpt lat="42.438991" lon="2.765293">
        <ele>925.7</ele>
        <time>2025-08-01T13:17:29.921Z</time>
      </trkpt>
      <trkpt lat="42.439174" lon="2.765587">
        <ele>919.4</ele>
        <time>2025-08-01T13:18:35.005Z</time>
      </trkpt>
      <trkpt lat="42.439472" lon="2.766066">
        <ele>907.8</ele>
        <time>2025-08-01T13:20:28.734Z</time>
      </trkpt>
      <trkpt lat="42.439573" lon="2.766591">
        <ele>899.2</ele>
        <time>2025-08-01T13:21:58.312Z</time>
      </trkpt>
      <trkpt lat="42.439745" lon="2.767063">
        <ele>890.7</ele>
        <time>2025-08-01T13:23:26.914Z</time>
      </trkpt>
      <trkpt lat="42.439922" lon="2.767431">
        <ele>882.2</ele>
        <time>2025-08-01T13:24:48.968Z</time>
      </trkpt>
      <trkpt lat="42.439801" lon="2.767882">
        <ele>877.8</ele>
        <time>2025-08-01T13:25:51.092Z</time>
      </trkpt>
      <trkpt lat="42.439708" lon="2.768289">
        <ele>874.2</ele>
        <time>2025-08-01T13:26:42.900Z</time>
      </trkpt>
      <trkpt lat="42.439682" lon="2.768721">
        <ele>865.1</ele>
        <time>2025-08-01T13:28:07.828Z</time>
      </trkpt>
      <trkpt lat="42.439890" lon="2.769064">
        <ele>855.4</ele>
        <time>2025-08-01T13:29:38.195Z</time>
      </trkpt>
      <trkpt lat="42.440013" lon="2.769367">
        <ele>847.8</ele>
        <time>2025-08-01T13:30:53.569Z</time>
      </trkpt>
      <trkpt lat="42.439722" lon="2.769442">
        <ele>844.1</ele>
        <time>2025-08-01T13:31:44.019Z</time>
      </trkpt>
      <trkpt lat="42.439486" lon="2.769367">
        <ele>844.5</ele>
        <time>2025-08-01T13:32:11.397Z</time>
      </trkpt>
      <trkpt lat="42.439229" lon="2.769201">
        <ele>841.0</ele>
        <time>2025-08-01T13:32:59.965Z</time>
      </trkpt>
      <trkpt lat="42.439270" lon="2.769603">
        <ele>833.3</ele>
        <time>2025-08-01T13:34:18.374Z</time>
      </trkpt>
      <trkpt lat="42.439464" lon="2.769909">
        <ele>827.6</ele>
        <time>2025-08-01T13:35:21.109Z</time>
      </trkpt>
      <trkpt lat="42.439793" lon="2.770054">
        <ele>822.0</ele>
        <time>2025-08-01T13:36:28.755Z</time>
      </trkpt>
      <trkpt lat="42.439678" lon="2.770231">
        <ele>818.8</ele>
        <time>2025-08-01T13:37:17.700Z</time>
      </trkpt>
      <trkpt lat="42.439288" lon="2.770193">
        <ele>816.1</ele>
        <time>2025-08-01T13:38:11.364Z</time>
      </trkpt>
      <trkpt lat="42.439001" lon="2.770027">
        <ele>814.4</ele>
        <time>2025-08-01T13:38:51.167Z</time>
      </trkpt>
      <trkpt lat="42.438775" lon="2.769982">
        <ele>808.5</ele>
        <time>2025-08-01T13:39:49.801Z</time>
      </trkpt>
      <trkpt lat="42.438861" lon="2.770585">
        <ele>797.5</ele>
        <time>2025-08-01T13:41:40.194Z</time>
      </trkpt>
      <trkpt lat="42.438972" lon="2.771044">
        <ele>790.0</ele>
        <time>2025-08-01T13:42:59.014Z</time>
      </trkpt>
      <trkpt lat="42.438946" lon="2.771427">
        <ele>783.5</ele>
        <time>2025-08-01T13:44:07.699Z</time>
      </trkpt>
      <trkpt lat="42.439041" lon="2.771757">
        <ele>777.8</ele>
        <time>2025-08-01T13:45:06.256Z</time>
      </trkpt>
      <trkpt lat="42.439241" lon="2.772050">
        <ele>771.8</ele>
        <time>2025-08-01T13:46:10.595Z</time>
      </trkpt>
      <trkpt lat="42.439116" lon="2.772243">
        <ele>767.7</ele>
        <time>2025-08-01T13:46:58.047Z</time>
      </trkpt>
      <trkpt lat="42.438625" lon="2.772286">
        <ele>758.2</ele>
        <time>2025-08-01T13:48:41.931Z</time>
      </trkpt>
      <trkpt lat="42.438494" lon="2.772562">
        <ele>752.5</ele>
        <time>2025-08-01T13:49:41.986Z</time>
      </trkpt>
      <trkpt lat="42.438562" lon="2.772946">
        <ele>746.1</ele>
        <time>2025-08-01T13:50:48.388Z</time>
      </trkpt>
      <trkpt lat="42.439043" lon="2.773359">
        <ele>743.2</ele>
        <time>2025-08-01T13:52:00.623Z</time>
      </trkpt>
      <trkpt lat="42.439352" lon="2.773619">
        <ele>738.5</ele>
        <time>2025-08-01T13:53:03.375Z</time>
      </trkpt>
      <trkpt lat="42.439555" lon="2.773801">
        <ele>735.3</ele>
        <time>2025-08-01T13:53:45.537Z</time>
      </trkpt>
      <trkpt lat="42.439730" lon="2.774059">
        <ele>731.4</ele>
        <time>2025-08-01T13:54:34.283Z</time>
      </trkpt>
      <trkpt lat="42.439605" lon="2.774252">
        <ele>727.7</ele>
        <time>2025-08-01T13:55:19.119Z</time>
      </trkpt>
      <trkpt lat="42.439300" lon="2.774338">
        <ele>724.1</ele>
        <time>2025-08-01T13:56:10.424Z</time>
      </trkpt>
      <trkpt lat="42.438728" lon="2.774788">
        <ele>708.7</ele>
        <time>2025-08-01T13:58:46.271Z</time>
      </trkpt>
      <trkpt lat="42.438609" lon="2.775024">
        <ele>705.0</ele>
        <time>2025-08-01T13:59:31.351Z</time>
      </trkpt>
      <trkpt lat="42.438894" lon="2.775123">
        <ele>700.0</ele>
        <time>2025-08-01T14:00:30.479Z</time>
      </trkpt>
      <trkpt lat="42.439013" lon="2.775322">
        <ele>694.8</ele>
        <time>2025-08-01T14:01:23.489Z</time>
      </trkpt>
      <trkpt lat="42.438815" lon="2.775657">
        <ele>687.6</ele>
        <time>2025-08-01T14:02:36.575Z</time>
      </trkpt>
      <trkpt lat="42.438631" lon="2.775947">
        <ele>676.7</ele>
        <time>2025-08-01T14:04:09.084Z</time>
      </trkpt>
      <trkpt lat="42.438441" lon="2.776161">
        <ele>669.4</ele>
        <time>2025-08-01T14:05:17.071Z</time>
      </trkpt>
      <trkpt lat="42.438645" lon="2.776330">
        <ele>670.6</ele>
        <time>2025-08-01T14:05:55.685Z</time>
      </trkpt>
      <trkpt lat="42.438936" lon="2.776105">
        <ele>672.9</ele>
        <time>2025-08-01T14:06:52.395Z</time>
      </trkpt>
      <trkpt lat="42.439199" lon="2.776306">
        <ele>676.0</ele>
        <time>2025-08-01T14:07:55.070Z</time>
      </trkpt>
      <trkpt lat="42.439312" lon="2.776575">
        <ele>672.6</ele>
        <time>2025-08-01T14:08:37.410Z</time>
      </trkpt>
      <trkpt lat="42.439617" lon="2.776998">
        <ele>666.1</ele>
        <time>2025-08-01T14:09:57.948Z</time>
      </trkpt>
      <trkpt lat="42.439848" lon="2.777328">
        <ele>659.9</ele>
        <time>2025-08-01T14:11:07.454Z</time>
      </trkpt>
      <trkpt lat="42.440347" lon="2.778093">
        <ele>645.9</ele>
        <time>2025-08-01T14:13:43.214Z</time>
      </trkpt>
      <trkpt lat="42.440678" lon="2.778643">
        <ele>632.9</ele>
        <time>2025-08-01T14:15:50.570Z</time>
      </trkpt>
      <trkpt lat="42.440836" lon="2.778975">
        <ele>626.3</ele>
        <time>2025-08-01T14:16:58.050Z</time>
      </trkpt>
      <trkpt lat="42.440751" lon="2.779182">
        <ele>622.6</ele>
        <time>2025-08-01T14:17:47.976Z</time>
      </trkpt>
      <trkpt lat="42.440519" lon="2.778999">
        <ele>623.8</ele>
        <time>2025-08-01T14:18:25.063Z</time>
      </trkpt>
      <trkpt lat="42.440293" lon="2.779107">
        <ele>624.2</ele>
        <time>2025-08-01T14:18:54.304Z</time>
      </trkpt>
      <trkpt lat="42.440104" lon="2.778895">
        <ele>624.4</ele>
        <time>2025-08-01T14:19:19.583Z</time>
      </trkpt>
      <trkpt lat="42.439608" lon="2.778281">
        <ele>624.9</ele>
        <time>2025-08-01T14:20:28.693Z</time>
      </trkpt>
      <trkpt lat="42.439222" lon="2.777896">
        <ele>625.4</ele>
        <time>2025-08-01T14:21:19.969Z</time>
      </trkpt>
      <trkpt lat="42.438969" lon="2.777931">
        <ele>615.0</ele>
        <time>2025-08-01T14:22:48.483Z</time>
      </trkpt>
      <trkpt lat="42.438766" lon="2.778324">
        <ele>601.5</ele>
        <time>2025-08-01T14:24:43.783Z</time>
      </trkpt>
      <trkpt lat="42.438536" lon="2.778434">
        <ele>601.5</ele>
        <time>2025-08-01T14:25:08.294Z</time>
      </trkpt>
      <trkpt lat="42.438179" lon="2.778104">
        <ele>601.4</ele>
        <time>2025-08-01T14:25:49.537Z</time>
      </trkpt>
      <trkpt lat="42.437870" lon="2.777669">
        <ele>604.3</ele>
        <time>2025-08-01T14:27:01.658Z</time>
      </trkpt>
      <trkpt lat="42.437564" lon="2.777049">
        <ele>607.9</ele>
        <time>2025-08-01T14:28:30.774Z</time>
      </trkpt>
      <trkpt lat="42.437011" lon="2.776067">
        <ele>600.5</ele>
        <time>2025-08-01T14:30:42.275Z</time>
      </trkpt>
      <trkpt lat="42.436878" lon="2.775716">
        <ele>606.2</ele>
        <time>2025-08-01T14:32:09.602Z</time>
      </trkpt>
      <trkpt lat="42.436820" lon="2.775121">
        <ele>615.0</ele>
        <time>2025-08-01T14:34:22.255Z</time>
      </trkpt>
      <trkpt lat="42.436764" lon="2.774700">
        <ele>617.7</ele>
        <time>2025-08-01T14:35:19.358Z</time>
      </trkpt>
      <trkpt lat="42.436597" lon="2.774777">
        <ele>617.0</ele>
        <time>2025-08-01T14:35:49.064Z</time>
      </trkpt>
      <trkpt lat="42.436549" lon="2.775112">
        <ele>612.5</ele>
        <time>2025-08-01T14:36:39.655Z</time>
      </trkpt>
      <trkpt lat="42.436440" lon="2.775746">
        <ele>606.1</ele>
        <time>2025-08-01T14:38:04.251Z</time>
      </trkpt>
      <trkpt lat="42.436317" lon="2.776287">
        <ele>600.6</ele>
        <time>2025-08-01T14:39:17.459Z</time>
      </trkpt>
      <trkpt lat="42.436420" lon="2.776680">
        <ele>596.2</ele>
        <time>2025-08-01T14:40:12.807Z</time>
      </trkpt>
      <trkpt lat="42.436443" lon="2.777047">
        <ele>596.9</ele>
        <time>2025-08-01T14:40:45.978Z</time>
      </trkpt>
      <trkpt lat="42.436369" lon="2.777608">
        <ele>598.0</ele>
        <time>2025-08-01T14:41:37.314Z</time>
      </trkpt>
      <trkpt lat="42.436207" lon="2.777915">
        <ele>599.3</ele>
        <time>2025-08-01T14:42:16.834Z</time>
      </trkpt>
      <trkpt lat="42.436389" lon="2.778404">
        <ele>601.2</ele>
        <time>2025-08-01T14:43:16.275Z</time>
      </trkpt>
      <trkpt lat="42.436526" lon="2.778806">
        <ele>600.8</ele>
        <time>2025-08-01T14:43:50.409Z</time>
      </trkpt>
      <trkpt lat="42.436469" lon="2.779701">
        <ele>599.9</ele>
        <time>2025-08-01T14:44:58.518Z</time>
      </trkpt>
      <trkpt lat="42.436294" lon="2.780166">
        <ele>613.4</ele>
        <time>2025-08-01T14:47:53.782Z</time>
      </trkpt>
      <trkpt lat="42.436094" lon="2.780494">
        <ele>624.2</ele>
        <time>2025-08-01T14:50:14.805Z</time>
      </trkpt>
      <trkpt lat="42.436099" lon="2.780784">
        <ele>623.0</ele>
        <time>2025-08-01T14:50:43.552Z</time>
      </trkpt>
      <trkpt lat="42.436315" lon="2.781136">
        <ele>621.2</ele>
        <time>2025-08-01T14:51:26.468Z</time>
      </trkpt>
      <trkpt lat="42.436497" lon="2.781492">
        <ele>619.4</ele>
        <time>2025-08-01T14:52:07.865Z</time>
      </trkpt>
      <trkpt lat="42.436645" lon="2.782027">
        <ele>617.0</ele>
        <time>2025-08-01T14:53:02.475Z</time>
      </trkpt>
      <trkpt lat="42.436831" lon="2.782414">
        <ele>615.0</ele>
        <time>2025-08-01T14:53:47.040Z</time>
      </trkpt>
      <trkpt lat="42.436934" lon="2.782817">
        <ele>613.1</ele>
        <time>2025-08-01T14:54:28.164Z</time>
      </trkpt>
      <trkpt lat="42.437117" lon="2.783709">
        <ele>618.8</ele>
        <time>2025-08-01T14:56:31.428Z</time>
      </trkpt>
      <trkpt lat="42.437871" lon="2.786209">
        <ele>601.8</ele>
        <time>2025-08-01T15:01:22.988Z</time>
      </trkpt>
      <trkpt lat="42.437894" lon="2.786568">
        <ele>606.1</ele>
        <time>2025-08-01T15:02:32.596Z</time>
      </trkpt>
      <trkpt lat="42.437790" lon="2.786812">
        <ele>609.8</ele>
        <time>2025-08-01T15:03:31.712Z</time>
      </trkpt>
      <trkpt lat="42.437327" lon="2.786826">
        <ele>614.7</ele>
        <time>2025-08-01T15:05:07.006Z</time>
      </trkpt>
      <trkpt lat="42.437114" lon="2.786705">
        <ele>616.4</ele>
        <time>2025-08-01T15:05:46.564Z</time>
      </trkpt>
      <trkpt lat="42.436879" lon="2.786619">
        <ele>618.2</ele>
        <time>2025-08-01T15:06:28.255Z</time>
      </trkpt>
      <trkpt lat="42.436642" lon="2.786603">
        <ele>617.4</ele>
        <time>2025-08-01T15:06:55.638Z</time>
      </trkpt>
      <trkpt lat="42.436404" lon="2.786587">
        <ele>616.7</ele>
        <time>2025-08-01T15:07:23.044Z</time>
      </trkpt>
      <trkpt lat="42.435803" lon="2.786543">
        <ele>614.2</ele>
        <time>2025-08-01T15:08:35.146Z</time>
      </trkpt>
      <trkpt lat="42.435340" lon="2.786478">
        <ele>614.6</ele>
        <time>2025-08-01T15:09:23.713Z</time>
      </trkpt>
      <trkpt lat="42.435107" lon="2.786514">
        <ele>611.9</ele>
        <time>2025-08-01T15:10:02.242Z</time>
      </trkpt>
      <trkpt lat="42.434597" lon="2.786850">
        <ele>607.5</ele>
        <time>2025-08-01T15:11:23.763Z</time>
      </trkpt>
      <trkpt lat="42.434300" lon="2.786882">
        <ele>605.8</ele>
        <time>2025-08-01T15:12:01.866Z</time>
      </trkpt>
      <trkpt lat="42.433659" lon="2.786702">
        <ele>599.2</ele>
        <time>2025-08-01T15:13:44.159Z</time>
      </trkpt>
      <trkpt lat="42.433490" lon="2.786426">
        <ele>602.1</ele>
        <time>2025-08-01T15:14:41.367Z</time>
      </trkpt>
      <trkpt lat="42.433417" lon="2.786081">
        <ele>604.8</ele>
        <time>2025-08-01T15:15:34.353Z</time>
      </trkpt>
      <trkpt lat="42.433126" lon="2.785748">
        <ele>605.4</ele>
        <time>2025-08-01T15:16:17.773Z</time>
      </trkpt>
      <trkpt lat="42.433039" lon="2.785426">
        <ele>605.8</ele>
        <time>2025-08-01T15:16:46.127Z</time>
      </trkpt>
      <trkpt lat="42.432793" lon="2.785422">
        <ele>595.2</ele>
        <time>2025-08-01T15:18:19.859Z</time>
      </trkpt>
      <trkpt lat="42.432588" lon="2.785872">
        <ele>581.8</ele>
        <time>2025-08-01T15:20:17.290Z</time>
      </trkpt>
      <trkpt lat="42.432292" lon="2.785963">
        <ele>579.3</ele>
        <time>2025-08-01T15:21:04.740Z</time>
      </trkpt>
      <trkpt lat="42.432077" lon="2.785853">
        <ele>577.5</ele>
        <time>2025-08-01T15:21:36.940Z</time>
      </trkpt>
      <trkpt lat="42.431700" lon="2.786046">
        <ele>568.7</ele>
        <time>2025-08-01T15:23:08.840Z</time>
      </trkpt>
      <trkpt lat="42.431458" lon="2.786027">
        <ele>568.6</ele>
        <time>2025-08-01T15:23:33.449Z</time>
      </trkpt>
      <trkpt lat="42.431306" lon="2.785770">
        <ele>575.2</ele>
        <time>2025-08-01T15:25:04.197Z</time>
      </trkpt>
      <trkpt lat="42.430947" lon="2.785799">
        <ele>573.1</ele>
        <time>2025-08-01T15:25:52.342Z</time>
      </trkpt>
      <trkpt lat="42.430677" lon="2.785771">
        <ele>566.4</ele>
        <time>2025-08-01T15:26:58.571Z</time>
      </trkpt>
      <trkpt lat="42.430352" lon="2.785714">
        <ele>564.2</ele>
        <time>2025-08-01T15:27:43.624Z</time>
      </trkpt>
      <trkpt lat="42.430200" lon="2.785375">
        <ele>562.2</ele>
        <time>2025-08-01T15:28:25.326Z</time>
      </trkpt>
      <trkpt lat="42.430112" lon="2.785569">
        <ele>560.9</ele>
        <time>2025-08-01T15:28:54.622Z</time>
      </trkpt>
      <trkpt lat="42.429814" lon="2.785477">
        <ele>559.2</ele>
        <time>2025-08-01T15:29:34.214Z</time>
      </trkpt>
      <trkpt lat="42.429606" lon="2.785699">
        <ele>553.3</ele>
        <time>2025-08-01T15:30:34.978Z</time>
      </trkpt>
      <trkpt lat="42.429349" lon="2.785695">
        <ele>547.6</ele>
        <time>2025-08-01T15:31:33.889Z</time>
      </trkpt>
      <trkpt lat="42.428874" lon="2.785468">
        <ele>546.7</ele>
        <time>2025-08-01T15:32:28.179Z</time>
      </trkpt>
      <trkpt lat="42.428587" lon="2.785429">
        <ele>545.8</ele>
        <time>2025-08-01T15:33:00.963Z</time>
      </trkpt>
      <trkpt lat="42.427904" lon="2.785065">
        <ele>543.6</ele>
        <time>2025-08-01T15:34:24.285Z</time>
      </trkpt>
      <trkpt lat="42.427736" lon="2.785273">
        <ele>542.4</ele>
        <time>2025-08-01T15:34:53.690Z</time>
      </trkpt>
      <trkpt lat="42.427301" lon="2.785084">
        <ele>540.0</ele>
        <time>2025-08-01T15:35:54.700Z</time>
      </trkpt>
      <trkpt lat="42.427106" lon="2.785024">
        <ele>540.1</ele>
        <time>2025-08-01T15:36:24.188Z</time>
      </trkpt>
      <trkpt lat="42.426876" lon="2.785103">
        <ele>540.2</ele>
        <time>2025-08-01T15:36:53.112Z</time>
      </trkpt>
      <trkpt lat="42.426437" lon="2.785101">
        <ele>540.5</ele>
        <time>2025-08-01T15:37:38.378Z</time>
      </trkpt>
      <trkpt lat="42.426542" lon="2.785394">
        <ele>539.0</ele>
        <time>2025-08-01T15:38:10.638Z</time>
      </trkpt>
      <trkpt lat="42.426694" lon="2.785676">
        <ele>536.8</ele>
        <time>2025-08-01T15:38:48.862Z</time>
      </trkpt>
      <trkpt lat="42.426711" lon="2.786096">
        <ele>537.0</ele>
        <time>2025-08-01T15:39:21.587Z</time>
      </trkpt>
      <trkpt lat="42.426835" lon="2.786375">
        <ele>538.4</ele>
        <time>2025-08-01T15:39:59.418Z</time>
      </trkpt>
      <trkpt lat="42.427076" lon="2.786519">
        <ele>537.7</ele>
        <time>2025-08-01T15:40:28.965Z</time>
      </trkpt>
      <trkpt lat="42.427464" lon="2.786701">
        <ele>536.5</ele>
        <time>2025-08-01T15:41:14.921Z</time>
      </trkpt>
      <trkpt lat="42.427756" lon="2.786930">
        <ele>537.8</ele>
        <time>2025-08-01T15:42:00.534Z</time>
      </trkpt>
      <trkpt lat="42.428044" lon="2.787044">
        <ele>538.3</ele>
        <time>2025-08-01T15:42:34.331Z</time>
      </trkpt>
      <trkpt lat="42.428393" lon="2.787155">
        <ele>538.2</ele>
        <time>2025-08-01T15:43:09.527Z</time>
      </trkpt>
      <trkpt lat="42.428610" lon="2.787290">
        <ele>539.2</ele>
        <time>2025-08-01T15:43:43.025Z</time>
      </trkpt>
      <trkpt lat="42.428927" lon="2.787366">
        <ele>540.6</ele>
        <time>2025-08-01T15:44:28.616Z</time>
      </trkpt>
      <trkpt lat="42.429206" lon="2.787377">
        <ele>540.1</ele>
        <time>2025-08-01T15:44:58.227Z</time>
      </trkpt>
      <trkpt lat="42.429471" lon="2.787536">
        <ele>539.6</ele>
        <time>2025-08-01T15:45:28.966Z</time>
      </trkpt>
      <trkpt lat="42.430033" lon="2.787928">
        <ele>535.4</ele>
        <time>2025-08-01T15:46:54.343Z</time>
      </trkpt>
      <trkpt lat="42.430515" lon="2.788260">
        <ele>529.1</ele>
        <time>2025-08-01T15:48:24.055Z</time>
      </trkpt>
      <trkpt lat="42.431072" lon="2.788619">
        <ele>520.1</ele>
        <time>2025-08-01T15:50:16.624Z</time>
      </trkpt>
      <trkpt lat="42.431500" lon="2.788910">
        <ele>515.5</ele>
        <time>2025-08-01T15:51:29.627Z</time>
      </trkpt>
      <trkpt lat="42.431979" lon="2.789298">
        <ele>512.7</ele>
        <time>2025-08-01T15:52:39.662Z</time>
      </trkpt>
      <trkpt lat="42.432277" lon="2.789620">
        <ele>511.6</ele>
        <time>2025-08-01T15:53:22.492Z</time>
      </trkpt>
      <trkpt lat="42.432676" lon="2.790045">
        <ele>510.2</ele>
        <time>2025-08-01T15:54:19.722Z</time>
      </trkpt>
      <trkpt lat="42.432908" lon="2.790307">
        <ele>512.2</ele>
        <time>2025-08-01T15:55:08.839Z</time>
      </trkpt>
      <trkpt lat="42.432958" lon="2.790635">
        <ele>513.8</ele>
        <time>2025-08-01T15:55:50.276Z</time>
      </trkpt>
      <trkpt lat="42.432905" lon="2.791020">
        <ele>519.2</ele>
        <time>2025-08-01T15:57:13.481Z</time>
      </trkpt>
      <trkpt lat="42.433109" lon="2.791244">
        <ele>524.3</ele>
        <time>2025-08-01T15:58:31.723Z</time>
      </trkpt>
      <trkpt lat="42.433443" lon="2.791177">
        <ele>518.7</ele>
        <time>2025-08-01T15:59:37.553Z</time>
      </trkpt>
      <trkpt lat="42.434132" lon="2.791591">
        <ele>515.5</ele>
        <time>2025-08-01T16:01:08.951Z</time>
      </trkpt>
      <trkpt lat="42.434686" lon="2.792092">
        <ele>511.5</ele>
        <time>2025-08-01T16:02:36.671Z</time>
      </trkpt>
      <trkpt lat="42.435447" lon="2.792760">
        <ele>508.5</ele>
        <time>2025-08-01T16:04:20.971Z</time>
      </trkpt>
      <trkpt lat="42.435697" lon="2.792969">
        <ele>507.9</ele>
        <time>2025-08-01T16:04:52.610Z</time>
      </trkpt>
      <trkpt lat="42.436205" lon="2.793474">
        <ele>506.6</ele>
        <time>2025-08-01T16:06:00.225Z</time>
      </trkpt>
      <trkpt lat="42.436577" lon="2.793630">
        <ele>501.8</ele>
        <time>2025-08-01T16:07:06.582Z</time>
      </trkpt>
      <trkpt lat="42.436748" lon="2.793952">
        <ele>503.4</ele>
        <time>2025-08-01T16:07:51.305Z</time>
      </trkpt>
      <trkpt lat="42.436805" lon="2.794310">
        <ele>508.7</ele>
        <time>2025-08-01T16:09:12.127Z</time>
      </trkpt>
      <trkpt lat="42.436902" lon="2.794602">
        <ele>513.4</ele>
        <time>2025-08-01T16:10:22.447Z</time>
      </trkpt>
      <trkpt lat="42.437120" lon="2.795124">
        <ele>524.9</ele>
        <time>2025-08-01T16:13:03.615Z</time>
      </trkpt>
      <trkpt lat="42.437346" lon="2.794967">
        <ele>520.9</ele>
        <time>2025-08-01T16:13:56.950Z</time>
      </trkpt>
      <trkpt lat="42.437362" lon="2.794583">
        <ele>511.8</ele>
        <time>2025-08-01T16:15:19.005Z</time>
      </trkpt>
      <trkpt lat="42.437561" lon="2.794344">
        <ele>512.0</ele>
        <time>2025-08-01T16:15:48.333Z</time>
      </trkpt>
      <trkpt lat="42.437955" lon="2.794508">
        <ele>512.4</ele>
        <time>2025-08-01T16:16:32.152Z</time>
      </trkpt>
      <trkpt lat="42.438206" lon="2.794516">
        <ele>511.2</ele>
        <time>2025-08-01T16:17:04.272Z</time>
      </trkpt>
      <trkpt lat="42.438782" lon="2.794542">
        <ele>508.4</ele>
        <time>2025-08-01T16:18:16.114Z</time>
      </trkpt>
      <trkpt lat="42.439137" lon="2.794680">
        <ele>507.8</ele>
        <time>2025-08-01T16:18:54.753Z</time>
      </trkpt>
      <trkpt lat="42.439691" lon="2.794713">
        <ele>507.0</ele>
        <time>2025-08-01T16:19:52.561Z</time>
      </trkpt>
      <trkpt lat="42.439989" lon="2.795001">
        <ele>516.6</ele>
        <time>2025-08-01T16:22:06.804Z</time>
      </trkpt>
      <trkpt lat="42.440347" lon="2.794687">
        <ele>517.9</ele>
        <time>2025-08-01T16:23:02.462Z</time>
      </trkpt>
      <trkpt lat="42.440636" lon="2.794422">
        <ele>513.9</ele>
        <time>2025-08-01T16:23:59.765Z</time>
      </trkpt>
      <trkpt lat="42.440962" lon="2.794187">
        <ele>514.7</ele>
        <time>2025-08-01T16:24:43.475Z</time>
      </trkpt>
      <trkpt lat="42.441358" lon="2.794015">
        <ele>512.7</ele>
        <time>2025-08-01T16:25:34.863Z</time>
      </trkpt>
      <trkpt lat="42.441512" lon="2.793741">
        <ele>509.5</ele>
        <time>2025-08-01T16:26:18.773Z</time>
      </trkpt>
      <trkpt lat="42.441764" lon="2.793612">
        <ele>504.2</ele>
        <time>2025-08-01T16:27:17.513Z</time>
      </trkpt>
      <trkpt lat="42.441910" lon="2.793369">
        <ele>499.2</ele>
        <time>2025-08-01T16:28:10.190Z</time>
      </trkpt>
      <trkpt lat="42.442084" lon="2.793030">
        <ele>492.4</ele>
        <time>2025-08-01T16:29:20.237Z</time>
      </trkpt>
      <trkpt lat="42.442381" lon="2.792973">
        <ele>485.6</ele>
        <time>2025-08-01T16:30:29.327Z</time>
      </trkpt>
      <trkpt lat="42.442665" lon="2.793156">
        <ele>487.1</ele>
        <time>2025-08-01T16:31:16.224Z</time>
      </trkpt>
      <trkpt lat="42.442963" lon="2.793716">
        <ele>495.3</ele>
        <time>2025-08-01T16:33:28.383Z</time>
      </trkpt>
      <trkpt lat="42.443122" lon="2.794105">
        <ele>500.0</ele>
        <time>2025-08-01T16:34:48.066Z</time>
      </trkpt>
      <trkpt lat="42.442982" lon="2.794497">
        <ele>503.8</ele>
        <time>2025-08-01T16:36:00.568Z</time>
      </trkpt>
      <trkpt lat="42.442929" lon="2.795210">
        <ele>508.4</ele>
        <time>2025-08-01T16:37:38.378Z</time>
      </trkpt>
      <trkpt lat="42.443004" lon="2.795524">
        <ele>501.8</ele>
        <time>2025-08-01T16:38:41.632Z</time>
      </trkpt>
      <trkpt lat="42.443392" lon="2.795920">
        <ele>488.7</ele>
        <time>2025-08-01T16:40:46.556Z</time>
      </trkpt>
      <trkpt lat="42.443638" lon="2.796289">
        <ele>482.9</ele>
        <time>2025-08-01T16:41:57.708Z</time>
      </trkpt>
      <trkpt lat="42.443638" lon="2.796708">
        <ele>485.7</ele>
        <time>2025-08-01T16:42:55.719Z</time>
      </trkpt>
      <trkpt lat="42.443340" lon="2.796902">
        <ele>495.0</ele>
        <time>2025-08-01T16:45:03.884Z</time>
      </trkpt>
      <trkpt lat="42.443409" lon="2.797264">
        <ele>494.2</ele>
        <time>2025-08-01T16:45:37.363Z</time>
      </trkpt>
      <trkpt lat="42.443748" lon="2.797466">
        <ele>493.2</ele>
        <time>2025-08-01T16:46:18.781Z</time>
      </trkpt>
      <trkpt lat="42.444012" lon="2.797473">
        <ele>484.7</ele>
        <time>2025-08-01T16:47:35.371Z</time>
      </trkpt>
      <trkpt lat="42.444313" lon="2.797518">
        <ele>479.4</ele>
        <time>2025-08-01T16:48:36.216Z</time>
      </trkpt>
      <trkpt lat="42.444465" lon="2.797851">
        <ele>484.3</ele>
        <time>2025-08-01T16:49:54.216Z</time>
      </trkpt>
      <trkpt lat="42.444752" lon="2.798089">
        <ele>488.0</ele>
        <time>2025-08-01T16:51:09.367Z</time>
      </trkpt>
      <trkpt lat="42.444969" lon="2.798363">
        <ele>490.0</ele>
        <time>2025-08-01T16:51:58.592Z</time>
      </trkpt>
      <trkpt lat="42.445369" lon="2.798379">
        <ele>489.7</ele>
        <time>2025-08-01T16:52:39.071Z</time>
      </trkpt>
      <trkpt lat="42.445808" lon="2.798545">
        <ele>488.0</ele>
        <time>2025-08-01T16:53:32.715Z</time>
      </trkpt>
      <trkpt lat="42.446040" lon="2.798437">
        <ele>486.4</ele>
        <time>2025-08-01T16:54:06.155Z</time>
      </trkpt>
      <trkpt lat="42.446248" lon="2.798275">
        <ele>483.5</ele>
        <time>2025-08-01T16:54:47.615Z</time>
      </trkpt>
      <trkpt lat="42.446522" lon="2.798393">
        <ele>480.2</ele>
        <time>2025-08-01T16:55:34.791Z</time>
      </trkpt>
      <trkpt lat="42.446775" lon="2.798453">
        <ele>479.3</ele>
        <time>2025-08-01T16:56:04.861Z</time>
      </trkpt>
      <trkpt lat="42.446871" lon="2.798520">
        <ele>478.9</ele>
        <time>2025-08-01T16:56:17.398Z</time>
      </trkpt>
    </trkseg>
  </trk>
</gpx>
