<?xml version="1.0" encoding="UTF-8"?>
<gpx version="1.1" creator="carnet-trek seed (OpenStreetMap, EU-DEM)" xmlns="http://www.topografix.com/GPX/1/1">
  <metadata>
    <name>GR10 – Bagnères-de-Luchon → Fos</name>
    <copyright author="OpenStreetMap contributors"><license>https://opendatacommons.org/licenses/odbl/</license></copyright>
  </metadata>
  <wpt lat="42.791278" lon="0.591148">
    <name>Bagnères-de-Luchon</name>
    <sym>Convenience Store</sym>
  </wpt>
  <wpt lat="42.846107" lon="0.674883">
    <name>Point culminant (2178 m)</name>
    <sym>Summit</sym>
  </wpt>
  <wpt lat="42.865408" lon="0.682142">
    <name>Cabane Courraus</name>
    <sym>Lodging</sym>
  </wpt>
  <wpt lat="42.862901" lon="0.692342">
    <name>Cabane Artigue</name>
    <sym>Lodging</sym>
  </wpt>
  <wpt lat="42.832295" lon="0.619259">
    <name>Gîte d&apos;étape GR10</name>
    <sym>Lodging</sym>
  </wpt>
  <wpt lat="42.832626" lon="0.619275">
    <name>Gite d&apos;Etape Artigue</name>
    <sym>Lodging</sym>
  </wpt>
  <wpt lat="42.874077" lon="0.734271">
    <name>Fos</name>
    <sym>Convenience Store</sym>
  </wpt>
  <trk>
    <name>GR10 – Bagnères-de-Luchon → Fos</name>
    <type>hike</type>
    <trkseg>
      <trkpt lat="42.791278" lon="0.591148">
        <ele>635.7</ele>
        <time>2025-07-11T07:30:00.000Z</time>
      </trkpt>
      <trkpt lat="42.791653" lon="0.591176">
        <ele>635.4</ele>
        <time>2025-07-11T07:30:37.944Z</time>
      </trkpt>
      <trkpt lat="42.791956" lon="0.591352">
        <ele>634.7</ele>
        <time>2025-07-11T07:31:14.041Z</time>
      </trkpt>
      <trkpt lat="42.792248" lon="0.591631">
        <ele>634.0</ele>
        <time>2025-07-11T07:31:52.394Z</time>
      </trkpt>
      <trkpt lat="42.793040" lon="0.592387">
        <ele>631.9</ele>
        <time>2025-07-11T07:33:37.257Z</time>
      </trkpt>
      <trkpt lat="42.793664" lon="0.592985">
        <ele>631.2</ele>
        <time>2025-07-11T07:34:54.113Z</time>
      </trkpt>
      <trkpt lat="42.793654" lon="0.593263">
        <ele>630.4</ele>
        <time>2025-07-11T07:35:23.862Z</time>
      </trkpt>
      <trkpt lat="42.793726" lon="0.593589">
        <ele>629.6</ele>
        <time>2025-07-11T07:35:53.045Z</time>
      </trkpt>
      <trkpt lat="42.793833" lon="0.594058">
        <ele>628.3</ele>
        <time>2025-07-11T07:36:35.724Z</time>
      </trkpt>
      <trkpt lat="42.793879" lon="0.594433">
        <ele>627.5</ele>
        <time>2025-07-11T07:37:07.024Z</time>
      </trkpt>
      <trkpt lat="42.794179" lon="0.596531">
        <ele>625.4</ele>
        <time>2025-07-11T07:39:49.585Z</time>
      </trkpt>
      <trkpt lat="42.794360" lon="0.596571">
        <ele>625.1</ele>
        <time>2025-07-11T07:40:13.773Z</time>
      </trkpt>
      <trkpt lat="42.794429" lon="0.597315">
        <ele>624.3</ele>
        <time>2025-07-11T07:41:17.230Z</time>
      </trkpt>
      <trkpt lat="42.794497" lon="0.597679">
        <ele>623.8</ele>
        <time>2025-07-11T07:41:46.291Z</time>
      </trkpt>
      <trkpt lat="42.794717" lon="0.598050">
        <ele>623.2</ele>
        <time>2025-07-11T07:42:23.315Z</time>
      </trkpt>
      <trkpt lat="42.795067" lon="0.598572">
        <ele>621.8</ele>
        <time>2025-07-11T07:43:22.012Z</time>
      </trkpt>
      <trkpt lat="42.795228" lon="0.598875">
        <ele>621.0</ele>
        <time>2025-07-11T07:43:53.260Z</time>
      </trkpt>
      <trkpt lat="42.795374" lon="0.599148">
        <ele>620.2</ele>
        <time>2025-07-11T07:44:21.414Z</time>
      </trkpt>
      <trkpt lat="42.795608" lon="0.599586">
        <ele>619.9</ele>
        <time>2025-07-11T07:45:00.984Z</time>
      </trkpt>
      <trkpt lat="42.795785" lon="0.599889">
        <ele>619.7</ele>
        <time>2025-07-11T07:45:29.330Z</time>
      </trkpt>
      <trkpt lat="42.795956" lon="0.600165">
        <ele>619.5</ele>
        <time>2025-07-11T07:45:55.717Z</time>
      </trkpt>
      <trkpt lat="42.796135" lon="0.600427">
        <ele>619.3</ele>
        <time>2025-07-11T07:46:21.860Z</time>
      </trkpt>
      <trkpt lat="42.796341" lon="0.600681">
        <ele>618.5</ele>
        <time>2025-07-11T07:46:53.474Z</time>
      </trkpt>
      <trkpt lat="42.796559" lon="0.600916">
        <ele>617.6</ele>
        <time>2025-07-11T07:47:24.966Z</time>
      </trkpt>
      <trkpt lat="42.796790" lon="0.601087">
        <ele>617.6</ele>
        <time>2025-07-11T07:47:50.351Z</time>
      </trkpt>
      <trkpt lat="42.797036" lon="0.601266">
        <ele>617.5</ele>
        <time>2025-07-11T07:48:17.274Z</time>
      </trkpt>
      <trkpt lat="42.797297" lon="0.601445">
        <ele>617.8</ele>
        <time>2025-07-11T07:48:47.928Z</time>
      </trkpt>
      <trkpt lat="42.797517" lon="0.601610">
        <ele>618.1</ele>
        <time>2025-07-11T07:49:14.392Z</time>
      </trkpt>
      <trkpt lat="42.797907" lon="0.601848">
        <ele>618.0</ele>
        <time>2025-07-11T07:49:55.476Z</time>
      </trkpt>
      <trkpt lat="42.798174" lon="0.601956">
        <ele>618.0</ele>
        <time>2025-07-11T07:50:22.244Z</time>
      </trkpt>
      <trkpt lat="42.798420" lon="0.601981">
        <ele>617.5</ele>
        <time>2025-07-11T07:50:48.548Z</time>
      </trkpt>
      <trkpt lat="42.798939" lon="0.602069">
        <ele>616.5</ele>
        <time>2025-07-11T07:51:44.256Z</time>
      </trkpt>
      <trkpt lat="42.799315" lon="0.602084">
        <ele>615.5</ele>
        <time>2025-07-11T07:52:26.080Z</time>
      </trkpt>
      <trkpt lat="42.799618" lon="0.602104">
        <ele>614.7</ele>
        <time>2025-07-11T07:52:59.742Z</time>
      </trkpt>
      <trkpt lat="42.800024" lon="0.602249">
        <ele>614.2</ele>
        <time>2025-07-11T07:53:42.950Z</time>
      </trkpt>
      <trkpt lat="42.800382" lon="0.602494">
        <ele>613.7</ele>
        <time>2025-07-11T07:54:24.124Z</time>
      </trkpt>
      <trkpt lat="42.800593" lon="0.602636">
        <ele>615.0</ele>
        <time>2025-07-11T07:54:59.869Z</time>
      </trkpt>
      <trkpt lat="42.801032" lon="0.603070">
        <ele>618.0</ele>
        <time>2025-07-11T07:56:22.177Z</time>
      </trkpt>
      <trkpt lat="42.801236" lon="0.603237">
        <ele>618.2</ele>
        <time>2025-07-11T07:56:47.245Z</time>
      </trkpt>
      <trkpt lat="42.801536" lon="0.603375">
        <ele>618.5</ele>
        <time>2025-07-11T07:57:20.441Z</time>
      </trkpt>
      <trkpt lat="42.801874" lon="0.603512">
        <ele>617.7</ele>
        <time>2025-07-11T07:57:58.927Z</time>
      </trkpt>
      <trkpt lat="42.802132" lon="0.603511">
        <ele>616.9</ele>
        <time>2025-07-11T07:58:28.106Z</time>
      </trkpt>
      <trkpt lat="42.802689" lon="0.603246">
        <ele>614.8</ele>
        <time>2025-07-11T07:59:37.424Z</time>
      </trkpt>
      <trkpt lat="42.803329" lon="0.603002">
        <ele>613.6</ele>
        <time>2025-07-11T08:00:47.861Z</time>
      </trkpt>
      <trkpt lat="42.803647" lon="0.602934">
        <ele>614.1</ele>
        <time>2025-07-11T08:01:23.499Z</time>
      </trkpt>
      <trkpt lat="42.804164" lon="0.602867">
        <ele>614.8</ele>
        <time>2025-07-11T08:02:20.822Z</time>
      </trkpt>
      <trkpt lat="42.804439" lon="0.602810">
        <ele>614.3</ele>
        <time>2025-07-11T08:02:50.718Z</time>
      </trkpt>
      <trkpt lat="42.804606" lon="0.602362">
        <ele>613.6</ele>
        <time>2025-07-11T08:03:36.842Z</time>
      </trkpt>
      <trkpt lat="42.804679" lon="0.601983">
        <ele>613.3</ele>
        <time>2025-07-11T08:04:06.042Z</time>
      </trkpt>
      <trkpt lat="42.804783" lon="0.601594">
        <ele>613.1</ele>
        <time>2025-07-11T08:04:36.202Z</time>
      </trkpt>
      <trkpt lat="42.804997" lon="0.601323">
        <ele>613.0</ele>
        <time>2025-07-11T08:05:05.226Z</time>
      </trkpt>
      <trkpt lat="42.805277" lon="0.601127">
        <ele>612.4</ele>
        <time>2025-07-11T08:05:38.684Z</time>
      </trkpt>
      <trkpt lat="42.805535" lon="0.601619">
        <ele>612.5</ele>
        <time>2025-07-11T08:06:34.176Z</time>
      </trkpt>
      <trkpt lat="42.805646" lon="0.602102">
        <ele>612.9</ele>
        <time>2025-07-11T08:07:13.106Z</time>
      </trkpt>
      <trkpt lat="42.805695" lon="0.602424">
        <ele>613.1</ele>
        <time>2025-07-11T08:07:38.040Z</time>
      </trkpt>
      <trkpt lat="42.805828" lon="0.603614">
        <ele>613.8</ele>
        <time>2025-07-11T08:09:09.294Z</time>
      </trkpt>
      <trkpt lat="42.805928" lon="0.603912">
        <ele>613.7</ele>
        <time>2025-07-11T08:09:32.684Z</time>
      </trkpt>
      <trkpt lat="42.806184" lon="0.604127">
        <ele>613.7</ele>
        <time>2025-07-11T08:10:01.942Z</time>
      </trkpt>
      <trkpt lat="42.806479" lon="0.604314">
        <ele>614.2</ele>
        <time>2025-07-11T08:10:39.164Z</time>
      </trkpt>
      <trkpt lat="42.806978" lon="0.604993">
        <ele>615.5</ele>
        <time>2025-07-11T08:11:59.313Z</time>
      </trkpt>
      <trkpt lat="42.807116" lon="0.605364">
        <ele>616.6</ele>
        <time>2025-07-11T08:12:39.689Z</time>
      </trkpt>
      <trkpt lat="42.807142" lon="0.606186">
        <ele>618.7</ele>
        <time>2025-07-11T08:13:58.907Z</time>
      </trkpt>
      <trkpt lat="42.807152" lon="0.606799">
        <ele>620.3</ele>
        <time>2025-07-11T08:14:58.167Z</time>
      </trkpt>
      <trkpt lat="42.807164" lon="0.607212">
        <ele>621.6</ele>
        <time>2025-07-11T08:15:40.329Z</time>
      </trkpt>
      <trkpt lat="42.807239" lon="0.607629">
        <ele>622.9</ele>
        <time>2025-07-11T08:16:24.183Z</time>
      </trkpt>
      <trkpt lat="42.807390" lon="0.608175">
        <ele>625.5</ele>
        <time>2025-07-11T08:17:31.274Z</time>
      </trkpt>
      <trkpt lat="42.807617" lon="0.608499">
        <ele>627.5</ele>
        <time>2025-07-11T08:18:23.880Z</time>
      </trkpt>
      <trkpt lat="42.807781" lon="0.608733">
        <ele>629.1</ele>
        <time>2025-07-11T08:19:02.673Z</time>
      </trkpt>
      <trkpt lat="42.808005" lon="0.608999">
        <ele>631.2</ele>
        <time>2025-07-11T08:19:53.040Z</time>
      </trkpt>
      <trkpt lat="42.808238" lon="0.609186">
        <ele>633.2</ele>
        <time>2025-07-11T08:20:39.098Z</time>
      </trkpt>
      <trkpt lat="42.808458" lon="0.609133">
        <ele>632.6</ele>
        <time>2025-07-11T08:21:04.098Z</time>
      </trkpt>
      <trkpt lat="42.808732" lon="0.609019">
        <ele>631.8</ele>
        <time>2025-07-11T08:21:35.958Z</time>
      </trkpt>
      <trkpt lat="42.808915" lon="0.608753">
        <ele>630.1</ele>
        <time>2025-07-11T08:22:11.936Z</time>
      </trkpt>
      <trkpt lat="42.809132" lon="0.608689">
        <ele>628.6</ele>
        <time>2025-07-11T08:22:42.116Z</time>
      </trkpt>
      <trkpt lat="42.809452" lon="0.608709">
        <ele>629.1</ele>
        <time>2025-07-11T08:23:17.365Z</time>
      </trkpt>
      <trkpt lat="42.809684" lon="0.609098">
        <ele>631.6</ele>
        <time>2025-07-11T08:24:18.676Z</time>
      </trkpt>
      <trkpt lat="42.809851" lon="0.609304">
        <ele>633.9</ele>
        <time>2025-07-11T08:25:04.184Z</time>
      </trkpt>
      <trkpt lat="42.810072" lon="0.609445">
        <ele>636.5</ele>
        <time>2025-07-11T08:25:53.360Z</time>
      </trkpt>
      <trkpt lat="42.810439" lon="0.609708">
        <ele>641.1</ele>
        <time>2025-07-11T08:27:21.435Z</time>
      </trkpt>
      <trkpt lat="42.810792" lon="0.609784">
        <ele>647.2</ele>
        <time>2025-07-11T08:28:58.406Z</time>
      </trkpt>
      <trkpt lat="42.810898" lon="0.610080">
        <ele>652.6</ele>
        <time>2025-07-11T08:30:16.714Z</time>
      </trkpt>
      <trkpt lat="42.811132" lon="0.610183">
        <ele>658.3</ele>
        <time>2025-07-11T08:31:40.841Z</time>
      </trkpt>
      <trkpt lat="42.811367" lon="0.610363">
        <ele>664.6</ele>
        <time>2025-07-11T08:33:12.594Z</time>
      </trkpt>
      <trkpt lat="42.811648" lon="0.610415">
        <ele>669.0</ele>
        <time>2025-07-11T08:34:25.373Z</time>
      </trkpt>
      <trkpt lat="42.812054" lon="0.610578">
        <ele>673.5</ele>
        <time>2025-07-11T08:35:52.211Z</time>
      </trkpt>
      <trkpt lat="42.812373" lon="0.611033">
        <ele>689.8</ele>
        <time>2025-07-11T08:39:23.989Z</time>
      </trkpt>
      <trkpt lat="42.812719" lon="0.611239">
        <ele>699.8</ele>
        <time>2025-07-11T08:41:43.136Z</time>
      </trkpt>
      <trkpt lat="42.812914" lon="0.611437">
        <ele>706.6</ele>
        <time>2025-07-11T08:43:16.629Z</time>
      </trkpt>
      <trkpt lat="42.813122" lon="0.611514">
        <ele>714.5</ele>
        <time>2025-07-11T08:45:02.365Z</time>
      </trkpt>
      <trkpt lat="42.813005" lon="0.611754">
        <ele>721.0</ele>
        <time>2025-07-11T08:46:42.962Z</time>
      </trkpt>
      <trkpt lat="42.812634" lon="0.611849">
        <ele>724.9</ele>
        <time>2025-07-11T08:47:59.027Z</time>
      </trkpt>
      <trkpt lat="42.812237" lon="0.611862">
        <ele>728.6</ele>
        <time>2025-07-11T08:49:14.634Z</time>
      </trkpt>
      <trkpt lat="42.811799" lon="0.611832">
        <ele>736.3</ele>
        <time>2025-07-11T08:51:17.012Z</time>
      </trkpt>
      <trkpt lat="42.811234" lon="0.611933">
        <ele>748.7</ele>
        <time>2025-07-11T08:54:18.708Z</time>
      </trkpt>
      <trkpt lat="42.811000" lon="0.612092">
        <ele>752.0</ele>
        <time>2025-07-11T08:55:17.981Z</time>
      </trkpt>
      <trkpt lat="42.810766" lon="0.612037">
        <ele>756.3</ele>
        <time>2025-07-11T08:56:26.407Z</time>
      </trkpt>
      <trkpt lat="42.810801" lon="0.612287">
        <ele>767.3</ele>
        <time>2025-07-11T08:58:43.391Z</time>
      </trkpt>
      <trkpt lat="42.810952" lon="0.612574">
        <ele>778.6</ele>
        <time>2025-07-11T09:01:06.159Z</time>
      </trkpt>
      <trkpt lat="42.811286" lon="0.613038">
        <ele>796.3</ele>
        <time>2025-07-11T09:04:53.970Z</time>
      </trkpt>
      <trkpt lat="42.811520" lon="0.613312">
        <ele>802.6</ele>
        <time>2025-07-11T09:06:28.362Z</time>
      </trkpt>
      <trkpt lat="42.811864" lon="0.613402">
        <ele>809.6</ele>
        <time>2025-07-11T09:08:15.628Z</time>
      </trkpt>
      <trkpt lat="42.812199" lon="0.613575">
        <ele>816.0</ele>
        <time>2025-07-11T09:09:55.093Z</time>
      </trkpt>
      <trkpt lat="42.812558" lon="0.613780">
        <ele>822.3</ele>
        <time>2025-07-11T09:11:38.224Z</time>
      </trkpt>
      <trkpt lat="42.812788" lon="0.613918">
        <ele>826.2</ele>
        <time>2025-07-11T09:12:42.984Z</time>
      </trkpt>
      <trkpt lat="42.813119" lon="0.614193">
        <ele>840.7</ele>
        <time>2025-07-11T09:15:49.247Z</time>
      </trkpt>
      <trkpt lat="42.813412" lon="0.614347">
        <ele>847.7</ele>
        <time>2025-07-11T09:17:33.103Z</time>
      </trkpt>
      <trkpt lat="42.813796" lon="0.614373">
        <ele>850.5</ele>
        <time>2025-07-11T09:18:37.976Z</time>
      </trkpt>
      <trkpt lat="42.814022" lon="0.614368">
        <ele>854.1</ele>
        <time>2025-07-11T09:19:36.963Z</time>
      </trkpt>
      <trkpt lat="42.814366" lon="0.614514">
        <ele>859.9</ele>
        <time>2025-07-11T09:21:11.348Z</time>
      </trkpt>
      <trkpt lat="42.814658" lon="0.614690">
        <ele>866.9</ele>
        <time>2025-07-11T09:22:54.181Z</time>
      </trkpt>
      <trkpt lat="42.815131" lon="0.614891">
        <ele>878.5</ele>
        <time>2025-07-11T09:25:44.172Z</time>
      </trkpt>
      <trkpt lat="42.815380" lon="0.615153">
        <ele>887.2</ele>
        <time>2025-07-11T09:27:44.541Z</time>
      </trkpt>
      <trkpt lat="42.815683" lon="0.615205">
        <ele>891.8</ele>
        <time>2025-07-11T09:29:03.448Z</time>
      </trkpt>
      <trkpt lat="42.815948" lon="0.615175">
        <ele>891.6</ele>
        <time>2025-07-11T09:29:30.394Z</time>
      </trkpt>
      <trkpt lat="42.816110" lon="0.614864">
        <ele>888.4</ele>
        <time>2025-07-11T09:30:18.021Z</time>
      </trkpt>
      <trkpt lat="42.816289" lon="0.614701">
        <ele>884.2</ele>
        <time>2025-07-11T09:31:07.250Z</time>
      </trkpt>
      <trkpt lat="42.816397" lon="0.614483">
        <ele>882.9</ele>
        <time>2025-07-11T09:31:37.996Z</time>
      </trkpt>
      <trkpt lat="42.816698" lon="0.614587">
        <ele>882.5</ele>
        <time>2025-07-11T09:32:13.277Z</time>
      </trkpt>
      <trkpt lat="42.816980" lon="0.614651">
        <ele>885.1</ele>
        <time>2025-07-11T09:33:07.753Z</time>
      </trkpt>
      <trkpt lat="42.817343" lon="0.614275">
        <ele>889.5</ele>
        <time>2025-07-11T09:34:36.973Z</time>
      </trkpt>
      <trkpt lat="42.817540" lon="0.613958">
        <ele>892.0</ele>
        <time>2025-07-11T09:35:32.338Z</time>
      </trkpt>
      <trkpt lat="42.817722" lon="0.613711">
        <ele>894.2</ele>
        <time>2025-07-11T09:36:18.962Z</time>
      </trkpt>
      <trkpt lat="42.817819" lon="0.613356">
        <ele>893.4</ele>
        <time>2025-07-11T09:36:50.385Z</time>
      </trkpt>
      <trkpt lat="42.818092" lon="0.612758">
        <ele>891.8</ele>
        <time>2025-07-11T09:37:48.836Z</time>
      </trkpt>
      <trkpt lat="42.818230" lon="0.612377">
        <ele>884.8</ele>
        <time>2025-07-11T09:39:00.764Z</time>
      </trkpt>
      <trkpt lat="42.818407" lon="0.611792">
        <ele>874.1</ele>
        <time>2025-07-11T09:40:49.582Z</time>
      </trkpt>
      <trkpt lat="42.818701" lon="0.611426">
        <ele>865.1</ele>
        <time>2025-07-11T09:42:21.806Z</time>
      </trkpt>
      <trkpt lat="42.819129" lon="0.611186">
        <ele>858.3</ele>
        <time>2025-07-11T09:43:46.772Z</time>
      </trkpt>
      <trkpt lat="42.819326" lon="0.611275">
        <ele>869.6</ele>
        <time>2025-07-11T09:46:04.609Z</time>
      </trkpt>
      <trkpt lat="42.819547" lon="0.611682">
        <ele>887.5</ele>
        <time>2025-07-11T09:49:44.129Z</time>
      </trkpt>
      <trkpt lat="42.819862" lon="0.611881">
        <ele>898.6</ele>
        <time>2025-07-11T09:52:12.031Z</time>
      </trkpt>
      <trkpt lat="42.820111" lon="0.611999">
        <ele>898.9</ele>
        <time>2025-07-11T09:52:41.793Z</time>
      </trkpt>
      <trkpt lat="42.820549" lon="0.611817">
        <ele>891.6</ele>
        <time>2025-07-11T09:54:10.075Z</time>
      </trkpt>
      <trkpt lat="42.820772" lon="0.611777">
        <ele>890.7</ele>
        <time>2025-07-11T09:54:36.589Z</time>
      </trkpt>
      <trkpt lat="42.821110" lon="0.611594">
        <ele>889.4</ele>
        <time>2025-07-11T09:55:19.423Z</time>
      </trkpt>
      <trkpt lat="42.821338" lon="0.611265">
        <ele>876.9</ele>
        <time>2025-07-11T09:57:06.249Z</time>
      </trkpt>
      <trkpt lat="42.821614" lon="0.611067">
        <ele>870.5</ele>
        <time>2025-07-11T09:58:14.674Z</time>
      </trkpt>
      <trkpt lat="42.821876" lon="0.611039">
        <ele>868.9</ele>
        <time>2025-07-11T09:58:49.497Z</time>
      </trkpt>
      <trkpt lat="42.822279" lon="0.611016">
        <ele>873.8</ele>
        <time>2025-07-11T10:00:21.989Z</time>
      </trkpt>
      <trkpt lat="42.822557" lon="0.611199">
        <ele>880.7</ele>
        <time>2025-07-11T10:02:02.734Z</time>
      </trkpt>
      <trkpt lat="42.822943" lon="0.611242">
        <ele>880.1</ele>
        <time>2025-07-11T10:02:43.142Z</time>
      </trkpt>
      <trkpt lat="42.823223" lon="0.611552">
        <ele>884.4</ele>
        <time>2025-07-11T10:04:01.743Z</time>
      </trkpt>
      <trkpt lat="42.823537" lon="0.611791">
        <ele>894.3</ele>
        <time>2025-07-11T10:06:18.439Z</time>
      </trkpt>
      <trkpt lat="42.823966" lon="0.612052">
        <ele>904.6</ele>
        <time>2025-07-11T10:08:49.542Z</time>
      </trkpt>
      <trkpt lat="42.824389" lon="0.612361">
        <ele>918.1</ele>
        <time>2025-07-11T10:11:54.731Z</time>
      </trkpt>
      <trkpt lat="42.824590" lon="0.612686">
        <ele>927.8</ele>
        <time>2025-07-11T10:14:04.374Z</time>
      </trkpt>
      <trkpt lat="42.824753" lon="0.612981">
        <ele>936.2</ele>
        <time>2025-07-11T10:15:57.080Z</time>
      </trkpt>
      <trkpt lat="42.824945" lon="0.613169">
        <ele>937.6</ele>
        <time>2025-07-11T10:16:33.312Z</time>
      </trkpt>
      <trkpt lat="42.825161" lon="0.613611">
        <ele>939.8</ele>
        <time>2025-07-11T10:17:33.052Z</time>
      </trkpt>
      <trkpt lat="42.825251" lon="0.613942">
        <ele>940.6</ele>
        <time>2025-07-11T10:18:06.488Z</time>
      </trkpt>
      <trkpt lat="42.825315" lon="0.614275">
        <ele>941.5</ele>
        <time>2025-07-11T10:18:39.104Z</time>
      </trkpt>
      <trkpt lat="42.825338" lon="0.614586">
        <ele>942.7</ele>
        <time>2025-07-11T10:19:13.801Z</time>
      </trkpt>
      <trkpt lat="42.825449" lon="0.614903">
        <ele>944.1</ele>
        <time>2025-07-11T10:19:52.632Z</time>
      </trkpt>
      <trkpt lat="42.825514" lon="0.615198">
        <ele>945.8</ele>
        <time>2025-07-11T10:20:31.372Z</time>
      </trkpt>
      <trkpt lat="42.825584" lon="0.615626">
        <ele>948.1</ele>
        <time>2025-07-11T10:21:26.351Z</time>
      </trkpt>
      <trkpt lat="42.825612" lon="0.616016">
        <ele>957.3</ele>
        <time>2025-07-11T10:23:28.781Z</time>
      </trkpt>
      <trkpt lat="42.825664" lon="0.616277">
        <ele>961.5</ele>
        <time>2025-07-11T10:24:34.052Z</time>
      </trkpt>
      <trkpt lat="42.825879" lon="0.616186">
        <ele>957.8</ele>
        <time>2025-07-11T10:25:17.511Z</time>
      </trkpt>
      <trkpt lat="42.826384" lon="0.615996">
        <ele>968.2</ele>
        <time>2025-07-11T10:27:57.366Z</time>
      </trkpt>
      <trkpt lat="42.826307" lon="0.616306">
        <ele>981.0</ele>
        <time>2025-07-11T10:30:39.227Z</time>
      </trkpt>
      <trkpt lat="42.826785" lon="0.616572">
        <ele>1003.6</ele>
        <time>2025-07-11T10:35:20.762Z</time>
      </trkpt>
      <trkpt lat="42.827010" lon="0.616651">
        <ele>1015.0</ele>
        <time>2025-07-11T10:37:40.177Z</time>
      </trkpt>
      <trkpt lat="42.827121" lon="0.616964">
        <ele>1028.7</ele>
        <time>2025-07-11T10:40:27.619Z</time>
      </trkpt>
      <trkpt lat="42.827451" lon="0.616270">
        <ele>1021.9</ele>
        <time>2025-07-11T10:42:07.104Z</time>
      </trkpt>
      <trkpt lat="42.827689" lon="0.615993">
        <ele>1029.9</ele>
        <time>2025-07-11T10:43:59.389Z</time>
      </trkpt>
      <trkpt lat="42.827840" lon="0.615262">
        <ele>1026.9</ele>
        <time>2025-07-11T10:45:12.105Z</time>
      </trkpt>
      <trkpt lat="42.827969" lon="0.614835">
        <ele>1027.1</ele>
        <time>2025-07-11T10:45:46.396Z</time>
      </trkpt>
      <trkpt lat="42.828048" lon="0.615342">
        <ele>1038.7</ele>
        <time>2025-07-11T10:48:21.521Z</time>
      </trkpt>
      <trkpt lat="42.828059" lon="0.615716">
        <ele>1043.7</ele>
        <time>2025-07-11T10:49:39.434Z</time>
      </trkpt>
      <trkpt lat="42.828249" lon="0.615345">
        <ele>1049.8</ele>
        <time>2025-07-11T10:51:13.523Z</time>
      </trkpt>
      <trkpt lat="42.828314" lon="0.615807">
        <ele>1065.2</ele>
        <time>2025-07-11T10:54:24.941Z</time>
      </trkpt>
      <trkpt lat="42.828499" lon="0.615967">
        <ele>1082.8</ele>
        <time>2025-07-11T10:57:59.322Z</time>
      </trkpt>
      <trkpt lat="42.828629" lon="0.616214">
        <ele>1101.2</ele>
        <time>2025-07-11T11:01:40.812Z</time>
      </trkpt>
      <trkpt lat="42.828747" lon="0.616306">
        <ele>1109.7</ele>
        <time>2025-07-11T11:03:36.396Z</time>
      </trkpt>
      <trkpt lat="42.828804" lon="0.616590">
        <ele>1115.4</ele>
        <time>2025-07-11T11:05:00.244Z</time>
      </trkpt>
      <trkpt lat="42.829004" lon="0.616669">
        <ele>1117.3</ele>
        <time>2025-07-11T11:05:49.457Z</time>
      </trkpt>
      <trkpt lat="42.829194" lon="0.616084">
        <ele>1120.4</ele>
        <time>2025-07-11T11:07:05.874Z</time>
      </trkpt>
      <trkpt lat="42.829265" lon="0.616235">
        <ele>1127.2</ele>
        <time>2025-07-11T11:08:48.835Z</time>
      </trkpt>
      <trkpt lat="42.829552" lon="0.616503">
        <ele>1133.8</ele>
        <time>2025-07-11T11:10:30.331Z</time>
      </trkpt>
      <trkpt lat="42.829606" lon="0.616889">
        <ele>1144.5</ele>
        <time>2025-07-11T11:12:57.341Z</time>
      </trkpt>
      <trkpt lat="42.829827" lon="0.617317">
        <ele>1155.0</ele>
        <time>2025-07-11T11:15:22.262Z</time>
      </trkpt>
      <trkpt lat="42.829554" lon="0.617338">
        <ele>1159.3</ele>
        <time>2025-07-11T11:16:36.555Z</time>
      </trkpt>
      <trkpt lat="42.830016" lon="0.617773">
        <ele>1172.6</ele>
        <time>2025-07-11T11:19:50.878Z</time>
      </trkpt>
      <trkpt lat="42.830113" lon="0.618268">
        <ele>1182.5</ele>
        <time>2025-07-11T11:22:08.227Z</time>
      </trkpt>
      <trkpt lat="42.830235" lon="0.618539">
        <ele>1189.6</ele>
        <time>2025-07-11T11:23:43.078Z</time>
      </trkpt>
      <trkpt lat="42.830476" lon="0.618857">
        <ele>1199.7</ele>
        <time>2025-07-11T11:25:59.667Z</time>
      </trkpt>
      <trkpt lat="42.830756" lon="0.618938">
        <ele>1203.3</ele>
        <time>2025-07-11T11:27:03.065Z</time>
      </trkpt>
      <trkpt lat="42.831049" lon="0.619091">
        <ele>1207.1</ele>
        <time>2025-07-11T11:28:12.901Z</time>
      </trkpt>
      <trkpt lat="42.831364" lon="0.619071">
        <ele>1207.4</ele>
        <time>2025-07-11T11:28:45.993Z</time>
      </trkpt>
      <trkpt lat="42.831616" lon="0.618985">
        <ele>1208.0</ele>
        <time>2025-07-11T11:29:17.379Z</time>
      </trkpt>
      <trkpt lat="42.831880" lon="0.619062">
        <ele>1209.7</ele>
        <time>2025-07-11T11:30:00.977Z</time>
      </trkpt>
      <trkpt lat="42.832186" lon="0.619041">
        <ele>1211.7</ele>
        <time>2025-07-11T11:30:50.038Z</time>
      </trkpt>
      <trkpt lat="42.832450" lon="0.618933">
        <ele>1208.9</ele>
        <time>2025-07-11T11:31:33.836Z</time>
      </trkpt>
      <trkpt lat="42.832679" lon="0.618855">
        <ele>1207.2</ele>
        <time>2025-07-11T11:32:10.276Z</time>
      </trkpt>
      <trkpt lat="42.833039" lon="0.618910">
        <ele>1206.8</ele>
        <time>2025-07-11T11:32:47.440Z</time>
      </trkpt>
      <trkpt lat="42.833287" lon="0.618954">
        <ele>1209.0</ele>
        <time>2025-07-11T11:33:35.165Z</time>
      </trkpt>
      <trkpt lat="42.833242" lon="0.619190">
        <ele>1211.0</ele>
        <time>2025-07-11T11:34:17.776Z</time>
      </trkpt>
      <trkpt lat="42.833329" lon="0.619476">
        <ele>1215.0</ele>
        <time>2025-07-11T11:35:21.008Z</time>
      </trkpt>
      <trkpt lat="42.833490" lon="0.619814">
        <ele>1220.3</ele>
        <time>2025-07-11T11:36:43.647Z</time>
      </trkpt>
      <trkpt lat="42.833664" lon="0.620060">
        <ele>1223.4</ele>
        <time>2025-07-11T11:37:39.356Z</time>
      </trkpt>
      <trkpt lat="42.833825" lon="0.620338">
        <ele>1226.6</ele>
        <time>2025-07-11T11:38:37.214Z</time>
      </trkpt>
      <trkpt lat="42.833954" lon="0.620600">
        <ele>1230.7</ele>
        <time>2025-07-11T11:39:41.970Z</time>
      </trkpt>
      <trkpt lat="42.834168" lon="0.620944">
        <ele>1236.6</ele>
        <time>2025-07-11T11:41:14.118Z</time>
      </trkpt>
      <trkpt lat="42.834249" lon="0.621245">
        <ele>1242.7</ele>
        <time>2025-07-11T11:42:39.766Z</time>
      </trkpt>
      <trkpt lat="42.834147" lon="0.621513">
        <ele>1248.4</ele>
        <time>2025-07-11T11:43:59.925Z</time>
      </trkpt>
      <trkpt lat="42.833954" lon="0.621750">
        <ele>1254.0</ele>
        <time>2025-07-11T11:45:22.066Z</time>
      </trkpt>
      <trkpt lat="42.833883" lon="0.622127">
        <ele>1260.1</ele>
        <time>2025-07-11T11:46:52.053Z</time>
      </trkpt>
      <trkpt lat="42.833873" lon="0.622528">
        <ele>1267.8</ele>
        <time>2025-07-11T11:48:39.523Z</time>
      </trkpt>
      <trkpt lat="42.833858" lon="0.622908">
        <ele>1274.7</ele>
        <time>2025-07-11T11:50:16.662Z</time>
      </trkpt>
      <trkpt lat="42.834021" lon="0.623148">
        <ele>1280.0</ele>
        <time>2025-07-11T11:51:35.157Z</time>
      </trkpt>
      <trkpt lat="42.834198" lon="0.623480">
        <ele>1286.5</ele>
        <time>2025-07-11T11:53:11.165Z</time>
      </trkpt>
      <trkpt lat="42.834266" lon="0.623800">
        <ele>1291.8</ele>
        <time>2025-07-11T11:54:28.905Z</time>
      </trkpt>
      <trkpt lat="42.834393" lon="0.624133">
        <ele>1295.1</ele>
        <time>2025-07-11T11:55:29.794Z</time>
      </trkpt>
      <trkpt lat="42.834635" lon="0.623905">
        <ele>1294.9</ele>
        <time>2025-07-11T11:56:01.519Z</time>
      </trkpt>
      <trkpt lat="42.834843" lon="0.623705">
        <ele>1294.8</ele>
        <time>2025-07-11T11:56:26.261Z</time>
      </trkpt>
      <trkpt lat="42.835109" lon="0.623627">
        <ele>1294.8</ele>
        <time>2025-07-11T11:56:52.314Z</time>
      </trkpt>
      <trkpt lat="42.835371" lon="0.623757">
        <ele>1295.2</ele>
        <time>2025-07-11T11:57:22.791Z</time>
      </trkpt>
      <trkpt lat="42.835597" lon="0.623884">
        <ele>1295.5</ele>
        <time>2025-07-11T11:57:49.291Z</time>
      </trkpt>
      <trkpt lat="42.835871" lon="0.623993">
        <ele>1295.1</ele>
        <time>2025-07-11T11:58:18.565Z</time>
      </trkpt>
      <trkpt lat="42.836148" lon="0.624312">
        <ele>1294.7</ele>
        <time>2025-07-11T11:58:55.851Z</time>
      </trkpt>
      <trkpt lat="42.836425" lon="0.624693">
        <ele>1295.2</ele>
        <time>2025-07-11T11:59:38.163Z</time>
      </trkpt>
      <trkpt lat="42.836599" lon="0.624915">
        <ele>1295.5</ele>
        <time>2025-07-11T12:00:03.780Z</time>
      </trkpt>
      <trkpt lat="42.836747" lon="0.625164">
        <ele>1295.8</ele>
        <time>2025-07-11T12:00:29.712Z</time>
      </trkpt>
      <trkpt lat="42.836863" lon="0.625473">
        <ele>1296.2</ele>
        <time>2025-07-11T12:00:57.841Z</time>
      </trkpt>
      <trkpt lat="42.836619" lon="0.625380">
        <ele>1301.8</ele>
        <time>2025-07-11T12:02:25.817Z</time>
      </trkpt>
      <trkpt lat="42.836388" lon="0.625199">
        <ele>1306.4</ele>
        <time>2025-07-11T12:03:38.439Z</time>
      </trkpt>
      <trkpt lat="42.836152" lon="0.625152">
        <ele>1310.3</ele>
        <time>2025-07-11T12:04:41.734Z</time>
      </trkpt>
      <trkpt lat="42.835876" lon="0.625234">
        <ele>1316.5</ele>
        <time>2025-07-11T12:06:12.327Z</time>
      </trkpt>
      <trkpt lat="42.835647" lon="0.625553">
        <ele>1324.8</ele>
        <time>2025-07-11T12:08:09.315Z</time>
      </trkpt>
      <trkpt lat="42.835475" lon="0.625868">
        <ele>1329.5</ele>
        <time>2025-07-11T12:09:24.737Z</time>
      </trkpt>
      <trkpt lat="42.835366" lon="0.626150">
        <ele>1333.2</ele>
        <time>2025-07-11T12:10:25.858Z</time>
      </trkpt>
      <trkpt lat="42.835450" lon="0.626551">
        <ele>1338.4</ele>
        <time>2025-07-11T12:11:49.787Z</time>
      </trkpt>
      <trkpt lat="42.835452" lon="0.626895">
        <ele>1343.1</ele>
        <time>2025-07-11T12:13:03.311Z</time>
      </trkpt>
      <trkpt lat="42.835388" lon="0.627201">
        <ele>1347.9</ele>
        <time>2025-07-11T12:14:14.406Z</time>
      </trkpt>
      <trkpt lat="42.835422" lon="0.627519">
        <ele>1351.9</ele>
        <time>2025-07-11T12:15:18.403Z</time>
      </trkpt>
      <trkpt lat="42.835588" lon="0.627989">
        <ele>1357.5</ele>
        <time>2025-07-11T12:16:52.520Z</time>
      </trkpt>
      <trkpt lat="42.835752" lon="0.628274">
        <ele>1357.6</ele>
        <time>2025-07-11T12:17:19.314Z</time>
      </trkpt>
      <trkpt lat="42.835895" lon="0.628567">
        <ele>1359.0</ele>
        <time>2025-07-11T12:17:58.378Z</time>
      </trkpt>
      <trkpt lat="42.835895" lon="0.628903">
        <ele>1363.6</ele>
        <time>2025-07-11T12:19:09.270Z</time>
      </trkpt>
      <trkpt lat="42.835724" lon="0.629282">
        <ele>1370.3</ele>
        <time>2025-07-11T12:20:49.471Z</time>
      </trkpt>
      <trkpt lat="42.835472" lon="0.629611">
        <ele>1378.9</ele>
        <time>2025-07-11T12:22:51.869Z</time>
      </trkpt>
      <trkpt lat="42.835158" lon="0.630230">
        <ele>1387.3</ele>
        <time>2025-07-11T12:25:10.752Z</time>
      </trkpt>
      <trkpt lat="42.835025" lon="0.630559">
        <ele>1395.9</ele>
        <time>2025-07-11T12:27:05.785Z</time>
      </trkpt>
      <trkpt lat="42.834821" lon="0.630950">
        <ele>1407.0</ele>
        <time>2025-07-11T12:29:32.802Z</time>
      </trkpt>
      <trkpt lat="42.834665" lon="0.631318">
        <ele>1416.5</ele>
        <time>2025-07-11T12:31:40.730Z</time>
      </trkpt>
      <trkpt lat="42.834565" lon="0.631683">
        <ele>1425.2</ele>
        <time>2025-07-11T12:33:37.504Z</time>
      </trkpt>
      <trkpt lat="42.834552" lon="0.632066">
        <ele>1431.9</ele>
        <time>2025-07-11T12:35:12.946Z</time>
      </trkpt>
      <trkpt lat="42.834457" lon="0.632155">
        <ele>1436.2</ele>
        <time>2025-07-11T12:36:20.393Z</time>
      </trkpt>
      <trkpt lat="42.834235" lon="0.631847">
        <ele>1437.1</ele>
        <time>2025-07-11T12:37:00.449Z</time>
      </trkpt>
      <trkpt lat="42.833915" lon="0.631663">
        <ele>1438.0</ele>
        <time>2025-07-11T12:37:43.119Z</time>
      </trkpt>
      <trkpt lat="42.833599" lon="0.631587">
        <ele>1445.7</ele>
        <time>2025-07-11T12:39:32.475Z</time>
      </trkpt>
      <trkpt lat="42.833321" lon="0.631528">
        <ele>1452.4</ele>
        <time>2025-07-11T12:41:08.077Z</time>
      </trkpt>
      <trkpt lat="42.833080" lon="0.631497">
        <ele>1459.4</ele>
        <time>2025-07-11T12:42:44.052Z</time>
      </trkpt>
      <trkpt lat="42.832851" lon="0.631584">
        <ele>1466.4</ele>
        <time>2025-07-11T12:44:18.362Z</time>
      </trkpt>
      <trkpt lat="42.832590" lon="0.631627">
        <ele>1473.1</ele>
        <time>2025-07-11T12:45:52.414Z</time>
      </trkpt>
      <trkpt lat="42.832276" lon="0.631612">
        <ele>1477.9</ele>
        <time>2025-07-11T12:47:12.391Z</time>
      </trkpt>
      <trkpt lat="42.832035" lon="0.631221">
        <ele>1476.7</ele>
        <time>2025-07-11T12:47:56.373Z</time>
      </trkpt>
      <trkpt lat="42.831817" lon="0.630806">
        <ele>1479.1</ele>
        <time>2025-07-11T12:48:56.646Z</time>
      </trkpt>
      <trkpt lat="42.831516" lon="0.630499">
        <ele>1483.0</ele>
        <time>2025-07-11T12:50:13.763Z</time>
      </trkpt>
      <trkpt lat="42.831305" lon="0.630239">
        <ele>1487.0</ele>
        <time>2025-07-11T12:51:21.180Z</time>
      </trkpt>
      <trkpt lat="42.831055" lon="0.630031">
        <ele>1493.7</ele>
        <time>2025-07-11T12:52:58.174Z</time>
      </trkpt>
      <trkpt lat="42.830908" lon="0.629753">
        <ele>1499.4</ele>
        <time>2025-07-11T12:54:20.898Z</time>
      </trkpt>
      <trkpt lat="42.830754" lon="0.629493">
        <ele>1502.5</ele>
        <time>2025-07-11T12:55:16.423Z</time>
      </trkpt>
      <trkpt lat="42.830570" lon="0.629126">
        <ele>1506.7</ele>
        <time>2025-07-11T12:56:30.188Z</time>
      </trkpt>
      <trkpt lat="42.830398" lon="0.628824">
        <ele>1508.2</ele>
        <time>2025-07-11T12:57:13.087Z</time>
      </trkpt>
      <trkpt lat="42.830129" lon="0.628416">
        <ele>1510.5</ele>
        <time>2025-07-11T12:58:14.743Z</time>
      </trkpt>
      <trkpt lat="42.829899" lon="0.628194">
        <ele>1514.3</ele>
        <time>2025-07-11T12:59:21.124Z</time>
      </trkpt>
      <trkpt lat="42.829662" lon="0.628035">
        <ele>1517.9</ele>
        <time>2025-07-11T13:00:22.993Z</time>
      </trkpt>
      <trkpt lat="42.829379" lon="0.627926">
        <ele>1525.7</ele>
        <time>2025-07-11T13:02:11.241Z</time>
      </trkpt>
      <trkpt lat="42.829063" lon="0.627858">
        <ele>1532.0</ele>
        <time>2025-07-11T13:03:47.111Z</time>
      </trkpt>
      <trkpt lat="42.828769" lon="0.627922">
        <ele>1535.3</ele>
        <time>2025-07-11T13:04:49.508Z</time>
      </trkpt>
      <trkpt lat="42.828755" lon="0.628084">
        <ele>1539.5</ele>
        <time>2025-07-11T13:05:58.905Z</time>
      </trkpt>
      <trkpt lat="42.828994" lon="0.628263">
        <ele>1544.4</ele>
        <time>2025-07-11T13:07:15.014Z</time>
      </trkpt>
      <trkpt lat="42.829174" lon="0.628514">
        <ele>1546.6</ele>
        <time>2025-07-11T13:08:02.132Z</time>
      </trkpt>
      <trkpt lat="42.829338" lon="0.628862">
        <ele>1549.1</ele>
        <time>2025-07-11T13:08:57.596Z</time>
      </trkpt>
      <trkpt lat="42.829466" lon="0.629177">
        <ele>1550.9</ele>
        <time>2025-07-11T13:09:41.350Z</time>
      </trkpt>
      <trkpt lat="42.829567" lon="0.629539">
        <ele>1552.8</ele>
        <time>2025-07-11T13:10:28.130Z</time>
      </trkpt>
      <trkpt lat="42.829640" lon="0.630034">
        <ele>1560.4</ele>
        <time>2025-07-11T13:12:21.592Z</time>
      </trkpt>
      <trkpt lat="42.829686" lon="0.630444">
        <ele>1566.6</ele>
        <time>2025-07-11T13:13:54.400Z</time>
      </trkpt>
      <trkpt lat="42.829754" lon="0.630838">
        <ele>1574.7</ele>
        <time>2025-07-11T13:15:45.642Z</time>
      </trkpt>
      <trkpt lat="42.829782" lon="0.631109">
        <ele>1580.1</ele>
        <time>2025-07-11T13:17:03.206Z</time>
      </trkpt>
      <trkpt lat="42.829605" lon="0.630918">
        <ele>1582.2</ele>
        <time>2025-07-11T13:17:46.249Z</time>
      </trkpt>
      <trkpt lat="42.829375" lon="0.630681">
        <ele>1585.3</ele>
        <time>2025-07-11T13:18:46.406Z</time>
      </trkpt>
      <trkpt lat="42.829115" lon="0.630477">
        <ele>1589.5</ele>
        <time>2025-07-11T13:19:57.778Z</time>
      </trkpt>
      <trkpt lat="42.828827" lon="0.630329">
        <ele>1594.4</ele>
        <time>2025-07-11T13:21:17.419Z</time>
      </trkpt>
      <trkpt lat="42.828535" lon="0.630302">
        <ele>1599.9</ele>
        <time>2025-07-11T13:22:42.149Z</time>
      </trkpt>
      <trkpt lat="42.828241" lon="0.630360">
        <ele>1605.5</ele>
        <time>2025-07-11T13:24:07.796Z</time>
      </trkpt>
      <trkpt lat="42.827870" lon="0.630432">
        <ele>1604.2</ele>
        <time>2025-07-11T13:24:51.138Z</time>
      </trkpt>
      <trkpt lat="42.827645" lon="0.630512">
        <ele>1605.2</ele>
        <time>2025-07-11T13:25:23.813Z</time>
      </trkpt>
      <trkpt lat="42.827376" lon="0.630803">
        <ele>1610.4</ele>
        <time>2025-07-11T13:26:50.203Z</time>
      </trkpt>
      <trkpt lat="42.827151" lon="0.631088">
        <ele>1614.8</ele>
        <time>2025-07-11T13:28:04.967Z</time>
      </trkpt>
      <trkpt lat="42.826938" lon="0.631239">
        <ele>1618.0</ele>
        <time>2025-07-11T13:29:00.639Z</time>
      </trkpt>
      <trkpt lat="42.826659" lon="0.631490">
        <ele>1626.5</ele>
        <time>2025-07-11T13:31:00.305Z</time>
      </trkpt>
      <trkpt lat="42.826439" lon="0.631779">
        <ele>1636.2</ele>
        <time>2025-07-11T13:33:09.147Z</time>
      </trkpt>
      <trkpt lat="42.826147" lon="0.632181">
        <ele>1648.2</ele>
        <time>2025-07-11T13:35:52.211Z</time>
      </trkpt>
      <trkpt lat="42.825974" lon="0.632444">
        <ele>1654.9</ele>
        <time>2025-07-11T13:37:25.583Z</time>
      </trkpt>
      <trkpt lat="42.825809" lon="0.632845">
        <ele>1662.2</ele>
        <time>2025-07-11T13:39:12.826Z</time>
      </trkpt>
      <trkpt lat="42.825691" lon="0.633224">
        <ele>1666.1</ele>
        <time>2025-07-11T13:40:21.961Z</time>
      </trkpt>
      <trkpt lat="42.825695" lon="0.633595">
        <ele>1670.9</ele>
        <time>2025-07-11T13:41:37.675Z</time>
      </trkpt>
      <trkpt lat="42.826095" lon="0.633973">
        <ele>1681.9</ele>
        <time>2025-07-11T13:44:18.938Z</time>
      </trkpt>
      <trkpt lat="42.826425" lon="0.634257">
        <ele>1690.6</ele>
        <time>2025-07-11T13:46:25.490Z</time>
      </trkpt>
      <trkpt lat="42.826631" lon="0.634364">
        <ele>1695.9</ele>
        <time>2025-07-11T13:47:42.129Z</time>
      </trkpt>
      <trkpt lat="42.826811" lon="0.634750">
        <ele>1705.7</ele>
        <time>2025-07-11T13:49:55.290Z</time>
      </trkpt>
      <trkpt lat="42.826985" lon="0.635061">
        <ele>1714.4</ele>
        <time>2025-07-11T13:51:52.394Z</time>
      </trkpt>
      <trkpt lat="42.827158" lon="0.635355">
        <ele>1723.4</ele>
        <time>2025-07-11T13:53:51.668Z</time>
      </trkpt>
      <trkpt lat="42.827395" lon="0.635544">
        <ele>1731.8</ele>
        <time>2025-07-11T13:55:44.085Z</time>
      </trkpt>
      <trkpt lat="42.827567" lon="0.635768">
        <ele>1739.1</ele>
        <time>2025-07-11T13:57:23.385Z</time>
      </trkpt>
      <trkpt lat="42.827749" lon="0.636003">
        <ele>1745.2</ele>
        <time>2025-07-11T13:58:50.515Z</time>
      </trkpt>
      <trkpt lat="42.827881" lon="0.636258">
        <ele>1750.7</ele>
        <time>2025-07-11T14:00:09.129Z</time>
      </trkpt>
      <trkpt lat="42.827983" lon="0.636527">
        <ele>1756.7</ele>
        <time>2025-07-11T14:01:34.659Z</time>
      </trkpt>
      <trkpt lat="42.828271" lon="0.637321">
        <ele>1774.9</ele>
        <time>2025-07-11T14:05:46.155Z</time>
      </trkpt>
      <trkpt lat="42.828322" lon="0.637609">
        <ele>1780.5</ele>
        <time>2025-07-11T14:07:04.875Z</time>
      </trkpt>
      <trkpt lat="42.828293" lon="0.638077">
        <ele>1788.8</ele>
        <time>2025-07-11T14:09:03.980Z</time>
      </trkpt>
      <trkpt lat="42.828422" lon="0.638505">
        <ele>1798.4</ele>
        <time>2025-07-11T14:11:15.085Z</time>
      </trkpt>
      <trkpt lat="42.828649" lon="0.638637">
        <ele>1803.3</ele>
        <time>2025-07-11T14:12:28.402Z</time>
      </trkpt>
      <trkpt lat="42.828770" lon="0.639005">
        <ele>1806.7</ele>
        <time>2025-07-11T14:13:32.487Z</time>
      </trkpt>
      <trkpt lat="42.829052" lon="0.639582">
        <ele>1811.9</ele>
        <time>2025-07-11T14:15:15.075Z</time>
      </trkpt>
      <trkpt lat="42.829116" lon="0.640005">
        <ele>1813.9</ele>
        <time>2025-07-11T14:16:07.085Z</time>
      </trkpt>
      <trkpt lat="42.829296" lon="0.640544">
        <ele>1815.0</ele>
        <time>2025-07-11T14:17:00.369Z</time>
      </trkpt>
      <trkpt lat="42.829449" lon="0.641057">
        <ele>1823.6</ele>
        <time>2025-07-11T14:19:07.326Z</time>
      </trkpt>
      <trkpt lat="42.829633" lon="0.641640">
        <ele>1836.4</ele>
        <time>2025-07-11T14:22:03.630Z</time>
      </trkpt>
      <trkpt lat="42.829829" lon="0.643526">
        <ele>1881.6</ele>
        <time>2025-07-11T14:32:02.038Z</time>
      </trkpt>
      <trkpt lat="42.829866" lon="0.644033">
        <ele>1888.9</ele>
        <time>2025-07-11T14:33:52.100Z</time>
      </trkpt>
      <trkpt lat="42.829680" lon="0.644939">
        <ele>1902.2</ele>
        <time>2025-07-11T14:37:15.469Z</time>
      </trkpt>
      <trkpt lat="42.829607" lon="0.645242">
        <ele>1908.4</ele>
        <time>2025-07-11T14:38:41.318Z</time>
      </trkpt>
      <trkpt lat="42.829616" lon="0.645668">
        <ele>1916.7</ele>
        <time>2025-07-11T14:40:36.165Z</time>
      </trkpt>
      <trkpt lat="42.829658" lon="0.646100">
        <ele>1920.2</ele>
        <time>2025-07-11T14:41:42.501Z</time>
      </trkpt>
      <trkpt lat="42.829812" lon="0.647050">
        <ele>1921.8</ele>
        <time>2025-07-11T14:43:07.731Z</time>
      </trkpt>
      <trkpt lat="42.830006" lon="0.647586">
        <ele>1921.3</ele>
        <time>2025-07-11T14:43:52.948Z</time>
      </trkpt>
      <trkpt lat="42.830209" lon="0.647964">
        <ele>1920.8</ele>
        <time>2025-07-11T14:44:28.405Z</time>
      </trkpt>
      <trkpt lat="42.830333" lon="0.648285">
        <ele>1920.4</ele>
        <time>2025-07-11T14:44:56.503Z</time>
      </trkpt>
      <trkpt lat="42.830425" lon="0.648676">
        <ele>1919.8</ele>
        <time>2025-07-11T14:45:28.235Z</time>
      </trkpt>
      <trkpt lat="42.830673" lon="0.649219">
        <ele>1919.2</ele>
        <time>2025-07-11T14:46:17.010Z</time>
      </trkpt>
      <trkpt lat="42.830825" lon="0.649744">
        <ele>1917.9</ele>
        <time>2025-07-11T14:47:04.057Z</time>
      </trkpt>
      <trkpt lat="42.831044" lon="0.650304">
        <ele>1916.5</ele>
        <time>2025-07-11T14:47:57.008Z</time>
      </trkpt>
      <trkpt lat="42.831036" lon="0.650921">
        <ele>1919.5</ele>
        <time>2025-07-11T14:49:11.649Z</time>
      </trkpt>
      <trkpt lat="42.830906" lon="0.651367">
        <ele>1922.8</ele>
        <time>2025-07-11T14:50:19.310Z</time>
      </trkpt>
      <trkpt lat="42.830967" lon="0.651803">
        <ele>1925.9</ele>
        <time>2025-07-11T14:51:21.900Z</time>
      </trkpt>
      <trkpt lat="42.831116" lon="0.652289">
        <ele>1929.1</ele>
        <time>2025-07-11T14:52:31.713Z</time>
      </trkpt>
      <trkpt lat="42.831278" lon="0.653106">
        <ele>1934.3</ele>
        <time>2025-07-11T14:54:23.843Z</time>
      </trkpt>
      <trkpt lat="42.831221" lon="0.653681">
        <ele>1937.6</ele>
        <time>2025-07-11T14:55:39.109Z</time>
      </trkpt>
      <trkpt lat="42.831182" lon="0.653992">
        <ele>1939.5</ele>
        <time>2025-07-11T14:56:20.074Z</time>
      </trkpt>
      <trkpt lat="42.831332" lon="0.654216">
        <ele>1939.7</ele>
        <time>2025-07-11T14:56:53.166Z</time>
      </trkpt>
      <trkpt lat="42.831499" lon="0.653965">
        <ele>1939.9</ele>
        <time>2025-07-11T14:57:19.147Z</time>
      </trkpt>
      <trkpt lat="42.831680" lon="0.653911">
        <ele>1936.9</ele>
        <time>2025-07-11T14:58:05.779Z</time>
      </trkpt>
      <trkpt lat="42.832322" lon="0.654110">
        <ele>1928.5</ele>
        <time>2025-07-11T14:59:59.306Z</time>
      </trkpt>
      <trkpt lat="42.832565" lon="0.654159">
        <ele>1924.3</ele>
        <time>2025-07-11T15:00:47.581Z</time>
      </trkpt>
      <trkpt lat="42.832797" lon="0.654263">
        <ele>1920.3</ele>
        <time>2025-07-11T15:01:35.159Z</time>
      </trkpt>
      <trkpt lat="42.833050" lon="0.654467">
        <ele>1919.8</ele>
        <time>2025-07-11T15:02:05.905Z</time>
      </trkpt>
      <trkpt lat="42.833350" lon="0.654972">
        <ele>1919.1</ele>
        <time>2025-07-11T15:02:55.726Z</time>
      </trkpt>
      <trkpt lat="42.833735" lon="0.655573">
        <ele>1921.3</ele>
        <time>2025-07-11T15:04:13.934Z</time>
      </trkpt>
      <trkpt lat="42.834068" lon="0.655983">
        <ele>1923.0</ele>
        <time>2025-07-11T15:05:14.434Z</time>
      </trkpt>
      <trkpt lat="42.834418" lon="0.656298">
        <ele>1924.6</ele>
        <time>2025-07-11T15:06:10.982Z</time>
      </trkpt>
      <trkpt lat="42.834770" lon="0.656543">
        <ele>1930.7</ele>
        <time>2025-07-11T15:07:51.398Z</time>
      </trkpt>
      <trkpt lat="42.834848" lon="0.656890">
        <ele>1935.8</ele>
        <time>2025-07-11T15:09:09.937Z</time>
      </trkpt>
      <trkpt lat="42.835033" lon="0.657102">
        <ele>1940.9</ele>
        <time>2025-07-11T15:10:25.638Z</time>
      </trkpt>
      <trkpt lat="42.835656" lon="0.657177">
        <ele>1947.0</ele>
        <time>2025-07-11T15:12:31.309Z</time>
      </trkpt>
      <trkpt lat="42.835991" lon="0.657392">
        <ele>1953.2</ele>
        <time>2025-07-11T15:14:13.008Z</time>
      </trkpt>
      <trkpt lat="42.836481" lon="0.658088">
        <ele>1968.5</ele>
        <time>2025-07-11T15:17:57.751Z</time>
      </trkpt>
      <trkpt lat="42.836692" lon="0.658366">
        <ele>1971.5</ele>
        <time>2025-07-11T15:18:56.583Z</time>
      </trkpt>
      <trkpt lat="42.837005" lon="0.658635">
        <ele>1975.3</ele>
        <time>2025-07-11T15:20:10.647Z</time>
      </trkpt>
      <trkpt lat="42.837304" lon="0.658979">
        <ele>1979.9</ele>
        <time>2025-07-11T15:21:35.656Z</time>
      </trkpt>
      <trkpt lat="42.837548" lon="0.659204">
        <ele>1984.0</ele>
        <time>2025-07-11T15:22:45.975Z</time>
      </trkpt>
      <trkpt lat="42.837953" lon="0.659443">
        <ele>1990.6</ele>
        <time>2025-07-11T15:24:36.326Z</time>
      </trkpt>
      <trkpt lat="42.838359" lon="0.659748">
        <ele>2001.5</ele>
        <time>2025-07-11T15:27:12.185Z</time>
      </trkpt>
      <trkpt lat="42.838799" lon="0.660038">
        <ele>2012.2</ele>
        <time>2025-07-11T15:29:48.815Z</time>
      </trkpt>
      <trkpt lat="42.839692" lon="0.660668">
        <ele>2028.9</ele>
        <time>2025-07-11T15:34:15.928Z</time>
      </trkpt>
      <trkpt lat="42.839965" lon="0.660970">
        <ele>2032.0</ele>
        <time>2025-07-11T15:35:21.325Z</time>
      </trkpt>
      <trkpt lat="42.840188" lon="0.661261">
        <ele>2034.1</ele>
        <time>2025-07-11T15:36:13.311Z</time>
      </trkpt>
      <trkpt lat="42.840378" lon="0.661474">
        <ele>2035.5</ele>
        <time>2025-07-11T15:36:50.631Z</time>
      </trkpt>
      <trkpt lat="42.840530" lon="0.661749">
        <ele>2038.0</ele>
        <time>2025-07-11T15:37:41.254Z</time>
      </trkpt>
      <trkpt lat="42.840864" lon="0.662164">
        <ele>2043.5</ele>
        <time>2025-07-11T15:39:20.484Z</time>
      </trkpt>
      <trkpt lat="42.841290" lon="0.662792">
        <ele>2051.1</ele>
        <time>2025-07-11T15:41:38.788Z</time>
      </trkpt>
      <trkpt lat="42.841514" lon="0.663366">
        <ele>2058.4</ele>
        <time>2025-07-11T15:43:39.345Z</time>
      </trkpt>
      <trkpt lat="42.842306" lon="0.664664">
        <ele>2073.7</ele>
        <time>2025-07-11T15:48:14.567Z</time>
      </trkpt>
      <trkpt lat="42.842624" lon="0.665064">
        <ele>2075.0</ele>
        <time>2025-07-11T15:49:09.594Z</time>
      </trkpt>
      <trkpt lat="42.843526" lon="0.666665">
        <ele>2079.6</ele>
        <time>2025-07-11T15:52:17.584Z</time>
      </trkpt>
      <trkpt lat="42.843929" lon="0.667285">
        <ele>2084.0</ele>
        <time>2025-07-11T15:54:00.806Z</time>
      </trkpt>
      <trkpt lat="42.844082" lon="0.668003">
        <ele>2092.8</ele>
        <time>2025-07-11T15:56:23.616Z</time>
      </trkpt>
      <trkpt lat="42.844157" lon="0.668664">
        <ele>2101.6</ele>
        <time>2025-07-11T15:58:41.640Z</time>
      </trkpt>
      <trkpt lat="42.844375" lon="0.670460">
        <ele>2125.6</ele>
        <time>2025-07-11T16:04:55.362Z</time>
      </trkpt>
      <trkpt lat="42.844635" lon="0.671475">
        <ele>2136.2</ele>
        <time>2025-07-11T16:07:58.971Z</time>
      </trkpt>
      <trkpt lat="42.844846" lon="0.672076">
        <ele>2141.5</ele>
        <time>2025-07-11T16:09:40.698Z</time>
      </trkpt>
      <trkpt lat="42.845353" lon="0.672956">
        <ele>2152.6</ele>
        <time>2025-07-11T16:12:53.167Z</time>
      </trkpt>
      <trkpt lat="42.845784" lon="0.673740">
        <ele>2163.4</ele>
        <time>2025-07-11T16:15:52.642Z</time>
      </trkpt>
      <trkpt lat="42.846007" lon="0.674273">
        <ele>2170.6</ele>
        <time>2025-07-11T16:17:49.417Z</time>
      </trkpt>
      <trkpt lat="42.846107" lon="0.674883">
        <ele>2177.9</ele>
        <time>2025-07-11T16:19:48.561Z</time>
      </trkpt>
      <trkpt lat="42.846095" lon="0.675205">
        <ele>2175.5</ele>
        <time>2025-07-11T16:20:25.686Z</time>
      </trkpt>
      <trkpt lat="42.846396" lon="0.675320">
        <ele>2172.2</ele>
        <time>2025-07-11T16:21:16.475Z</time>
      </trkpt>
      <trkpt lat="42.846634" lon="0.675412">
        <ele>2166.6</ele>
        <time>2025-07-11T16:22:14.106Z</time>
      </trkpt>
      <trkpt lat="42.846852" lon="0.675556">
        <ele>2161.1</ele>
        <time>2025-07-11T16:23:10.241Z</time>
      </trkpt>
      <trkpt lat="42.847052" lon="0.675910">
        <ele>2153.4</ele>
        <time>2025-07-11T16:24:27.689Z</time>
      </trkpt>
      <trkpt lat="42.847130" lon="0.676244">
        <ele>2146.9</ele>
        <time>2025-07-11T16:25:32.700Z</time>
      </trkpt>
      <trkpt lat="42.847233" lon="0.676566">
        <ele>2140.6</ele>
        <time>2025-07-11T16:26:35.428Z</time>
      </trkpt>
      <trkpt lat="42.847463" lon="0.676988">
        <ele>2132.6</ele>
        <time>2025-07-11T16:28:00.558Z</time>
      </trkpt>
      <trkpt lat="42.847606" lon="0.677226">
        <ele>2128.8</ele>
        <time>2025-07-11T16:28:44.799Z</time>
      </trkpt>
      <trkpt lat="42.847788" lon="0.677537">
        <ele>2123.8</ele>
        <time>2025-07-11T16:29:43.129Z</time>
      </trkpt>
      <trkpt lat="42.848079" lon="0.677712">
        <ele>2117.8</ele>
        <time>2025-07-11T16:30:50.765Z</time>
      </trkpt>
      <trkpt lat="42.848293" lon="0.678145">
        <ele>2110.8</ele>
        <time>2025-07-11T16:32:09.151Z</time>
      </trkpt>
      <trkpt lat="42.848669" lon="0.678764">
        <ele>2107.9</ele>
        <time>2025-07-11T16:33:22.407Z</time>
      </trkpt>
      <trkpt lat="42.848906" lon="0.678864">
        <ele>2108.2</ele>
        <time>2025-07-11T16:33:49.332Z</time>
      </trkpt>
      <trkpt lat="42.849164" lon="0.678889">
        <ele>2108.8</ele>
        <time>2025-07-11T16:34:20.693Z</time>
      </trkpt>
      <trkpt lat="42.849430" lon="0.678835">
        <ele>2112.1</ele>
        <time>2025-07-11T16:35:19.854Z</time>
      </trkpt>
      <trkpt lat="42.849676" lon="0.678862">
        <ele>2114.7</ele>
        <time>2025-07-11T16:36:10.668Z</time>
      </trkpt>
      <trkpt lat="42.849929" lon="0.679004">
        <ele>2116.9</ele>
        <time>2025-07-11T16:36:59.765Z</time>
      </trkpt>
      <trkpt lat="42.850140" lon="0.679139">
        <ele>2117.3</ele>
        <time>2025-07-11T16:37:25.760Z</time>
      </trkpt>
      <trkpt lat="42.850353" lon="0.679290">
        <ele>2116.2</ele>
        <time>2025-07-11T16:37:55.605Z</time>
      </trkpt>
      <trkpt lat="42.850580" lon="0.679246">
        <ele>2115.0</ele>
        <time>2025-07-11T16:38:24.470Z</time>
      </trkpt>
      <trkpt lat="42.850956" lon="0.679009">
        <ele>2112.0</ele>
        <time>2025-07-11T16:39:22.546Z</time>
      </trkpt>
      <trkpt lat="42.851239" lon="0.678847">
        <ele>2109.8</ele>
        <time>2025-07-11T16:40:05.119Z</time>
      </trkpt>
      <trkpt lat="42.852087" lon="0.678521">
        <ele>2099.5</ele>
        <time>2025-07-11T16:42:30.959Z</time>
      </trkpt>
      <trkpt lat="42.852405" lon="0.678489">
        <ele>2098.5</ele>
        <time>2025-07-11T16:43:07.442Z</time>
      </trkpt>
      <trkpt lat="42.852668" lon="0.678332">
        <ele>2097.6</ele>
        <time>2025-07-11T16:43:40.240Z</time>
      </trkpt>
      <trkpt lat="42.852961" lon="0.678041">
        <ele>2096.5</ele>
        <time>2025-07-11T16:44:21.109Z</time>
      </trkpt>
      <trkpt lat="42.853346" lon="0.678030">
        <ele>2099.1</ele>
        <time>2025-07-11T16:45:25.796Z</time>
      </trkpt>
      <trkpt lat="42.853690" lon="0.677854">
        <ele>2103.6</ele>
        <time>2025-07-11T16:46:47.403Z</time>
      </trkpt>
      <trkpt lat="42.854121" lon="0.677476">
        <ele>2109.9</ele>
        <time>2025-07-11T16:48:41.917Z</time>
      </trkpt>
      <trkpt lat="42.854466" lon="0.677179">
        <ele>2101.6</ele>
        <time>2025-07-11T16:50:10.969Z</time>
      </trkpt>
      <trkpt lat="42.855164" lon="0.676417">
        <ele>2083.3</ele>
        <time>2025-07-11T16:53:25.920Z</time>
      </trkpt>
      <trkpt lat="42.855470" lon="0.676035">
        <ele>2068.3</ele>
        <time>2025-07-11T16:55:35.574Z</time>
      </trkpt>
      <trkpt lat="42.855714" lon="0.675722">
        <ele>2056.1</ele>
        <time>2025-07-11T16:57:20.426Z</time>
      </trkpt>
      <trkpt lat="42.855971" lon="0.674888">
        <ele>2045.1</ele>
        <time>2025-07-11T16:59:29.510Z</time>
      </trkpt>
      <trkpt lat="42.856174" lon="0.673823">
        <ele>2059.8</ele>
        <time>2025-07-11T17:03:17.230Z</time>
      </trkpt>
      <trkpt lat="42.856443" lon="0.673004">
        <ele>2076.2</ele>
        <time>2025-07-11T17:07:08.044Z</time>
      </trkpt>
      <trkpt lat="42.856682" lon="0.673009">
        <ele>2078.2</ele>
        <time>2025-07-11T17:07:52.038Z</time>
      </trkpt>
      <trkpt lat="42.856990" lon="0.672849">
        <ele>2081.1</ele>
        <time>2025-07-11T17:08:52.825Z</time>
      </trkpt>
      <trkpt lat="42.857267" lon="0.672914">
        <ele>2085.5</ele>
        <time>2025-07-11T17:10:06.263Z</time>
      </trkpt>
      <trkpt lat="42.857687" lon="0.672777">
        <ele>2086.8</ele>
        <time>2025-07-11T17:11:02.192Z</time>
      </trkpt>
      <trkpt lat="42.857631" lon="0.672945">
        <ele>2084.0</ele>
        <time>2025-07-11T17:11:48.582Z</time>
      </trkpt>
      <trkpt lat="42.857515" lon="0.673433">
        <ele>2072.2</ele>
        <time>2025-07-11T17:13:34.818Z</time>
      </trkpt>
      <trkpt lat="42.857191" lon="0.674004">
        <ele>2055.7</ele>
        <time>2025-07-11T17:16:04.264Z</time>
      </trkpt>
      <trkpt lat="42.857062" lon="0.674319">
        <ele>2045.5</ele>
        <time>2025-07-11T17:17:31.299Z</time>
      </trkpt>
      <trkpt lat="42.857134" lon="0.674884">
        <ele>2029.1</ele>
        <time>2025-07-11T17:19:49.240Z</time>
      </trkpt>
      <trkpt lat="42.857328" lon="0.675344">
        <ele>2009.4</ele>
        <time>2025-07-11T17:22:26.440Z</time>
      </trkpt>
      <trkpt lat="42.857569" lon="0.675206">
        <ele>1998.3</ele>
        <time>2025-07-11T17:23:58.324Z</time>
      </trkpt>
      <trkpt lat="42.857665" lon="0.675886">
        <ele>1980.3</ele>
        <time>2025-07-11T17:26:34.686Z</time>
      </trkpt>
      <trkpt lat="42.857688" lon="0.676302">
        <ele>1967.9</ele>
        <time>2025-07-11T17:28:18.338Z</time>
      </trkpt>
      <trkpt lat="42.857882" lon="0.676973">
        <ele>1946.4</ele>
        <time>2025-07-11T17:31:17.320Z</time>
      </trkpt>
      <trkpt lat="42.857918" lon="0.677898">
        <ele>1918.7</ele>
        <time>2025-07-11T17:35:08.357Z</time>
      </trkpt>
      <trkpt lat="42.857957" lon="0.678418">
        <ele>1909.5</ele>
        <time>2025-07-11T17:36:40.394Z</time>
      </trkpt>
      <trkpt lat="42.857872" lon="0.678849">
        <ele>1901.6</ele>
        <time>2025-07-11T17:37:58.838Z</time>
      </trkpt>
      <trkpt lat="42.857825" lon="0.679381">
        <ele>1893.5</ele>
        <time>2025-07-11T17:39:25.045Z</time>
      </trkpt>
      <trkpt lat="42.857815" lon="0.679713">
        <ele>1888.4</ele>
        <time>2025-07-11T17:40:18.431Z</time>
      </trkpt>
      <trkpt lat="42.857948" lon="0.680018">
        <ele>1880.7</ele>
        <time>2025-07-11T17:41:30.950Z</time>
      </trkpt>
      <trkpt lat="42.858174" lon="0.679610">
        <ele>1869.6</ele>
        <time>2025-07-11T17:43:16.078Z</time>
      </trkpt>
      <trkpt lat="42.858507" lon="0.679078">
        <ele>1857.7</ele>
        <time>2025-07-11T17:45:16.437Z</time>
      </trkpt>
      <trkpt lat="42.858805" lon="0.678652">
        <ele>1854.2</ele>
        <time>2025-07-11T17:46:18.142Z</time>
      </trkpt>
      <trkpt lat="42.859045" lon="0.678176">
        <ele>1850.9</ele>
        <time>2025-07-11T17:47:18.496Z</time>
      </trkpt>
      <trkpt lat="42.859174" lon="0.677906">
        <ele>1849.9</ele>
        <time>2025-07-11T17:47:46.866Z</time>
      </trkpt>
      <trkpt lat="42.859650" lon="0.677634">
        <ele>1847.8</ele>
        <time>2025-07-11T17:48:50.723Z</time>
      </trkpt>
      <trkpt lat="42.859944" lon="0.677463">
        <ele>1847.5</ele>
        <time>2025-07-11T17:49:23.747Z</time>
      </trkpt>
      <trkpt lat="42.860395" lon="0.677322">
        <ele>1847.0</ele>
        <time>2025-07-11T17:50:10.761Z</time>
      </trkpt>
      <trkpt lat="42.860599" lon="0.677182">
        <ele>1842.0</ele>
        <time>2025-07-11T17:51:02.709Z</time>
      </trkpt>
      <trkpt lat="42.860968" lon="0.677287">
        <ele>1833.7</ele>
        <time>2025-07-11T17:52:28.396Z</time>
      </trkpt>
      <trkpt lat="42.861001" lon="0.677625">
        <ele>1814.6</ele>
        <time>2025-07-11T17:54:47.395Z</time>
      </trkpt>
      <trkpt lat="42.860979" lon="0.678057">
        <ele>1791.3</ele>
        <time>2025-07-11T17:57:37.697Z</time>
      </trkpt>
      <trkpt lat="42.861180" lon="0.678749">
        <ele>1759.8</ele>
        <time>2025-07-11T18:01:40.421Z</time>
      </trkpt>
      <trkpt lat="42.861476" lon="0.678960">
        <ele>1743.4</ele>
        <time>2025-07-11T18:03:55.594Z</time>
      </trkpt>
      <trkpt lat="42.861549" lon="0.679312">
        <ele>1733.3</ele>
        <time>2025-07-11T18:05:26.508Z</time>
      </trkpt>
      <trkpt lat="42.861780" lon="0.679191">
        <ele>1726.6</ele>
        <time>2025-07-11T18:06:30.216Z</time>
      </trkpt>
      <trkpt lat="42.861987" lon="0.679170">
        <ele>1721.8</ele>
        <time>2025-07-11T18:07:22.320Z</time>
      </trkpt>
      <trkpt lat="42.862257" lon="0.678754">
        <ele>1713.7</ele>
        <time>2025-07-11T18:08:49.608Z</time>
      </trkpt>
      <trkpt lat="42.862710" lon="0.678877">
        <ele>1708.3</ele>
        <time>2025-07-11T18:10:05.830Z</time>
      </trkpt>
      <trkpt lat="42.863048" lon="0.678844">
        <ele>1710.3</ele>
        <time>2025-07-11T18:10:58.830Z</time>
      </trkpt>
      <trkpt lat="42.863336" lon="0.678828">
        <ele>1706.4</ele>
        <time>2025-07-11T18:11:51.306Z</time>
      </trkpt>
      <trkpt lat="42.864010" lon="0.678974">
        <ele>1687.3</ele>
        <time>2025-07-11T18:14:52.502Z</time>
      </trkpt>
      <trkpt lat="42.864218" lon="0.679256">
        <ele>1679.0</ele>
        <time>2025-07-11T18:16:20.773Z</time>
      </trkpt>
      <trkpt lat="42.863897" lon="0.679893">
        <ele>1663.6</ele>
        <time>2025-07-11T18:18:47.447Z</time>
      </trkpt>
      <trkpt lat="42.863785" lon="0.680288">
        <ele>1654.4</ele>
        <time>2025-07-11T18:20:12.088Z</time>
      </trkpt>
      <trkpt lat="42.863750" lon="0.680654">
        <ele>1643.4</ele>
        <time>2025-07-11T18:21:43.852Z</time>
      </trkpt>
      <trkpt lat="42.863799" lon="0.681368">
        <ele>1624.5</ele>
        <time>2025-07-11T18:24:28.507Z</time>
      </trkpt>
      <trkpt lat="42.864021" lon="0.681665">
        <ele>1614.6</ele>
        <time>2025-07-11T18:25:57.162Z</time>
      </trkpt>
      <trkpt lat="42.864373" lon="0.681855">
        <ele>1606.1</ele>
        <time>2025-07-11T18:27:26.596Z</time>
      </trkpt>
      <trkpt lat="42.864793" lon="0.681861">
        <ele>1601.1</ele>
        <time>2025-07-11T18:28:36.963Z</time>
      </trkpt>
      <trkpt lat="42.865242" lon="0.681965">
        <ele>1599.9</ele>
        <time>2025-07-11T18:29:27.290Z</time>
      </trkpt>
      <trkpt lat="42.865153" lon="0.682308">
        <ele>1587.4</ele>
        <time>2025-07-11T18:31:09.659Z</time>
      </trkpt>
      <trkpt lat="42.865049" lon="0.682791">
        <ele>1572.7</ele>
        <time>2025-07-11T18:33:13.249Z</time>
      </trkpt>
      <trkpt lat="42.864851" lon="0.682971">
        <ele>1564.4</ele>
        <time>2025-07-11T18:34:25.919Z</time>
      </trkpt>
      <trkpt lat="42.864790" lon="0.683316">
        <ele>1557.2</ele>
        <time>2025-07-11T18:35:34.337Z</time>
      </trkpt>
      <trkpt lat="42.864865" lon="0.683590">
        <ele>1551.7</ele>
        <time>2025-07-11T18:36:28.937Z</time>
      </trkpt>
      <trkpt lat="42.864950" lon="0.683879">
        <ele>1543.6</ele>
        <time>2025-07-11T18:37:41.771Z</time>
      </trkpt>
      <trkpt lat="42.864947" lon="0.684136">
        <ele>1534.4</ele>
        <time>2025-07-11T18:39:11.834Z</time>
      </trkpt>
      <trkpt lat="42.864730" lon="0.684196">
        <ele>1531.0</ele>
        <time>2025-07-11T18:39:54.248Z</time>
      </trkpt>
      <trkpt lat="42.864695" lon="0.684473">
        <ele>1518.3</ele>
        <time>2025-07-11T18:41:37.775Z</time>
      </trkpt>
      <trkpt lat="42.864821" lon="0.684731">
        <ele>1505.6</ele>
        <time>2025-07-11T18:43:16.309Z</time>
      </trkpt>
      <trkpt lat="42.864796" lon="0.684976">
        <ele>1494.4</ele>
        <time>2025-07-11T18:44:46.195Z</time>
      </trkpt>
      <trkpt lat="42.864779" lon="0.685270">
        <ele>1484.2</ele>
        <time>2025-07-11T18:46:08.724Z</time>
      </trkpt>
      <trkpt lat="42.864538" lon="0.685373">
        <ele>1478.8</ele>
        <time>2025-07-11T18:47:06.434Z</time>
      </trkpt>
      <trkpt lat="42.864403" lon="0.685624">
        <ele>1473.1</ele>
        <time>2025-07-11T18:48:06.449Z</time>
      </trkpt>
      <trkpt lat="42.864386" lon="0.685903">
        <ele>1465.3</ele>
        <time>2025-07-11T18:49:14.533Z</time>
      </trkpt>
      <trkpt lat="42.864443" lon="0.686237">
        <ele>1457.5</ele>
        <time>2025-07-11T18:50:26.883Z</time>
      </trkpt>
      <trkpt lat="42.864349" lon="0.686495">
        <ele>1453.6</ele>
        <time>2025-07-11T18:51:12.515Z</time>
      </trkpt>
      <trkpt lat="42.864190" lon="0.686713">
        <ele>1449.2</ele>
        <time>2025-07-11T18:52:05.897Z</time>
      </trkpt>
      <trkpt lat="42.864192" lon="0.687088">
        <ele>1445.1</ele>
        <time>2025-07-11T18:52:56.441Z</time>
      </trkpt>
      <trkpt lat="42.864197" lon="0.687482">
        <ele>1440.8</ele>
        <time>2025-07-11T18:53:49.692Z</time>
      </trkpt>
      <trkpt lat="42.864056" lon="0.688002">
        <ele>1436.8</ele>
        <time>2025-07-11T18:54:53.231Z</time>
      </trkpt>
      <trkpt lat="42.864008" lon="0.688754">
        <ele>1431.3</ele>
        <time>2025-07-11T18:56:18.788Z</time>
      </trkpt>
      <trkpt lat="42.863916" lon="0.689093">
        <ele>1425.3</ele>
        <time>2025-07-11T18:57:20.186Z</time>
      </trkpt>
      <trkpt lat="42.863656" lon="0.689861">
        <ele>1412.1</ele>
        <time>2025-07-11T18:59:39.329Z</time>
      </trkpt>
      <trkpt lat="42.863572" lon="0.690264">
        <ele>1405.9</ele>
        <time>2025-07-11T19:00:45.739Z</time>
      </trkpt>
      <trkpt lat="42.863378" lon="0.690529">
        <ele>1402.8</ele>
        <time>2025-07-11T19:01:30.051Z</time>
      </trkpt>
      <trkpt lat="42.863180" lon="0.691007">
        <ele>1398.4</ele>
        <time>2025-07-11T19:02:34.861Z</time>
      </trkpt>
      <trkpt lat="42.862950" lon="0.691853">
        <ele>1371.6</ele>
        <time>2025-07-11T19:06:18.778Z</time>
      </trkpt>
      <trkpt lat="42.862796" lon="0.692401">
        <ele>1361.7</ele>
        <time>2025-07-11T19:07:59.380Z</time>
      </trkpt>
      <trkpt lat="42.862912" lon="0.692844">
        <ele>1350.7</ele>
        <time>2025-07-11T19:09:38.521Z</time>
      </trkpt>
      <trkpt lat="42.862984" lon="0.693303">
        <ele>1343.3</ele>
        <time>2025-07-11T19:10:55.669Z</time>
      </trkpt>
      <trkpt lat="42.863319" lon="0.693083">
        <ele>1335.1</ele>
        <time>2025-07-11T19:12:49.692Z</time>
      </trkpt>
      <trkpt lat="42.863601" lon="0.692799">
        <ele>1331.9</ele>
        <time>2025-07-11T19:13:42.032Z</time>
      </trkpt>
      <trkpt lat="42.863871" lon="0.692667">
        <ele>1322.6</ele>
        <time>2025-07-11T19:15:08.353Z</time>
      </trkpt>
      <trkpt lat="42.863996" lon="0.692929">
        <ele>1310.3</ele>
        <time>2025-07-11T19:16:50.889Z</time>
      </trkpt>
      <trkpt lat="42.864244" lon="0.692834">
        <ele>1304.5</ele>
        <time>2025-07-11T19:17:50.984Z</time>
      </trkpt>
      <trkpt lat="42.864709" lon="0.693432">
        <ele>1290.0</ele>
        <time>2025-07-11T19:20:18.790Z</time>
      </trkpt>
      <trkpt lat="42.864796" lon="0.693810">
        <ele>1278.0</ele>
        <time>2025-07-11T19:21:58.419Z</time>
      </trkpt>
      <trkpt lat="42.865007" lon="0.693908">
        <ele>1270.8</ele>
        <time>2025-07-11T19:23:03.605Z</time>
      </trkpt>
      <trkpt lat="42.864669" lon="0.693916">
        <ele>1267.6</ele>
        <time>2025-07-11T19:23:56.087Z</time>
      </trkpt>
      <trkpt lat="42.864878" lon="0.694429">
        <ele>1255.5</ele>
        <time>2025-07-11T19:25:51.555Z</time>
      </trkpt>
      <trkpt lat="42.864911" lon="0.694797">
        <ele>1245.1</ele>
        <time>2025-07-11T19:27:21.270Z</time>
      </trkpt>
      <trkpt lat="42.865108" lon="0.694947">
        <ele>1231.2</ele>
        <time>2025-07-11T19:29:05.947Z</time>
      </trkpt>
      <trkpt lat="42.865473" lon="0.695259">
        <ele>1204.7</ele>
        <time>2025-07-11T19:32:25.796Z</time>
      </trkpt>
      <trkpt lat="42.865712" lon="0.695647">
        <ele>1191.1</ele>
        <time>2025-07-11T19:34:24.658Z</time>
      </trkpt>
      <trkpt lat="42.865775" lon="0.696036">
        <ele>1181.0</ele>
        <time>2025-07-11T19:35:53.472Z</time>
      </trkpt>
      <trkpt lat="42.866068" lon="0.696425">
        <ele>1158.3</ele>
        <time>2025-07-11T19:38:49.003Z</time>
      </trkpt>
      <trkpt lat="42.866267" lon="0.696527">
        <ele>1154.0</ele>
        <time>2025-07-11T19:39:45.899Z</time>
      </trkpt>
      <trkpt lat="42.866601" lon="0.696556">
        <ele>1152.5</ele>
        <time>2025-07-11T19:40:27.230Z</time>
      </trkpt>
      <trkpt lat="42.867212" lon="0.696647">
        <ele>1151.8</ele>
        <time>2025-07-11T19:41:29.998Z</time>
      </trkpt>
      <trkpt lat="42.867525" lon="0.696755">
        <ele>1150.0</ele>
        <time>2025-07-11T19:42:11.484Z</time>
      </trkpt>
      <trkpt lat="42.868427" lon="0.696945">
        <ele>1136.0</ele>
        <time>2025-07-11T19:45:03.039Z</time>
      </trkpt>
      <trkpt lat="42.868811" lon="0.696932">
        <ele>1131.4</ele>
        <time>2025-07-11T19:46:07.001Z</time>
      </trkpt>
      <trkpt lat="42.869050" lon="0.696953">
        <ele>1128.5</ele>
        <time>2025-07-11T19:46:47.052Z</time>
      </trkpt>
      <trkpt lat="42.869560" lon="0.696865">
        <ele>1115.7</ele>
        <time>2025-07-11T19:48:52.968Z</time>
      </trkpt>
      <trkpt lat="42.869803" lon="0.696811">
        <ele>1113.8</ele>
        <time>2025-07-11T19:49:27.849Z</time>
      </trkpt>
      <trkpt lat="42.870096" lon="0.696578">
        <ele>1111.2</ele>
        <time>2025-07-11T19:50:16.019Z</time>
      </trkpt>
      <trkpt lat="42.870370" lon="0.696422">
        <ele>1109.9</ele>
        <time>2025-07-11T19:50:52.054Z</time>
      </trkpt>
      <trkpt lat="42.870910" lon="0.696478">
        <ele>1098.2</ele>
        <time>2025-07-11T19:52:54.322Z</time>
      </trkpt>
      <trkpt lat="42.871315" lon="0.696540">
        <ele>1084.7</ele>
        <time>2025-07-11T19:54:54.495Z</time>
      </trkpt>
      <trkpt lat="42.871557" lon="0.696438">
        <ele>1075.9</ele>
        <time>2025-07-11T19:56:11.780Z</time>
      </trkpt>
      <trkpt lat="42.871800" lon="0.696079">
        <ele>1072.4</ele>
        <time>2025-07-11T19:57:07.258Z</time>
      </trkpt>
      <trkpt lat="42.871915" lon="0.695537">
        <ele>1073.6</ele>
        <time>2025-07-11T19:57:59.097Z</time>
      </trkpt>
      <trkpt lat="42.872060" lon="0.695035">
        <ele>1073.4</ele>
        <time>2025-07-11T19:58:37.640Z</time>
      </trkpt>
      <trkpt lat="42.872300" lon="0.694705">
        <ele>1070.9</ele>
        <time>2025-07-11T19:59:25.736Z</time>
      </trkpt>
      <trkpt lat="42.872274" lon="0.694214">
        <ele>1082.1</ele>
        <time>2025-07-11T20:01:55.396Z</time>
      </trkpt>
      <trkpt lat="42.872351" lon="0.693871">
        <ele>1083.4</ele>
        <time>2025-07-11T20:02:40.703Z</time>
      </trkpt>
      <trkpt lat="42.872671" lon="0.694155">
        <ele>1073.9</ele>
        <time>2025-07-11T20:04:14.429Z</time>
      </trkpt>
      <trkpt lat="42.872900" lon="0.694357">
        <ele>1071.4</ele>
        <time>2025-07-11T20:04:55.436Z</time>
      </trkpt>
      <trkpt lat="42.873151" lon="0.694717">
        <ele>1071.3</ele>
        <time>2025-07-11T20:05:30.636Z</time>
      </trkpt>
      <trkpt lat="42.873491" lon="0.694782">
        <ele>1074.7</ele>
        <time>2025-07-11T20:06:38.350Z</time>
      </trkpt>
      <trkpt lat="42.873708" lon="0.695133">
        <ele>1065.7</ele>
        <time>2025-07-11T20:08:05.107Z</time>
      </trkpt>
      <trkpt lat="42.874798" lon="0.696396">
        <ele>1028.4</ele>
        <time>2025-07-11T20:14:04.751Z</time>
      </trkpt>
      <trkpt lat="42.875047" lon="0.696695">
        <ele>1020.1</ele>
        <time>2025-07-11T20:15:27.797Z</time>
      </trkpt>
      <trkpt lat="42.875397" lon="0.696740">
        <ele>1011.5</ele>
        <time>2025-07-11T20:16:52.735Z</time>
      </trkpt>
      <trkpt lat="42.875659" lon="0.696954">
        <ele>1008.1</ele>
        <time>2025-07-11T20:17:42.214Z</time>
      </trkpt>
      <trkpt lat="42.875973" lon="0.697145">
        <ele>1004.3</ele>
        <time>2025-07-11T20:18:37.763Z</time>
      </trkpt>
      <trkpt lat="42.875968" lon="0.697584">
        <ele>996.8</ele>
        <time>2025-07-11T20:19:55.382Z</time>
      </trkpt>
      <trkpt lat="42.876051" lon="0.697995">
        <ele>989.9</ele>
        <time>2025-07-11T20:21:06.595Z</time>
      </trkpt>
      <trkpt lat="42.875850" lon="0.697987">
        <ele>988.0</ele>
        <time>2025-07-11T20:21:43.923Z</time>
      </trkpt>
      <trkpt lat="42.875678" lon="0.697926">
        <ele>986.4</ele>
        <time>2025-07-11T20:22:17.088Z</time>
      </trkpt>
      <trkpt lat="42.875424" lon="0.698060">
        <ele>980.8</ele>
        <time>2025-07-11T20:23:16.329Z</time>
      </trkpt>
      <trkpt lat="42.875217" lon="0.698418">
        <ele>973.6</ele>
        <time>2025-07-11T20:24:33.945Z</time>
      </trkpt>
      <trkpt lat="42.875127" lon="0.698748">
        <ele>966.4</ele>
        <time>2025-07-11T20:25:44.953Z</time>
      </trkpt>
      <trkpt lat="42.874893" lon="0.699007">
        <ele>954.7</ele>
        <time>2025-07-11T20:27:31.106Z</time>
      </trkpt>
      <trkpt lat="42.874619" lon="0.699217">
        <ele>941.8</ele>
        <time>2025-07-11T20:29:18.870Z</time>
      </trkpt>
      <trkpt lat="42.874257" lon="0.699526">
        <ele>942.4</ele>
        <time>2025-07-11T20:30:07.513Z</time>
      </trkpt>
      <trkpt lat="42.874009" lon="0.699812">
        <ele>939.4</ele>
        <time>2025-07-11T20:30:57.581Z</time>
      </trkpt>
      <trkpt lat="42.874256" lon="0.699920">
        <ele>933.5</ele>
        <time>2025-07-11T20:31:58.473Z</time>
      </trkpt>
      <trkpt lat="42.874434" lon="0.700114">
        <ele>928.0</ele>
        <time>2025-07-11T20:32:59.081Z</time>
      </trkpt>
      <trkpt lat="42.874634" lon="0.699911">
        <ele>922.5</ele>
        <time>2025-07-11T20:34:05.500Z</time>
      </trkpt>
      <trkpt lat="42.874787" lon="0.699911">
        <ele>918.9</ele>
        <time>2025-07-11T20:34:49.500Z</time>
      </trkpt>
      <trkpt lat="42.874932" lon="0.700364">
        <ele>912.7</ele>
        <time>2025-07-11T20:36:03.789Z</time>
      </trkpt>
      <trkpt lat="42.875171" lon="0.700782">
        <ele>900.5</ele>
        <time>2025-07-11T20:37:57.203Z</time>
      </trkpt>
      <trkpt lat="42.875440" lon="0.700953">
        <ele>893.5</ele>
        <time>2025-07-11T20:39:10.326Z</time>
      </trkpt>
      <trkpt lat="42.875592" lon="0.701160">
        <ele>889.9</ele>
        <time>2025-07-11T20:39:54.083Z</time>
      </trkpt>
      <trkpt lat="42.875902" lon="0.701511">
        <ele>883.8</ele>
        <time>2025-07-11T20:41:09.334Z</time>
      </trkpt>
      <trkpt lat="42.875797" lon="0.701824">
        <ele>875.9</ele>
        <time>2025-07-11T20:42:20.516Z</time>
      </trkpt>
      <trkpt lat="42.876177" lon="0.702103">
        <ele>862.5</ele>
        <time>2025-07-11T20:44:22.226Z</time>
      </trkpt>
      <trkpt lat="42.876439" lon="0.702111">
        <ele>852.1</ele>
        <time>2025-07-11T20:45:52.674Z</time>
      </trkpt>
      <trkpt lat="42.876756" lon="0.702622">
        <ele>841.0</ele>
        <time>2025-07-11T20:47:48.048Z</time>
      </trkpt>
      <trkpt lat="42.876998" lon="0.702660">
        <ele>838.2</ele>
        <time>2025-07-11T20:48:27.936Z</time>
      </trkpt>
      <trkpt lat="42.877221" lon="0.703013">
        <ele>817.1</ele>
        <time>2025-07-11T20:51:13.510Z</time>
      </trkpt>
      <trkpt lat="42.877324" lon="0.703396">
        <ele>801.8</ele>
        <time>2025-07-11T20:53:14.038Z</time>
      </trkpt>
      <trkpt lat="42.877475" lon="0.703733">
        <ele>802.3</ele>
        <time>2025-07-11T20:53:46.533Z</time>
      </trkpt>
      <trkpt lat="42.877812" lon="0.703851">
        <ele>803.0</ele>
        <time>2025-07-11T20:54:32.413Z</time>
      </trkpt>
      <trkpt lat="42.877955" lon="0.704117">
        <ele>796.1</ele>
        <time>2025-07-11T20:55:36.800Z</time>
      </trkpt>
      <trkpt lat="42.878276" lon="0.704566">
        <ele>780.4</ele>
        <time>2025-07-11T20:58:03.950Z</time>
      </trkpt>
      <trkpt lat="42.878604" lon="0.704877">
        <ele>770.0</ele>
        <time>2025-07-11T20:59:44.534Z</time>
      </trkpt>
      <trkpt lat="42.878892" lon="0.704948">
        <ele>762.3</ele>
        <time>2025-07-11T21:00:58.172Z</time>
      </trkpt>
      <trkpt lat="42.879188" lon="0.705252">
        <ele>753.4</ele>
        <time>2025-07-11T21:02:27.207Z</time>
      </trkpt>
      <trkpt lat="42.879414" lon="0.705684">
        <ele>744.0</ele>
        <time>2025-07-11T21:04:00.715Z</time>
      </trkpt>
      <trkpt lat="42.879630" lon="0.706189">
        <ele>731.9</ele>
        <time>2025-07-11T21:05:56.806Z</time>
      </trkpt>
      <trkpt lat="42.879904" lon="0.706333">
        <ele>724.1</ele>
        <time>2025-07-11T21:07:21.519Z</time>
      </trkpt>
      <trkpt lat="42.880465" lon="0.707333">
        <ele>705.7</ele>
        <time>2025-07-11T21:10:39.829Z</time>
      </trkpt>
      <trkpt lat="42.880550" lon="0.707622">
        <ele>707.2</ele>
        <time>2025-07-11T21:11:17.023Z</time>
      </trkpt>
      <trkpt lat="42.880915" lon="0.707611">
        <ele>709.6</ele>
        <time>2025-07-11T21:12:16.448Z</time>
      </trkpt>
      <trkpt lat="42.881243" lon="0.707810">
        <ele>706.9</ele>
        <time>2025-07-11T21:13:06.662Z</time>
      </trkpt>
      <trkpt lat="42.881358" lon="0.708074">
        <ele>705.2</ele>
        <time>2025-07-11T21:13:38.091Z</time>
      </trkpt>
      <trkpt lat="42.881584" lon="0.708155">
        <ele>694.2</ele>
        <time>2025-07-11T21:15:06.385Z</time>
      </trkpt>
      <trkpt lat="42.881570" lon="0.708586">
        <ele>679.3</ele>
        <time>2025-07-11T21:17:06.035Z</time>
      </trkpt>
      <trkpt lat="42.881649" lon="0.708921">
        <ele>670.5</ele>
        <time>2025-07-11T21:18:23.632Z</time>
      </trkpt>
      <trkpt lat="42.881752" lon="0.709340">
        <ele>659.4</ele>
        <time>2025-07-11T21:20:01.010Z</time>
      </trkpt>
      <trkpt lat="42.881934" lon="0.709632">
        <ele>643.0</ele>
        <time>2025-07-11T21:22:06.013Z</time>
      </trkpt>
      <trkpt lat="42.882052" lon="0.710329">
        <ele>612.6</ele>
        <time>2025-07-11T21:25:58.587Z</time>
      </trkpt>
      <trkpt lat="42.881961" lon="0.710613">
        <ele>615.7</ele>
        <time>2025-07-11T21:26:52.808Z</time>
      </trkpt>
      <trkpt lat="42.881840" lon="0.711078">
        <ele>620.8</ele>
        <time>2025-07-11T21:28:19.371Z</time>
      </trkpt>
      <trkpt lat="42.881776" lon="0.711561">
        <ele>609.0</ele>
        <time>2025-07-11T21:30:04.191Z</time>
      </trkpt>
      <trkpt lat="42.881597" lon="0.711960">
        <ele>610.1</ele>
        <time>2025-07-11T21:30:50.328Z</time>
      </trkpt>
      <trkpt lat="42.881354" lon="0.711974">
        <ele>620.4</ele>
        <time>2025-07-11T21:32:59.496Z</time>
      </trkpt>
      <trkpt lat="42.880956" lon="0.712199">
        <ele>638.6</ele>
        <time>2025-07-11T21:36:47.795Z</time>
      </trkpt>
      <trkpt lat="42.880824" lon="0.712451">
        <ele>643.7</ele>
        <time>2025-07-11T21:38:01.438Z</time>
      </trkpt>
      <trkpt lat="42.880297" lon="0.712610">
        <ele>655.6</ele>
        <time>2025-07-11T21:40:56.105Z</time>
      </trkpt>
      <trkpt lat="42.879849" lon="0.713320">
        <ele>632.5</ele>
        <time>2025-07-11T21:44:20.099Z</time>
      </trkpt>
      <trkpt lat="42.879465" lon="0.713368">
        <ele>637.2</ele>
        <time>2025-07-11T21:45:44.627Z</time>
      </trkpt>
      <trkpt lat="42.879229" lon="0.713537">
        <ele>640.4</ele>
        <time>2025-07-11T21:46:43.073Z</time>
      </trkpt>
      <trkpt lat="42.878593" lon="0.714299">
        <ele>625.9</ele>
        <time>2025-07-11T21:49:34.285Z</time>
      </trkpt>
      <trkpt lat="42.878162" lon="0.714942">
        <ele>601.4</ele>
        <time>2025-07-11T21:53:02.438Z</time>
      </trkpt>
      <trkpt lat="42.877834" lon="0.715285">
        <ele>598.5</ele>
        <time>2025-07-11T21:53:59.329Z</time>
      </trkpt>
      <trkpt lat="42.877383" lon="0.715954">
        <ele>593.8</ele>
        <time>2025-07-11T21:55:30.940Z</time>
      </trkpt>
      <trkpt lat="42.877066" lon="0.716797">
        <ele>584.4</ele>
        <time>2025-07-11T21:57:33.384Z</time>
      </trkpt>
      <trkpt lat="42.876941" lon="0.717621">
        <ele>579.8</ele>
        <time>2025-07-11T21:59:00.030Z</time>
      </trkpt>
      <trkpt lat="42.876853" lon="0.718116">
        <ele>573.3</ele>
        <time>2025-07-11T22:00:14.376Z</time>
      </trkpt>
      <trkpt lat="42.876908" lon="0.718561">
        <ele>567.6</ele>
        <time>2025-07-11T22:01:20.334Z</time>
      </trkpt>
      <trkpt lat="42.876923" lon="0.718914">
        <ele>563.4</ele>
        <time>2025-07-11T22:02:09.934Z</time>
      </trkpt>
      <trkpt lat="42.876838" lon="0.719241">
        <ele>559.3</ele>
        <time>2025-07-11T22:02:58.610Z</time>
      </trkpt>
      <trkpt lat="42.876768" lon="0.719763">
        <ele>552.7</ele>
        <time>2025-07-11T22:04:15.358Z</time>
      </trkpt>
      <trkpt lat="42.876766" lon="0.720202">
        <ele>547.2</ele>
        <time>2025-07-11T22:05:18.997Z</time>
      </trkpt>
      <trkpt lat="42.876703" lon="0.720562">
        <ele>545.9</ele>
        <time>2025-07-11T22:05:52.518Z</time>
      </trkpt>
      <trkpt lat="42.876573" lon="0.720857">
        <ele>544.8</ele>
        <time>2025-07-11T22:06:23.715Z</time>
      </trkpt>
      <trkpt lat="42.876269" lon="0.721158">
        <ele>548.3</ele>
        <time>2025-07-11T22:07:36.823Z</time>
      </trkpt>
      <trkpt lat="42.876004" lon="0.721444">
        <ele>550.4</ele>
        <time>2025-07-11T22:08:31.195Z</time>
      </trkpt>
      <trkpt lat="42.875606" lon="0.722197">
        <ele>552.9</ele>
        <time>2025-07-11T22:10:01.455Z</time>
      </trkpt>
      <trkpt lat="42.875251" lon="0.722904">
        <ele>550.7</ele>
        <time>2025-07-11T22:11:14.693Z</time>
      </trkpt>
      <trkpt lat="42.874844" lon="0.723558">
        <ele>549.3</ele>
        <time>2025-07-11T22:12:22.856Z</time>
      </trkpt>
      <trkpt lat="42.875064" lon="0.723793">
        <ele>545.7</ele>
        <time>2025-07-11T22:13:11.365Z</time>
      </trkpt>
      <trkpt lat="42.875308" lon="0.724053">
        <ele>541.6</ele>
        <time>2025-07-11T22:14:05.223Z</time>
      </trkpt>
      <trkpt lat="42.875315" lon="0.724481">
        <ele>538.8</ele>
        <time>2025-07-11T22:14:53.548Z</time>
      </trkpt>
      <trkpt lat="42.873736" lon="0.726654">
        <ele>540.8</ele>
        <time>2025-07-11T22:18:48.515Z</time>
      </trkpt>
      <trkpt lat="42.873749" lon="0.726972">
        <ele>538.9</ele>
        <time>2025-07-11T22:19:25.223Z</time>
      </trkpt>
      <trkpt lat="42.873959" lon="0.727088">
        <ele>537.5</ele>
        <time>2025-07-11T22:19:56.672Z</time>
      </trkpt>
      <trkpt lat="42.874046" lon="0.727442">
        <ele>537.1</ele>
        <time>2025-07-11T22:20:29.003Z</time>
      </trkpt>
      <trkpt lat="42.874101" lon="0.727892">
        <ele>537.0</ele>
        <time>2025-07-11T22:21:02.037Z</time>
      </trkpt>
      <trkpt lat="42.874124" lon="0.728279">
        <ele>537.2</ele>
        <time>2025-07-11T22:21:31.319Z</time>
      </trkpt>
      <trkpt lat="42.873898" lon="0.729385">
        <ele>538.4</ele>
        <time>2025-07-11T22:23:03.667Z</time>
      </trkpt>
      <trkpt lat="42.874074" lon="0.729810">
        <ele>538.9</ele>
        <time>2025-07-11T22:23:44.677Z</time>
      </trkpt>
      <trkpt lat="42.874221" lon="0.730215">
        <ele>539.4</ele>
        <time>2025-07-11T22:24:21.243Z</time>
      </trkpt>
      <trkpt lat="42.874295" lon="0.730595">
        <ele>540.7</ele>
        <time>2025-07-11T22:25:01.845Z</time>
      </trkpt>
      <trkpt lat="42.874460" lon="0.731203">
        <ele>542.8</ele>
        <time>2025-07-11T22:26:08.779Z</time>
      </trkpt>
      <trkpt lat="42.874519" lon="0.731501">
        <ele>543.3</ele>
        <time>2025-07-11T22:26:36.621Z</time>
      </trkpt>
      <trkpt lat="42.874456" lon="0.731881">
        <ele>543.9</ele>
        <time>2025-07-11T22:27:10.375Z</time>
      </trkpt>
      <trkpt lat="42.874239" lon="0.732333">
        <ele>542.7</ele>
        <time>2025-07-11T22:27:55.680Z</time>
      </trkpt>
      <trkpt lat="42.874015" lon="0.732696">
        <ele>541.6</ele>
        <time>2025-07-11T22:28:35.246Z</time>
      </trkpt>
      <trkpt lat="42.873750" lon="0.733079">
        <ele>541.8</ele>
        <time>2025-07-11T22:29:13.842Z</time>
      </trkpt>
      <trkpt lat="42.873996" lon="0.733425">
        <ele>543.7</ele>
        <time>2025-07-11T22:30:06.690Z</time>
      </trkpt>
      <trkpt lat="42.874028" lon="0.734038">
        <ele>546.5</ele>
        <time>2025-07-11T22:31:19.821Z</time>
      </trkpt>
      <trkpt lat="42.874077" lon="0.734271">
        <ele>547.4</ele>
        <time>2025-07-11T22:31:47.492Z</time>
      </trkpt>
    </trkseg>
  </trk>
</gpx>
