<?xml version='1.0' encoding='UTF-8'?>
<gpx version="1.1" creator="https://www.komoot.de" xmlns="http://www.topografix.com/GPX/1/1" xmlns:xsi="http://www.w3.org/2001/XMLSchema-instance" xsi:schemaLocation="http://www.topografix.com/GPX/1/1 http://www.topografix.com/GPX/1/1/gpx.xsd">
  <metadata>
    <name>Étape 2 - Laugavegur &amp; Fimmvörðuháls</name>
    <author>
      <link href="https://www.komoot.de">
        <text>komoot</text>
        <type>text/html</type>
      </link>
    </author>
  </metadata>
  <wpt lat="63.933294" lon="-19.167992">
    <name>Höskuldsskáli</name>
    <sym>Drinking Water</sym>
  </wpt>
  <wpt lat="63.933127" lon="-19.166949">
    <name>Höskuldsskáli</name>
    <sym>Fishing Hot Spot Facility</sym>
  </wpt>
  <wpt lat="63.901352" lon="-19.147967">
    <name>Símonarsker</name>
    <sym>Summit</sym>
  </wpt>
  <wpt lat="63.886456" lon="-19.153633">
    <name>Kaldaklofsfjöll</name>
    <sym>Summit</sym>
  </wpt>
  <wpt lat="63.877377" lon="-19.198565">
    <name>Paysages incroyables (Laugavegur)</name>
    <sym>Flag, Blue</sym>
  </wpt>
  <wpt lat="63.857918" lon="-19.228134">
    <name>Lac Álftavatn</name>
    <sym>Flag, Blue</sym>
  </wpt>
  <wpt lat="63.857774" lon="-19.227349">
    <name>Álftavatn</name>
    <sym>Fishing Hot Spot Facility</sym>
  </wpt>
  <trk>
    <name>Étape 2 - Laugavegur &amp; Fimmvörðuháls</name>
    <type>hike</type>
    <trkseg>
      <trkpt lat="63.933336" lon="-19.167739">
        <ele>1001.797654</ele>
        <time>2024-06-07T12:38:36.104Z</time>
      </trkpt>
      <trkpt lat="63.933115" lon="-19.167229">
        <ele>1001.797654</ele>
        <time>2024-06-07T12:39:27.375Z</time>
      </trkpt>
      <trkpt lat="63.933063" lon="-19.167136">
        <ele>1001.797654</ele>
        <time>2024-06-07T12:39:38.268Z</time>
      </trkpt>
      <trkpt lat="63.932514" lon="-19.166158">
        <ele>999.631859</ele>
        <time>2024-06-07T12:41:35.828Z</time>
      </trkpt>
      <trkpt lat="63.932424" lon="-19.165897">
        <ele>997.865561</ele>
        <time>2024-06-07T12:42:01.036Z</time>
      </trkpt>
      <trkpt lat="63.931716" lon="-19.164988">
        <ele>988.016719</ele>
        <time>2024-06-07T12:44:20.637Z</time>
      </trkpt>
      <trkpt lat="63.931506" lon="-19.164655">
        <ele>984.915665</ele>
        <time>2024-06-07T12:45:03.474Z</time>
      </trkpt>
      <trkpt lat="63.930583" lon="-19.163183">
        <ele>976.597315</ele>
        <time>2024-06-07T12:48:00.994Z</time>
      </trkpt>
      <trkpt lat="63.930352" lon="-19.162930">
        <ele>975.386734</ele>
        <time>2024-06-07T12:48:38.502Z</time>
      </trkpt>
      <trkpt lat="63.930094" lon="-19.162741">
        <ele>974.106853</ele>
        <time>2024-06-07T12:49:17.137Z</time>
      </trkpt>
      <trkpt lat="63.929645" lon="-19.162514">
        <ele>971.934924</ele>
        <time>2024-06-07T12:50:21.243Z</time>
      </trkpt>
      <trkpt lat="63.929386" lon="-19.162479">
        <ele>971.615615</ele>
        <time>2024-06-07T12:50:56.710Z</time>
      </trkpt>
      <trkpt lat="63.928763" lon="-19.162063">
        <ele>972.008430</ele>
        <time>2024-06-07T12:52:26.297Z</time>
      </trkpt>
      <trkpt lat="63.927730" lon="-19.161569">
        <ele>972.601178</ele>
        <time>2024-06-07T12:54:55.564Z</time>
      </trkpt>
      <trkpt lat="63.927295" lon="-19.161208">
        <ele>972.602682</ele>
        <time>2024-06-07T12:56:00.219Z</time>
      </trkpt>
      <trkpt lat="63.926197" lon="-19.160481">
        <ele>972.606397</ele>
        <time>2024-06-07T12:58:35.566Z</time>
      </trkpt>
      <trkpt lat="63.925723" lon="-19.160050">
        <ele>971.931163</ele>
        <time>2024-06-07T12:59:46.336Z</time>
      </trkpt>
      <trkpt lat="63.925344" lon="-19.159585">
        <ele>971.193992</ele>
        <time>2024-06-07T13:00:46.179Z</time>
      </trkpt>
      <trkpt lat="63.924910" lon="-19.158699">
        <ele>970.195724</ele>
        <time>2024-06-07T13:02:08.002Z</time>
      </trkpt>
      <trkpt lat="63.924776" lon="-19.158561">
        <ele>969.943911</ele>
        <time>2024-06-07T13:02:28.764Z</time>
      </trkpt>
      <trkpt lat="63.924336" lon="-19.158586">
        <ele>968.963776</ele>
        <time>2024-06-07T13:03:31.344Z</time>
      </trkpt>
      <trkpt lat="63.924092" lon="-19.158483">
        <ele>968.253329</ele>
        <time>2024-06-07T13:04:07.007Z</time>
      </trkpt>
      <trkpt lat="63.923261" lon="-19.157880">
        <ele>965.756256</ele>
        <time>2024-06-07T13:06:12.722Z</time>
      </trkpt>
      <trkpt lat="63.922709" lon="-19.157984">
        <ele>964.280777</ele>
        <time>2024-06-07T13:07:31.930Z</time>
      </trkpt>
      <trkpt lat="63.922385" lon="-19.157810">
        <ele>963.833114</ele>
        <time>2024-06-07T13:08:19.060Z</time>
      </trkpt>
      <trkpt lat="63.921991" lon="-19.157729">
        <ele>963.301138</ele>
        <time>2024-06-07T13:09:14.330Z</time>
      </trkpt>
      <trkpt lat="63.921792" lon="-19.157414">
        <ele>962.975129</ele>
        <time>2024-06-07T13:09:47.779Z</time>
      </trkpt>
      <trkpt lat="63.921799" lon="-19.156754">
        <ele>962.584868</ele>
        <time>2024-06-07T13:10:27.751Z</time>
      </trkpt>
      <trkpt lat="63.921738" lon="-19.156522">
        <ele>962.425066</ele>
        <time>2024-06-07T13:10:44.068Z</time>
      </trkpt>
      <trkpt lat="63.921600" lon="-19.156560">
        <ele>962.238141</ele>
        <time>2024-06-07T13:11:02.987Z</time>
      </trkpt>
      <trkpt lat="63.921207" lon="-19.156805">
        <ele>961.786509</ele>
        <time>2024-06-07T13:11:58.196Z</time>
      </trkpt>
      <trkpt lat="63.920823" lon="-19.156808">
        <ele>961.454669</ele>
        <time>2024-06-07T13:12:50.111Z</time>
      </trkpt>
      <trkpt lat="63.920290" lon="-19.158218">
        <ele>960.748211</ele>
        <time>2024-06-07T13:14:41.882Z</time>
      </trkpt>
      <trkpt lat="63.920124" lon="-19.158494">
        <ele>960.570525</ele>
        <time>2024-06-07T13:15:10.637Z</time>
      </trkpt>
      <trkpt lat="63.918891" lon="-19.159698">
        <ele>957.799810</ele>
        <time>2024-06-07T13:18:20.446Z</time>
      </trkpt>
      <trkpt lat="63.918023" lon="-19.160220">
        <ele>955.576540</ele>
        <time>2024-06-07T13:20:27.887Z</time>
      </trkpt>
      <trkpt lat="63.917783" lon="-19.160217">
        <ele>954.850319</ele>
        <time>2024-06-07T13:21:01.916Z</time>
      </trkpt>
      <trkpt lat="63.916605" lon="-19.159846">
        <ele>951.251828</ele>
        <time>2024-06-07T13:23:53.034Z</time>
      </trkpt>
      <trkpt lat="63.916241" lon="-19.159636">
        <ele>950.347790</ele>
        <time>2024-06-07T13:24:47.828Z</time>
      </trkpt>
      <trkpt lat="63.915976" lon="-19.159596">
        <ele>949.785072</ele>
        <time>2024-06-07T13:25:26.212Z</time>
      </trkpt>
      <trkpt lat="63.915371" lon="-19.159233">
        <ele>948.459337</ele>
        <time>2024-06-07T13:26:55.384Z</time>
      </trkpt>
      <trkpt lat="63.914916" lon="-19.158807">
        <ele>947.416784</ele>
        <time>2024-06-07T13:28:03.773Z</time>
      </trkpt>
      <trkpt lat="63.914395" lon="-19.158745">
        <ele>947.481422</ele>
        <time>2024-06-07T13:29:14.271Z</time>
      </trkpt>
      <trkpt lat="63.913205" lon="-19.157640">
        <ele>948.907264</ele>
        <time>2024-06-07T13:32:18.914Z</time>
      </trkpt>
      <trkpt lat="63.913015" lon="-19.157367">
        <ele>949.106183</ele>
        <time>2024-06-07T13:32:51.090Z</time>
      </trkpt>
      <trkpt lat="63.912551" lon="-19.156385">
        <ele>949.377337</ele>
        <time>2024-06-07T13:34:19.827Z</time>
      </trkpt>
      <trkpt lat="63.911882" lon="-19.154750">
        <ele>949.797464</ele>
        <time>2024-06-07T13:36:32.799Z</time>
      </trkpt>
      <trkpt lat="63.911448" lon="-19.153581">
        <ele>950.080992</ele>
        <time>2024-06-07T13:38:04.265Z</time>
      </trkpt>
      <trkpt lat="63.911268" lon="-19.153343">
        <ele>950.168486</ele>
        <time>2024-06-07T13:38:32.401Z</time>
      </trkpt>
      <trkpt lat="63.910839" lon="-19.153047">
        <ele>950.356869</ele>
        <time>2024-06-07T13:39:33.612Z</time>
      </trkpt>
      <trkpt lat="63.910125" lon="-19.152775">
        <ele>951.005239</ele>
        <time>2024-06-07T13:41:14.684Z</time>
      </trkpt>
      <trkpt lat="63.909116" lon="-19.152469">
        <ele>953.834931</ele>
        <time>2024-06-07T13:43:43.704Z</time>
      </trkpt>
      <trkpt lat="63.908505" lon="-19.152462">
        <ele>955.533433</ele>
        <time>2024-06-07T13:45:16.949Z</time>
      </trkpt>
      <trkpt lat="63.908104" lon="-19.152753">
        <ele>958.628444</ele>
        <time>2024-06-07T13:46:22.998Z</time>
      </trkpt>
      <trkpt lat="63.907999" lon="-19.152742">
        <ele>959.430174</ele>
        <time>2024-06-07T13:46:39.800Z</time>
      </trkpt>
      <trkpt lat="63.907724" lon="-19.152398">
        <ele>961.824212</ele>
        <time>2024-06-07T13:47:31.219Z</time>
      </trkpt>
      <trkpt lat="63.907040" lon="-19.151721">
        <ele>967.514285</ele>
        <time>2024-06-07T13:49:43.006Z</time>
      </trkpt>
      <trkpt lat="63.906884" lon="-19.151662">
        <ele>968.720515</ele>
        <time>2024-06-07T13:50:12.957Z</time>
      </trkpt>
      <trkpt lat="63.906582" lon="-19.151911">
        <ele>971.666732</ele>
        <time>2024-06-07T13:51:12.755Z</time>
      </trkpt>
      <trkpt lat="63.906426" lon="-19.151902">
        <ele>973.175725</ele>
        <time>2024-06-07T13:51:41.415Z</time>
      </trkpt>
      <trkpt lat="63.906181" lon="-19.152220">
        <ele>975.903748</ele>
        <time>2024-06-07T13:52:32.403Z</time>
      </trkpt>
      <trkpt lat="63.906017" lon="-19.152220">
        <ele>977.489615</ele>
        <time>2024-06-07T13:53:01.948Z</time>
      </trkpt>
      <trkpt lat="63.905904" lon="-19.152066">
        <ele>978.763596</ele>
        <time>2024-06-07T13:53:25.319Z</time>
      </trkpt>
      <trkpt lat="63.905596" lon="-19.152078">
        <ele>981.742370</ele>
        <time>2024-06-07T13:54:19.830Z</time>
      </trkpt>
      <trkpt lat="63.905471" lon="-19.152237">
        <ele>983.127437</ele>
        <time>2024-06-07T13:54:45.209Z</time>
      </trkpt>
      <trkpt lat="63.905389" lon="-19.152574">
        <ele>984.765522</ele>
        <time>2024-06-07T13:55:14.880Z</time>
      </trkpt>
      <trkpt lat="63.904941" lon="-19.152919">
        <ele>989.556178</ele>
        <time>2024-06-07T13:56:16.230Z</time>
      </trkpt>
      <trkpt lat="63.904621" lon="-19.153078">
        <ele>992.984840</ele>
        <time>2024-06-07T13:56:58.786Z</time>
      </trkpt>
      <trkpt lat="63.904337" lon="-19.153430">
        <ele>996.370703</ele>
        <time>2024-06-07T13:57:40.954Z</time>
      </trkpt>
      <trkpt lat="63.904152" lon="-19.153782">
        <ele>998.895926</ele>
        <time>2024-06-07T13:58:12.454Z</time>
      </trkpt>
      <trkpt lat="63.903992" lon="-19.153748">
        <ele>1000.578024</ele>
        <time>2024-06-07T13:58:33.494Z</time>
      </trkpt>
      <trkpt lat="63.903832" lon="-19.153578">
        <ele>1002.426711</ele>
        <time>2024-06-07T13:58:57.403Z</time>
      </trkpt>
      <trkpt lat="63.903707" lon="-19.153396">
        <ele>1003.980500</ele>
        <time>2024-06-07T13:59:18.333Z</time>
      </trkpt>
      <trkpt lat="63.903293" lon="-19.152431">
        <ele>1014.660358</ele>
        <time>2024-06-07T14:00:57.026Z</time>
      </trkpt>
      <trkpt lat="63.903163" lon="-19.151898">
        <ele>1020.167021</ele>
        <time>2024-06-07T14:01:49.063Z</time>
      </trkpt>
      <trkpt lat="63.903133" lon="-19.151455">
        <ele>1024.216912</ele>
        <time>2024-06-07T14:02:29.870Z</time>
      </trkpt>
      <trkpt lat="63.903038" lon="-19.151330">
        <ele>1026.471545</ele>
        <time>2024-06-07T14:02:53.765Z</time>
      </trkpt>
      <trkpt lat="63.902669" lon="-19.151182">
        <ele>1034.168027</ele>
        <time>2024-06-07T14:04:19.453Z</time>
      </trkpt>
      <trkpt lat="63.902554" lon="-19.151001">
        <ele>1037.041088</ele>
        <time>2024-06-07T14:04:52.200Z</time>
      </trkpt>
      <trkpt lat="63.902484" lon="-19.150762">
        <ele>1039.635497</ele>
        <time>2024-06-07T14:05:22.143Z</time>
      </trkpt>
      <trkpt lat="63.902449" lon="-19.150433">
        <ele>1042.585606</ele>
        <time>2024-06-07T14:05:55.118Z</time>
      </trkpt>
      <trkpt lat="63.902284" lon="-19.150092">
        <ele>1044.806220</ele>
        <time>2024-06-07T14:06:45.840Z</time>
      </trkpt>
      <trkpt lat="63.902184" lon="-19.149752">
        <ele>1046.597861</ele>
        <time>2024-06-07T14:07:20.714Z</time>
      </trkpt>
      <trkpt lat="63.902164" lon="-19.149082">
        <ele>1049.539629</ele>
        <time>2024-06-07T14:08:14.183Z</time>
      </trkpt>
      <trkpt lat="63.902034" lon="-19.148855">
        <ele>1051.172023</ele>
        <time>2024-06-07T14:08:39.594Z</time>
      </trkpt>
      <trkpt lat="63.902039" lon="-19.148458">
        <ele>1052.911852</ele>
        <time>2024-06-07T14:09:02.944Z</time>
      </trkpt>
      <trkpt lat="63.901800" lon="-19.148253">
        <ele>1055.455631</ele>
        <time>2024-06-07T14:09:34.294Z</time>
      </trkpt>
      <trkpt lat="63.901610" lon="-19.148287">
        <ele>1057.353526</ele>
        <time>2024-06-07T14:09:53.407Z</time>
      </trkpt>
      <trkpt lat="63.901800" lon="-19.148253">
        <ele>1059.251420</ele>
        <time>2024-06-07T14:10:12.495Z</time>
      </trkpt>
      <trkpt lat="63.902039" lon="-19.148458">
        <ele>1057.895092</ele>
        <time>2024-06-07T14:10:41.476Z</time>
      </trkpt>
      <trkpt lat="63.902034" lon="-19.148855">
        <ele>1054.789708</ele>
        <time>2024-06-07T14:11:02.417Z</time>
      </trkpt>
      <trkpt lat="63.902164" lon="-19.149082">
        <ele>1051.876081</ele>
        <time>2024-06-07T14:11:23.153Z</time>
      </trkpt>
      <trkpt lat="63.902184" lon="-19.149752">
        <ele>1046.625380</ele>
        <time>2024-06-07T14:12:03.111Z</time>
      </trkpt>
      <trkpt lat="63.902284" lon="-19.150092">
        <ele>1043.427516</ele>
        <time>2024-06-07T14:12:28.959Z</time>
      </trkpt>
      <trkpt lat="63.902449" lon="-19.150433">
        <ele>1039.463988</ele>
        <time>2024-06-07T14:13:05.893Z</time>
      </trkpt>
      <trkpt lat="63.902484" lon="-19.150762">
        <ele>1036.817449</ele>
        <time>2024-06-07T14:13:29.974Z</time>
      </trkpt>
      <trkpt lat="63.902554" lon="-19.151001">
        <ele>1034.572456</ele>
        <time>2024-06-07T14:13:51.687Z</time>
      </trkpt>
      <trkpt lat="63.902669" lon="-19.151182">
        <ele>1032.086340</ele>
        <time>2024-06-07T14:14:15.469Z</time>
      </trkpt>
      <trkpt lat="63.903038" lon="-19.151330">
        <ele>1025.632537</ele>
        <time>2024-06-07T14:15:17.846Z</time>
      </trkpt>
      <trkpt lat="63.903133" lon="-19.151455">
        <ele>1023.815637</ele>
        <time>2024-06-07T14:15:35.325Z</time>
      </trkpt>
      <trkpt lat="63.903163" lon="-19.151898">
        <ele>1020.552023</ele>
        <time>2024-06-07T14:16:05.339Z</time>
      </trkpt>
      <trkpt lat="63.903293" lon="-19.152431">
        <ele>1016.114467</ele>
        <time>2024-06-07T14:16:43.900Z</time>
      </trkpt>
      <trkpt lat="63.903707" lon="-19.153396">
        <ele>1006.299683</ele>
        <time>2024-06-07T14:18:00.720Z</time>
      </trkpt>
      <trkpt lat="63.903832" lon="-19.153578">
        <ele>1003.842630</ele>
        <time>2024-06-07T14:18:18.941Z</time>
      </trkpt>
      <trkpt lat="63.903992" lon="-19.153748">
        <ele>1000.919246</ele>
        <time>2024-06-07T14:18:40.281Z</time>
      </trkpt>
      <trkpt lat="63.904152" lon="-19.153782">
        <ele>998.584667</ele>
        <time>2024-06-07T14:18:59.142Z</time>
      </trkpt>
      <trkpt lat="63.904337" lon="-19.153430">
        <ele>997.887502</ele>
        <time>2024-06-07T14:19:26.747Z</time>
      </trkpt>
      <trkpt lat="63.904621" lon="-19.153078">
        <ele>996.952731</ele>
        <time>2024-06-07T14:20:02.392Z</time>
      </trkpt>
      <trkpt lat="63.904941" lon="-19.152919">
        <ele>996.006143</ele>
        <time>2024-06-07T14:20:36.964Z</time>
      </trkpt>
      <trkpt lat="63.905389" lon="-19.152574">
        <ele>994.639225</ele>
        <time>2024-06-07T14:21:24.789Z</time>
      </trkpt>
      <trkpt lat="63.905153" lon="-19.153481">
        <ele>993.549924</ele>
        <time>2024-06-07T14:22:29.623Z</time>
      </trkpt>
      <trkpt lat="63.904470" lon="-19.155371">
        <ele>995.429636</ele>
        <time>2024-06-07T14:25:04.847Z</time>
      </trkpt>
      <trkpt lat="63.904215" lon="-19.155918">
        <ele>996.042149</ele>
        <time>2024-06-07T14:25:55.881Z</time>
      </trkpt>
      <trkpt lat="63.903718" lon="-19.157678">
        <ele>997.212438</ele>
        <time>2024-06-07T14:28:08.692Z</time>
      </trkpt>
      <trkpt lat="63.903033" lon="-19.159074">
        <ele>998.151692</ele>
        <time>2024-06-07T14:30:17.767Z</time>
      </trkpt>
      <trkpt lat="63.902871" lon="-19.159508">
        <ele>998.407328</ele>
        <time>2024-06-07T14:30:51.757Z</time>
      </trkpt>
      <trkpt lat="63.902589" lon="-19.160022">
        <ele>997.567364</ele>
        <time>2024-06-07T14:31:41.223Z</time>
      </trkpt>
      <trkpt lat="63.902045" lon="-19.160744">
        <ele>995.936977</ele>
        <time>2024-06-07T14:33:10.041Z</time>
      </trkpt>
      <trkpt lat="63.901430" lon="-19.161354">
        <ele>994.200304</ele>
        <time>2024-06-07T14:34:47.891Z</time>
      </trkpt>
      <trkpt lat="63.901282" lon="-19.161354">
        <ele>993.817250</ele>
        <time>2024-06-07T14:35:09.777Z</time>
      </trkpt>
      <trkpt lat="63.901134" lon="-19.161451">
        <ele>993.144548</ele>
        <time>2024-06-07T14:35:32.634Z</time>
      </trkpt>
      <trkpt lat="63.900809" lon="-19.161916">
        <ele>991.395090</ele>
        <time>2024-06-07T14:36:29.596Z</time>
      </trkpt>
      <trkpt lat="63.900661" lon="-19.162228">
        <ele>990.475533</ele>
        <time>2024-06-07T14:36:59.513Z</time>
      </trkpt>
      <trkpt lat="63.900600" lon="-19.162356">
        <ele>990.097334</ele>
        <time>2024-06-07T14:37:11.852Z</time>
      </trkpt>
      <trkpt lat="63.900517" lon="-19.162826">
        <ele>989.082319</ele>
        <time>2024-06-07T14:37:44.871Z</time>
      </trkpt>
      <trkpt lat="63.900281" lon="-19.162956">
        <ele>987.976070</ele>
        <time>2024-06-07T14:38:20.903Z</time>
      </trkpt>
      <trkpt lat="63.900012" lon="-19.163514">
        <ele>986.317019</ele>
        <time>2024-06-07T14:39:14.894Z</time>
      </trkpt>
      <trkpt lat="63.900001" lon="-19.163822">
        <ele>985.697694</ele>
        <time>2024-06-07T14:39:34.902Z</time>
      </trkpt>
      <trkpt lat="63.899694" lon="-19.164890">
        <ele>984.737235</ele>
        <time>2024-06-07T14:40:56.672Z</time>
      </trkpt>
      <trkpt lat="63.899660" lon="-19.164918">
        <ele>984.680088</ele>
        <time>2024-06-07T14:41:01.790Z</time>
      </trkpt>
      <trkpt lat="63.899612" lon="-19.164866">
        <ele>984.596061</ele>
        <time>2024-06-07T14:41:09.348Z</time>
      </trkpt>
      <trkpt lat="63.899551" lon="-19.164906">
        <ele>984.495733</ele>
        <time>2024-06-07T14:41:18.521Z</time>
      </trkpt>
      <trkpt lat="63.899371" lon="-19.165184">
        <ele>984.151834</ele>
        <time>2024-06-07T14:41:49.076Z</time>
      </trkpt>
      <trkpt lat="63.899262" lon="-19.165257">
        <ele>983.972263</ele>
        <time>2024-06-07T14:42:04.808Z</time>
      </trkpt>
      <trkpt lat="63.898856" lon="-19.165706">
        <ele>983.258762</ele>
        <time>2024-06-07T14:43:06.094Z</time>
      </trkpt>
      <trkpt lat="63.898803" lon="-19.165714">
        <ele>983.174823</ele>
        <time>2024-06-07T14:43:13.443Z</time>
      </trkpt>
      <trkpt lat="63.898634" lon="-19.165532">
        <ele>982.879297</ele>
        <time>2024-06-07T14:43:39.659Z</time>
      </trkpt>
      <trkpt lat="63.898534" lon="-19.165554">
        <ele>982.737078</ele>
        <time>2024-06-07T14:43:53.708Z</time>
      </trkpt>
      <trkpt lat="63.898446" lon="-19.165650">
        <ele>982.697471</ele>
        <time>2024-06-07T14:44:07.604Z</time>
      </trkpt>
      <trkpt lat="63.898340" lon="-19.166244">
        <ele>982.583036</ele>
        <time>2024-06-07T14:44:47.539Z</time>
      </trkpt>
      <trkpt lat="63.898259" lon="-19.166397">
        <ele>982.540300</ele>
        <time>2024-06-07T14:45:02.665Z</time>
      </trkpt>
      <trkpt lat="63.897865" lon="-19.166840">
        <ele>982.361934</ele>
        <time>2024-06-07T14:46:04.176Z</time>
      </trkpt>
      <trkpt lat="63.897775" lon="-19.167275">
        <ele>982.276116</ele>
        <time>2024-06-07T14:46:32.776Z</time>
      </trkpt>
      <trkpt lat="63.897672" lon="-19.167407">
        <ele>982.228136</ele>
        <time>2024-06-07T14:46:48.703Z</time>
      </trkpt>
      <trkpt lat="63.897598" lon="-19.167658">
        <ele>982.174194</ele>
        <time>2024-06-07T14:47:07.078Z</time>
      </trkpt>
      <trkpt lat="63.897444" lon="-19.167683">
        <ele>982.111546</ele>
        <time>2024-06-07T14:47:28.349Z</time>
      </trkpt>
      <trkpt lat="63.897122" lon="-19.168205">
        <ele>980.503992</ele>
        <time>2024-06-07T14:48:24.550Z</time>
      </trkpt>
      <trkpt lat="63.896868" lon="-19.168489">
        <ele>977.703919</ele>
        <time>2024-06-07T14:49:06.388Z</time>
      </trkpt>
      <trkpt lat="63.896708" lon="-19.168359">
        <ele>976.023150</ele>
        <time>2024-06-07T14:49:32.356Z</time>
      </trkpt>
      <trkpt lat="63.895830" lon="-19.167861">
        <ele>967.071844</ele>
        <time>2024-06-07T14:52:02.470Z</time>
      </trkpt>
      <trkpt lat="63.895643" lon="-19.167637">
        <ele>964.980890</ele>
        <time>2024-06-07T14:52:39.883Z</time>
      </trkpt>
      <trkpt lat="63.895289" lon="-19.167476">
        <ele>960.956440</ele>
        <time>2024-06-07T14:53:44.362Z</time>
      </trkpt>
      <trkpt lat="63.895060" lon="-19.167500">
        <ele>958.323176</ele>
        <time>2024-06-07T14:54:25.088Z</time>
      </trkpt>
      <trkpt lat="63.894837" lon="-19.167741">
        <ele>955.486750</ele>
        <time>2024-06-07T14:55:07.566Z</time>
      </trkpt>
      <trkpt lat="63.894678" lon="-19.167821">
        <ele>953.616129</ele>
        <time>2024-06-07T14:55:35.045Z</time>
      </trkpt>
      <trkpt lat="63.894421" lon="-19.167356">
        <ele>949.842683</ele>
        <time>2024-06-07T14:56:28.693Z</time>
      </trkpt>
      <trkpt lat="63.894241" lon="-19.167345">
        <ele>947.774318</ele>
        <time>2024-06-07T14:56:57.098Z</time>
      </trkpt>
      <trkpt lat="63.894160" lon="-19.167246">
        <ele>946.717865</ele>
        <time>2024-06-07T14:57:11.390Z</time>
      </trkpt>
      <trkpt lat="63.894090" lon="-19.167334">
        <ele>945.798964</ele>
        <time>2024-06-07T14:57:23.721Z</time>
      </trkpt>
      <trkpt lat="63.894064" lon="-19.167152">
        <ele>944.831771</ele>
        <time>2024-06-07T14:57:36.562Z</time>
      </trkpt>
      <trkpt lat="63.893909" lon="-19.166954">
        <ele>943.346895</ele>
        <time>2024-06-07T14:58:03.569Z</time>
      </trkpt>
      <trkpt lat="63.893760" lon="-19.166689">
        <ele>942.744502</ele>
        <time>2024-06-07T14:58:31.956Z</time>
      </trkpt>
      <trkpt lat="63.893848" lon="-19.165951">
        <ele>941.673286</ele>
        <time>2024-06-07T14:59:21.691Z</time>
      </trkpt>
      <trkpt lat="63.893859" lon="-19.165622">
        <ele>941.211033</ele>
        <time>2024-06-07T14:59:42.601Z</time>
      </trkpt>
      <trkpt lat="63.893817" lon="-19.165356">
        <ele>940.815107</ele>
        <time>2024-06-07T15:00:00.414Z</time>
      </trkpt>
      <trkpt lat="63.893755" lon="-19.165180">
        <ele>940.499253</ele>
        <time>2024-06-07T15:00:14.503Z</time>
      </trkpt>
      <trkpt lat="63.893680" lon="-19.165085">
        <ele>940.225881</ele>
        <time>2024-06-07T15:00:26.395Z</time>
      </trkpt>
      <trkpt lat="63.893340" lon="-19.165029">
        <ele>939.140550</ele>
        <time>2024-06-07T15:01:13.429Z</time>
      </trkpt>
      <trkpt lat="63.893174" lon="-19.165173">
        <ele>938.574843</ele>
        <time>2024-06-07T15:01:37.618Z</time>
      </trkpt>
      <trkpt lat="63.892958" lon="-19.165108">
        <ele>937.881139</ele>
        <time>2024-06-07T15:02:07.094Z</time>
      </trkpt>
      <trkpt lat="63.892736" lon="-19.165485">
        <ele>936.226606</ele>
        <time>2024-06-07T15:02:45.657Z</time>
      </trkpt>
      <trkpt lat="63.892457" lon="-19.166170">
        <ele>933.710162</ele>
        <time>2024-06-07T15:03:45.395Z</time>
      </trkpt>
      <trkpt lat="63.892100" lon="-19.166818">
        <ele>930.910853</ele>
        <time>2024-06-07T15:04:56.046Z</time>
      </trkpt>
      <trkpt lat="63.891951" lon="-19.167179">
        <ele>929.576448</ele>
        <time>2024-06-07T15:05:30.738Z</time>
      </trkpt>
      <trkpt lat="63.891660" lon="-19.168000">
        <ele>926.726439</ele>
        <time>2024-06-07T15:06:45.431Z</time>
      </trkpt>
      <trkpt lat="63.891234" lon="-19.169676">
        <ele>921.002663</ele>
        <time>2024-06-07T15:09:01.180Z</time>
      </trkpt>
      <trkpt lat="63.890867" lon="-19.170794">
        <ele>916.877845</ele>
        <time>2024-06-07T15:10:32.902Z</time>
      </trkpt>
      <trkpt lat="63.890542" lon="-19.171227">
        <ele>914.627077</ele>
        <time>2024-06-07T15:11:28.026Z</time>
      </trkpt>
      <trkpt lat="63.890613" lon="-19.169164">
        <ele>913.014541</ele>
        <time>2024-06-07T15:13:04.383Z</time>
      </trkpt>
      <trkpt lat="63.890372" lon="-19.168410">
        <ele>912.288355</ele>
        <time>2024-06-07T15:13:46.188Z</time>
      </trkpt>
      <trkpt lat="63.889425" lon="-19.167918">
        <ele>913.670072</ele>
        <time>2024-06-07T15:15:25.480Z</time>
      </trkpt>
      <trkpt lat="63.888981" lon="-19.167783">
        <ele>915.401643</ele>
        <time>2024-06-07T15:16:10.404Z</time>
      </trkpt>
      <trkpt lat="63.888057" lon="-19.166745">
        <ele>923.105276</ele>
        <time>2024-06-07T15:18:16.978Z</time>
      </trkpt>
      <trkpt lat="63.887664" lon="-19.165804">
        <ele>934.527593</ele>
        <time>2024-06-07T15:20:00.439Z</time>
      </trkpt>
      <trkpt lat="63.887717" lon="-19.164308">
        <ele>947.742875</ele>
        <time>2024-06-07T15:22:27.668Z</time>
      </trkpt>
      <trkpt lat="63.887451" lon="-19.163198">
        <ele>960.587801</ele>
        <time>2024-06-07T15:24:42.952Z</time>
      </trkpt>
      <trkpt lat="63.886963" lon="-19.161919">
        <ele>981.315800</ele>
        <time>2024-06-07T15:27:43.797Z</time>
      </trkpt>
      <trkpt lat="63.886347" lon="-19.161654">
        <ele>998.758895</ele>
        <time>2024-06-07T15:30:17.480Z</time>
      </trkpt>
      <trkpt lat="63.886050" lon="-19.162233">
        <ele>1009.957717</ele>
        <time>2024-06-07T15:31:53.832Z</time>
      </trkpt>
      <trkpt lat="63.885763" lon="-19.161316">
        <ele>1024.571597</ele>
        <time>2024-06-07T15:33:54.677Z</time>
      </trkpt>
      <trkpt lat="63.885943" lon="-19.158855">
        <ele>1056.973383</ele>
        <time>2024-06-07T15:38:34.683Z</time>
      </trkpt>
      <trkpt lat="63.886177" lon="-19.156393">
        <ele>1084.180399</ele>
        <time>2024-06-07T15:43:29.543Z</time>
      </trkpt>
      <trkpt lat="63.886220" lon="-19.154342">
        <ele>1100.316861</ele>
        <time>2024-06-07T15:46:06.817Z</time>
      </trkpt>
      <trkpt lat="63.886507" lon="-19.153768">
        <ele>1097.846768</ele>
        <time>2024-06-07T15:46:50.531Z</time>
      </trkpt>
      <trkpt lat="63.886220" lon="-19.154342">
        <ele>1095.376675</ele>
        <time>2024-06-07T15:47:32.012Z</time>
      </trkpt>
      <trkpt lat="63.886177" lon="-19.156393">
        <ele>1088.129782</ele>
        <time>2024-06-07T15:49:30.853Z</time>
      </trkpt>
      <trkpt lat="63.885943" lon="-19.158855">
        <ele>1056.020897</ele>
        <time>2024-06-07T15:53:02.497Z</time>
      </trkpt>
      <trkpt lat="63.885763" lon="-19.161316">
        <ele>1024.355096</ele>
        <time>2024-06-07T15:56:24.224Z</time>
      </trkpt>
      <trkpt lat="63.886050" lon="-19.162233">
        <ele>1010.155757</ele>
        <time>2024-06-07T15:57:51.631Z</time>
      </trkpt>
      <trkpt lat="63.886347" lon="-19.161654">
        <ele>998.935492</ele>
        <time>2024-06-07T15:59:01.272Z</time>
      </trkpt>
      <trkpt lat="63.886963" lon="-19.161919">
        <ele>981.310036</ele>
        <time>2024-06-07T16:00:52.388Z</time>
      </trkpt>
      <trkpt lat="63.887451" lon="-19.163198">
        <ele>961.352489</ele>
        <time>2024-06-07T16:03:03.266Z</time>
      </trkpt>
      <trkpt lat="63.887717" lon="-19.164308">
        <ele>946.451035</ele>
        <time>2024-06-07T16:04:41.146Z</time>
      </trkpt>
      <trkpt lat="63.887664" lon="-19.165804">
        <ele>933.387538</ele>
        <time>2024-06-07T16:06:28.589Z</time>
      </trkpt>
      <trkpt lat="63.888057" lon="-19.166745">
        <ele>925.674807</ele>
        <time>2024-06-07T16:07:45.896Z</time>
      </trkpt>
      <trkpt lat="63.888981" lon="-19.167783">
        <ele>913.403168</ele>
        <time>2024-06-07T16:09:42.785Z</time>
      </trkpt>
      <trkpt lat="63.889425" lon="-19.167918">
        <ele>912.226581</ele>
        <time>2024-06-07T16:10:27.775Z</time>
      </trkpt>
      <trkpt lat="63.890372" lon="-19.168410">
        <ele>909.675041</ele>
        <time>2024-06-07T16:12:07.074Z</time>
      </trkpt>
      <trkpt lat="63.890613" lon="-19.169164">
        <ele>908.034578</ele>
        <time>2024-06-07T16:12:52.032Z</time>
      </trkpt>
      <trkpt lat="63.890542" lon="-19.171227">
        <ele>902.835466</ele>
        <time>2024-06-07T16:14:34.441Z</time>
      </trkpt>
      <trkpt lat="63.890490" lon="-19.171379">
        <ele>902.351749</ele>
        <time>2024-06-07T16:14:46.980Z</time>
      </trkpt>
      <trkpt lat="63.890368" lon="-19.171276">
        <ele>901.608716</ele>
        <time>2024-06-07T16:15:07.216Z</time>
      </trkpt>
      <trkpt lat="63.890253" lon="-19.171391">
        <ele>900.891402</ele>
        <time>2024-06-07T16:15:26.737Z</time>
      </trkpt>
      <trkpt lat="63.890181" lon="-19.171676">
        <ele>900.065736</ele>
        <time>2024-06-07T16:15:48.527Z</time>
      </trkpt>
      <trkpt lat="63.890136" lon="-19.171956">
        <ele>899.316784</ele>
        <time>2024-06-07T16:16:08.914Z</time>
      </trkpt>
      <trkpt lat="63.890123" lon="-19.172254">
        <ele>898.604376</ele>
        <time>2024-06-07T16:16:29.063Z</time>
      </trkpt>
      <trkpt lat="63.890178" lon="-19.172594">
        <ele>897.842932</ele>
        <time>2024-06-07T16:16:53.324Z</time>
      </trkpt>
      <trkpt lat="63.890143" lon="-19.172890">
        <ele>897.198662</ele>
        <time>2024-06-07T16:17:13.714Z</time>
      </trkpt>
      <trkpt lat="63.889944" lon="-19.173435">
        <ele>895.710083</ele>
        <time>2024-06-07T16:18:00.046Z</time>
      </trkpt>
      <trkpt lat="63.889848" lon="-19.173900">
        <ele>894.630421</ele>
        <time>2024-06-07T16:18:32.935Z</time>
      </trkpt>
      <trkpt lat="63.889819" lon="-19.174370">
        <ele>893.632789</ele>
        <time>2024-06-07T16:19:03.419Z</time>
      </trkpt>
      <trkpt lat="63.889733" lon="-19.174823">
        <ele>892.595735</ele>
        <time>2024-06-07T16:19:34.456Z</time>
      </trkpt>
      <trkpt lat="63.889584" lon="-19.176114">
        <ele>889.200676</ele>
        <time>2024-06-07T16:20:59.396Z</time>
      </trkpt>
      <trkpt lat="63.889479" lon="-19.177590">
        <ele>881.729376</ele>
        <time>2024-06-07T16:22:41.150Z</time>
      </trkpt>
      <trkpt lat="63.889339" lon="-19.178362">
        <ele>877.557014</ele>
        <time>2024-06-07T16:23:41.522Z</time>
      </trkpt>
      <trkpt lat="63.889244" lon="-19.179224">
        <ele>873.116564</ele>
        <time>2024-06-07T16:24:48.675Z</time>
      </trkpt>
      <trkpt lat="63.889119" lon="-19.180802">
        <ele>859.057236</ele>
        <time>2024-06-07T16:27:03.673Z</time>
      </trkpt>
      <trkpt lat="63.889029" lon="-19.181404">
        <ele>851.785161</ele>
        <time>2024-06-07T16:28:04.612Z</time>
      </trkpt>
      <trkpt lat="63.888844" lon="-19.182256">
        <ele>840.918475</ele>
        <time>2024-06-07T16:29:41.888Z</time>
      </trkpt>
      <trkpt lat="63.888720" lon="-19.182698">
        <ele>834.923090</ele>
        <time>2024-06-07T16:30:38.454Z</time>
      </trkpt>
      <trkpt lat="63.888530" lon="-19.183175">
        <ele>827.564389</ele>
        <time>2024-06-07T16:31:49.850Z</time>
      </trkpt>
      <trkpt lat="63.888435" lon="-19.183743">
        <ele>819.824920</ele>
        <time>2024-06-07T16:32:59.171Z</time>
      </trkpt>
      <trkpt lat="63.888375" lon="-19.183902">
        <ele>816.653524</ele>
        <time>2024-06-07T16:33:23.438Z</time>
      </trkpt>
      <trkpt lat="63.888270" lon="-19.183981">
        <ele>812.848141</ele>
        <time>2024-06-07T16:33:52.777Z</time>
      </trkpt>
      <trkpt lat="63.888075" lon="-19.184307">
        <ele>804.518861</ele>
        <time>2024-06-07T16:34:58.405Z</time>
      </trkpt>
      <trkpt lat="63.888003" lon="-19.184240">
        <ele>801.842028</ele>
        <time>2024-06-07T16:35:19.345Z</time>
      </trkpt>
      <trkpt lat="63.887893" lon="-19.184377">
        <ele>797.526244</ele>
        <time>2024-06-07T16:35:53.969Z</time>
      </trkpt>
      <trkpt lat="63.887788" lon="-19.184369">
        <ele>793.911740</ele>
        <time>2024-06-07T16:36:22.729Z</time>
      </trkpt>
      <trkpt lat="63.887680" lon="-19.184195">
        <ele>789.356690</ele>
        <time>2024-06-07T16:36:59.377Z</time>
      </trkpt>
      <trkpt lat="63.887475" lon="-19.184379">
        <ele>781.773363</ele>
        <time>2024-06-07T16:38:00.641Z</time>
      </trkpt>
      <trkpt lat="63.887157" lon="-19.184968">
        <ele>767.657866</ele>
        <time>2024-06-07T16:39:54.130Z</time>
      </trkpt>
      <trkpt lat="63.886964" lon="-19.184929">
        <ele>761.011744</ele>
        <time>2024-06-07T16:40:46.832Z</time>
      </trkpt>
      <trkpt lat="63.886897" lon="-19.184870">
        <ele>758.818708</ele>
        <time>2024-06-07T16:41:06.300Z</time>
      </trkpt>
      <trkpt lat="63.886835" lon="-19.185010">
        <ele>756.150890</ele>
        <time>2024-06-07T16:41:29.766Z</time>
      </trkpt>
      <trkpt lat="63.886727" lon="-19.184956">
        <ele>752.775893</ele>
        <time>2024-06-07T16:41:59.327Z</time>
      </trkpt>
      <trkpt lat="63.886621" lon="-19.184782">
        <ele>748.784772</ele>
        <time>2024-06-07T16:42:33.726Z</time>
      </trkpt>
      <trkpt lat="63.886493" lon="-19.184654">
        <ele>744.516591</ele>
        <time>2024-06-07T16:43:10.330Z</time>
      </trkpt>
      <trkpt lat="63.886487" lon="-19.184517">
        <ele>742.667149</ele>
        <time>2024-06-07T16:43:25.995Z</time>
      </trkpt>
      <trkpt lat="63.886279" lon="-19.184196">
        <ele>734.993017</ele>
        <time>2024-06-07T16:44:29.572Z</time>
      </trkpt>
      <trkpt lat="63.886139" lon="-19.184100">
        <ele>730.529894</ele>
        <time>2024-06-07T16:45:05.849Z</time>
      </trkpt>
      <trkpt lat="63.886107" lon="-19.184124">
        <ele>729.501426</ele>
        <time>2024-06-07T16:45:14.103Z</time>
      </trkpt>
      <trkpt lat="63.886081" lon="-19.184770">
        <ele>720.787223</ele>
        <time>2024-06-07T16:46:23.063Z</time>
      </trkpt>
      <trkpt lat="63.886017" lon="-19.185124">
        <ele>715.646264</ele>
        <time>2024-06-07T16:47:03.152Z</time>
      </trkpt>
      <trkpt lat="63.885820" lon="-19.185375">
        <ele>708.752955</ele>
        <time>2024-06-07T16:47:55.940Z</time>
      </trkpt>
      <trkpt lat="63.885412" lon="-19.185776">
        <ele>697.038526</ele>
        <time>2024-06-07T16:49:39.137Z</time>
      </trkpt>
      <trkpt lat="63.885155" lon="-19.186192">
        <ele>689.016720</ele>
        <time>2024-06-07T16:50:52.281Z</time>
      </trkpt>
      <trkpt lat="63.885033" lon="-19.186305">
        <ele>685.667532</ele>
        <time>2024-06-07T16:51:22.798Z</time>
      </trkpt>
      <trkpt lat="63.884870" lon="-19.186703">
        <ele>679.584548</ele>
        <time>2024-06-07T16:52:17.171Z</time>
      </trkpt>
      <trkpt lat="63.884541" lon="-19.187140">
        <ele>669.896496</ele>
        <time>2024-06-07T16:53:42.338Z</time>
      </trkpt>
      <trkpt lat="63.884426" lon="-19.187378">
        <ele>665.941915</ele>
        <time>2024-06-07T16:54:16.355Z</time>
      </trkpt>
      <trkpt lat="63.884231" lon="-19.187628">
        <ele>660.341393</ele>
        <time>2024-06-07T16:55:03.829Z</time>
      </trkpt>
      <trkpt lat="63.884026" lon="-19.188150">
        <ele>654.873504</ele>
        <time>2024-06-07T16:56:07.639Z</time>
      </trkpt>
      <trkpt lat="63.883989" lon="-19.188536">
        <ele>651.785696</ele>
        <time>2024-06-07T16:56:42.898Z</time>
      </trkpt>
      <trkpt lat="63.883951" lon="-19.188701">
        <ele>650.330151</ele>
        <time>2024-06-07T16:56:59.341Z</time>
      </trkpt>
      <trkpt lat="63.883694" lon="-19.189223">
        <ele>644.208634</ele>
        <time>2024-06-07T16:58:05.829Z</time>
      </trkpt>
      <trkpt lat="63.883644" lon="-19.189376">
        <ele>642.719184</ele>
        <time>2024-06-07T16:58:21.194Z</time>
      </trkpt>
      <trkpt lat="63.883441" lon="-19.190767">
        <ele>631.264545</ele>
        <time>2024-06-07T17:00:14.123Z</time>
      </trkpt>
      <trkpt lat="63.883096" lon="-19.191756">
        <ele>625.357481</ele>
        <time>2024-06-07T17:01:45.101Z</time>
      </trkpt>
      <trkpt lat="63.882969" lon="-19.192021">
        <ele>623.974756</ele>
        <time>2024-06-07T17:02:12.389Z</time>
      </trkpt>
      <trkpt lat="63.882797" lon="-19.192629">
        <ele>621.423727</ele>
        <time>2024-06-07T17:03:01.693Z</time>
      </trkpt>
      <trkpt lat="63.882527" lon="-19.193287">
        <ele>618.248596</ele>
        <time>2024-06-07T17:04:02.274Z</time>
      </trkpt>
      <trkpt lat="63.882015" lon="-19.194961">
        <ele>612.474055</ele>
        <time>2024-06-07T17:06:17.165Z</time>
      </trkpt>
      <trkpt lat="63.881704" lon="-19.196201">
        <ele>609.715876</ele>
        <time>2024-06-07T17:07:49.822Z</time>
      </trkpt>
      <trkpt lat="63.881665" lon="-19.196788">
        <ele>608.568537</ele>
        <time>2024-06-07T17:08:27.837Z</time>
      </trkpt>
      <trkpt lat="63.881581" lon="-19.197420">
        <ele>607.292615</ele>
        <time>2024-06-07T17:09:09.955Z</time>
      </trkpt>
      <trkpt lat="63.881498" lon="-19.197610">
        <ele>606.775289</ele>
        <time>2024-06-07T17:09:26.905Z</time>
      </trkpt>
      <trkpt lat="63.881285" lon="-19.198493">
        <ele>605.326175</ele>
        <time>2024-06-07T17:10:30.834Z</time>
      </trkpt>
      <trkpt lat="63.881140" lon="-19.198308">
        <ele>604.843301</ele>
        <time>2024-06-07T17:10:54.898Z</time>
      </trkpt>
      <trkpt lat="63.880922" lon="-19.198232">
        <ele>604.202924</ele>
        <time>2024-06-07T17:11:26.828Z</time>
      </trkpt>
      <trkpt lat="63.880695" lon="-19.197972">
        <ele>603.464778</ele>
        <time>2024-06-07T17:12:03.759Z</time>
      </trkpt>
      <trkpt lat="63.880297" lon="-19.197616">
        <ele>602.222810</ele>
        <time>2024-06-07T17:13:05.148Z</time>
      </trkpt>
      <trkpt lat="63.880177" lon="-19.197648">
        <ele>601.871996</ele>
        <time>2024-06-07T17:13:22.276Z</time>
      </trkpt>
      <trkpt lat="63.879879" lon="-19.197838">
        <ele>601.028875</ele>
        <time>2024-06-07T17:14:05.653Z</time>
      </trkpt>
      <trkpt lat="63.879727" lon="-19.197846">
        <ele>600.830601</ele>
        <time>2024-06-07T17:14:26.737Z</time>
      </trkpt>
      <trkpt lat="63.879323" lon="-19.197613">
        <ele>600.287030</ele>
        <time>2024-06-07T17:15:24.175Z</time>
      </trkpt>
      <trkpt lat="63.879281" lon="-19.197589">
        <ele>600.230552</ele>
        <time>2024-06-07T17:15:30.158Z</time>
      </trkpt>
      <trkpt lat="63.879137" lon="-19.197653">
        <ele>600.039202</ele>
        <time>2024-06-07T17:15:50.603Z</time>
      </trkpt>
      <trkpt lat="63.879062" lon="-19.197605">
        <ele>599.937586</ele>
        <time>2024-06-07T17:16:01.297Z</time>
      </trkpt>
      <trkpt lat="63.878822" lon="-19.197669">
        <ele>599.622455</ele>
        <time>2024-06-07T17:16:34.800Z</time>
      </trkpt>
      <trkpt lat="63.878755" lon="-19.197806">
        <ele>599.504891</ele>
        <time>2024-06-07T17:16:47.328Z</time>
      </trkpt>
      <trkpt lat="63.878684" lon="-19.197830">
        <ele>599.411281</ele>
        <time>2024-06-07T17:16:57.220Z</time>
      </trkpt>
      <trkpt lat="63.878589" lon="-19.197717">
        <ele>599.271432</ele>
        <time>2024-06-07T17:17:12.123Z</time>
      </trkpt>
      <trkpt lat="63.878364" lon="-19.197940">
        <ele>598.951293</ele>
        <time>2024-06-07T17:17:46.097Z</time>
      </trkpt>
      <trkpt lat="63.877870" lon="-19.198261">
        <ele>597.729858</ele>
        <time>2024-06-07T17:18:56.762Z</time>
      </trkpt>
      <trkpt lat="63.877386" lon="-19.198629">
        <ele>596.243901</ele>
        <time>2024-06-07T17:20:07.701Z</time>
      </trkpt>
      <trkpt lat="63.876570" lon="-19.199251">
        <ele>593.738004</ele>
        <time>2024-06-07T17:22:12.930Z</time>
      </trkpt>
      <trkpt lat="63.875956" lon="-19.199893">
        <ele>589.443699</ele>
        <time>2024-06-07T17:23:55.718Z</time>
      </trkpt>
      <trkpt lat="63.875832" lon="-19.200158">
        <ele>588.278301</ele>
        <time>2024-06-07T17:24:21.906Z</time>
      </trkpt>
      <trkpt lat="63.875726" lon="-19.200495">
        <ele>587.030145</ele>
        <time>2024-06-07T17:24:50.065Z</time>
      </trkpt>
      <trkpt lat="63.875603" lon="-19.200645">
        <ele>586.074575</ele>
        <time>2024-06-07T17:25:11.737Z</time>
      </trkpt>
      <trkpt lat="63.875265" lon="-19.201232">
        <ele>583.162236</ele>
        <time>2024-06-07T17:26:18.319Z</time>
      </trkpt>
      <trkpt lat="63.875047" lon="-19.201506">
        <ele>581.456865</ele>
        <time>2024-06-07T17:26:57.330Z</time>
      </trkpt>
      <trkpt lat="63.874846" lon="-19.201675">
        <ele>579.998998</ele>
        <time>2024-06-07T17:27:30.801Z</time>
      </trkpt>
      <trkpt lat="63.874593" lon="-19.201687">
        <ele>578.280244</ele>
        <time>2024-06-07T17:28:10.079Z</time>
      </trkpt>
      <trkpt lat="63.874363" lon="-19.201603">
        <ele>576.698008</ele>
        <time>2024-06-07T17:28:46.078Z</time>
      </trkpt>
      <trkpt lat="63.874284" lon="-19.201517">
        <ele>576.102977</ele>
        <time>2024-06-07T17:28:59.589Z</time>
      </trkpt>
      <trkpt lat="63.874027" lon="-19.201570">
        <ele>574.350247</ele>
        <time>2024-06-07T17:29:39.134Z</time>
      </trkpt>
      <trkpt lat="63.873826" lon="-19.201819">
        <ele>572.795137</ele>
        <time>2024-06-07T17:30:14.220Z</time>
      </trkpt>
      <trkpt lat="63.873723" lon="-19.202132">
        <ele>571.626477</ele>
        <time>2024-06-07T17:30:40.501Z</time>
      </trkpt>
      <trkpt lat="63.873626" lon="-19.202313">
        <ele>570.773770</ele>
        <time>2024-06-07T17:30:59.576Z</time>
      </trkpt>
      <trkpt lat="63.873504" lon="-19.202831">
        <ele>569.016816</ele>
        <time>2024-06-07T17:31:38.810Z</time>
      </trkpt>
      <trkpt lat="63.873271" lon="-19.203192">
        <ele>567.879843</ele>
        <time>2024-06-07T17:32:21.356Z</time>
      </trkpt>
      <trkpt lat="63.873119" lon="-19.203652">
        <ele>566.878491</ele>
        <time>2024-06-07T17:32:59.160Z</time>
      </trkpt>
      <trkpt lat="63.872951" lon="-19.203913">
        <ele>566.073647</ele>
        <time>2024-06-07T17:33:29.180Z</time>
      </trkpt>
      <trkpt lat="63.872716" lon="-19.204395">
        <ele>564.821557</ele>
        <time>2024-06-07T17:34:15.433Z</time>
      </trkpt>
      <trkpt lat="63.872000" lon="-19.205407">
        <ele>561.804161</ele>
        <time>2024-06-07T17:36:16.128Z</time>
      </trkpt>
      <trkpt lat="63.871952" lon="-19.205611">
        <ele>561.750341</ele>
        <time>2024-06-07T17:36:30.419Z</time>
      </trkpt>
      <trkpt lat="63.871789" lon="-19.207046">
        <ele>561.405498</ele>
        <time>2024-06-07T17:38:00.570Z</time>
      </trkpt>
      <trkpt lat="63.871468" lon="-19.208549">
        <ele>561.016799</ele>
        <time>2024-06-07T17:39:41.308Z</time>
      </trkpt>
      <trkpt lat="63.870990" lon="-19.209957">
        <ele>560.811360</ele>
        <time>2024-06-07T17:41:30.393Z</time>
      </trkpt>
      <trkpt lat="63.870989" lon="-19.210304">
        <ele>560.786739</ele>
        <time>2024-06-07T17:41:51.322Z</time>
      </trkpt>
      <trkpt lat="63.870865" lon="-19.210587">
        <ele>560.758414</ele>
        <time>2024-06-07T17:42:15.311Z</time>
      </trkpt>
      <trkpt lat="63.870706" lon="-19.211275">
        <ele>560.703286</ele>
        <time>2024-06-07T17:43:01.726Z</time>
      </trkpt>
      <trkpt lat="63.870496" lon="-19.211985">
        <ele>560.642603</ele>
        <time>2024-06-07T17:43:53.436Z</time>
      </trkpt>
      <trkpt lat="63.870311" lon="-19.212461">
        <ele>560.410515</ele>
        <time>2024-06-07T17:44:32.286Z</time>
      </trkpt>
      <trkpt lat="63.869791" lon="-19.213341">
        <ele>559.034728</ele>
        <time>2024-06-07T17:46:03.491Z</time>
      </trkpt>
      <trkpt lat="63.869399" lon="-19.214323">
        <ele>557.796479</ele>
        <time>2024-06-07T17:47:26.827Z</time>
      </trkpt>
      <trkpt lat="63.867990" lon="-19.217281">
        <ele>553.806987</ele>
        <time>2024-06-07T17:51:57.948Z</time>
      </trkpt>
      <trkpt lat="63.867877" lon="-19.217659">
        <ele>553.391451</ele>
        <time>2024-06-07T17:52:25.986Z</time>
      </trkpt>
      <trkpt lat="63.867622" lon="-19.218004">
        <ele>552.826566</ele>
        <time>2024-06-07T17:53:07.382Z</time>
      </trkpt>
      <trkpt lat="63.867442" lon="-19.218389">
        <ele>552.396613</ele>
        <time>2024-06-07T17:53:42.009Z</time>
      </trkpt>
      <trkpt lat="63.867241" lon="-19.218694">
        <ele>551.976284</ele>
        <time>2024-06-07T17:54:15.878Z</time>
      </trkpt>
      <trkpt lat="63.867032" lon="-19.218919">
        <ele>551.574130</ele>
        <time>2024-06-07T17:54:48.195Z</time>
      </trkpt>
      <trkpt lat="63.866187" lon="-19.219344">
        <ele>550.069372</ele>
        <time>2024-06-07T17:56:49.564Z</time>
      </trkpt>
      <trkpt lat="63.864911" lon="-19.219744">
        <ele>548.193499</ele>
        <time>2024-06-07T17:59:49.163Z</time>
      </trkpt>
      <trkpt lat="63.864536" lon="-19.219638">
        <ele>547.648873</ele>
        <time>2024-06-07T18:00:27.941Z</time>
      </trkpt>
      <trkpt lat="63.864496" lon="-19.219532">
        <ele>547.560263</ele>
        <time>2024-06-07T18:00:34.228Z</time>
      </trkpt>
      <trkpt lat="63.864392" lon="-19.219405">
        <ele>547.390069</ele>
        <time>2024-06-07T18:00:46.310Z</time>
      </trkpt>
      <trkpt lat="63.864203" lon="-19.219439">
        <ele>547.212997</ele>
        <time>2024-06-07T18:01:05.819Z</time>
      </trkpt>
      <trkpt lat="63.862315" lon="-19.221560">
        <ele>545.179395</ele>
        <time>2024-06-07T18:04:40.144Z</time>
      </trkpt>
      <trkpt lat="63.861932" lon="-19.222067">
        <ele>544.621758</ele>
        <time>2024-06-07T18:05:25.314Z</time>
      </trkpt>
      <trkpt lat="63.861440" lon="-19.222872">
        <ele>543.858958</ele>
        <time>2024-06-07T18:06:27.742Z</time>
      </trkpt>
      <trkpt lat="63.860946" lon="-19.223691">
        <ele>542.691026</ele>
        <time>2024-06-07T18:07:31.592Z</time>
      </trkpt>
      <trkpt lat="63.860556" lon="-19.224451">
        <ele>541.445567</ele>
        <time>2024-06-07T18:08:25.564Z</time>
      </trkpt>
      <trkpt lat="63.860300" lon="-19.224870">
        <ele>540.680828</ele>
        <time>2024-06-07T18:08:58.823Z</time>
      </trkpt>
      <trkpt lat="63.860028" lon="-19.225135">
        <ele>539.963618</ele>
        <time>2024-06-07T18:09:30.132Z</time>
      </trkpt>
      <trkpt lat="63.859742" lon="-19.225168">
        <ele>539.269736</ele>
        <time>2024-06-07T18:10:00.451Z</time>
      </trkpt>
      <trkpt lat="63.859633" lon="-19.225261">
        <ele>539.037172</ele>
        <time>2024-06-07T18:10:12.822Z</time>
      </trkpt>
      <trkpt lat="63.859089" lon="-19.225807">
        <ele>538.006780</ele>
        <time>2024-06-07T18:11:15.557Z</time>
      </trkpt>
      <trkpt lat="63.858852" lon="-19.226205">
        <ele>537.496069</ele>
        <time>2024-06-07T18:11:46.202Z</time>
      </trkpt>
      <trkpt lat="63.858613" lon="-19.226617">
        <ele>536.976175</ele>
        <time>2024-06-07T18:12:17.071Z</time>
      </trkpt>
      <trkpt lat="63.858408" lon="-19.226850">
        <ele>536.579016</ele>
        <time>2024-06-07T18:12:40.451Z</time>
      </trkpt>
      <trkpt lat="63.858229" lon="-19.226970">
        <ele>536.255691</ele>
        <time>2024-06-07T18:12:59.499Z</time>
      </trkpt>
      <trkpt lat="63.857806" lon="-19.227074">
        <ele>536.045755</ele>
        <time>2024-06-07T18:13:42.578Z</time>
      </trkpt>
      <trkpt lat="63.857682" lon="-19.227337">
        <ele>536.045755</ele>
        <time>2024-06-07T18:13:59.668Z</time>
      </trkpt>
      <trkpt lat="63.857665" lon="-19.227372">
        <ele>536.045755</ele>
        <time>2024-06-07T18:14:01.970Z</time>
      </trkpt>
      <trkpt lat="63.857631" lon="-19.228033">
        <ele>536.045755</ele>
        <time>2024-06-07T18:14:31.424Z</time>
      </trkpt>
      <trkpt lat="63.857668" lon="-19.228308">
        <ele>536.045755</ele>
        <time>2024-06-07T18:14:44.183Z</time>
      </trkpt>
      <trkpt lat="63.857631" lon="-19.228033">
        <ele>536.045755</ele>
        <time>2024-06-07T18:14:56.870Z</time>
      </trkpt>
      <trkpt lat="63.857665" lon="-19.227372">
        <ele>536.045755</ele>
        <time>2024-06-07T18:15:26.220Z</time>
      </trkpt>
      <trkpt lat="63.857682" lon="-19.227337">
        <ele>536.045755</ele>
        <time>2024-06-07T18:15:28.520Z</time>
      </trkpt>
    </trkseg>
  </trk>
</gpx>