<?xml version="1.0" encoding="UTF-8"?>
<gpx version="1.1" creator="carnet-trek seed" xmlns="http://www.topografix.com/GPX/1/1">
  <metadata>
    <name>Alta Via 1 – Lagazuoi → Rifugio Nuvolau</name>
  </metadata>
  <wpt lat="46.519000" lon="12.009000">
    <ele>2105</ele>
    <name>Passo Falzarego</name>
    <sym>Restaurant</sym>
  </wpt>
  <wpt lat="46.504000" lon="12.039000">
    <ele>2413</ele>
    <name>Rifugio Averau</name>
    <sym>Lodging</sym>
  </wpt>
  <wpt lat="46.500000" lon="12.051000">
    <ele>2575</ele>
    <name>Rifugio Nuvolau</name>
    <sym>Summit</sym>
  </wpt>
  <trk>
    <name>Alta Via 1 – Lagazuoi → Rifugio Nuvolau</name>
    <type>hike</type>
    <trkseg>
      <trkpt lat="46.528000" lon="12.008000">
        <ele>2752.9</ele>
        <time>2025-08-20T07:30:00.000Z</time>
      </trkpt>
      <trkpt lat="46.527729" lon="12.008059">
        <ele>2732.4</ele>
        <time>2025-08-20T07:32:29.093Z</time>
      </trkpt>
      <trkpt lat="46.527458" lon="12.008128">
        <ele>2712.7</ele>
        <time>2025-08-20T07:34:53.752Z</time>
      </trkpt>
      <trkpt lat="46.527188" lon="12.008200">
        <ele>2693.6</ele>
        <time>2025-08-20T07:37:14.424Z</time>
      </trkpt>
      <trkpt lat="46.526916" lon="12.008245">
        <ele>2675.1</ele>
        <time>2025-08-20T07:39:31.394Z</time>
      </trkpt>
      <trkpt lat="46.526642" lon="12.008250">
        <ele>2656.0</ele>
        <time>2025-08-20T07:41:52.312Z</time>
      </trkpt>
      <trkpt lat="46.526366" lon="12.008233">
        <ele>2637.3</ele>
        <time>2025-08-20T07:44:10.659Z</time>
      </trkpt>
      <trkpt lat="46.526089" lon="12.008173">
        <ele>2618.2</ele>
        <time>2025-08-20T07:46:32.124Z</time>
      </trkpt>
      <trkpt lat="46.525810" lon="12.008080">
        <ele>2598.1</ele>
        <time>2025-08-20T07:49:00.129Z</time>
      </trkpt>
      <trkpt lat="46.525532" lon="12.008021">
        <ele>2578.4</ele>
        <time>2025-08-20T07:51:25.015Z</time>
      </trkpt>
      <trkpt lat="46.525255" lon="12.007965">
        <ele>2557.5</ele>
        <time>2025-08-20T07:53:57.261Z</time>
      </trkpt>
      <trkpt lat="46.524983" lon="12.008017">
        <ele>2537.5</ele>
        <time>2025-08-20T07:56:22.997Z</time>
      </trkpt>
      <trkpt lat="46.524714" lon="12.008118">
        <ele>2518.6</ele>
        <time>2025-08-20T07:58:42.800Z</time>
      </trkpt>
      <trkpt lat="46.524447" lon="12.008250">
        <ele>2497.6</ele>
        <time>2025-08-20T08:01:16.211Z</time>
      </trkpt>
      <trkpt lat="46.524183" lon="12.008455">
        <ele>2476.2</ele>
        <time>2025-08-20T08:03:52.604Z</time>
      </trkpt>
      <trkpt lat="46.523917" lon="12.008606">
        <ele>2455.9</ele>
        <time>2025-08-20T08:06:21.584Z</time>
      </trkpt>
      <trkpt lat="46.523651" lon="12.008772">
        <ele>2436.0</ele>
        <time>2025-08-20T08:08:48.604Z</time>
      </trkpt>
      <trkpt lat="46.523383" lon="12.008883">
        <ele>2414.1</ele>
        <time>2025-08-20T08:11:26.716Z</time>
      </trkpt>
      <trkpt lat="46.523111" lon="12.008930">
        <ele>2394.2</ele>
        <time>2025-08-20T08:13:52.497Z</time>
      </trkpt>
      <trkpt lat="46.522835" lon="12.008890">
        <ele>2375.1</ele>
        <time>2025-08-20T08:16:13.263Z</time>
      </trkpt>
      <trkpt lat="46.522555" lon="12.008795">
        <ele>2354.8</ele>
        <time>2025-08-20T08:18:42.320Z</time>
      </trkpt>
      <trkpt lat="46.522277" lon="12.008710">
        <ele>2336.1</ele>
        <time>2025-08-20T08:21:02.083Z</time>
      </trkpt>
      <trkpt lat="46.521996" lon="12.008585">
        <ele>2316.6</ele>
        <time>2025-08-20T08:23:27.110Z</time>
      </trkpt>
      <trkpt lat="46.521717" lon="12.008510">
        <ele>2297.6</ele>
        <time>2025-08-20T08:25:47.698Z</time>
      </trkpt>
      <trkpt lat="46.521441" lon="12.008467">
        <ele>2277.9</ele>
        <time>2025-08-20T08:28:12.584Z</time>
      </trkpt>
      <trkpt lat="46.521167" lon="12.008472">
        <ele>2259.1</ele>
        <time>2025-08-20T08:30:31.405Z</time>
      </trkpt>
      <trkpt lat="46.520898" lon="12.008575">
        <ele>2241.8</ele>
        <time>2025-08-20T08:32:41.940Z</time>
      </trkpt>
      <trkpt lat="46.520628" lon="12.008662">
        <ele>2221.9</ele>
        <time>2025-08-20T08:35:07.370Z</time>
      </trkpt>
      <trkpt lat="46.520360" lon="12.008783">
        <ele>2202.8</ele>
        <time>2025-08-20T08:37:28.576Z</time>
      </trkpt>
      <trkpt lat="46.520092" lon="12.008893">
        <ele>2183.1</ele>
        <time>2025-08-20T08:39:53.770Z</time>
      </trkpt>
      <trkpt lat="46.519821" lon="12.008961">
        <ele>2164.7</ele>
        <time>2025-08-20T08:42:10.202Z</time>
      </trkpt>
      <trkpt lat="46.519549" lon="12.009003">
        <ele>2144.6</ele>
        <time>2025-08-20T08:44:36.938Z</time>
      </trkpt>
      <trkpt lat="46.519275" lon="12.009006">
        <ele>2124.1</ele>
        <time>2025-08-20T08:47:06.227Z</time>
      </trkpt>
      <trkpt lat="46.519000" lon="12.009000">
        <ele>2104.3</ele>
        <time>2025-08-20T08:49:31.193Z</time>
      </trkpt>
      <trkpt lat="46.518799" lon="12.009277">
        <ele>2107.5</ele>
        <time>2025-08-20T08:50:31.253Z</time>
      </trkpt>
      <trkpt lat="46.518597" lon="12.009552">
        <ele>2110.4</ele>
        <time>2025-08-20T08:51:27.437Z</time>
      </trkpt>
      <trkpt lat="46.518402" lon="12.009835">
        <ele>2113.3</ele>
        <time>2025-08-20T08:52:23.002Z</time>
      </trkpt>
      <trkpt lat="46.518208" lon="12.010120">
        <ele>2115.6</ele>
        <time>2025-08-20T08:53:13.276Z</time>
      </trkpt>
      <trkpt lat="46.518032" lon="12.010423">
        <ele>2117.6</ele>
        <time>2025-08-20T08:53:59.442Z</time>
      </trkpt>
      <trkpt lat="46.517865" lon="12.010735">
        <ele>2120.6</ele>
        <time>2025-08-20T08:54:56.793Z</time>
      </trkpt>
      <trkpt lat="46.517704" lon="12.011055">
        <ele>2122.2</ele>
        <time>2025-08-20T08:55:39.071Z</time>
      </trkpt>
      <trkpt lat="46.517579" lon="12.011412">
        <ele>2125.5</ele>
        <time>2025-08-20T08:56:39.474Z</time>
      </trkpt>
      <trkpt lat="46.517454" lon="12.011769">
        <ele>2128.2</ele>
        <time>2025-08-20T08:57:33.273Z</time>
      </trkpt>
      <trkpt lat="46.517345" lon="12.012142">
        <ele>2132.6</ele>
        <time>2025-08-20T08:58:44.569Z</time>
      </trkpt>
      <trkpt lat="46.517253" lon="12.012534">
        <ele>2134.6</ele>
        <time>2025-08-20T08:59:33.015Z</time>
      </trkpt>
      <trkpt lat="46.517176" lon="12.012941">
        <ele>2138.1</ele>
        <time>2025-08-20T09:00:35.897Z</time>
      </trkpt>
      <trkpt lat="46.517107" lon="12.013357">
        <ele>2142.2</ele>
        <time>2025-08-20T09:01:47.026Z</time>
      </trkpt>
      <trkpt lat="46.517026" lon="12.013761">
        <ele>2145.8</ele>
        <time>2025-08-20T09:02:50.942Z</time>
      </trkpt>
      <trkpt lat="46.516962" lon="12.014182">
        <ele>2149.5</ele>
        <time>2025-08-20T09:03:57.596Z</time>
      </trkpt>
      <trkpt lat="46.516870" lon="12.014574">
        <ele>2153.2</ele>
        <time>2025-08-20T09:05:02.369Z</time>
      </trkpt>
      <trkpt lat="46.516793" lon="12.014982">
        <ele>2156.9</ele>
        <time>2025-08-20T09:06:08.732Z</time>
      </trkpt>
      <trkpt lat="46.516693" lon="12.015365">
        <ele>2161.2</ele>
        <time>2025-08-20T09:07:20.160Z</time>
      </trkpt>
      <trkpt lat="46.516570" lon="12.015725">
        <ele>2165.6</ele>
        <time>2025-08-20T09:08:31.303Z</time>
      </trkpt>
      <trkpt lat="46.516421" lon="12.016056">
        <ele>2168.0</ele>
        <time>2025-08-20T09:09:21.815Z</time>
      </trkpt>
      <trkpt lat="46.516261" lon="12.016376">
        <ele>2172.9</ele>
        <time>2025-08-20T09:10:37.815Z</time>
      </trkpt>
      <trkpt lat="46.516069" lon="12.016662">
        <ele>2175.2</ele>
        <time>2025-08-20T09:11:28.035Z</time>
      </trkpt>
      <trkpt lat="46.515891" lon="12.016963">
        <ele>2179.1</ele>
        <time>2025-08-20T09:12:33.782Z</time>
      </trkpt>
      <trkpt lat="46.515665" lon="12.017213">
        <ele>2182.9</ele>
        <time>2025-08-20T09:13:40.647Z</time>
      </trkpt>
      <trkpt lat="46.515407" lon="12.017430">
        <ele>2184.5</ele>
        <time>2025-08-20T09:14:25.259Z</time>
      </trkpt>
      <trkpt lat="46.515155" lon="12.017653">
        <ele>2187.3</ele>
        <time>2025-08-20T09:15:22.096Z</time>
      </trkpt>
      <trkpt lat="46.514902" lon="12.017875">
        <ele>2190.3</ele>
        <time>2025-08-20T09:16:21.415Z</time>
      </trkpt>
      <trkpt lat="46.514618" lon="12.018063">
        <ele>2192.9</ele>
        <time>2025-08-20T09:17:17.699Z</time>
      </trkpt>
      <trkpt lat="46.514344" lon="12.018263">
        <ele>2195.6</ele>
        <time>2025-08-20T09:18:14.907Z</time>
      </trkpt>
      <trkpt lat="46.514085" lon="12.018479">
        <ele>2197.2</ele>
        <time>2025-08-20T09:19:00.025Z</time>
      </trkpt>
      <trkpt lat="46.513840" lon="12.018709">
        <ele>2200.2</ele>
        <time>2025-08-20T09:19:58.182Z</time>
      </trkpt>
      <trkpt lat="46.513589" lon="12.018933">
        <ele>2201.9</ele>
        <time>2025-08-20T09:20:44.217Z</time>
      </trkpt>
      <trkpt lat="46.513353" lon="12.019172">
        <ele>2203.5</ele>
        <time>2025-08-20T09:21:27.314Z</time>
      </trkpt>
      <trkpt lat="46.513147" lon="12.019444">
        <ele>2205.0</ele>
        <time>2025-08-20T09:22:09.377Z</time>
      </trkpt>
      <trkpt lat="46.512946" lon="12.019721">
        <ele>2206.9</ele>
        <time>2025-08-20T09:22:55.518Z</time>
      </trkpt>
      <trkpt lat="46.512766" lon="12.020020">
        <ele>2208.5</ele>
        <time>2025-08-20T09:23:38.584Z</time>
      </trkpt>
      <trkpt lat="46.512601" lon="12.020335">
        <ele>2210.6</ele>
        <time>2025-08-20T09:24:26.025Z</time>
      </trkpt>
      <trkpt lat="46.512466" lon="12.020681">
        <ele>2214.4</ele>
        <time>2025-08-20T09:25:30.594Z</time>
      </trkpt>
      <trkpt lat="46.512350" lon="12.021047">
        <ele>2215.5</ele>
        <time>2025-08-20T09:26:08.540Z</time>
      </trkpt>
      <trkpt lat="46.512242" lon="12.021422">
        <ele>2218.5</ele>
        <time>2025-08-20T09:27:05.988Z</time>
      </trkpt>
      <trkpt lat="46.512139" lon="12.021802">
        <ele>2220.9</ele>
        <time>2025-08-20T09:27:57.297Z</time>
      </trkpt>
      <trkpt lat="46.512041" lon="12.022188">
        <ele>2223.6</ele>
        <time>2025-08-20T09:28:52.360Z</time>
      </trkpt>
      <trkpt lat="46.511937" lon="12.022567">
        <ele>2226.4</ele>
        <time>2025-08-20T09:29:47.622Z</time>
      </trkpt>
      <trkpt lat="46.511836" lon="12.022949">
        <ele>2230.3</ele>
        <time>2025-08-20T09:30:54.688Z</time>
      </trkpt>
      <trkpt lat="46.511727" lon="12.023323">
        <ele>2232.7</ele>
        <time>2025-08-20T09:31:46.056Z</time>
      </trkpt>
      <trkpt lat="46.511605" lon="12.023683">
        <ele>2236.6</ele>
        <time>2025-08-20T09:32:52.231Z</time>
      </trkpt>
      <trkpt lat="46.511474" lon="12.024034">
        <ele>2240.6</ele>
        <time>2025-08-20T09:34:00.440Z</time>
      </trkpt>
      <trkpt lat="46.511333" lon="12.024373">
        <ele>2244.0</ele>
        <time>2025-08-20T09:35:01.151Z</time>
      </trkpt>
      <trkpt lat="46.511173" lon="12.024694">
        <ele>2246.6</ele>
        <time>2025-08-20T09:35:53.840Z</time>
      </trkpt>
      <trkpt lat="46.511000" lon="12.025000">
        <ele>2249.5</ele>
        <time>2025-08-20T09:36:49.794Z</time>
      </trkpt>
      <trkpt lat="46.510862" lon="12.025340">
        <ele>2254.0</ele>
        <time>2025-08-20T09:38:01.273Z</time>
      </trkpt>
      <trkpt lat="46.510722" lon="12.025679">
        <ele>2258.1</ele>
        <time>2025-08-20T09:39:09.765Z</time>
      </trkpt>
      <trkpt lat="46.510569" lon="12.026003">
        <ele>2263.3</ele>
        <time>2025-08-20T09:40:28.686Z</time>
      </trkpt>
      <trkpt lat="46.510397" lon="12.026308">
        <ele>2266.5</ele>
        <time>2025-08-20T09:41:27.943Z</time>
      </trkpt>
      <trkpt lat="46.510202" lon="12.026589">
        <ele>2270.1</ele>
        <time>2025-08-20T09:42:31.445Z</time>
      </trkpt>
      <trkpt lat="46.509999" lon="12.026860">
        <ele>2274.6</ele>
        <time>2025-08-20T09:43:43.479Z</time>
      </trkpt>
      <trkpt lat="46.509784" lon="12.027119">
        <ele>2278.8</ele>
        <time>2025-08-20T09:44:53.627Z</time>
      </trkpt>
      <trkpt lat="46.509571" lon="12.027381">
        <ele>2282.8</ele>
        <time>2025-08-20T09:46:00.845Z</time>
      </trkpt>
      <trkpt lat="46.509392" lon="12.027677">
        <ele>2285.6</ele>
        <time>2025-08-20T09:46:55.335Z</time>
      </trkpt>
      <trkpt lat="46.509243" lon="12.028006">
        <ele>2288.7</ele>
        <time>2025-08-20T09:47:53.400Z</time>
      </trkpt>
      <trkpt lat="46.509124" lon="12.028367">
        <ele>2291.8</ele>
        <time>2025-08-20T09:48:51.372Z</time>
      </trkpt>
      <trkpt lat="46.509061" lon="12.028787">
        <ele>2294.7</ele>
        <time>2025-08-20T09:49:49.180Z</time>
      </trkpt>
      <trkpt lat="46.508975" lon="12.029181">
        <ele>2298.0</ele>
        <time>2025-08-20T09:50:50.488Z</time>
      </trkpt>
      <trkpt lat="46.508923" lon="12.029613">
        <ele>2300.3</ele>
        <time>2025-08-20T09:51:43.620Z</time>
      </trkpt>
      <trkpt lat="46.508834" lon="12.030005">
        <ele>2304.0</ele>
        <time>2025-08-20T09:52:48.764Z</time>
      </trkpt>
      <trkpt lat="46.508719" lon="12.030370">
        <ele>2306.9</ele>
        <time>2025-08-20T09:53:44.437Z</time>
      </trkpt>
      <trkpt lat="46.508549" lon="12.030677">
        <ele>2310.0</ele>
        <time>2025-08-20T09:54:41.917Z</time>
      </trkpt>
      <trkpt lat="46.508349" lon="12.030952">
        <ele>2312.6</ele>
        <time>2025-08-20T09:55:35.442Z</time>
      </trkpt>
      <trkpt lat="46.508084" lon="12.031159">
        <ele>2315.9</ele>
        <time>2025-08-20T09:56:37.873Z</time>
      </trkpt>
      <trkpt lat="46.507821" lon="12.031366">
        <ele>2318.1</ele>
        <time>2025-08-20T09:57:29.306Z</time>
      </trkpt>
      <trkpt lat="46.507519" lon="12.031534">
        <ele>2322.5</ele>
        <time>2025-08-20T09:58:45.265Z</time>
      </trkpt>
      <trkpt lat="46.507283" lon="12.031771">
        <ele>2324.4</ele>
        <time>2025-08-20T09:59:31.799Z</time>
      </trkpt>
      <trkpt lat="46.507076" lon="12.032038">
        <ele>2328.7</ele>
        <time>2025-08-20T10:00:43.056Z</time>
      </trkpt>
      <trkpt lat="46.506899" lon="12.032338">
        <ele>2332.2</ele>
        <time>2025-08-20T10:01:44.808Z</time>
      </trkpt>
      <trkpt lat="46.506792" lon="12.032711">
        <ele>2336.3</ele>
        <time>2025-08-20T10:02:52.673Z</time>
      </trkpt>
      <trkpt lat="46.506723" lon="12.033125">
        <ele>2339.9</ele>
        <time>2025-08-20T10:03:58.347Z</time>
      </trkpt>
      <trkpt lat="46.506655" lon="12.033539">
        <ele>2345.4</ele>
        <time>2025-08-20T10:05:22.637Z</time>
      </trkpt>
      <trkpt lat="46.506612" lon="12.033980">
        <ele>2349.7</ele>
        <time>2025-08-20T10:06:35.561Z</time>
      </trkpt>
      <trkpt lat="46.506532" lon="12.034381">
        <ele>2354.2</ele>
        <time>2025-08-20T10:07:49.564Z</time>
      </trkpt>
      <trkpt lat="46.506454" lon="12.034785">
        <ele>2359.1</ele>
        <time>2025-08-20T10:09:07.239Z</time>
      </trkpt>
      <trkpt lat="46.506305" lon="12.035114">
        <ele>2362.5</ele>
        <time>2025-08-20T10:10:08.094Z</time>
      </trkpt>
      <trkpt lat="46.506110" lon="12.035394">
        <ele>2367.2</ele>
        <time>2025-08-20T10:11:22.938Z</time>
      </trkpt>
      <trkpt lat="46.505886" lon="12.035644">
        <ele>2371.6</ele>
        <time>2025-08-20T10:12:34.551Z</time>
      </trkpt>
      <trkpt lat="46.505655" lon="12.035886">
        <ele>2376.3</ele>
        <time>2025-08-20T10:13:50.949Z</time>
      </trkpt>
      <trkpt lat="46.505422" lon="12.036126">
        <ele>2380.5</ele>
        <time>2025-08-20T10:15:00.883Z</time>
      </trkpt>
      <trkpt lat="46.505199" lon="12.036377">
        <ele>2385.6</ele>
        <time>2025-08-20T10:16:20.405Z</time>
      </trkpt>
      <trkpt lat="46.505004" lon="12.036656">
        <ele>2388.8</ele>
        <time>2025-08-20T10:17:19.688Z</time>
      </trkpt>
      <trkpt lat="46.504838" lon="12.036968">
        <ele>2392.7</ele>
        <time>2025-08-20T10:18:25.583Z</time>
      </trkpt>
      <trkpt lat="46.504700" lon="12.037308">
        <ele>2396.5</ele>
        <time>2025-08-20T10:19:30.152Z</time>
      </trkpt>
      <trkpt lat="46.504568" lon="12.037655">
        <ele>2399.6</ele>
        <time>2025-08-20T10:20:28.473Z</time>
      </trkpt>
      <trkpt lat="46.504443" lon="12.038009">
        <ele>2402.7</ele>
        <time>2025-08-20T10:21:26.053Z</time>
      </trkpt>
      <trkpt lat="46.504312" lon="12.038357">
        <ele>2406.3</ele>
        <time>2025-08-20T10:22:29.446Z</time>
      </trkpt>
      <trkpt lat="46.504165" lon="12.038688">
        <ele>2409.4</ele>
        <time>2025-08-20T10:23:26.514Z</time>
      </trkpt>
      <trkpt lat="46.504000" lon="12.039000">
        <ele>2412.9</ele>
        <time>2025-08-20T10:24:28.626Z</time>
      </trkpt>
      <trkpt lat="46.503873" lon="12.039346">
        <ele>2416.8</ele>
        <time>2025-08-20T10:25:34.529Z</time>
      </trkpt>
      <trkpt lat="46.503763" lon="12.039705">
        <ele>2422.4</ele>
        <time>2025-08-20T10:26:57.561Z</time>
      </trkpt>
      <trkpt lat="46.503671" lon="12.040075">
        <ele>2427.0</ele>
        <time>2025-08-20T10:28:11.451Z</time>
      </trkpt>
      <trkpt lat="46.503594" lon="12.040457">
        <ele>2431.6</ele>
        <time>2025-08-20T10:29:24.385Z</time>
      </trkpt>
      <trkpt lat="46.503509" lon="12.040833">
        <ele>2438.1</ele>
        <time>2025-08-20T10:30:56.958Z</time>
      </trkpt>
      <trkpt lat="46.503428" lon="12.041212">
        <ele>2442.6</ele>
        <time>2025-08-20T10:32:09.780Z</time>
      </trkpt>
      <trkpt lat="46.503309" lon="12.041564">
        <ele>2448.8</ele>
        <time>2025-08-20T10:33:39.397Z</time>
      </trkpt>
      <trkpt lat="46.503160" lon="12.041894">
        <ele>2453.7</ele>
        <time>2025-08-20T10:34:55.800Z</time>
      </trkpt>
      <trkpt lat="46.502997" lon="12.042216">
        <ele>2458.3</ele>
        <time>2025-08-20T10:36:09.485Z</time>
      </trkpt>
      <trkpt lat="46.502780" lon="12.042499">
        <ele>2463.7</ele>
        <time>2025-08-20T10:37:32.523Z</time>
      </trkpt>
      <trkpt lat="46.502577" lon="12.042792">
        <ele>2470.2</ele>
        <time>2025-08-20T10:39:06.373Z</time>
      </trkpt>
      <trkpt lat="46.502407" lon="12.043108">
        <ele>2475.3</ele>
        <time>2025-08-20T10:40:25.028Z</time>
      </trkpt>
      <trkpt lat="46.502240" lon="12.043426">
        <ele>2479.1</ele>
        <time>2025-08-20T10:41:30.572Z</time>
      </trkpt>
      <trkpt lat="46.502124" lon="12.043780">
        <ele>2483.2</ele>
        <time>2025-08-20T10:42:38.766Z</time>
      </trkpt>
      <trkpt lat="46.502056" lon="12.044168">
        <ele>2487.6</ele>
        <time>2025-08-20T10:43:50.021Z</time>
      </trkpt>
      <trkpt lat="46.502024" lon="12.044581">
        <ele>2493.3</ele>
        <time>2025-08-20T10:45:16.107Z</time>
      </trkpt>
      <trkpt lat="46.501980" lon="12.044986">
        <ele>2497.1</ele>
        <time>2025-08-20T10:46:21.573Z</time>
      </trkpt>
      <trkpt lat="46.501982" lon="12.045423">
        <ele>2500.0</ele>
        <time>2025-08-20T10:47:20.504Z</time>
      </trkpt>
      <trkpt lat="46.501951" lon="12.045837">
        <ele>2504.4</ele>
        <time>2025-08-20T10:48:33.240Z</time>
      </trkpt>
      <trkpt lat="46.501868" lon="12.046214">
        <ele>2507.9</ele>
        <time>2025-08-20T10:49:34.756Z</time>
      </trkpt>
      <trkpt lat="46.501762" lon="12.046575">
        <ele>2512.2</ele>
        <time>2025-08-20T10:50:45.099Z</time>
      </trkpt>
      <trkpt lat="46.501599" lon="12.046896">
        <ele>2516.2</ele>
        <time>2025-08-20T10:51:51.767Z</time>
      </trkpt>
      <trkpt lat="46.501432" lon="12.047214">
        <ele>2519.7</ele>
        <time>2025-08-20T10:52:54.595Z</time>
      </trkpt>
      <trkpt lat="46.501222" lon="12.047503">
        <ele>2524.5</ele>
        <time>2025-08-20T10:54:11.416Z</time>
      </trkpt>
      <trkpt lat="46.501025" lon="12.047800">
        <ele>2527.8</ele>
        <time>2025-08-20T10:55:12.646Z</time>
      </trkpt>
      <trkpt lat="46.500844" lon="12.048108">
        <ele>2534.0</ele>
        <time>2025-08-20T10:56:42.937Z</time>
      </trkpt>
      <trkpt lat="46.500706" lon="12.048447">
        <ele>2538.2</ele>
        <time>2025-08-20T10:57:51.389Z</time>
      </trkpt>
      <trkpt lat="46.500579" lon="12.048793">
        <ele>2543.9</ele>
        <time>2025-08-20T10:59:16.064Z</time>
      </trkpt>
      <trkpt lat="46.500482" lon="12.049161">
        <ele>2549.5</ele>
        <time>2025-08-20T11:00:39.310Z</time>
      </trkpt>
      <trkpt lat="46.500401" lon="12.049539">
        <ele>2554.0</ele>
        <time>2025-08-20T11:01:51.500Z</time>
      </trkpt>
      <trkpt lat="46.500326" lon="12.049922">
        <ele>2559.0</ele>
        <time>2025-08-20T11:03:09.741Z</time>
      </trkpt>
      <trkpt lat="46.500235" lon="12.050294">
        <ele>2565.8</ele>
        <time>2025-08-20T11:04:44.865Z</time>
      </trkpt>
      <trkpt lat="46.500126" lon="12.050653">
        <ele>2570.3</ele>
        <time>2025-08-20T11:05:57.550Z</time>
      </trkpt>
      <trkpt lat="46.500000" lon="12.051000">
        <ele>2574.2</ele>
        <time>2025-08-20T11:07:02.948Z</time>
      </trkpt>
    </trkseg>
  </trk>
</gpx>
