<?xml version="1.0" encoding="UTF-8"?>
<gpx version="1.1" creator="carnet-trek seed (OpenStreetMap, EU-DEM)" xmlns="http://www.topografix.com/GPX/1/1">
  <metadata>
    <name>GR10 – Gourette → Arrens-Marsous</name>
    <copyright author="OpenStreetMap contributors"><license>https://opendatacommons.org/licenses/odbl/</license></copyright>
  </metadata>
  <wpt lat="42.956614" lon="-0.328842">
    <name>Gourette</name>
    <sym>Convenience Store</sym>
  </wpt>
  <wpt lat="42.959234" lon="-0.317757">
    <name>Point culminant (1794 m)</name>
    <sym>Summit</sym>
  </wpt>
  <wpt lat="42.956311" lon="-0.242245">
    <name>Refuge Gabizos</name>
    <sym>Lodging</sym>
  </wpt>
  <wpt lat="42.951461" lon="-0.207162">
    <name>Arrens-Marsous</name>
    <sym>Convenience Store</sym>
  </wpt>
  <trk>
    <name>GR10 – Gourette → Arrens-Marsous</name>
    <type>hike</type>
    <trkseg>
      <trkpt lat="42.956614" lon="-0.328842">
        <ele>1378.6</ele>
        <time>2025-06-30T07:30:00.000Z</time>
      </trkpt>
      <trkpt lat="42.956652" lon="-0.328435">
        <ele>1381.9</ele>
        <time>2025-06-30T07:31:04.615Z</time>
      </trkpt>
      <trkpt lat="42.956515" lon="-0.328142">
        <ele>1385.1</ele>
        <time>2025-06-30T07:32:01.743Z</time>
      </trkpt>
      <trkpt lat="42.956352" lon="-0.327751">
        <ele>1390.2</ele>
        <time>2025-06-30T07:33:25.690Z</time>
      </trkpt>
      <trkpt lat="42.956462" lon="-0.327473">
        <ele>1395.0</ele>
        <time>2025-06-30T07:34:38.575Z</time>
      </trkpt>
      <trkpt lat="42.956449" lon="-0.327096">
        <ele>1399.6</ele>
        <time>2025-06-30T07:35:52.735Z</time>
      </trkpt>
      <trkpt lat="42.956411" lon="-0.326784">
        <ele>1403.1</ele>
        <time>2025-06-30T07:36:51.245Z</time>
      </trkpt>
      <trkpt lat="42.956553" lon="-0.326833">
        <ele>1404.6</ele>
        <time>2025-06-30T07:37:32.314Z</time>
      </trkpt>
      <trkpt lat="42.956665" lon="-0.327172">
        <ele>1405.1</ele>
        <time>2025-06-30T07:38:03.086Z</time>
      </trkpt>
      <trkpt lat="42.956858" lon="-0.327470">
        <ele>1407.8</ele>
        <time>2025-06-30T07:38:59.073Z</time>
      </trkpt>
      <trkpt lat="42.957069" lon="-0.327626">
        <ele>1411.1</ele>
        <time>2025-06-30T07:39:56.528Z</time>
      </trkpt>
      <trkpt lat="42.957199" lon="-0.327334">
        <ele>1418.6</ele>
        <time>2025-06-30T07:41:38.164Z</time>
      </trkpt>
      <trkpt lat="42.957277" lon="-0.326977">
        <ele>1426.8</ele>
        <time>2025-06-30T07:43:29.604Z</time>
      </trkpt>
      <trkpt lat="42.957404" lon="-0.326614">
        <ele>1435.2</ele>
        <time>2025-06-30T07:45:26.833Z</time>
      </trkpt>
      <trkpt lat="42.957624" lon="-0.326695">
        <ele>1439.5</ele>
        <time>2025-06-30T07:46:40.154Z</time>
      </trkpt>
      <trkpt lat="42.957720" lon="-0.327046">
        <ele>1442.6</ele>
        <time>2025-06-30T07:47:38.133Z</time>
      </trkpt>
      <trkpt lat="42.957924" lon="-0.327283">
        <ele>1445.5</ele>
        <time>2025-06-30T07:48:34.126Z</time>
      </trkpt>
      <trkpt lat="42.958052" lon="-0.327613">
        <ele>1448.5</ele>
        <time>2025-06-30T07:49:31.155Z</time>
      </trkpt>
      <trkpt lat="42.958266" lon="-0.327996">
        <ele>1449.3</ele>
        <time>2025-06-30T07:50:13.217Z</time>
      </trkpt>
      <trkpt lat="42.958509" lon="-0.328099">
        <ele>1449.1</ele>
        <time>2025-06-30T07:50:39.567Z</time>
      </trkpt>
      <trkpt lat="42.958700" lon="-0.328282">
        <ele>1448.4</ele>
        <time>2025-06-30T07:51:06.001Z</time>
      </trkpt>
      <trkpt lat="42.958738" lon="-0.328587">
        <ele>1447.2</ele>
        <time>2025-06-30T07:51:35.191Z</time>
      </trkpt>
      <trkpt lat="42.958962" lon="-0.328758">
        <ele>1445.2</ele>
        <time>2025-06-30T07:52:13.788Z</time>
      </trkpt>
      <trkpt lat="42.959244" lon="-0.328782">
        <ele>1446.3</ele>
        <time>2025-06-30T07:52:52.489Z</time>
      </trkpt>
      <trkpt lat="42.959500" lon="-0.328808">
        <ele>1448.5</ele>
        <time>2025-06-30T07:53:40.049Z</time>
      </trkpt>
      <trkpt lat="42.959239" lon="-0.328522">
        <ele>1456.6</ele>
        <time>2025-06-30T07:55:42.860Z</time>
      </trkpt>
      <trkpt lat="42.959115" lon="-0.328289">
        <ele>1461.2</ele>
        <time>2025-06-30T07:56:52.045Z</time>
      </trkpt>
      <trkpt lat="42.959436" lon="-0.328308">
        <ele>1469.4</ele>
        <time>2025-06-30T07:58:47.471Z</time>
      </trkpt>
      <trkpt lat="42.959402" lon="-0.328027">
        <ele>1474.9</ele>
        <time>2025-06-30T08:00:13.226Z</time>
      </trkpt>
      <trkpt lat="42.959191" lon="-0.327821">
        <ele>1479.8</ele>
        <time>2025-06-30T08:01:33.449Z</time>
      </trkpt>
      <trkpt lat="42.959036" lon="-0.327605">
        <ele>1480.7</ele>
        <time>2025-06-30T08:02:06.739Z</time>
      </trkpt>
      <trkpt lat="42.958950" lon="-0.327292">
        <ele>1483.6</ele>
        <time>2025-06-30T08:03:04.228Z</time>
      </trkpt>
      <trkpt lat="42.959128" lon="-0.327029">
        <ele>1493.2</ele>
        <time>2025-06-30T08:05:13.000Z</time>
      </trkpt>
      <trkpt lat="42.959279" lon="-0.326761">
        <ele>1498.1</ele>
        <time>2025-06-30T08:06:28.573Z</time>
      </trkpt>
      <trkpt lat="42.959465" lon="-0.326919">
        <ele>1501.5</ele>
        <time>2025-06-30T08:07:25.442Z</time>
      </trkpt>
      <trkpt lat="42.959696" lon="-0.326996">
        <ele>1505.3</ele>
        <time>2025-06-30T08:08:29.664Z</time>
      </trkpt>
      <trkpt lat="42.960028" lon="-0.326827">
        <ele>1510.7</ele>
        <time>2025-06-30T08:09:58.468Z</time>
      </trkpt>
      <trkpt lat="42.960483" lon="-0.326640">
        <ele>1519.0</ele>
        <time>2025-06-30T08:12:09.162Z</time>
      </trkpt>
      <trkpt lat="42.960344" lon="-0.326312">
        <ele>1525.5</ele>
        <time>2025-06-30T08:13:43.782Z</time>
      </trkpt>
      <trkpt lat="42.960208" lon="-0.326073">
        <ele>1531.2</ele>
        <time>2025-06-30T08:15:06.073Z</time>
      </trkpt>
      <trkpt lat="42.960070" lon="-0.325758">
        <ele>1537.3</ele>
        <time>2025-06-30T08:16:36.699Z</time>
      </trkpt>
      <trkpt lat="42.959911" lon="-0.325510">
        <ele>1544.0</ele>
        <time>2025-06-30T08:18:08.813Z</time>
      </trkpt>
      <trkpt lat="42.959896" lon="-0.325161">
        <ele>1553.8</ele>
        <time>2025-06-30T08:20:14.134Z</time>
      </trkpt>
      <trkpt lat="42.959818" lon="-0.324917">
        <ele>1562.3</ele>
        <time>2025-06-30T08:22:03.525Z</time>
      </trkpt>
      <trkpt lat="42.959802" lon="-0.324655">
        <ele>1570.5</ele>
        <time>2025-06-30T08:23:49.230Z</time>
      </trkpt>
      <trkpt lat="42.959714" lon="-0.324379">
        <ele>1578.6</ele>
        <time>2025-06-30T08:25:34.487Z</time>
      </trkpt>
      <trkpt lat="42.959835" lon="-0.324219">
        <ele>1586.4</ele>
        <time>2025-06-30T08:27:15.746Z</time>
      </trkpt>
      <trkpt lat="42.959937" lon="-0.324057">
        <ele>1594.7</ele>
        <time>2025-06-30T08:29:03.081Z</time>
      </trkpt>
      <trkpt lat="42.959847" lon="-0.323801">
        <ele>1606.4</ele>
        <time>2025-06-30T08:31:29.461Z</time>
      </trkpt>
      <trkpt lat="42.959849" lon="-0.323500">
        <ele>1616.9</ele>
        <time>2025-06-30T08:33:41.572Z</time>
      </trkpt>
      <trkpt lat="42.959698" lon="-0.323260">
        <ele>1626.9</ele>
        <time>2025-06-30T08:35:49.023Z</time>
      </trkpt>
      <trkpt lat="42.959574" lon="-0.323002">
        <ele>1634.8</ele>
        <time>2025-06-30T08:37:35.205Z</time>
      </trkpt>
      <trkpt lat="42.959386" lon="-0.322870">
        <ele>1641.2</ele>
        <time>2025-06-30T08:39:04.312Z</time>
      </trkpt>
      <trkpt lat="42.959304" lon="-0.322557">
        <ele>1651.5</ele>
        <time>2025-06-30T08:41:13.907Z</time>
      </trkpt>
      <trkpt lat="42.959397" lon="-0.322297">
        <ele>1661.9</ele>
        <time>2025-06-30T08:43:24.840Z</time>
      </trkpt>
      <trkpt lat="42.959596" lon="-0.322151">
        <ele>1667.6</ele>
        <time>2025-06-30T08:44:45.303Z</time>
      </trkpt>
      <trkpt lat="42.959395" lon="-0.321914">
        <ele>1674.7</ele>
        <time>2025-06-30T08:46:27.958Z</time>
      </trkpt>
      <trkpt lat="42.959241" lon="-0.321654">
        <ele>1684.1</ele>
        <time>2025-06-30T08:48:27.217Z</time>
      </trkpt>
      <trkpt lat="42.959220" lon="-0.321253">
        <ele>1695.3</ele>
        <time>2025-06-30T08:50:52.163Z</time>
      </trkpt>
      <trkpt lat="42.959347" lon="-0.320907">
        <ele>1705.4</ele>
        <time>2025-06-30T08:53:03.310Z</time>
      </trkpt>
      <trkpt lat="42.959325" lon="-0.320554">
        <ele>1714.0</ele>
        <time>2025-06-30T08:54:58.492Z</time>
      </trkpt>
      <trkpt lat="42.959536" lon="-0.320319">
        <ele>1720.4</ele>
        <time>2025-06-30T08:56:30.771Z</time>
      </trkpt>
      <trkpt lat="42.959504" lon="-0.319987">
        <ele>1731.5</ele>
        <time>2025-06-30T08:58:50.698Z</time>
      </trkpt>
      <trkpt lat="42.959460" lon="-0.319632">
        <ele>1745.2</ele>
        <time>2025-06-30T09:01:37.506Z</time>
      </trkpt>
      <trkpt lat="42.959435" lon="-0.319299">
        <ele>1756.8</ele>
        <time>2025-06-30T09:04:02.491Z</time>
      </trkpt>
      <trkpt lat="42.959497" lon="-0.319025">
        <ele>1765.6</ele>
        <time>2025-06-30T09:05:55.378Z</time>
      </trkpt>
      <trkpt lat="42.959486" lon="-0.318776">
        <ele>1773.0</ele>
        <time>2025-06-30T09:07:34.061Z</time>
      </trkpt>
      <trkpt lat="42.959552" lon="-0.318391">
        <ele>1781.8</ele>
        <time>2025-06-30T09:09:33.413Z</time>
      </trkpt>
      <trkpt lat="42.959469" lon="-0.318203">
        <ele>1787.8</ele>
        <time>2025-06-30T09:10:56.627Z</time>
      </trkpt>
      <trkpt lat="42.959256" lon="-0.318092">
        <ele>1793.8</ele>
        <time>2025-06-30T09:12:19.880Z</time>
      </trkpt>
      <trkpt lat="42.959234" lon="-0.317757">
        <ele>1794.2</ele>
        <time>2025-06-30T09:12:51.456Z</time>
      </trkpt>
      <trkpt lat="42.959450" lon="-0.317381">
        <ele>1791.6</ele>
        <time>2025-06-30T09:13:40.358Z</time>
      </trkpt>
      <trkpt lat="42.959627" lon="-0.317094">
        <ele>1785.7</ele>
        <time>2025-06-30T09:14:42.342Z</time>
      </trkpt>
      <trkpt lat="42.959929" lon="-0.316850">
        <ele>1776.9</ele>
        <time>2025-06-30T09:16:09.447Z</time>
      </trkpt>
      <trkpt lat="42.960122" lon="-0.316662">
        <ele>1770.9</ele>
        <time>2025-06-30T09:17:08.248Z</time>
      </trkpt>
      <trkpt lat="42.960375" lon="-0.316541">
        <ele>1765.3</ele>
        <time>2025-06-30T09:18:07.645Z</time>
      </trkpt>
      <trkpt lat="42.960619" lon="-0.316543">
        <ele>1759.1</ele>
        <time>2025-06-30T09:19:07.882Z</time>
      </trkpt>
      <trkpt lat="42.960797" lon="-0.316324">
        <ele>1749.3</ele>
        <time>2025-06-30T09:20:31.570Z</time>
      </trkpt>
      <trkpt lat="42.960963" lon="-0.316061">
        <ele>1739.6</ele>
        <time>2025-06-30T09:21:54.642Z</time>
      </trkpt>
      <trkpt lat="42.961251" lon="-0.315827">
        <ele>1729.2</ele>
        <time>2025-06-30T09:23:29.362Z</time>
      </trkpt>
      <trkpt lat="42.961481" lon="-0.315705">
        <ele>1723.1</ele>
        <time>2025-06-30T09:24:29.726Z</time>
      </trkpt>
      <trkpt lat="42.961827" lon="-0.315551">
        <ele>1720.6</ele>
        <time>2025-06-30T09:25:21.728Z</time>
      </trkpt>
      <trkpt lat="42.961958" lon="-0.315289">
        <ele>1711.1</ele>
        <time>2025-06-30T09:26:42.079Z</time>
      </trkpt>
      <trkpt lat="42.962193" lon="-0.314968">
        <ele>1698.1</ele>
        <time>2025-06-30T09:28:33.103Z</time>
      </trkpt>
      <trkpt lat="42.962387" lon="-0.314836">
        <ele>1691.2</ele>
        <time>2025-06-30T09:29:35.801Z</time>
      </trkpt>
      <trkpt lat="42.962523" lon="-0.314558">
        <ele>1683.6</ele>
        <time>2025-06-30T09:30:44.530Z</time>
      </trkpt>
      <trkpt lat="42.962807" lon="-0.314325">
        <ele>1675.8</ele>
        <time>2025-06-30T09:32:03.639Z</time>
      </trkpt>
      <trkpt lat="42.963031" lon="-0.314110">
        <ele>1669.3</ele>
        <time>2025-06-30T09:33:08.235Z</time>
      </trkpt>
      <trkpt lat="42.963190" lon="-0.313872">
        <ele>1663.9</ele>
        <time>2025-06-30T09:34:03.431Z</time>
      </trkpt>
      <trkpt lat="42.963404" lon="-0.313784">
        <ele>1659.7</ele>
        <time>2025-06-30T09:34:50.804Z</time>
      </trkpt>
      <trkpt lat="42.963602" lon="-0.313623">
        <ele>1656.8</ele>
        <time>2025-06-30T09:35:32.183Z</time>
      </trkpt>
      <trkpt lat="42.963650" lon="-0.313300">
        <ele>1646.0</ele>
        <time>2025-06-30T09:37:02.504Z</time>
      </trkpt>
      <trkpt lat="42.963785" lon="-0.312949">
        <ele>1629.9</ele>
        <time>2025-06-30T09:39:06.683Z</time>
      </trkpt>
      <trkpt lat="42.963954" lon="-0.312735">
        <ele>1615.8</ele>
        <time>2025-06-30T09:40:53.910Z</time>
      </trkpt>
      <trkpt lat="42.964119" lon="-0.312448">
        <ele>1599.5</ele>
        <time>2025-06-30T09:42:58.745Z</time>
      </trkpt>
      <trkpt lat="42.964276" lon="-0.312232">
        <ele>1588.6</ele>
        <time>2025-06-30T09:44:25.460Z</time>
      </trkpt>
      <trkpt lat="42.964416" lon="-0.311931">
        <ele>1575.9</ele>
        <time>2025-06-30T09:46:07.026Z</time>
      </trkpt>
      <trkpt lat="42.964461" lon="-0.311501">
        <ele>1564.6</ele>
        <time>2025-06-30T09:47:45.171Z</time>
      </trkpt>
      <trkpt lat="42.964435" lon="-0.311189">
        <ele>1556.4</ele>
        <time>2025-06-30T09:48:57.051Z</time>
      </trkpt>
      <trkpt lat="42.964486" lon="-0.310834">
        <ele>1549.7</ele>
        <time>2025-06-30T09:50:02.521Z</time>
      </trkpt>
      <trkpt lat="42.964474" lon="-0.310370">
        <ele>1540.8</ele>
        <time>2025-06-30T09:51:28.306Z</time>
      </trkpt>
      <trkpt lat="42.964425" lon="-0.309967">
        <ele>1532.1</ele>
        <time>2025-06-30T09:52:49.552Z</time>
      </trkpt>
      <trkpt lat="42.964332" lon="-0.309671">
        <ele>1525.0</ele>
        <time>2025-06-30T09:53:55.201Z</time>
      </trkpt>
      <trkpt lat="42.964317" lon="-0.309381">
        <ele>1518.3</ele>
        <time>2025-06-30T09:54:57.101Z</time>
      </trkpt>
      <trkpt lat="42.964252" lon="-0.309023">
        <ele>1509.1</ele>
        <time>2025-06-30T09:56:18.550Z</time>
      </trkpt>
      <trkpt lat="42.964183" lon="-0.308700">
        <ele>1500.0</ele>
        <time>2025-06-30T09:57:37.037Z</time>
      </trkpt>
      <trkpt lat="42.964188" lon="-0.308367">
        <ele>1491.7</ele>
        <time>2025-06-30T09:58:51.306Z</time>
      </trkpt>
      <trkpt lat="42.964196" lon="-0.307946">
        <ele>1482.0</ele>
        <time>2025-06-30T10:00:18.560Z</time>
      </trkpt>
      <trkpt lat="42.964171" lon="-0.307607">
        <ele>1475.7</ele>
        <time>2025-06-30T10:01:21.079Z</time>
      </trkpt>
      <trkpt lat="42.964097" lon="-0.307277">
        <ele>1469.1</ele>
        <time>2025-06-30T10:02:25.761Z</time>
      </trkpt>
      <trkpt lat="42.964098" lon="-0.306921">
        <ele>1462.8</ele>
        <time>2025-06-30T10:03:28.765Z</time>
      </trkpt>
      <trkpt lat="42.964238" lon="-0.306586">
        <ele>1456.1</ele>
        <time>2025-06-30T10:04:36.380Z</time>
      </trkpt>
      <trkpt lat="42.964269" lon="-0.306202">
        <ele>1451.1</ele>
        <time>2025-06-30T10:05:33.824Z</time>
      </trkpt>
      <trkpt lat="42.964153" lon="-0.305779">
        <ele>1445.5</ele>
        <time>2025-06-30T10:06:40.220Z</time>
      </trkpt>
      <trkpt lat="42.964044" lon="-0.305419">
        <ele>1441.1</ele>
        <time>2025-06-30T10:07:33.623Z</time>
      </trkpt>
      <trkpt lat="42.964021" lon="-0.305041">
        <ele>1436.9</ele>
        <time>2025-06-30T10:08:25.613Z</time>
      </trkpt>
      <trkpt lat="42.964067" lon="-0.304733">
        <ele>1433.4</ele>
        <time>2025-06-30T10:09:08.810Z</time>
      </trkpt>
      <trkpt lat="42.964244" lon="-0.304396">
        <ele>1429.1</ele>
        <time>2025-06-30T10:10:03.598Z</time>
      </trkpt>
      <trkpt lat="42.964320" lon="-0.304086">
        <ele>1425.9</ele>
        <time>2025-06-30T10:10:46.017Z</time>
      </trkpt>
      <trkpt lat="42.964358" lon="-0.303762">
        <ele>1421.1</ele>
        <time>2025-06-30T10:11:39.025Z</time>
      </trkpt>
      <trkpt lat="42.964264" lon="-0.303396">
        <ele>1415.7</ele>
        <time>2025-06-30T10:12:38.275Z</time>
      </trkpt>
      <trkpt lat="42.964047" lon="-0.303188">
        <ele>1403.7</ele>
        <time>2025-06-30T10:14:18.678Z</time>
      </trkpt>
      <trkpt lat="42.963867" lon="-0.302909">
        <ele>1393.4</ele>
        <time>2025-06-30T10:15:47.973Z</time>
      </trkpt>
      <trkpt lat="42.963824" lon="-0.302561">
        <ele>1387.6</ele>
        <time>2025-06-30T10:16:49.376Z</time>
      </trkpt>
      <trkpt lat="42.963757" lon="-0.302239">
        <ele>1376.3</ele>
        <time>2025-06-30T10:18:21.015Z</time>
      </trkpt>
      <trkpt lat="42.963704" lon="-0.301932">
        <ele>1359.7</ele>
        <time>2025-06-30T10:20:22.867Z</time>
      </trkpt>
      <trkpt lat="42.963552" lon="-0.301493">
        <ele>1352.6</ele>
        <time>2025-06-30T10:21:39.916Z</time>
      </trkpt>
      <trkpt lat="42.963403" lon="-0.301156">
        <ele>1350.2</ele>
        <time>2025-06-30T10:22:21.684Z</time>
      </trkpt>
      <trkpt lat="42.963373" lon="-0.300750">
        <ele>1342.1</ele>
        <time>2025-06-30T10:23:39.010Z</time>
      </trkpt>
      <trkpt lat="42.963406" lon="-0.300192">
        <ele>1330.9</ele>
        <time>2025-06-30T10:25:25.871Z</time>
      </trkpt>
      <trkpt lat="42.963318" lon="-0.299798">
        <ele>1324.3</ele>
        <time>2025-06-30T10:26:34.332Z</time>
      </trkpt>
      <trkpt lat="42.963198" lon="-0.299449">
        <ele>1319.9</ele>
        <time>2025-06-30T10:27:27.701Z</time>
      </trkpt>
      <trkpt lat="42.963060" lon="-0.299038">
        <ele>1312.8</ele>
        <time>2025-06-30T10:28:42.755Z</time>
      </trkpt>
      <trkpt lat="42.963098" lon="-0.298712">
        <ele>1307.0</ele>
        <time>2025-06-30T10:29:40.967Z</time>
      </trkpt>
      <trkpt lat="42.963044" lon="-0.298395">
        <ele>1303.3</ele>
        <time>2025-06-30T10:30:26.097Z</time>
      </trkpt>
      <trkpt lat="42.962918" lon="-0.298105">
        <ele>1299.5</ele>
        <time>2025-06-30T10:31:12.356Z</time>
      </trkpt>
      <trkpt lat="42.962734" lon="-0.297709">
        <ele>1296.4</ele>
        <time>2025-06-30T10:32:03.880Z</time>
      </trkpt>
      <trkpt lat="42.962398" lon="-0.297483">
        <ele>1293.0</ele>
        <time>2025-06-30T10:33:00.205Z</time>
      </trkpt>
      <trkpt lat="42.962169" lon="-0.297266">
        <ele>1284.0</ele>
        <time>2025-06-30T10:34:20.266Z</time>
      </trkpt>
      <trkpt lat="42.962032" lon="-0.296920">
        <ele>1274.6</ele>
        <time>2025-06-30T10:35:44.981Z</time>
      </trkpt>
      <trkpt lat="42.961931" lon="-0.296646">
        <ele>1265.9</ele>
        <time>2025-06-30T10:36:58.573Z</time>
      </trkpt>
      <trkpt lat="42.961928" lon="-0.296363">
        <ele>1256.9</ele>
        <time>2025-06-30T10:38:14.546Z</time>
      </trkpt>
      <trkpt lat="42.961797" lon="-0.295890">
        <ele>1245.4</ele>
        <time>2025-06-30T10:40:01.274Z</time>
      </trkpt>
      <trkpt lat="42.961787" lon="-0.295580">
        <ele>1238.0</ele>
        <time>2025-06-30T10:41:07.143Z</time>
      </trkpt>
      <trkpt lat="42.961828" lon="-0.295198">
        <ele>1227.9</ele>
        <time>2025-06-30T10:42:34.992Z</time>
      </trkpt>
      <trkpt lat="42.961931" lon="-0.294881">
        <ele>1219.9</ele>
        <time>2025-06-30T10:43:47.453Z</time>
      </trkpt>
      <trkpt lat="42.961873" lon="-0.294532">
        <ele>1212.9</ele>
        <time>2025-06-30T10:44:54.724Z</time>
      </trkpt>
      <trkpt lat="42.961711" lon="-0.294353">
        <ele>1206.9</ele>
        <time>2025-06-30T10:45:55.478Z</time>
      </trkpt>
      <trkpt lat="42.961722" lon="-0.293985">
        <ele>1201.3</ele>
        <time>2025-06-30T10:46:54.614Z</time>
      </trkpt>
      <trkpt lat="42.961683" lon="-0.293356">
        <ele>1188.7</ele>
        <time>2025-06-30T10:48:54.081Z</time>
      </trkpt>
      <trkpt lat="42.961593" lon="-0.292980">
        <ele>1182.1</ele>
        <time>2025-06-30T10:50:02.033Z</time>
      </trkpt>
      <trkpt lat="42.961392" lon="-0.292833">
        <ele>1178.9</ele>
        <time>2025-06-30T10:50:43.454Z</time>
      </trkpt>
      <trkpt lat="42.961099" lon="-0.292785">
        <ele>1174.3</ele>
        <time>2025-06-30T10:51:38.909Z</time>
      </trkpt>
      <trkpt lat="42.960953" lon="-0.292385">
        <ele>1168.8</ele>
        <time>2025-06-30T10:52:44.573Z</time>
      </trkpt>
      <trkpt lat="42.960885" lon="-0.292036">
        <ele>1165.5</ele>
        <time>2025-06-30T10:53:29.951Z</time>
      </trkpt>
      <trkpt lat="42.960614" lon="-0.291708">
        <ele>1161.6</ele>
        <time>2025-06-30T10:54:27.871Z</time>
      </trkpt>
      <trkpt lat="42.960510" lon="-0.291322">
        <ele>1158.8</ele>
        <time>2025-06-30T10:55:15.365Z</time>
      </trkpt>
      <trkpt lat="42.960427" lon="-0.291026">
        <ele>1155.9</ele>
        <time>2025-06-30T10:55:54.936Z</time>
      </trkpt>
      <trkpt lat="42.960241" lon="-0.290790">
        <ele>1152.7</ele>
        <time>2025-06-30T10:56:38.030Z</time>
      </trkpt>
      <trkpt lat="42.960122" lon="-0.290480">
        <ele>1152.7</ele>
        <time>2025-06-30T10:57:03.720Z</time>
      </trkpt>
      <trkpt lat="42.959998" lon="-0.290158">
        <ele>1152.7</ele>
        <time>2025-06-30T10:57:29.085Z</time>
      </trkpt>
      <trkpt lat="42.959830" lon="-0.289674">
        <ele>1156.3</ele>
        <time>2025-06-30T10:58:43.812Z</time>
      </trkpt>
      <trkpt lat="42.959672" lon="-0.289232">
        <ele>1159.7</ele>
        <time>2025-06-30T10:59:52.335Z</time>
      </trkpt>
      <trkpt lat="42.959607" lon="-0.288818">
        <ele>1158.9</ele>
        <time>2025-06-30T11:00:26.837Z</time>
      </trkpt>
      <trkpt lat="42.959933" lon="-0.288551">
        <ele>1154.1</ele>
        <time>2025-06-30T11:01:33.736Z</time>
      </trkpt>
      <trkpt lat="42.960317" lon="-0.288276">
        <ele>1145.1</ele>
        <time>2025-06-30T11:03:09.155Z</time>
      </trkpt>
      <trkpt lat="42.960541" lon="-0.288115">
        <ele>1143.5</ele>
        <time>2025-06-30T11:03:42.891Z</time>
      </trkpt>
      <trkpt lat="42.960745" lon="-0.287955">
        <ele>1142.0</ele>
        <time>2025-06-30T11:04:14.222Z</time>
      </trkpt>
      <trkpt lat="42.960943" lon="-0.287786">
        <ele>1142.9</ele>
        <time>2025-06-30T11:04:45.769Z</time>
      </trkpt>
      <trkpt lat="42.961131" lon="-0.287607">
        <ele>1143.8</ele>
        <time>2025-06-30T11:05:16.646Z</time>
      </trkpt>
      <trkpt lat="42.960877" lon="-0.287068">
        <ele>1151.4</ele>
        <time>2025-06-30T11:07:19.314Z</time>
      </trkpt>
      <trkpt lat="42.960642" lon="-0.286981">
        <ele>1154.2</ele>
        <time>2025-06-30T11:08:11.933Z</time>
      </trkpt>
      <trkpt lat="42.960363" lon="-0.286838">
        <ele>1157.8</ele>
        <time>2025-06-30T11:09:17.065Z</time>
      </trkpt>
      <trkpt lat="42.960070" lon="-0.286619">
        <ele>1162.9</ele>
        <time>2025-06-30T11:10:42.446Z</time>
      </trkpt>
      <trkpt lat="42.959943" lon="-0.286297">
        <ele>1167.9</ele>
        <time>2025-06-30T11:12:03.739Z</time>
      </trkpt>
      <trkpt lat="42.959646" lon="-0.285900">
        <ele>1175.0</ele>
        <time>2025-06-30T11:13:56.795Z</time>
      </trkpt>
      <trkpt lat="42.959375" lon="-0.285577">
        <ele>1182.7</ele>
        <time>2025-06-30T11:15:49.993Z</time>
      </trkpt>
      <trkpt lat="42.959155" lon="-0.285272">
        <ele>1189.8</ele>
        <time>2025-06-30T11:17:33.496Z</time>
      </trkpt>
      <trkpt lat="42.959083" lon="-0.284973">
        <ele>1195.9</ele>
        <time>2025-06-30T11:18:58.067Z</time>
      </trkpt>
      <trkpt lat="42.958979" lon="-0.284609">
        <ele>1203.6</ele>
        <time>2025-06-30T11:20:46.634Z</time>
      </trkpt>
      <trkpt lat="42.958762" lon="-0.284399">
        <ele>1212.9</ele>
        <time>2025-06-30T11:22:48.517Z</time>
      </trkpt>
      <trkpt lat="42.958599" lon="-0.284101">
        <ele>1222.2</ele>
        <time>2025-06-30T11:24:51.632Z</time>
      </trkpt>
      <trkpt lat="42.958517" lon="-0.283808">
        <ele>1231.1</ele>
        <time>2025-06-30T11:26:45.427Z</time>
      </trkpt>
      <trkpt lat="42.958397" lon="-0.283504">
        <ele>1240.8</ele>
        <time>2025-06-30T11:28:49.905Z</time>
      </trkpt>
      <trkpt lat="42.958158" lon="-0.283293">
        <ele>1251.6</ele>
        <time>2025-06-30T11:31:07.393Z</time>
      </trkpt>
      <trkpt lat="42.958021" lon="-0.283043">
        <ele>1259.9</ele>
        <time>2025-06-30T11:32:55.376Z</time>
      </trkpt>
      <trkpt lat="42.957977" lon="-0.282708">
        <ele>1266.9</ele>
        <time>2025-06-30T11:34:30.969Z</time>
      </trkpt>
      <trkpt lat="42.957722" lon="-0.282611">
        <ele>1272.8</ele>
        <time>2025-06-30T11:35:59.252Z</time>
      </trkpt>
      <trkpt lat="42.957807" lon="-0.282390">
        <ele>1275.9</ele>
        <time>2025-06-30T11:36:53.737Z</time>
      </trkpt>
      <trkpt lat="42.957583" lon="-0.282318">
        <ele>1280.7</ele>
        <time>2025-06-30T11:38:04.879Z</time>
      </trkpt>
      <trkpt lat="42.957442" lon="-0.281808">
        <ele>1290.9</ele>
        <time>2025-06-30T11:40:28.267Z</time>
      </trkpt>
      <trkpt lat="42.957315" lon="-0.281517">
        <ele>1296.4</ele>
        <time>2025-06-30T11:41:48.776Z</time>
      </trkpt>
      <trkpt lat="42.957299" lon="-0.281148">
        <ele>1302.5</ele>
        <time>2025-06-30T11:43:16.834Z</time>
      </trkpt>
      <trkpt lat="42.957232" lon="-0.280800">
        <ele>1307.7</ele>
        <time>2025-06-30T11:44:35.603Z</time>
      </trkpt>
      <trkpt lat="42.956983" lon="-0.280790">
        <ele>1312.6</ele>
        <time>2025-06-30T11:45:50.164Z</time>
      </trkpt>
      <trkpt lat="42.956770" lon="-0.280988">
        <ele>1313.4</ele>
        <time>2025-06-30T11:46:23.234Z</time>
      </trkpt>
      <trkpt lat="42.956446" lon="-0.280938">
        <ele>1318.0</ele>
        <time>2025-06-30T11:47:42.876Z</time>
      </trkpt>
      <trkpt lat="42.956208" lon="-0.280728">
        <ele>1326.1</ele>
        <time>2025-06-30T11:49:33.175Z</time>
      </trkpt>
      <trkpt lat="42.955959" lon="-0.280745">
        <ele>1331.3</ele>
        <time>2025-06-30T11:50:50.229Z</time>
      </trkpt>
      <trkpt lat="42.955974" lon="-0.280499">
        <ele>1335.3</ele>
        <time>2025-06-30T11:51:57.179Z</time>
      </trkpt>
      <trkpt lat="42.956212" lon="-0.280471">
        <ele>1334.8</ele>
        <time>2025-06-30T11:52:24.881Z</time>
      </trkpt>
      <trkpt lat="42.956424" lon="-0.280356">
        <ele>1332.2</ele>
        <time>2025-06-30T11:53:04.739Z</time>
      </trkpt>
      <trkpt lat="42.956446" lon="-0.280009">
        <ele>1335.0</ele>
        <time>2025-06-30T11:53:58.925Z</time>
      </trkpt>
      <trkpt lat="42.956300" lon="-0.279802">
        <ele>1341.8</ele>
        <time>2025-06-30T11:55:38.885Z</time>
      </trkpt>
      <trkpt lat="42.956209" lon="-0.280096">
        <ele>1344.9</ele>
        <time>2025-06-30T11:56:35.094Z</time>
      </trkpt>
      <trkpt lat="42.955947" lon="-0.279855">
        <ele>1349.4</ele>
        <time>2025-06-30T11:57:53.609Z</time>
      </trkpt>
      <trkpt lat="42.955733" lon="-0.279825">
        <ele>1350.8</ele>
        <time>2025-06-30T11:58:30.087Z</time>
      </trkpt>
      <trkpt lat="42.955947" lon="-0.279625">
        <ele>1352.6</ele>
        <time>2025-06-30T11:59:15.713Z</time>
      </trkpt>
      <trkpt lat="42.955986" lon="-0.279160">
        <ele>1360.1</ele>
        <time>2025-06-30T12:01:08.480Z</time>
      </trkpt>
      <trkpt lat="42.955901" lon="-0.278706">
        <ele>1366.9</ele>
        <time>2025-06-30T12:02:51.437Z</time>
      </trkpt>
      <trkpt lat="42.955857" lon="-0.278389">
        <ele>1371.9</ele>
        <time>2025-06-30T12:04:06.568Z</time>
      </trkpt>
      <trkpt lat="42.955750" lon="-0.278808">
        <ele>1374.3</ele>
        <time>2025-06-30T12:05:04.686Z</time>
      </trkpt>
      <trkpt lat="42.955548" lon="-0.278911">
        <ele>1374.5</ele>
        <time>2025-06-30T12:05:30.596Z</time>
      </trkpt>
      <trkpt lat="42.955470" lon="-0.278380">
        <ele>1382.8</ele>
        <time>2025-06-30T12:07:35.840Z</time>
      </trkpt>
      <trkpt lat="42.955415" lon="-0.278039">
        <ele>1388.0</ele>
        <time>2025-06-30T12:08:54.646Z</time>
      </trkpt>
      <trkpt lat="42.955355" lon="-0.277740">
        <ele>1392.5</ele>
        <time>2025-06-30T12:10:02.254Z</time>
      </trkpt>
      <trkpt lat="42.955318" lon="-0.277417">
        <ele>1395.7</ele>
        <time>2025-06-30T12:10:58.474Z</time>
      </trkpt>
      <trkpt lat="42.955437" lon="-0.277157">
        <ele>1397.1</ele>
        <time>2025-06-30T12:11:33.928Z</time>
      </trkpt>
      <trkpt lat="42.955746" lon="-0.276845">
        <ele>1402.1</ele>
        <time>2025-06-30T12:13:02.062Z</time>
      </trkpt>
      <trkpt lat="42.955663" lon="-0.276544">
        <ele>1406.9</ele>
        <time>2025-06-30T12:14:14.522Z</time>
      </trkpt>
      <trkpt lat="42.955576" lon="-0.276133">
        <ele>1413.1</ele>
        <time>2025-06-30T12:15:48.281Z</time>
      </trkpt>
      <trkpt lat="42.955785" lon="-0.275938">
        <ele>1417.2</ele>
        <time>2025-06-30T12:16:54.696Z</time>
      </trkpt>
      <trkpt lat="42.955667" lon="-0.275615">
        <ele>1422.2</ele>
        <time>2025-06-30T12:18:11.958Z</time>
      </trkpt>
      <trkpt lat="42.955610" lon="-0.275249">
        <ele>1428.3</ele>
        <time>2025-06-30T12:19:42.718Z</time>
      </trkpt>
      <trkpt lat="42.955417" lon="-0.274992">
        <ele>1434.3</ele>
        <time>2025-06-30T12:21:10.074Z</time>
      </trkpt>
      <trkpt lat="42.955462" lon="-0.274592">
        <ele>1440.9</ele>
        <time>2025-06-30T12:22:47.102Z</time>
      </trkpt>
      <trkpt lat="42.955551" lon="-0.274242">
        <ele>1450.0</ele>
        <time>2025-06-30T12:24:46.869Z</time>
      </trkpt>
      <trkpt lat="42.955467" lon="-0.273767">
        <ele>1461.5</ele>
        <time>2025-06-30T12:27:20.197Z</time>
      </trkpt>
      <trkpt lat="42.955326" lon="-0.273413">
        <ele>1470.0</ele>
        <time>2025-06-30T12:29:15.816Z</time>
      </trkpt>
      <trkpt lat="42.955243" lon="-0.273094">
        <ele>1477.2</ele>
        <time>2025-06-30T12:30:53.240Z</time>
      </trkpt>
      <trkpt lat="42.955132" lon="-0.272820">
        <ele>1484.3</ele>
        <time>2025-06-30T12:32:29.014Z</time>
      </trkpt>
      <trkpt lat="42.955055" lon="-0.272451">
        <ele>1492.6</ele>
        <time>2025-06-30T12:34:21.755Z</time>
      </trkpt>
      <trkpt lat="42.955022" lon="-0.272062">
        <ele>1504.0</ele>
        <time>2025-06-30T12:36:48.079Z</time>
      </trkpt>
      <trkpt lat="42.954976" lon="-0.271691">
        <ele>1514.4</ele>
        <time>2025-06-30T12:39:01.890Z</time>
      </trkpt>
      <trkpt lat="42.954811" lon="-0.271466">
        <ele>1518.1</ele>
        <time>2025-06-30T12:40:03.683Z</time>
      </trkpt>
      <trkpt lat="42.954819" lon="-0.271220">
        <ele>1521.7</ele>
        <time>2025-06-30T12:41:04.106Z</time>
      </trkpt>
      <trkpt lat="42.954708" lon="-0.270897">
        <ele>1521.9</ele>
        <time>2025-06-30T12:41:34.386Z</time>
      </trkpt>
      <trkpt lat="42.954884" lon="-0.270517">
        <ele>1520.9</ele>
        <time>2025-06-30T12:42:11.488Z</time>
      </trkpt>
      <trkpt lat="42.954953" lon="-0.270207">
        <ele>1518.9</ele>
        <time>2025-06-30T12:42:46.636Z</time>
      </trkpt>
      <trkpt lat="42.954963" lon="-0.269787">
        <ele>1513.2</ele>
        <time>2025-06-30T12:43:51.672Z</time>
      </trkpt>
      <trkpt lat="42.954988" lon="-0.269412">
        <ele>1507.0</ele>
        <time>2025-06-30T12:44:55.481Z</time>
      </trkpt>
      <trkpt lat="42.954975" lon="-0.269023">
        <ele>1501.9</ele>
        <time>2025-06-30T12:45:53.549Z</time>
      </trkpt>
      <trkpt lat="42.955099" lon="-0.268583">
        <ele>1496.4</ele>
        <time>2025-06-30T12:47:00.238Z</time>
      </trkpt>
      <trkpt lat="42.955073" lon="-0.268110">
        <ele>1492.0</ele>
        <time>2025-06-30T12:48:00.361Z</time>
      </trkpt>
      <trkpt lat="42.955071" lon="-0.267588">
        <ele>1488.4</ele>
        <time>2025-06-30T12:49:00.083Z</time>
      </trkpt>
      <trkpt lat="42.955015" lon="-0.267200">
        <ele>1485.3</ele>
        <time>2025-06-30T12:49:46.274Z</time>
      </trkpt>
      <trkpt lat="42.955023" lon="-0.266761">
        <ele>1481.4</ele>
        <time>2025-06-30T12:50:42.261Z</time>
      </trkpt>
      <trkpt lat="42.955016" lon="-0.266331">
        <ele>1476.7</ele>
        <time>2025-06-30T12:51:41.109Z</time>
      </trkpt>
      <trkpt lat="42.955096" lon="-0.265986">
        <ele>1473.6</ele>
        <time>2025-06-30T12:52:25.576Z</time>
      </trkpt>
      <trkpt lat="42.955123" lon="-0.265556">
        <ele>1470.9</ele>
        <time>2025-06-30T12:53:12.082Z</time>
      </trkpt>
      <trkpt lat="42.955174" lon="-0.265168">
        <ele>1469.9</ele>
        <time>2025-06-30T12:53:45.536Z</time>
      </trkpt>
      <trkpt lat="42.955093" lon="-0.264933">
        <ele>1470.1</ele>
        <time>2025-06-30T12:54:10.346Z</time>
      </trkpt>
      <trkpt lat="42.954919" lon="-0.264695">
        <ele>1470.3</ele>
        <time>2025-06-30T12:54:35.738Z</time>
      </trkpt>
      <trkpt lat="42.954757" lon="-0.264032">
        <ele>1474.8</ele>
        <time>2025-06-30T12:56:11.070Z</time>
      </trkpt>
      <trkpt lat="42.954735" lon="-0.263619">
        <ele>1479.0</ele>
        <time>2025-06-30T12:57:24.294Z</time>
      </trkpt>
      <trkpt lat="42.954766" lon="-0.263253">
        <ele>1482.7</ele>
        <time>2025-06-30T12:58:28.517Z</time>
      </trkpt>
      <trkpt lat="42.954960" lon="-0.262943">
        <ele>1477.2</ele>
        <time>2025-06-30T12:59:30.373Z</time>
      </trkpt>
      <trkpt lat="42.955257" lon="-0.262585">
        <ele>1469.9</ele>
        <time>2025-06-30T13:00:53.396Z</time>
      </trkpt>
      <trkpt lat="42.955413" lon="-0.261952">
        <ele>1462.4</ele>
        <time>2025-06-30T13:02:24.970Z</time>
      </trkpt>
      <trkpt lat="42.955374" lon="-0.261681">
        <ele>1460.8</ele>
        <time>2025-06-30T13:02:56.517Z</time>
      </trkpt>
      <trkpt lat="42.955393" lon="-0.261195">
        <ele>1458.0</ele>
        <time>2025-06-30T13:03:47.857Z</time>
      </trkpt>
      <trkpt lat="42.955438" lon="-0.260662">
        <ele>1453.7</ele>
        <time>2025-06-30T13:04:51.216Z</time>
      </trkpt>
      <trkpt lat="42.955411" lon="-0.260322">
        <ele>1454.9</ele>
        <time>2025-06-30T13:05:27.801Z</time>
      </trkpt>
      <trkpt lat="42.955234" lon="-0.259946">
        <ele>1457.9</ele>
        <time>2025-06-30T13:06:30.704Z</time>
      </trkpt>
      <trkpt lat="42.955268" lon="-0.259507">
        <ele>1451.0</ele>
        <time>2025-06-30T13:07:42.941Z</time>
      </trkpt>
      <trkpt lat="42.955394" lon="-0.259176">
        <ele>1445.1</ele>
        <time>2025-06-30T13:08:44.173Z</time>
      </trkpt>
      <trkpt lat="42.955338" lon="-0.258672">
        <ele>1445.2</ele>
        <time>2025-06-30T13:09:22.325Z</time>
      </trkpt>
      <trkpt lat="42.955190" lon="-0.258425">
        <ele>1445.3</ele>
        <time>2025-06-30T13:09:45.209Z</time>
      </trkpt>
      <trkpt lat="42.955098" lon="-0.257738">
        <ele>1439.2</ele>
        <time>2025-06-30T13:11:11.225Z</time>
      </trkpt>
      <trkpt lat="42.955041" lon="-0.257136">
        <ele>1434.5</ele>
        <time>2025-06-30T13:12:21.525Z</time>
      </trkpt>
      <trkpt lat="42.954847" lon="-0.256654">
        <ele>1433.1</ele>
        <time>2025-06-30T13:13:08.834Z</time>
      </trkpt>
      <trkpt lat="42.954653" lon="-0.256196">
        <ele>1434.0</ele>
        <time>2025-06-30T13:13:55.021Z</time>
      </trkpt>
      <trkpt lat="42.954547" lon="-0.255916">
        <ele>1431.4</ele>
        <time>2025-06-30T13:14:33.679Z</time>
      </trkpt>
      <trkpt lat="42.954534" lon="-0.255583">
        <ele>1428.6</ele>
        <time>2025-06-30T13:15:14.483Z</time>
      </trkpt>
      <trkpt lat="42.954463" lon="-0.255084">
        <ele>1419.7</ele>
        <time>2025-06-30T13:16:45.153Z</time>
      </trkpt>
      <trkpt lat="42.954424" lon="-0.254337">
        <ele>1407.0</ele>
        <time>2025-06-30T13:18:53.630Z</time>
      </trkpt>
      <trkpt lat="42.954357" lon="-0.253936">
        <ele>1400.5</ele>
        <time>2025-06-30T13:20:01.035Z</time>
      </trkpt>
      <trkpt lat="42.954373" lon="-0.253058">
        <ele>1386.7</ele>
        <time>2025-06-30T13:22:25.029Z</time>
      </trkpt>
      <trkpt lat="42.954547" lon="-0.252629">
        <ele>1382.0</ele>
        <time>2025-06-30T13:23:28.382Z</time>
      </trkpt>
      <trkpt lat="42.954847" lon="-0.252278">
        <ele>1376.8</ele>
        <time>2025-06-30T13:24:37.021Z</time>
      </trkpt>
      <trkpt lat="42.954991" lon="-0.252016">
        <ele>1370.7</ele>
        <time>2025-06-30T13:25:36.330Z</time>
      </trkpt>
      <trkpt lat="42.955075" lon="-0.251658">
        <ele>1363.7</ele>
        <time>2025-06-30T13:26:44.577Z</time>
      </trkpt>
      <trkpt lat="42.955051" lon="-0.251168">
        <ele>1355.0</ele>
        <time>2025-06-30T13:28:11.070Z</time>
      </trkpt>
      <trkpt lat="42.955275" lon="-0.250744">
        <ele>1345.6</ele>
        <time>2025-06-30T13:29:44.226Z</time>
      </trkpt>
      <trkpt lat="42.955313" lon="-0.250276">
        <ele>1338.1</ele>
        <time>2025-06-30T13:31:02.880Z</time>
      </trkpt>
      <trkpt lat="42.955352" lon="-0.249965">
        <ele>1333.3</ele>
        <time>2025-06-30T13:31:54.048Z</time>
      </trkpt>
      <trkpt lat="42.955453" lon="-0.249530">
        <ele>1329.1</ele>
        <time>2025-06-30T13:32:50.933Z</time>
      </trkpt>
      <trkpt lat="42.955627" lon="-0.248960">
        <ele>1323.4</ele>
        <time>2025-06-30T13:34:08.026Z</time>
      </trkpt>
      <trkpt lat="42.955751" lon="-0.248409">
        <ele>1315.6</ele>
        <time>2025-06-30T13:35:35.241Z</time>
      </trkpt>
      <trkpt lat="42.955851" lon="-0.248068">
        <ele>1309.9</ele>
        <time>2025-06-30T13:36:35.487Z</time>
      </trkpt>
      <trkpt lat="42.956124" lon="-0.247504">
        <ele>1297.7</ele>
        <time>2025-06-30T13:38:36.362Z</time>
      </trkpt>
      <trkpt lat="42.955873" lon="-0.247726">
        <ele>1299.0</ele>
        <time>2025-06-30T13:39:18.808Z</time>
      </trkpt>
      <trkpt lat="42.955444" lon="-0.247810">
        <ele>1294.9</ele>
        <time>2025-06-30T13:40:24.756Z</time>
      </trkpt>
      <trkpt lat="42.955272" lon="-0.247818">
        <ele>1290.3</ele>
        <time>2025-06-30T13:41:13.833Z</time>
      </trkpt>
      <trkpt lat="42.955471" lon="-0.247530">
        <ele>1286.7</ele>
        <time>2025-06-30T13:42:03.888Z</time>
      </trkpt>
      <trkpt lat="42.955734" lon="-0.247221">
        <ele>1282.3</ele>
        <time>2025-06-30T13:43:04.307Z</time>
      </trkpt>
      <trkpt lat="42.955750" lon="-0.246846">
        <ele>1273.3</ele>
        <time>2025-06-30T13:44:24.372Z</time>
      </trkpt>
      <trkpt lat="42.955816" lon="-0.246536">
        <ele>1265.3</ele>
        <time>2025-06-30T13:45:36.787Z</time>
      </trkpt>
      <trkpt lat="42.955808" lon="-0.245921">
        <ele>1256.8</ele>
        <time>2025-06-30T13:47:12.013Z</time>
      </trkpt>
      <trkpt lat="42.955740" lon="-0.245251">
        <ele>1246.4</ele>
        <time>2025-06-30T13:49:01.683Z</time>
      </trkpt>
      <trkpt lat="42.955746" lon="-0.244936">
        <ele>1241.2</ele>
        <time>2025-06-30T13:49:54.887Z</time>
      </trkpt>
      <trkpt lat="42.955874" lon="-0.244498">
        <ele>1233.4</ele>
        <time>2025-06-30T13:51:14.408Z</time>
      </trkpt>
      <trkpt lat="42.956108" lon="-0.244048">
        <ele>1227.2</ele>
        <time>2025-06-30T13:52:30.424Z</time>
      </trkpt>
      <trkpt lat="42.956213" lon="-0.243760">
        <ele>1223.5</ele>
        <time>2025-06-30T13:53:14.621Z</time>
      </trkpt>
      <trkpt lat="42.956159" lon="-0.243212">
        <ele>1219.5</ele>
        <time>2025-06-30T13:54:17.189Z</time>
      </trkpt>
      <trkpt lat="42.956083" lon="-0.242833">
        <ele>1215.5</ele>
        <time>2025-06-30T13:55:09.056Z</time>
      </trkpt>
      <trkpt lat="42.956068" lon="-0.242509">
        <ele>1211.6</ele>
        <time>2025-06-30T13:55:55.556Z</time>
      </trkpt>
      <trkpt lat="42.956153" lon="-0.242045">
        <ele>1205.2</ele>
        <time>2025-06-30T13:57:07.253Z</time>
      </trkpt>
      <trkpt lat="42.956186" lon="-0.241681">
        <ele>1199.7</ele>
        <time>2025-06-30T13:58:05.948Z</time>
      </trkpt>
      <trkpt lat="42.956141" lon="-0.241106">
        <ele>1192.2</ele>
        <time>2025-06-30T13:59:31.045Z</time>
      </trkpt>
      <trkpt lat="42.956015" lon="-0.240448">
        <ele>1184.9</ele>
        <time>2025-06-30T14:01:02.800Z</time>
      </trkpt>
      <trkpt lat="42.955874" lon="-0.240151">
        <ele>1181.4</ele>
        <time>2025-06-30T14:01:48.083Z</time>
      </trkpt>
      <trkpt lat="42.955708" lon="-0.239792">
        <ele>1177.3</ele>
        <time>2025-06-30T14:02:42.430Z</time>
      </trkpt>
      <trkpt lat="42.955538" lon="-0.239331">
        <ele>1172.9</ele>
        <time>2025-06-30T14:03:45.032Z</time>
      </trkpt>
      <trkpt lat="42.955454" lon="-0.237720">
        <ele>1146.7</ele>
        <time>2025-06-30T14:08:16.033Z</time>
      </trkpt>
      <trkpt lat="42.955227" lon="-0.237816">
        <ele>1151.9</ele>
        <time>2025-06-30T14:09:44.136Z</time>
      </trkpt>
      <trkpt lat="42.955030" lon="-0.237751">
        <ele>1150.7</ele>
        <time>2025-06-30T14:10:13.939Z</time>
      </trkpt>
      <trkpt lat="42.955081" lon="-0.237479">
        <ele>1145.7</ele>
        <time>2025-06-30T14:11:06.124Z</time>
      </trkpt>
      <trkpt lat="42.955173" lon="-0.237181">
        <ele>1140.8</ele>
        <time>2025-06-30T14:12:00.177Z</time>
      </trkpt>
      <trkpt lat="42.954978" lon="-0.236759">
        <ele>1134.4</ele>
        <time>2025-06-30T14:13:13.499Z</time>
      </trkpt>
      <trkpt lat="42.954635" lon="-0.235001">
        <ele>1111.1</ele>
        <time>2025-06-30T14:17:40.769Z</time>
      </trkpt>
      <trkpt lat="42.954482" lon="-0.234470">
        <ele>1106.1</ele>
        <time>2025-06-30T14:18:51.085Z</time>
      </trkpt>
      <trkpt lat="42.954164" lon="-0.233881">
        <ele>1099.6</ele>
        <time>2025-06-30T14:20:20.664Z</time>
      </trkpt>
      <trkpt lat="42.954021" lon="-0.233610">
        <ele>1098.7</ele>
        <time>2025-06-30T14:20:49.582Z</time>
      </trkpt>
      <trkpt lat="42.953802" lon="-0.233132">
        <ele>1097.1</ele>
        <time>2025-06-30T14:21:38.552Z</time>
      </trkpt>
      <trkpt lat="42.953715" lon="-0.232761">
        <ele>1094.6</ele>
        <time>2025-06-30T14:22:20.730Z</time>
      </trkpt>
      <trkpt lat="42.953697" lon="-0.232401">
        <ele>1092.3</ele>
        <time>2025-06-30T14:22:59.757Z</time>
      </trkpt>
      <trkpt lat="42.953705" lon="-0.232002">
        <ele>1086.4</ele>
        <time>2025-06-30T14:24:03.303Z</time>
      </trkpt>
      <trkpt lat="42.953780" lon="-0.231352">
        <ele>1076.5</ele>
        <time>2025-06-30T14:25:48.232Z</time>
      </trkpt>
      <trkpt lat="42.953767" lon="-0.230856">
        <ele>1066.7</ele>
        <time>2025-06-30T14:27:21.508Z</time>
      </trkpt>
      <trkpt lat="42.953723" lon="-0.230453">
        <ele>1056.3</ele>
        <time>2025-06-30T14:28:53.721Z</time>
      </trkpt>
      <trkpt lat="42.953769" lon="-0.230072">
        <ele>1045.4</ele>
        <time>2025-06-30T14:30:26.814Z</time>
      </trkpt>
      <trkpt lat="42.953748" lon="-0.229704">
        <ele>1040.2</ele>
        <time>2025-06-30T14:31:23.631Z</time>
      </trkpt>
      <trkpt lat="42.953402" lon="-0.228870">
        <ele>1036.3</ele>
        <time>2025-06-30T14:32:54.836Z</time>
      </trkpt>
      <trkpt lat="42.953238" lon="-0.228520">
        <ele>1033.6</ele>
        <time>2025-06-30T14:33:40.258Z</time>
      </trkpt>
      <trkpt lat="42.952932" lon="-0.227945">
        <ele>1028.9</ele>
        <time>2025-06-30T14:34:57.911Z</time>
      </trkpt>
      <trkpt lat="42.952595" lon="-0.226873">
        <ele>1015.9</ele>
        <time>2025-06-30T14:37:37.158Z</time>
      </trkpt>
      <trkpt lat="42.952325" lon="-0.225935">
        <ele>1007.0</ele>
        <time>2025-06-30T14:39:41.094Z</time>
      </trkpt>
      <trkpt lat="42.952101" lon="-0.225261">
        <ele>1005.3</ele>
        <time>2025-06-30T14:40:43.290Z</time>
      </trkpt>
      <trkpt lat="42.951944" lon="-0.224781">
        <ele>1005.4</ele>
        <time>2025-06-30T14:41:20.911Z</time>
      </trkpt>
      <trkpt lat="42.951839" lon="-0.224468">
        <ele>1005.4</ele>
        <time>2025-06-30T14:41:45.578Z</time>
      </trkpt>
      <trkpt lat="42.951666" lon="-0.223948">
        <ele>1007.9</ele>
        <time>2025-06-30T14:42:50.969Z</time>
      </trkpt>
      <trkpt lat="42.951470" lon="-0.223476">
        <ele>1010.3</ele>
        <time>2025-06-30T14:43:53.099Z</time>
      </trkpt>
      <trkpt lat="42.951326" lon="-0.223080">
        <ele>1003.2</ele>
        <time>2025-06-30T14:45:07.316Z</time>
      </trkpt>
      <trkpt lat="42.951072" lon="-0.222516">
        <ele>992.8</ele>
        <time>2025-06-30T14:46:55.640Z</time>
      </trkpt>
      <trkpt lat="42.950388" lon="-0.220834">
        <ele>938.1</ele>
        <time>2025-06-30T14:54:38.565Z</time>
      </trkpt>
      <trkpt lat="42.950254" lon="-0.220497">
        <ele>933.2</ele>
        <time>2025-06-30T14:55:34.768Z</time>
      </trkpt>
      <trkpt lat="42.949798" lon="-0.219335">
        <ele>916.3</ele>
        <time>2025-06-30T14:58:48.201Z</time>
      </trkpt>
      <trkpt lat="42.949806" lon="-0.218954">
        <ele>914.2</ele>
        <time>2025-06-30T14:59:27.405Z</time>
      </trkpt>
      <trkpt lat="42.949711" lon="-0.218620">
        <ele>911.9</ele>
        <time>2025-06-30T15:00:09.990Z</time>
      </trkpt>
      <trkpt lat="42.949807" lon="-0.218230">
        <ele>909.7</ele>
        <time>2025-06-30T15:00:52.012Z</time>
      </trkpt>
      <trkpt lat="42.949950" lon="-0.217887">
        <ele>907.7</ele>
        <time>2025-06-30T15:01:31.706Z</time>
      </trkpt>
      <trkpt lat="42.950010" lon="-0.217480">
        <ele>905.7</ele>
        <time>2025-06-30T15:02:12.691Z</time>
      </trkpt>
      <trkpt lat="42.950207" lon="-0.217072">
        <ele>902.7</ele>
        <time>2025-06-30T15:03:04.951Z</time>
      </trkpt>
      <trkpt lat="42.950295" lon="-0.216831">
        <ele>900.0</ele>
        <time>2025-06-30T15:03:46.604Z</time>
      </trkpt>
      <trkpt lat="42.950141" lon="-0.216614">
        <ele>897.2</ele>
        <time>2025-06-30T15:04:25.724Z</time>
      </trkpt>
      <trkpt lat="42.950046" lon="-0.216264">
        <ele>894.1</ele>
        <time>2025-06-30T15:05:10.954Z</time>
      </trkpt>
      <trkpt lat="42.949958" lon="-0.216255">
        <ele>892.9</ele>
        <time>2025-06-30T15:05:45.586Z</time>
      </trkpt>
      <trkpt lat="42.949808" lon="-0.216024">
        <ele>892.2</ele>
        <time>2025-06-30T15:06:12.385Z</time>
      </trkpt>
      <trkpt lat="42.949833" lon="-0.215618">
        <ele>893.5</ele>
        <time>2025-06-30T15:06:54.395Z</time>
      </trkpt>
      <trkpt lat="42.949840" lon="-0.215215">
        <ele>896.7</ele>
        <time>2025-06-30T15:07:56.117Z</time>
      </trkpt>
      <trkpt lat="42.949989" lon="-0.214866">
        <ele>901.7</ele>
        <time>2025-06-30T15:09:16.806Z</time>
      </trkpt>
      <trkpt lat="42.950194" lon="-0.214551">
        <ele>906.1</ele>
        <time>2025-06-30T15:10:31.436Z</time>
      </trkpt>
      <trkpt lat="42.950403" lon="-0.214214">
        <ele>910.4</ele>
        <time>2025-06-30T15:11:46.784Z</time>
      </trkpt>
      <trkpt lat="42.950508" lon="-0.213834">
        <ele>914.1</ele>
        <time>2025-06-30T15:12:53.350Z</time>
      </trkpt>
      <trkpt lat="42.950517" lon="-0.213479">
        <ele>917.3</ele>
        <time>2025-06-30T15:13:50.931Z</time>
      </trkpt>
      <trkpt lat="42.950572" lon="-0.213079">
        <ele>921.3</ele>
        <time>2025-06-30T15:14:59.835Z</time>
      </trkpt>
      <trkpt lat="42.950540" lon="-0.212720">
        <ele>925.9</ele>
        <time>2025-06-30T15:16:12.559Z</time>
      </trkpt>
      <trkpt lat="42.950393" lon="-0.212321">
        <ele>933.5</ele>
        <time>2025-06-30T15:18:02.798Z</time>
      </trkpt>
      <trkpt lat="42.950376" lon="-0.211678">
        <ele>941.0</ele>
        <time>2025-06-30T15:20:04.274Z</time>
      </trkpt>
      <trkpt lat="42.950369" lon="-0.211220">
        <ele>944.3</ele>
        <time>2025-06-30T15:21:10.305Z</time>
      </trkpt>
      <trkpt lat="42.950391" lon="-0.210500">
        <ele>953.2</ele>
        <time>2025-06-30T15:23:31.874Z</time>
      </trkpt>
      <trkpt lat="42.950478" lon="-0.209889">
        <ele>965.0</ele>
        <time>2025-06-30T15:26:16.691Z</time>
      </trkpt>
      <trkpt lat="42.950629" lon="-0.209533">
        <ele>968.5</ele>
        <time>2025-06-30T15:27:21.336Z</time>
      </trkpt>
      <trkpt lat="42.950745" lon="-0.209222">
        <ele>971.4</ele>
        <time>2025-06-30T15:28:16.136Z</time>
      </trkpt>
      <trkpt lat="42.950835" lon="-0.208675">
        <ele>984.5</ele>
        <time>2025-06-30T15:31:09.501Z</time>
      </trkpt>
      <trkpt lat="42.950980" lon="-0.207956">
        <ele>1001.8</ele>
        <time>2025-06-30T15:34:59.968Z</time>
      </trkpt>
      <trkpt lat="42.951317" lon="-0.207450">
        <ele>995.1</ele>
        <time>2025-06-30T15:36:28.137Z</time>
      </trkpt>
      <trkpt lat="42.951461" lon="-0.207162">
        <ele>1004.6</ele>
        <time>2025-06-30T15:38:30.470Z</time>
      </trkpt>
    </trkseg>
  </trk>
</gpx>
