<?xml version="1.0" encoding="UTF-8"?>
<gpx version="1.1" creator="carnet-trek seed (OpenStreetMap, EU-DEM)" xmlns="http://www.topografix.com/GPX/1/1">
  <metadata>
    <name>GR10 – Refuge des Bouillouses → Planès</name>
    <copyright author="OpenStreetMap contributors"><license>https://opendatacommons.org/licenses/odbl/</license></copyright>
  </metadata>
  <wpt lat="42.560432" lon="1.998021">
    <name>Refuge des Bouillouses</name>
    <sym>Lodging</sym>
  </wpt>
  <wpt lat="42.560190" lon="2.003362">
    <name>Point culminant (2016 m)</name>
    <sym>Summit</sym>
  </wpt>
  <wpt lat="42.493719" lon="2.136239">
    <name>Planès</name>
    <sym>Convenience Store</sym>
  </wpt>
  <trk>
    <name>GR10 – Refuge des Bouillouses → Planès</name>
    <type>hike</type>
    <trkseg>
      <trkpt lat="42.560432" lon="1.998021">
        <ele>2015.7</ele>
        <time>2025-07-26T07:30:00.000Z</time>
      </trkpt>
      <trkpt lat="42.560174" lon="1.998246">
        <ele>2015.8</ele>
        <time>2025-07-26T07:30:30.272Z</time>
      </trkpt>
      <trkpt lat="42.560019" lon="1.998480">
        <ele>2015.7</ele>
        <time>2025-07-26T07:30:53.028Z</time>
      </trkpt>
      <trkpt lat="42.559778" lon="1.998614">
        <ele>2015.6</ele>
        <time>2025-07-26T07:31:18.499Z</time>
      </trkpt>
      <trkpt lat="42.559719" lon="1.998892">
        <ele>2013.7</ele>
        <time>2025-07-26T07:31:54.570Z</time>
      </trkpt>
      <trkpt lat="42.559966" lon="2.000397">
        <ele>2000.2</ele>
        <time>2025-07-26T07:35:03.821Z</time>
      </trkpt>
      <trkpt lat="42.560156" lon="2.001539">
        <ele>2000.1</ele>
        <time>2025-07-26T07:36:26.846Z</time>
      </trkpt>
      <trkpt lat="42.560448" lon="2.003181">
        <ele>2015.3</ele>
        <time>2025-07-26T07:41:01.826Z</time>
      </trkpt>
      <trkpt lat="42.560190" lon="2.003362">
        <ele>2016.3</ele>
        <time>2025-07-26T07:41:44.367Z</time>
      </trkpt>
      <trkpt lat="42.560023" lon="2.003742">
        <ele>2016.3</ele>
        <time>2025-07-26T07:42:16.366Z</time>
      </trkpt>
      <trkpt lat="42.559714" lon="2.003751">
        <ele>2015.3</ele>
        <time>2025-07-26T07:42:51.437Z</time>
      </trkpt>
      <trkpt lat="42.559492" lon="2.003520">
        <ele>2011.2</ele>
        <time>2025-07-26T07:43:43.236Z</time>
      </trkpt>
      <trkpt lat="42.559284" lon="2.003207">
        <ele>2006.6</ele>
        <time>2025-07-26T07:44:40.536Z</time>
      </trkpt>
      <trkpt lat="42.558970" lon="2.003098">
        <ele>2000.6</ele>
        <time>2025-07-26T07:45:52.486Z</time>
      </trkpt>
      <trkpt lat="42.558789" lon="2.003298">
        <ele>1998.4</ele>
        <time>2025-07-26T07:46:29.074Z</time>
      </trkpt>
      <trkpt lat="42.558777" lon="2.003615">
        <ele>1998.2</ele>
        <time>2025-07-26T07:46:53.039Z</time>
      </trkpt>
      <trkpt lat="42.558622" lon="2.003846">
        <ele>1997.9</ele>
        <time>2025-07-26T07:47:16.911Z</time>
      </trkpt>
      <trkpt lat="42.558495" lon="2.004189">
        <ele>1996.7</ele>
        <time>2025-07-26T07:47:51.189Z</time>
      </trkpt>
      <trkpt lat="42.558212" lon="2.004501">
        <ele>1995.1</ele>
        <time>2025-07-26T07:48:35.980Z</time>
      </trkpt>
      <trkpt lat="42.558000" lon="2.004759">
        <ele>1992.6</ele>
        <time>2025-07-26T07:49:18.144Z</time>
      </trkpt>
      <trkpt lat="42.557801" lon="2.004960">
        <ele>1990.8</ele>
        <time>2025-07-26T07:49:52.542Z</time>
      </trkpt>
      <trkpt lat="42.557713" lon="2.005343">
        <ele>1990.3</ele>
        <time>2025-07-26T07:50:23.429Z</time>
      </trkpt>
      <trkpt lat="42.557513" lon="2.005586">
        <ele>1989.9</ele>
        <time>2025-07-26T07:50:51.776Z</time>
      </trkpt>
      <trkpt lat="42.557366" lon="2.005866">
        <ele>1989.9</ele>
        <time>2025-07-26T07:51:16.379Z</time>
      </trkpt>
      <trkpt lat="42.557082" lon="2.006638">
        <ele>1989.7</ele>
        <time>2025-07-26T07:52:17.792Z</time>
      </trkpt>
      <trkpt lat="42.557072" lon="2.007042">
        <ele>1991.3</ele>
        <time>2025-07-26T07:53:02.644Z</time>
      </trkpt>
      <trkpt lat="42.557121" lon="2.007344">
        <ele>1992.0</ele>
        <time>2025-07-26T07:53:32.376Z</time>
      </trkpt>
      <trkpt lat="42.557008" lon="2.007706">
        <ele>1990.3</ele>
        <time>2025-07-26T07:54:11.296Z</time>
      </trkpt>
      <trkpt lat="42.556829" lon="2.007734">
        <ele>1989.7</ele>
        <time>2025-07-26T07:54:38.937Z</time>
      </trkpt>
      <trkpt lat="42.556832" lon="2.007374">
        <ele>1990.7</ele>
        <time>2025-07-26T07:55:15.477Z</time>
      </trkpt>
      <trkpt lat="42.556705" lon="2.006963">
        <ele>1991.8</ele>
        <time>2025-07-26T07:55:57.926Z</time>
      </trkpt>
      <trkpt lat="42.556490" lon="2.006724">
        <ele>1992.6</ele>
        <time>2025-07-26T07:56:32.605Z</time>
      </trkpt>
      <trkpt lat="42.556309" lon="2.006417">
        <ele>1991.9</ele>
        <time>2025-07-26T07:57:04.455Z</time>
      </trkpt>
      <trkpt lat="42.556246" lon="2.006030">
        <ele>1991.2</ele>
        <time>2025-07-26T07:57:36.594Z</time>
      </trkpt>
      <trkpt lat="42.556177" lon="2.005737">
        <ele>1991.1</ele>
        <time>2025-07-26T07:57:58.397Z</time>
      </trkpt>
      <trkpt lat="42.555962" lon="2.005544">
        <ele>1991.1</ele>
        <time>2025-07-26T07:58:24.094Z</time>
      </trkpt>
      <trkpt lat="42.555735" lon="2.005399">
        <ele>1992.3</ele>
        <time>2025-07-26T07:59:00.739Z</time>
      </trkpt>
      <trkpt lat="42.555507" lon="2.005140">
        <ele>1993.8</ele>
        <time>2025-07-26T07:59:44.323Z</time>
      </trkpt>
      <trkpt lat="42.555254" lon="2.005056">
        <ele>1995.5</ele>
        <time>2025-07-26T08:00:27.278Z</time>
      </trkpt>
      <trkpt lat="42.555027" lon="2.005047">
        <ele>1997.0</ele>
        <time>2025-07-26T08:01:04.340Z</time>
      </trkpt>
      <trkpt lat="42.554846" lon="2.004788">
        <ele>1995.4</ele>
        <time>2025-07-26T08:01:39.837Z</time>
      </trkpt>
      <trkpt lat="42.554614" lon="2.004772">
        <ele>1994.0</ele>
        <time>2025-07-26T08:02:11.501Z</time>
      </trkpt>
      <trkpt lat="42.554366" lon="2.004806">
        <ele>1993.1</ele>
        <time>2025-07-26T08:02:40.537Z</time>
      </trkpt>
      <trkpt lat="42.554059" lon="2.004769">
        <ele>1992.0</ele>
        <time>2025-07-26T08:03:16.363Z</time>
      </trkpt>
      <trkpt lat="42.553856" lon="2.004628">
        <ele>1990.8</ele>
        <time>2025-07-26T08:03:46.446Z</time>
      </trkpt>
      <trkpt lat="42.553632" lon="2.004343">
        <ele>1989.1</ele>
        <time>2025-07-26T08:04:26.625Z</time>
      </trkpt>
      <trkpt lat="42.553408" lon="2.004202">
        <ele>1988.5</ele>
        <time>2025-07-26T08:04:54.588Z</time>
      </trkpt>
      <trkpt lat="42.553122" lon="2.004042">
        <ele>1987.8</ele>
        <time>2025-07-26T08:05:28.594Z</time>
      </trkpt>
      <trkpt lat="42.552897" lon="2.004057">
        <ele>1987.7</ele>
        <time>2025-07-26T08:05:50.825Z</time>
      </trkpt>
      <trkpt lat="42.552704" lon="2.003982">
        <ele>1987.6</ele>
        <time>2025-07-26T08:06:12.907Z</time>
      </trkpt>
      <trkpt lat="42.552469" lon="2.003972">
        <ele>1986.9</ele>
        <time>2025-07-26T08:06:39.557Z</time>
      </trkpt>
      <trkpt lat="42.552299" lon="2.003760">
        <ele>1986.2</ele>
        <time>2025-07-26T08:07:05.937Z</time>
      </trkpt>
      <trkpt lat="42.552034" lon="2.003749">
        <ele>1986.0</ele>
        <time>2025-07-26T08:07:32.295Z</time>
      </trkpt>
      <trkpt lat="42.551649" lon="2.003917">
        <ele>1985.8</ele>
        <time>2025-07-26T08:08:12.538Z</time>
      </trkpt>
      <trkpt lat="42.551341" lon="2.004019">
        <ele>1985.8</ele>
        <time>2025-07-26T08:08:43.001Z</time>
      </trkpt>
      <trkpt lat="42.550948" lon="2.004080">
        <ele>1985.8</ele>
        <time>2025-07-26T08:09:20.688Z</time>
      </trkpt>
      <trkpt lat="42.550698" lon="2.004080">
        <ele>1985.5</ele>
        <time>2025-07-26T08:09:46.287Z</time>
      </trkpt>
      <trkpt lat="42.550471" lon="2.004084">
        <ele>1985.2</ele>
        <time>2025-07-26T08:10:09.645Z</time>
      </trkpt>
      <trkpt lat="42.550193" lon="2.004107">
        <ele>1984.8</ele>
        <time>2025-07-26T08:10:38.598Z</time>
      </trkpt>
      <trkpt lat="42.549935" lon="2.004068">
        <ele>1984.5</ele>
        <time>2025-07-26T08:11:05.756Z</time>
      </trkpt>
      <trkpt lat="42.549701" lon="2.004144">
        <ele>1984.0</ele>
        <time>2025-07-26T08:11:31.781Z</time>
      </trkpt>
      <trkpt lat="42.549450" lon="2.004183">
        <ele>1983.5</ele>
        <time>2025-07-26T08:11:58.877Z</time>
      </trkpt>
      <trkpt lat="42.549203" lon="2.004265">
        <ele>1983.1</ele>
        <time>2025-07-26T08:12:25.478Z</time>
      </trkpt>
      <trkpt lat="42.548862" lon="2.004357">
        <ele>1982.6</ele>
        <time>2025-07-26T08:13:02.220Z</time>
      </trkpt>
      <trkpt lat="42.548580" lon="2.004443">
        <ele>1982.8</ele>
        <time>2025-07-26T08:13:31.742Z</time>
      </trkpt>
      <trkpt lat="42.548305" lon="2.004578">
        <ele>1983.0</ele>
        <time>2025-07-26T08:14:01.625Z</time>
      </trkpt>
      <trkpt lat="42.548043" lon="2.004649">
        <ele>1982.3</ele>
        <time>2025-07-26T08:14:31.417Z</time>
      </trkpt>
      <trkpt lat="42.547662" lon="2.004790">
        <ele>1981.1</ele>
        <time>2025-07-26T08:15:16.317Z</time>
      </trkpt>
      <trkpt lat="42.547328" lon="2.004891">
        <ele>1979.9</ele>
        <time>2025-07-26T08:15:56.141Z</time>
      </trkpt>
      <trkpt lat="42.547034" lon="2.004941">
        <ele>1976.7</ele>
        <time>2025-07-26T08:16:43.430Z</time>
      </trkpt>
      <trkpt lat="42.546807" lon="2.004959">
        <ele>1974.3</ele>
        <time>2025-07-26T08:17:19.733Z</time>
      </trkpt>
      <trkpt lat="42.546575" lon="2.004994">
        <ele>1970.9</ele>
        <time>2025-07-26T08:18:02.093Z</time>
      </trkpt>
      <trkpt lat="42.546281" lon="2.005107">
        <ele>1966.5</ele>
        <time>2025-07-26T08:18:57.788Z</time>
      </trkpt>
      <trkpt lat="42.545981" lon="2.005335">
        <ele>1963.5</ele>
        <time>2025-07-26T08:19:48.507Z</time>
      </trkpt>
      <trkpt lat="42.545798" lon="2.005646">
        <ele>1961.3</ele>
        <time>2025-07-26T08:20:30.232Z</time>
      </trkpt>
      <trkpt lat="42.545609" lon="2.005893">
        <ele>1959.6</ele>
        <time>2025-07-26T08:21:06.091Z</time>
      </trkpt>
      <trkpt lat="42.545434" lon="2.006157">
        <ele>1959.1</ele>
        <time>2025-07-26T08:21:33.986Z</time>
      </trkpt>
      <trkpt lat="42.545332" lon="2.006440">
        <ele>1959.3</ele>
        <time>2025-07-26T08:21:59.293Z</time>
      </trkpt>
      <trkpt lat="42.545266" lon="2.006791">
        <ele>1960.6</ele>
        <time>2025-07-26T08:22:37.860Z</time>
      </trkpt>
      <trkpt lat="42.545248" lon="2.007153">
        <ele>1962.7</ele>
        <time>2025-07-26T08:23:24.995Z</time>
      </trkpt>
      <trkpt lat="42.545227" lon="2.007458">
        <ele>1963.7</ele>
        <time>2025-07-26T08:23:58.174Z</time>
      </trkpt>
      <trkpt lat="42.545026" lon="2.007640">
        <ele>1963.6</ele>
        <time>2025-07-26T08:24:22.504Z</time>
      </trkpt>
      <trkpt lat="42.544925" lon="2.007965">
        <ele>1963.4</ele>
        <time>2025-07-26T08:24:48.192Z</time>
      </trkpt>
      <trkpt lat="42.544790" lon="2.008987">
        <ele>1963.1</ele>
        <time>2025-07-26T08:26:02.971Z</time>
      </trkpt>
      <trkpt lat="42.544545" lon="2.009964">
        <ele>1964.1</ele>
        <time>2025-07-26T08:27:25.584Z</time>
      </trkpt>
      <trkpt lat="42.544480" lon="2.010383">
        <ele>1963.8</ele>
        <time>2025-07-26T08:27:57.239Z</time>
      </trkpt>
      <trkpt lat="42.544452" lon="2.010722">
        <ele>1963.6</ele>
        <time>2025-07-26T08:28:22.508Z</time>
      </trkpt>
      <trkpt lat="42.544305" lon="2.011692">
        <ele>1963.3</ele>
        <time>2025-07-26T08:29:33.800Z</time>
      </trkpt>
      <trkpt lat="42.544176" lon="2.012180">
        <ele>1966.4</ele>
        <time>2025-07-26T08:30:41.525Z</time>
      </trkpt>
      <trkpt lat="42.543962" lon="2.012831">
        <ele>1970.6</ele>
        <time>2025-07-26T08:32:14.744Z</time>
      </trkpt>
      <trkpt lat="42.543764" lon="2.013240">
        <ele>1972.7</ele>
        <time>2025-07-26T08:33:10.999Z</time>
      </trkpt>
      <trkpt lat="42.543584" lon="2.013702">
        <ele>1975.0</ele>
        <time>2025-07-26T08:34:11.132Z</time>
      </trkpt>
      <trkpt lat="42.543449" lon="2.013957">
        <ele>1975.8</ele>
        <time>2025-07-26T08:34:42.067Z</time>
      </trkpt>
      <trkpt lat="42.543304" lon="2.014249">
        <ele>1976.8</ele>
        <time>2025-07-26T08:35:16.883Z</time>
      </trkpt>
      <trkpt lat="42.543184" lon="2.014728">
        <ele>1972.3</ele>
        <time>2025-07-26T08:36:19.187Z</time>
      </trkpt>
      <trkpt lat="42.543017" lon="2.015114">
        <ele>1967.2</ele>
        <time>2025-07-26T08:37:21.395Z</time>
      </trkpt>
      <trkpt lat="42.542932" lon="2.015495">
        <ele>1961.9</ele>
        <time>2025-07-26T08:38:21.619Z</time>
      </trkpt>
      <trkpt lat="42.542927" lon="2.015813">
        <ele>1956.4</ele>
        <time>2025-07-26T08:39:16.750Z</time>
      </trkpt>
      <trkpt lat="42.542875" lon="2.016131">
        <ele>1950.8</ele>
        <time>2025-07-26T08:40:13.244Z</time>
      </trkpt>
      <trkpt lat="42.542893" lon="2.016453">
        <ele>1946.7</ele>
        <time>2025-07-26T08:41:00.381Z</time>
      </trkpt>
      <trkpt lat="42.542893" lon="2.016846">
        <ele>1941.7</ele>
        <time>2025-07-26T08:41:57.823Z</time>
      </trkpt>
      <trkpt lat="42.542974" lon="2.017359">
        <ele>1939.0</ele>
        <time>2025-07-26T08:42:51.211Z</time>
      </trkpt>
      <trkpt lat="42.543027" lon="2.017664">
        <ele>1937.3</ele>
        <time>2025-07-26T08:43:23.058Z</time>
      </trkpt>
      <trkpt lat="42.542975" lon="2.018185">
        <ele>1930.9</ele>
        <time>2025-07-26T08:44:39.177Z</time>
      </trkpt>
      <trkpt lat="42.542915" lon="2.018481">
        <ele>1927.1</ele>
        <time>2025-07-26T08:45:23.135Z</time>
      </trkpt>
      <trkpt lat="42.542674" lon="2.019166">
        <ele>1920.2</ele>
        <time>2025-07-26T08:46:58.090Z</time>
      </trkpt>
      <trkpt lat="42.542576" lon="2.019459">
        <ele>1919.5</ele>
        <time>2025-07-26T08:47:25.111Z</time>
      </trkpt>
      <trkpt lat="42.542494" lon="2.019791">
        <ele>1918.7</ele>
        <time>2025-07-26T08:47:54.432Z</time>
      </trkpt>
      <trkpt lat="42.542434" lon="2.020090">
        <ele>1919.1</ele>
        <time>2025-07-26T08:48:20.044Z</time>
      </trkpt>
      <trkpt lat="42.542405" lon="2.020904">
        <ele>1920.0</ele>
        <time>2025-07-26T08:49:27.541Z</time>
      </trkpt>
      <trkpt lat="42.542294" lon="2.021415">
        <ele>1914.8</ele>
        <time>2025-07-26T08:50:36.490Z</time>
      </trkpt>
      <trkpt lat="42.542234" lon="2.021818">
        <ele>1910.8</ele>
        <time>2025-07-26T08:51:29.536Z</time>
      </trkpt>
      <trkpt lat="42.542252" lon="2.022411">
        <ele>1904.1</ele>
        <time>2025-07-26T08:52:51.128Z</time>
      </trkpt>
      <trkpt lat="42.542181" lon="2.022893">
        <ele>1899.4</ele>
        <time>2025-07-26T08:53:54.387Z</time>
      </trkpt>
      <trkpt lat="42.542153" lon="2.023447">
        <ele>1894.7</ele>
        <time>2025-07-26T08:55:01.293Z</time>
      </trkpt>
      <trkpt lat="42.542067" lon="2.023966">
        <ele>1890.3</ele>
        <time>2025-07-26T08:56:05.350Z</time>
      </trkpt>
      <trkpt lat="42.542002" lon="2.024630">
        <ele>1884.3</ele>
        <time>2025-07-26T08:57:28.299Z</time>
      </trkpt>
      <trkpt lat="42.542016" lon="2.025258">
        <ele>1879.2</ele>
        <time>2025-07-26T08:58:43.156Z</time>
      </trkpt>
      <trkpt lat="42.542142" lon="2.025891">
        <ele>1874.5</ele>
        <time>2025-07-26T08:59:57.634Z</time>
      </trkpt>
      <trkpt lat="42.542183" lon="2.026228">
        <ele>1871.4</ele>
        <time>2025-07-26T09:00:39.950Z</time>
      </trkpt>
      <trkpt lat="42.542112" lon="2.026927">
        <ele>1865.9</ele>
        <time>2025-07-26T09:02:02.498Z</time>
      </trkpt>
      <trkpt lat="42.542022" lon="2.027553">
        <ele>1863.6</ele>
        <time>2025-07-26T09:03:01.343Z</time>
      </trkpt>
      <trkpt lat="42.541990" lon="2.028358">
        <ele>1862.1</ele>
        <time>2025-07-26T09:04:07.129Z</time>
      </trkpt>
      <trkpt lat="42.541994" lon="2.028860">
        <ele>1861.2</ele>
        <time>2025-07-26T09:04:47.948Z</time>
      </trkpt>
      <trkpt lat="42.542062" lon="2.029329">
        <ele>1859.7</ele>
        <time>2025-07-26T09:05:30.093Z</time>
      </trkpt>
      <trkpt lat="42.542115" lon="2.029929">
        <ele>1857.6</ele>
        <time>2025-07-26T09:06:25.491Z</time>
      </trkpt>
      <trkpt lat="42.542207" lon="2.030255">
        <ele>1853.9</ele>
        <time>2025-07-26T09:07:12.680Z</time>
      </trkpt>
      <trkpt lat="42.542432" lon="2.030585">
        <ele>1849.1</ele>
        <time>2025-07-26T09:08:12.678Z</time>
      </trkpt>
      <trkpt lat="42.542637" lon="2.030970">
        <ele>1846.5</ele>
        <time>2025-07-26T09:09:01.606Z</time>
      </trkpt>
      <trkpt lat="42.542831" lon="2.031541">
        <ele>1845.2</ele>
        <time>2025-07-26T09:09:53.783Z</time>
      </trkpt>
      <trkpt lat="42.542996" lon="2.032079">
        <ele>1844.9</ele>
        <time>2025-07-26T09:10:36.808Z</time>
      </trkpt>
      <trkpt lat="42.543008" lon="2.032445">
        <ele>1843.1</ele>
        <time>2025-07-26T09:11:13.391Z</time>
      </trkpt>
      <trkpt lat="42.543039" lon="2.032800">
        <ele>1841.5</ele>
        <time>2025-07-26T09:11:48.587Z</time>
      </trkpt>
      <trkpt lat="42.543174" lon="2.033104">
        <ele>1837.4</ele>
        <time>2025-07-26T09:12:37.766Z</time>
      </trkpt>
      <trkpt lat="42.543330" lon="2.033484">
        <ele>1832.4</ele>
        <time>2025-07-26T09:13:38.419Z</time>
      </trkpt>
      <trkpt lat="42.543418" lon="2.033928">
        <ele>1824.9</ele>
        <time>2025-07-26T09:14:55.710Z</time>
      </trkpt>
      <trkpt lat="42.543539" lon="2.034252">
        <ele>1819.0</ele>
        <time>2025-07-26T09:15:56.880Z</time>
      </trkpt>
      <trkpt lat="42.543521" lon="2.034964">
        <ele>1806.7</ele>
        <time>2025-07-26T09:18:00.911Z</time>
      </trkpt>
      <trkpt lat="42.543489" lon="2.035462">
        <ele>1799.4</ele>
        <time>2025-07-26T09:19:19.891Z</time>
      </trkpt>
      <trkpt lat="42.543481" lon="2.035837">
        <ele>1793.9</ele>
        <time>2025-07-26T09:20:19.114Z</time>
      </trkpt>
      <trkpt lat="42.543362" lon="2.036103">
        <ele>1791.4</ele>
        <time>2025-07-26T09:20:56.744Z</time>
      </trkpt>
      <trkpt lat="42.543123" lon="2.036437">
        <ele>1787.9</ele>
        <time>2025-07-26T09:21:50.746Z</time>
      </trkpt>
      <trkpt lat="42.542918" lon="2.036959">
        <ele>1784.8</ele>
        <time>2025-07-26T09:22:51.410Z</time>
      </trkpt>
      <trkpt lat="42.542767" lon="2.037479">
        <ele>1781.9</ele>
        <time>2025-07-26T09:23:47.852Z</time>
      </trkpt>
      <trkpt lat="42.542541" lon="2.038018">
        <ele>1778.9</ele>
        <time>2025-07-26T09:24:49.636Z</time>
      </trkpt>
      <trkpt lat="42.542337" lon="2.038432">
        <ele>1777.9</ele>
        <time>2025-07-26T09:25:30.445Z</time>
      </trkpt>
      <trkpt lat="42.542146" lon="2.038884">
        <ele>1776.9</ele>
        <time>2025-07-26T09:26:13.119Z</time>
      </trkpt>
      <trkpt lat="42.541894" lon="2.039562">
        <ele>1775.3</ele>
        <time>2025-07-26T09:27:16.083Z</time>
      </trkpt>
      <trkpt lat="42.541768" lon="2.039974">
        <ele>1773.0</ele>
        <time>2025-07-26T09:28:01.120Z</time>
      </trkpt>
      <trkpt lat="42.541568" lon="2.040520">
        <ele>1771.1</ele>
        <time>2025-07-26T09:28:55.342Z</time>
      </trkpt>
      <trkpt lat="42.541442" lon="2.041076">
        <ele>1770.9</ele>
        <time>2025-07-26T09:29:37.392Z</time>
      </trkpt>
      <trkpt lat="42.541221" lon="2.041628">
        <ele>1771.5</ele>
        <time>2025-07-26T09:30:28.002Z</time>
      </trkpt>
      <trkpt lat="42.540920" lon="2.042216">
        <ele>1778.2</ele>
        <time>2025-07-26T09:32:26.691Z</time>
      </trkpt>
      <trkpt lat="42.540774" lon="2.042568">
        <ele>1779.4</ele>
        <time>2025-07-26T09:33:08.207Z</time>
      </trkpt>
      <trkpt lat="42.540628" lon="2.042883">
        <ele>1780.6</ele>
        <time>2025-07-26T09:33:46.456Z</time>
      </trkpt>
      <trkpt lat="42.540352" lon="2.043423">
        <ele>1782.4</ele>
        <time>2025-07-26T09:34:51.059Z</time>
      </trkpt>
      <trkpt lat="42.540185" lon="2.043921">
        <ele>1781.9</ele>
        <time>2025-07-26T09:35:32.585Z</time>
      </trkpt>
      <trkpt lat="42.540064" lon="2.044239">
        <ele>1781.6</ele>
        <time>2025-07-26T09:35:59.558Z</time>
      </trkpt>
      <trkpt lat="42.539955" lon="2.044516">
        <ele>1780.0</ele>
        <time>2025-07-26T09:36:31.620Z</time>
      </trkpt>
      <trkpt lat="42.539860" lon="2.044843">
        <ele>1778.1</ele>
        <time>2025-07-26T09:37:07.534Z</time>
      </trkpt>
      <trkpt lat="42.539703" lon="2.045324">
        <ele>1774.5</ele>
        <time>2025-07-26T09:38:06.251Z</time>
      </trkpt>
      <trkpt lat="42.539582" lon="2.045756">
        <ele>1771.3</ele>
        <time>2025-07-26T09:38:57.816Z</time>
      </trkpt>
      <trkpt lat="42.539504" lon="2.046047">
        <ele>1769.1</ele>
        <time>2025-07-26T09:39:32.811Z</time>
      </trkpt>
      <trkpt lat="42.539450" lon="2.046355">
        <ele>1766.8</ele>
        <time>2025-07-26T09:40:08.613Z</time>
      </trkpt>
      <trkpt lat="42.539340" lon="2.046682">
        <ele>1763.9</ele>
        <time>2025-07-26T09:40:51.319Z</time>
      </trkpt>
      <trkpt lat="42.539205" lon="2.047189">
        <ele>1759.6</ele>
        <time>2025-07-26T09:41:54.946Z</time>
      </trkpt>
      <trkpt lat="42.539011" lon="2.047668">
        <ele>1755.3</ele>
        <time>2025-07-26T09:42:59.180Z</time>
      </trkpt>
      <trkpt lat="42.538930" lon="2.047957">
        <ele>1753.4</ele>
        <time>2025-07-26T09:43:32.622Z</time>
      </trkpt>
      <trkpt lat="42.538850" lon="2.048331">
        <ele>1750.9</ele>
        <time>2025-07-26T09:44:14.652Z</time>
      </trkpt>
      <trkpt lat="42.538763" lon="2.048631">
        <ele>1750.9</ele>
        <time>2025-07-26T09:44:37.342Z</time>
      </trkpt>
      <trkpt lat="42.538579" lon="2.049043">
        <ele>1750.9</ele>
        <time>2025-07-26T09:45:11.265Z</time>
      </trkpt>
      <trkpt lat="42.538442" lon="2.049343">
        <ele>1750.0</ele>
        <time>2025-07-26T09:45:41.542Z</time>
      </trkpt>
      <trkpt lat="42.538269" lon="2.049932">
        <ele>1747.6</ele>
        <time>2025-07-26T09:46:40.533Z</time>
      </trkpt>
      <trkpt lat="42.538105" lon="2.050154">
        <ele>1746.0</ele>
        <time>2025-07-26T09:47:11.924Z</time>
      </trkpt>
      <trkpt lat="42.537955" lon="2.050420">
        <ele>1745.0</ele>
        <time>2025-07-26T09:47:41.781Z</time>
      </trkpt>
      <trkpt lat="42.537659" lon="2.050724">
        <ele>1744.3</ele>
        <time>2025-07-26T09:48:21.835Z</time>
      </trkpt>
      <trkpt lat="42.537415" lon="2.051098">
        <ele>1744.6</ele>
        <time>2025-07-26T09:49:00.291Z</time>
      </trkpt>
      <trkpt lat="42.537173" lon="2.051367">
        <ele>1746.4</ele>
        <time>2025-07-26T09:49:48.702Z</time>
      </trkpt>
      <trkpt lat="42.536940" lon="2.051585">
        <ele>1748.2</ele>
        <time>2025-07-26T09:50:34.219Z</time>
      </trkpt>
      <trkpt lat="42.536626" lon="2.052075">
        <ele>1751.7</ele>
        <time>2025-07-26T09:51:56.339Z</time>
      </trkpt>
      <trkpt lat="42.536493" lon="2.052469">
        <ele>1754.4</ele>
        <time>2025-07-26T09:52:54.218Z</time>
      </trkpt>
      <trkpt lat="42.536346" lon="2.052712">
        <ele>1756.3</ele>
        <time>2025-07-26T09:53:36.172Z</time>
      </trkpt>
      <trkpt lat="42.536160" lon="2.053029">
        <ele>1759.5</ele>
        <time>2025-07-26T09:54:37.601Z</time>
      </trkpt>
      <trkpt lat="42.536047" lon="2.053571">
        <ele>1762.3</ele>
        <time>2025-07-26T09:55:46.044Z</time>
      </trkpt>
      <trkpt lat="42.535987" lon="2.053901">
        <ele>1763.3</ele>
        <time>2025-07-26T09:56:19.741Z</time>
      </trkpt>
      <trkpt lat="42.535945" lon="2.054321">
        <ele>1763.8</ele>
        <time>2025-07-26T09:56:54.774Z</time>
      </trkpt>
      <trkpt lat="42.535843" lon="2.054684">
        <ele>1764.5</ele>
        <time>2025-07-26T09:57:29.599Z</time>
      </trkpt>
      <trkpt lat="42.535582" lon="2.055076">
        <ele>1766.1</ele>
        <time>2025-07-26T09:58:23.141Z</time>
      </trkpt>
      <trkpt lat="42.535432" lon="2.055344">
        <ele>1767.7</ele>
        <time>2025-07-26T09:59:02.976Z</time>
      </trkpt>
      <trkpt lat="42.535186" lon="2.055581">
        <ele>1769.6</ele>
        <time>2025-07-26T09:59:52.065Z</time>
      </trkpt>
      <trkpt lat="42.535011" lon="2.055851">
        <ele>1771.7</ele>
        <time>2025-07-26T10:00:39.431Z</time>
      </trkpt>
      <trkpt lat="42.534898" lon="2.056177">
        <ele>1773.7</ele>
        <time>2025-07-26T10:01:25.092Z</time>
      </trkpt>
      <trkpt lat="42.534927" lon="2.056636">
        <ele>1775.1</ele>
        <time>2025-07-26T10:02:12.390Z</time>
      </trkpt>
      <trkpt lat="42.534785" lon="2.056868">
        <ele>1776.6</ele>
        <time>2025-07-26T10:02:50.714Z</time>
      </trkpt>
      <trkpt lat="42.534435" lon="2.057106">
        <ele>1779.3</ele>
        <time>2025-07-26T10:03:55.650Z</time>
      </trkpt>
      <trkpt lat="42.534222" lon="2.057331">
        <ele>1779.9</ele>
        <time>2025-07-26T10:04:27.686Z</time>
      </trkpt>
      <trkpt lat="42.533953" lon="2.057553">
        <ele>1782.4</ele>
        <time>2025-07-26T10:05:23.729Z</time>
      </trkpt>
      <trkpt lat="42.533695" lon="2.057639">
        <ele>1786.9</ele>
        <time>2025-07-26T10:06:34.370Z</time>
      </trkpt>
      <trkpt lat="42.533419" lon="2.057675">
        <ele>1791.5</ele>
        <time>2025-07-26T10:07:48.610Z</time>
      </trkpt>
      <trkpt lat="42.533169" lon="2.057903">
        <ele>1796.5</ele>
        <time>2025-07-26T10:09:09.469Z</time>
      </trkpt>
      <trkpt lat="42.532998" lon="2.058123">
        <ele>1799.8</ele>
        <time>2025-07-26T10:10:05.899Z</time>
      </trkpt>
      <trkpt lat="42.532768" lon="2.058294">
        <ele>1802.7</ele>
        <time>2025-07-26T10:11:00.975Z</time>
      </trkpt>
      <trkpt lat="42.532527" lon="2.058530">
        <ele>1805.1</ele>
        <time>2025-07-26T10:11:53.402Z</time>
      </trkpt>
      <trkpt lat="42.532254" lon="2.058646">
        <ele>1806.4</ele>
        <time>2025-07-26T10:12:34.658Z</time>
      </trkpt>
      <trkpt lat="42.532022" lon="2.058719">
        <ele>1807.6</ele>
        <time>2025-07-26T10:13:09.045Z</time>
      </trkpt>
      <trkpt lat="42.531637" lon="2.058865">
        <ele>1807.6</ele>
        <time>2025-07-26T10:13:47.189Z</time>
      </trkpt>
      <trkpt lat="42.531227" lon="2.058962">
        <ele>1807.6</ele>
        <time>2025-07-26T10:14:26.921Z</time>
      </trkpt>
      <trkpt lat="42.530970" lon="2.059020">
        <ele>1805.4</ele>
        <time>2025-07-26T10:15:04.946Z</time>
      </trkpt>
      <trkpt lat="42.530755" lon="2.059299">
        <ele>1802.9</ele>
        <time>2025-07-26T10:15:48.857Z</time>
      </trkpt>
      <trkpt lat="42.530606" lon="2.059581">
        <ele>1799.9</ele>
        <time>2025-07-26T10:16:31.015Z</time>
      </trkpt>
      <trkpt lat="42.530337" lon="2.059735">
        <ele>1797.0</ele>
        <time>2025-07-26T10:17:16.891Z</time>
      </trkpt>
      <trkpt lat="42.530251" lon="2.060048">
        <ele>1795.5</ele>
        <time>2025-07-26T10:17:49.964Z</time>
      </trkpt>
      <trkpt lat="42.529987" lon="2.060490">
        <ele>1794.8</ele>
        <time>2025-07-26T10:18:33.927Z</time>
      </trkpt>
      <trkpt lat="42.529800" lon="2.060731">
        <ele>1794.9</ele>
        <time>2025-07-26T10:18:59.555Z</time>
      </trkpt>
      <trkpt lat="42.529651" lon="2.061179">
        <ele>1792.1</ele>
        <time>2025-07-26T10:19:51.115Z</time>
      </trkpt>
      <trkpt lat="42.529484" lon="2.061515">
        <ele>1790.6</ele>
        <time>2025-07-26T10:20:28.676Z</time>
      </trkpt>
      <trkpt lat="42.529224" lon="2.061815">
        <ele>1789.8</ele>
        <time>2025-07-26T10:21:06.260Z</time>
      </trkpt>
      <trkpt lat="42.528945" lon="2.061848">
        <ele>1793.2</ele>
        <time>2025-07-26T10:22:09.159Z</time>
      </trkpt>
      <trkpt lat="42.528691" lon="2.061728">
        <ele>1797.0</ele>
        <time>2025-07-26T10:23:14.245Z</time>
      </trkpt>
      <trkpt lat="42.528439" lon="2.061691">
        <ele>1801.3</ele>
        <time>2025-07-26T10:24:23.965Z</time>
      </trkpt>
      <trkpt lat="42.528094" lon="2.062097">
        <ele>1804.8</ele>
        <time>2025-07-26T10:25:43.295Z</time>
      </trkpt>
      <trkpt lat="42.527674" lon="2.062528">
        <ele>1807.0</ele>
        <time>2025-07-26T10:26:56.218Z</time>
      </trkpt>
      <trkpt lat="42.527414" lon="2.062781">
        <ele>1808.3</ele>
        <time>2025-07-26T10:27:39.747Z</time>
      </trkpt>
      <trkpt lat="42.527170" lon="2.062957">
        <ele>1809.4</ele>
        <time>2025-07-26T10:28:17.206Z</time>
      </trkpt>
      <trkpt lat="42.526860" lon="2.063142">
        <ele>1810.9</ele>
        <time>2025-07-26T10:29:05.102Z</time>
      </trkpt>
      <trkpt lat="42.526550" lon="2.063293">
        <ele>1811.6</ele>
        <time>2025-07-26T10:29:43.562Z</time>
      </trkpt>
      <trkpt lat="42.526072" lon="2.063899">
        <ele>1811.7</ele>
        <time>2025-07-26T10:30:47.556Z</time>
      </trkpt>
      <trkpt lat="42.525875" lon="2.064286">
        <ele>1812.0</ele>
        <time>2025-07-26T10:31:22.980Z</time>
      </trkpt>
      <trkpt lat="42.525724" lon="2.064681">
        <ele>1812.2</ele>
        <time>2025-07-26T10:31:56.437Z</time>
      </trkpt>
      <trkpt lat="42.525513" lon="2.065154">
        <ele>1814.0</ele>
        <time>2025-07-26T10:32:53.650Z</time>
      </trkpt>
      <trkpt lat="42.525298" lon="2.065529">
        <ele>1815.5</ele>
        <time>2025-07-26T10:33:42.791Z</time>
      </trkpt>
      <trkpt lat="42.525125" lon="2.065807">
        <ele>1817.5</ele>
        <time>2025-07-26T10:34:28.825Z</time>
      </trkpt>
      <trkpt lat="42.524949" lon="2.066019">
        <ele>1819.2</ele>
        <time>2025-07-26T10:35:09.244Z</time>
      </trkpt>
      <trkpt lat="42.524743" lon="2.066376">
        <ele>1817.9</ele>
        <time>2025-07-26T10:35:49.223Z</time>
      </trkpt>
      <trkpt lat="42.524466" lon="2.066623">
        <ele>1816.5</ele>
        <time>2025-07-26T10:36:29.249Z</time>
      </trkpt>
      <trkpt lat="42.524049" lon="2.067099">
        <ele>1814.2</ele>
        <time>2025-07-26T10:37:34.998Z</time>
      </trkpt>
      <trkpt lat="42.523728" lon="2.067440">
        <ele>1812.7</ele>
        <time>2025-07-26T10:38:23.089Z</time>
      </trkpt>
      <trkpt lat="42.523453" lon="2.067797">
        <ele>1811.2</ele>
        <time>2025-07-26T10:39:08.050Z</time>
      </trkpt>
      <trkpt lat="42.523248" lon="2.068026">
        <ele>1812.1</ele>
        <time>2025-07-26T10:39:42.741Z</time>
      </trkpt>
      <trkpt lat="42.523040" lon="2.068166">
        <ele>1812.9</ele>
        <time>2025-07-26T10:40:12.996Z</time>
      </trkpt>
      <trkpt lat="42.522688" lon="2.068442">
        <ele>1814.2</ele>
        <time>2025-07-26T10:41:04.464Z</time>
      </trkpt>
      <trkpt lat="42.522376" lon="2.068694">
        <ele>1815.3</ele>
        <time>2025-07-26T10:41:50.490Z</time>
      </trkpt>
      <trkpt lat="42.522154" lon="2.068838">
        <ele>1815.6</ele>
        <time>2025-07-26T10:42:17.674Z</time>
      </trkpt>
      <trkpt lat="42.521945" lon="2.069196">
        <ele>1815.2</ele>
        <time>2025-07-26T10:42:52.713Z</time>
      </trkpt>
      <trkpt lat="42.521778" lon="2.069435">
        <ele>1813.9</ele>
        <time>2025-07-26T10:43:23.677Z</time>
      </trkpt>
      <trkpt lat="42.521521" lon="2.069684">
        <ele>1811.5</ele>
        <time>2025-07-26T10:44:08.255Z</time>
      </trkpt>
      <trkpt lat="42.521385" lon="2.070009">
        <ele>1808.7</ele>
        <time>2025-07-26T10:44:51.442Z</time>
      </trkpt>
      <trkpt lat="42.521182" lon="2.070277">
        <ele>1806.4</ele>
        <time>2025-07-26T10:45:32.389Z</time>
      </trkpt>
      <trkpt lat="42.521025" lon="2.070509">
        <ele>1805.3</ele>
        <time>2025-07-26T10:46:01.629Z</time>
      </trkpt>
      <trkpt lat="42.520681" lon="2.070648">
        <ele>1804.3</ele>
        <time>2025-07-26T10:46:41.466Z</time>
      </trkpt>
      <trkpt lat="42.520394" lon="2.070783">
        <ele>1803.8</ele>
        <time>2025-07-26T10:47:13.667Z</time>
      </trkpt>
      <trkpt lat="42.520141" lon="2.070828">
        <ele>1803.0</ele>
        <time>2025-07-26T10:47:42.768Z</time>
      </trkpt>
      <trkpt lat="42.519989" lon="2.070561">
        <ele>1802.1</ele>
        <time>2025-07-26T10:48:14.533Z</time>
      </trkpt>
      <trkpt lat="42.519907" lon="2.070273">
        <ele>1800.4</ele>
        <time>2025-07-26T10:48:47.213Z</time>
      </trkpt>
      <trkpt lat="42.519692" lon="2.070127">
        <ele>1798.4</ele>
        <time>2025-07-26T10:49:23.680Z</time>
      </trkpt>
      <trkpt lat="42.519383" lon="2.069901">
        <ele>1793.1</ele>
        <time>2025-07-26T10:50:28.576Z</time>
      </trkpt>
      <trkpt lat="42.519046" lon="2.069424">
        <ele>1785.9</ele>
        <time>2025-07-26T10:51:58.568Z</time>
      </trkpt>
      <trkpt lat="42.518604" lon="2.069412">
        <ele>1780.0</ele>
        <time>2025-07-26T10:53:17.676Z</time>
      </trkpt>
      <trkpt lat="42.518351" lon="2.069448">
        <ele>1776.1</ele>
        <time>2025-07-26T10:54:05.722Z</time>
      </trkpt>
      <trkpt lat="42.517906" lon="2.069271">
        <ele>1768.1</ele>
        <time>2025-07-26T10:55:37.780Z</time>
      </trkpt>
      <trkpt lat="42.517606" lon="2.069355">
        <ele>1762.7</ele>
        <time>2025-07-26T10:56:39.858Z</time>
      </trkpt>
      <trkpt lat="42.517347" lon="2.069434">
        <ele>1760.3</ele>
        <time>2025-07-26T10:57:19.372Z</time>
      </trkpt>
      <trkpt lat="42.517146" lon="2.069605">
        <ele>1758.2</ele>
        <time>2025-07-26T10:57:54.491Z</time>
      </trkpt>
      <trkpt lat="42.516973" lon="2.069897">
        <ele>1757.0</ele>
        <time>2025-07-26T10:58:27.812Z</time>
      </trkpt>
      <trkpt lat="42.516635" lon="2.069882">
        <ele>1755.6</ele>
        <time>2025-07-26T10:59:09.122Z</time>
      </trkpt>
      <trkpt lat="42.516433" lon="2.069881">
        <ele>1754.0</ele>
        <time>2025-07-26T10:59:46.314Z</time>
      </trkpt>
      <trkpt lat="42.516187" lon="2.069850">
        <ele>1751.8</ele>
        <time>2025-07-26T11:00:40.629Z</time>
      </trkpt>
      <trkpt lat="42.515919" lon="2.069958">
        <ele>1749.7</ele>
        <time>2025-07-26T11:01:20.054Z</time>
      </trkpt>
      <trkpt lat="42.515619" lon="2.070175">
        <ele>1746.4</ele>
        <time>2025-07-26T11:02:13.181Z</time>
      </trkpt>
      <trkpt lat="42.515378" lon="2.070297">
        <ele>1743.0</ele>
        <time>2025-07-26T11:02:58.091Z</time>
      </trkpt>
      <trkpt lat="42.515072" lon="2.070303">
        <ele>1739.1</ele>
        <time>2025-07-26T11:03:50.977Z</time>
      </trkpt>
      <trkpt lat="42.514788" lon="2.070419">
        <ele>1737.5</ele>
        <time>2025-07-26T11:04:28.826Z</time>
      </trkpt>
      <trkpt lat="42.514323" lon="2.070954">
        <ele>1735.4</ele>
        <time>2025-07-26T11:05:39.721Z</time>
      </trkpt>
      <trkpt lat="42.514094" lon="2.071127">
        <ele>1734.4</ele>
        <time>2025-07-26T11:06:10.725Z</time>
      </trkpt>
      <trkpt lat="42.513780" lon="2.071139">
        <ele>1732.8</ele>
        <time>2025-07-26T11:06:50.231Z</time>
      </trkpt>
      <trkpt lat="42.513526" lon="2.071140">
        <ele>1731.7</ele>
        <time>2025-07-26T11:07:21.138Z</time>
      </trkpt>
      <trkpt lat="42.513250" lon="2.071282">
        <ele>1730.5</ele>
        <time>2025-07-26T11:07:56.548Z</time>
      </trkpt>
      <trkpt lat="42.512960" lon="2.071671">
        <ele>1729.4</ele>
        <time>2025-07-26T11:08:42.459Z</time>
      </trkpt>
      <trkpt lat="42.512653" lon="2.072181">
        <ele>1728.2</ele>
        <time>2025-07-26T11:09:35.612Z</time>
      </trkpt>
      <trkpt lat="42.512351" lon="2.072798">
        <ele>1727.9</ele>
        <time>2025-07-26T11:10:29.786Z</time>
      </trkpt>
      <trkpt lat="42.512218" lon="2.073050">
        <ele>1727.4</ele>
        <time>2025-07-26T11:10:54.150Z</time>
      </trkpt>
      <trkpt lat="42.511991" lon="2.073394">
        <ele>1726.8</ele>
        <time>2025-07-26T11:11:30.522Z</time>
      </trkpt>
      <trkpt lat="42.511793" lon="2.073550">
        <ele>1724.7</ele>
        <time>2025-07-26T11:12:04.781Z</time>
      </trkpt>
      <trkpt lat="42.511503" lon="2.073621">
        <ele>1722.1</ele>
        <time>2025-07-26T11:12:48.448Z</time>
      </trkpt>
      <trkpt lat="42.511244" lon="2.073788">
        <ele>1718.1</ele>
        <time>2025-07-26T11:13:40.739Z</time>
      </trkpt>
      <trkpt lat="42.511110" lon="2.074290">
        <ele>1715.1</ele>
        <time>2025-07-26T11:14:36.280Z</time>
      </trkpt>
      <trkpt lat="42.510993" lon="2.074659">
        <ele>1714.0</ele>
        <time>2025-07-26T11:15:10.949Z</time>
      </trkpt>
      <trkpt lat="42.510919" lon="2.075076">
        <ele>1713.5</ele>
        <time>2025-07-26T11:15:44.359Z</time>
      </trkpt>
      <trkpt lat="42.510879" lon="2.075790">
        <ele>1712.6</ele>
        <time>2025-07-26T11:16:40.021Z</time>
      </trkpt>
      <trkpt lat="42.510908" lon="2.076195">
        <ele>1712.5</ele>
        <time>2025-07-26T11:17:09.115Z</time>
      </trkpt>
      <trkpt lat="42.511006" lon="2.076641">
        <ele>1710.8</ele>
        <time>2025-07-26T11:17:52.265Z</time>
      </trkpt>
      <trkpt lat="42.510998" lon="2.077175">
        <ele>1706.5</ele>
        <time>2025-07-26T11:18:56.027Z</time>
      </trkpt>
      <trkpt lat="42.510978" lon="2.077556">
        <ele>1704.8</ele>
        <time>2025-07-26T11:19:33.021Z</time>
      </trkpt>
      <trkpt lat="42.510788" lon="2.077765">
        <ele>1703.1</ele>
        <time>2025-07-26T11:20:08.477Z</time>
      </trkpt>
      <trkpt lat="42.510514" lon="2.077825">
        <ele>1701.1</ele>
        <time>2025-07-26T11:20:46.748Z</time>
      </trkpt>
      <trkpt lat="42.510285" lon="2.078054">
        <ele>1698.6</ele>
        <time>2025-07-26T11:21:29.726Z</time>
      </trkpt>
      <trkpt lat="42.510061" lon="2.078003">
        <ele>1696.0</ele>
        <time>2025-07-26T11:22:12.280Z</time>
      </trkpt>
      <trkpt lat="42.509839" lon="2.078091">
        <ele>1691.3</ele>
        <time>2025-07-26T11:23:04.598Z</time>
      </trkpt>
      <trkpt lat="42.509551" lon="2.078514">
        <ele>1683.2</ele>
        <time>2025-07-26T11:24:35.633Z</time>
      </trkpt>
      <trkpt lat="42.509446" lon="2.078850">
        <ele>1680.1</ele>
        <time>2025-07-26T11:25:22.425Z</time>
      </trkpt>
      <trkpt lat="42.509264" lon="2.079321">
        <ele>1675.4</ele>
        <time>2025-07-26T11:26:28.346Z</time>
      </trkpt>
      <trkpt lat="42.508920" lon="2.079619">
        <ele>1669.6</ele>
        <time>2025-07-26T11:27:41.800Z</time>
      </trkpt>
      <trkpt lat="42.508653" lon="2.079474">
        <ele>1663.4</ele>
        <time>2025-07-26T11:28:46.654Z</time>
      </trkpt>
      <trkpt lat="42.508325" lon="2.079499">
        <ele>1656.4</ele>
        <time>2025-07-26T11:30:00.980Z</time>
      </trkpt>
      <trkpt lat="42.508041" lon="2.079568">
        <ele>1650.8</ele>
        <time>2025-07-26T11:31:02.759Z</time>
      </trkpt>
      <trkpt lat="42.507773" lon="2.079581">
        <ele>1645.2</ele>
        <time>2025-07-26T11:32:03.596Z</time>
      </trkpt>
      <trkpt lat="42.507460" lon="2.079598">
        <ele>1638.7</ele>
        <time>2025-07-26T11:33:12.385Z</time>
      </trkpt>
      <trkpt lat="42.507289" lon="2.079821">
        <ele>1637.2</ele>
        <time>2025-07-26T11:33:44.324Z</time>
      </trkpt>
      <trkpt lat="42.507048" lon="2.079903">
        <ele>1635.6</ele>
        <time>2025-07-26T11:34:18.124Z</time>
      </trkpt>
      <trkpt lat="42.506676" lon="2.079833">
        <ele>1631.0</ele>
        <time>2025-07-26T11:35:21.049Z</time>
      </trkpt>
      <trkpt lat="42.506327" lon="2.079812">
        <ele>1627.6</ele>
        <time>2025-07-26T11:36:14.901Z</time>
      </trkpt>
      <trkpt lat="42.506011" lon="2.079804">
        <ele>1625.1</ele>
        <time>2025-07-26T11:37:00.117Z</time>
      </trkpt>
      <trkpt lat="42.505706" lon="2.079778">
        <ele>1623.9</ele>
        <time>2025-07-26T11:37:36.351Z</time>
      </trkpt>
      <trkpt lat="42.505473" lon="2.079660">
        <ele>1623.0</ele>
        <time>2025-07-26T11:38:06.039Z</time>
      </trkpt>
      <trkpt lat="42.505176" lon="2.079354">
        <ele>1621.5</ele>
        <time>2025-07-26T11:38:50.083Z</time>
      </trkpt>
      <trkpt lat="42.504862" lon="2.078784">
        <ele>1618.5</ele>
        <time>2025-07-26T11:39:58.404Z</time>
      </trkpt>
      <trkpt lat="42.504686" lon="2.078508">
        <ele>1616.9</ele>
        <time>2025-07-26T11:40:33.493Z</time>
      </trkpt>
      <trkpt lat="42.504457" lon="2.078296">
        <ele>1615.3</ele>
        <time>2025-07-26T11:41:09.569Z</time>
      </trkpt>
      <trkpt lat="42.504176" lon="2.078137">
        <ele>1614.7</ele>
        <time>2025-07-26T11:41:42.687Z</time>
      </trkpt>
      <trkpt lat="42.503952" lon="2.078178">
        <ele>1614.2</ele>
        <time>2025-07-26T11:42:12.763Z</time>
      </trkpt>
      <trkpt lat="42.503746" lon="2.078387">
        <ele>1613.9</ele>
        <time>2025-07-26T11:42:39.420Z</time>
      </trkpt>
      <trkpt lat="42.503583" lon="2.078843">
        <ele>1614.8</ele>
        <time>2025-07-26T11:43:24.292Z</time>
      </trkpt>
      <trkpt lat="42.503464" lon="2.079398">
        <ele>1617.5</ele>
        <time>2025-07-26T11:44:32.741Z</time>
      </trkpt>
      <trkpt lat="42.503361" lon="2.079921">
        <ele>1622.3</ele>
        <time>2025-07-26T11:46:00.225Z</time>
      </trkpt>
      <trkpt lat="42.502998" lon="2.080917">
        <ele>1627.5</ele>
        <time>2025-07-26T11:48:14.669Z</time>
      </trkpt>
      <trkpt lat="42.502775" lon="2.081811">
        <ele>1631.3</ele>
        <time>2025-07-26T11:50:00.195Z</time>
      </trkpt>
      <trkpt lat="42.502689" lon="2.082182">
        <ele>1632.4</ele>
        <time>2025-07-26T11:50:39.440Z</time>
      </trkpt>
      <trkpt lat="42.502640" lon="2.082652">
        <ele>1633.8</ele>
        <time>2025-07-26T11:51:27.356Z</time>
      </trkpt>
      <trkpt lat="42.502604" lon="2.083186">
        <ele>1635.3</ele>
        <time>2025-07-26T11:52:20.160Z</time>
      </trkpt>
      <trkpt lat="42.502549" lon="2.083704">
        <ele>1636.7</ele>
        <time>2025-07-26T11:53:11.754Z</time>
      </trkpt>
      <trkpt lat="42.502383" lon="2.084645">
        <ele>1638.4</ele>
        <time>2025-07-26T11:54:36.962Z</time>
      </trkpt>
      <trkpt lat="42.502355" lon="2.085326">
        <ele>1638.6</ele>
        <time>2025-07-26T11:55:27.087Z</time>
      </trkpt>
      <trkpt lat="42.502389" lon="2.085793">
        <ele>1637.8</ele>
        <time>2025-07-26T11:56:05.011Z</time>
      </trkpt>
      <trkpt lat="42.502399" lon="2.086150">
        <ele>1637.2</ele>
        <time>2025-07-26T11:56:33.880Z</time>
      </trkpt>
      <trkpt lat="42.502389" lon="2.086673">
        <ele>1636.6</ele>
        <time>2025-07-26T11:57:13.998Z</time>
      </trkpt>
      <trkpt lat="42.502403" lon="2.087062">
        <ele>1636.2</ele>
        <time>2025-07-26T11:57:43.848Z</time>
      </trkpt>
      <trkpt lat="42.502446" lon="2.087802">
        <ele>1635.5</ele>
        <time>2025-07-26T11:58:40.035Z</time>
      </trkpt>
      <trkpt lat="42.502466" lon="2.088585">
        <ele>1632.9</ele>
        <time>2025-07-26T11:59:50.885Z</time>
      </trkpt>
      <trkpt lat="42.502467" lon="2.089322">
        <ele>1631.4</ele>
        <time>2025-07-26T12:00:51.814Z</time>
      </trkpt>
      <trkpt lat="42.502440" lon="2.090372">
        <ele>1628.6</ele>
        <time>2025-07-26T12:02:22.070Z</time>
      </trkpt>
      <trkpt lat="42.502402" lon="2.090746">
        <ele>1627.7</ele>
        <time>2025-07-26T12:02:54.140Z</time>
      </trkpt>
      <trkpt lat="42.502368" lon="2.091224">
        <ele>1626.3</ele>
        <time>2025-07-26T12:03:36.325Z</time>
      </trkpt>
      <trkpt lat="42.502425" lon="2.091613">
        <ele>1625.0</ele>
        <time>2025-07-26T12:04:12.125Z</time>
      </trkpt>
      <trkpt lat="42.502542" lon="2.091927">
        <ele>1625.1</ele>
        <time>2025-07-26T12:04:38.417Z</time>
      </trkpt>
      <trkpt lat="42.502837" lon="2.092182">
        <ele>1625.3</ele>
        <time>2025-07-26T12:05:14.009Z</time>
      </trkpt>
      <trkpt lat="42.502977" lon="2.092437">
        <ele>1625.1</ele>
        <time>2025-07-26T12:05:39.096Z</time>
      </trkpt>
      <trkpt lat="42.502904" lon="2.092733">
        <ele>1624.8</ele>
        <time>2025-07-26T12:06:02.775Z</time>
      </trkpt>
      <trkpt lat="42.502820" lon="2.093129">
        <ele>1624.5</ele>
        <time>2025-07-26T12:06:33.573Z</time>
      </trkpt>
      <trkpt lat="42.502849" lon="2.093502">
        <ele>1624.3</ele>
        <time>2025-07-26T12:07:01.741Z</time>
      </trkpt>
      <trkpt lat="42.502943" lon="2.093839">
        <ele>1625.8</ele>
        <time>2025-07-26T12:07:42.484Z</time>
      </trkpt>
      <trkpt lat="42.503025" lon="2.094250">
        <ele>1627.5</ele>
        <time>2025-07-26T12:08:30.458Z</time>
      </trkpt>
      <trkpt lat="42.503111" lon="2.094576">
        <ele>1626.2</ele>
        <time>2025-07-26T12:09:03.115Z</time>
      </trkpt>
      <trkpt lat="42.502850" lon="2.094534">
        <ele>1624.3</ele>
        <time>2025-07-26T12:09:47.897Z</time>
      </trkpt>
      <trkpt lat="42.502564" lon="2.094383">
        <ele>1619.2</ele>
        <time>2025-07-26T12:10:47.601Z</time>
      </trkpt>
      <trkpt lat="42.502272" lon="2.094241">
        <ele>1614.1</ele>
        <time>2025-07-26T12:11:48.105Z</time>
      </trkpt>
      <trkpt lat="42.501938" lon="2.094100">
        <ele>1609.2</ele>
        <time>2025-07-26T12:12:50.981Z</time>
      </trkpt>
      <trkpt lat="42.501589" lon="2.093791">
        <ele>1604.0</ele>
        <time>2025-07-26T12:14:03.310Z</time>
      </trkpt>
      <trkpt lat="42.501272" lon="2.093746">
        <ele>1600.6</ele>
        <time>2025-07-26T12:14:55.087Z</time>
      </trkpt>
      <trkpt lat="42.501048" lon="2.093722">
        <ele>1599.7</ele>
        <time>2025-07-26T12:15:26.446Z</time>
      </trkpt>
      <trkpt lat="42.500959" lon="2.093411">
        <ele>1599.0</ele>
        <time>2025-07-26T12:15:54.483Z</time>
      </trkpt>
      <trkpt lat="42.500819" lon="2.093152">
        <ele>1599.1</ele>
        <time>2025-07-26T12:16:18.857Z</time>
      </trkpt>
      <trkpt lat="42.500599" lon="2.092891">
        <ele>1599.3</ele>
        <time>2025-07-26T12:16:48.339Z</time>
      </trkpt>
      <trkpt lat="42.500289" lon="2.092647">
        <ele>1599.4</ele>
        <time>2025-07-26T12:17:24.038Z</time>
      </trkpt>
      <trkpt lat="42.500044" lon="2.092448">
        <ele>1599.6</ele>
        <time>2025-07-26T12:17:53.263Z</time>
      </trkpt>
      <trkpt lat="42.499775" lon="2.092326">
        <ele>1599.8</ele>
        <time>2025-07-26T12:18:22.922Z</time>
      </trkpt>
      <trkpt lat="42.499473" lon="2.092063">
        <ele>1599.3</ele>
        <time>2025-07-26T12:19:00.225Z</time>
      </trkpt>
      <trkpt lat="42.499139" lon="2.091812">
        <ele>1598.4</ele>
        <time>2025-07-26T12:19:42.375Z</time>
      </trkpt>
      <trkpt lat="42.498897" lon="2.091553">
        <ele>1598.0</ele>
        <time>2025-07-26T12:20:13.828Z</time>
      </trkpt>
      <trkpt lat="42.498716" lon="2.091281">
        <ele>1597.9</ele>
        <time>2025-07-26T12:20:40.496Z</time>
      </trkpt>
      <trkpt lat="42.498532" lon="2.090850">
        <ele>1598.2</ele>
        <time>2025-07-26T12:21:18.565Z</time>
      </trkpt>
      <trkpt lat="42.498315" lon="2.090450">
        <ele>1597.0</ele>
        <time>2025-07-26T12:22:00.298Z</time>
      </trkpt>
      <trkpt lat="42.498183" lon="2.090202">
        <ele>1595.7</ele>
        <time>2025-07-26T12:22:29.885Z</time>
      </trkpt>
      <trkpt lat="42.497992" lon="2.090937">
        <ele>1592.3</ele>
        <time>2025-07-26T12:23:45.135Z</time>
      </trkpt>
      <trkpt lat="42.497850" lon="2.091366">
        <ele>1589.5</ele>
        <time>2025-07-26T12:24:34.770Z</time>
      </trkpt>
      <trkpt lat="42.497602" lon="2.092249">
        <ele>1583.9</ele>
        <time>2025-07-26T12:26:14.511Z</time>
      </trkpt>
      <trkpt lat="42.497439" lon="2.092525">
        <ele>1582.8</ele>
        <time>2025-07-26T12:26:47.050Z</time>
      </trkpt>
      <trkpt lat="42.497197" lon="2.092657">
        <ele>1581.6</ele>
        <time>2025-07-26T12:27:18.926Z</time>
      </trkpt>
      <trkpt lat="42.496826" lon="2.092733">
        <ele>1580.8</ele>
        <time>2025-07-26T12:27:59.262Z</time>
      </trkpt>
      <trkpt lat="42.496577" lon="2.092702">
        <ele>1580.3</ele>
        <time>2025-07-26T12:28:27.072Z</time>
      </trkpt>
      <trkpt lat="42.496474" lon="2.092345">
        <ele>1579.5</ele>
        <time>2025-07-26T12:28:58.321Z</time>
      </trkpt>
      <trkpt lat="42.496117" lon="2.092393">
        <ele>1578.5</ele>
        <time>2025-07-26T12:29:39.392Z</time>
      </trkpt>
      <trkpt lat="42.495856" lon="2.092370">
        <ele>1577.6</ele>
        <time>2025-07-26T12:30:09.372Z</time>
      </trkpt>
      <trkpt lat="42.495486" lon="2.092418">
        <ele>1577.8</ele>
        <time>2025-07-26T12:30:47.156Z</time>
      </trkpt>
      <trkpt lat="42.495276" lon="2.092577">
        <ele>1578.4</ele>
        <time>2025-07-26T12:31:15.484Z</time>
      </trkpt>
      <trkpt lat="42.495381" lon="2.093250">
        <ele>1580.4</ele>
        <time>2025-07-26T12:32:24.663Z</time>
      </trkpt>
      <trkpt lat="42.495408" lon="2.093568">
        <ele>1581.2</ele>
        <time>2025-07-26T12:32:55.223Z</time>
      </trkpt>
      <trkpt lat="42.495494" lon="2.094153">
        <ele>1582.6</ele>
        <time>2025-07-26T12:33:52.298Z</time>
      </trkpt>
      <trkpt lat="42.495589" lon="2.095084">
        <ele>1577.5</ele>
        <time>2025-07-26T12:35:29.373Z</time>
      </trkpt>
      <trkpt lat="42.495570" lon="2.095464">
        <ele>1575.8</ele>
        <time>2025-07-26T12:36:06.622Z</time>
      </trkpt>
      <trkpt lat="42.495480" lon="2.095754">
        <ele>1574.4</ele>
        <time>2025-07-26T12:36:38.230Z</time>
      </trkpt>
      <trkpt lat="42.495635" lon="2.096032">
        <ele>1572.8</ele>
        <time>2025-07-26T12:37:12.418Z</time>
      </trkpt>
      <trkpt lat="42.496028" lon="2.096593">
        <ele>1569.2</ele>
        <time>2025-07-26T12:38:28.487Z</time>
      </trkpt>
      <trkpt lat="42.496566" lon="2.097342">
        <ele>1563.3</ele>
        <time>2025-07-26T12:40:17.089Z</time>
      </trkpt>
      <trkpt lat="42.496896" lon="2.097818">
        <ele>1557.7</ele>
        <time>2025-07-26T12:41:36.933Z</time>
      </trkpt>
      <trkpt lat="42.497069" lon="2.098079">
        <ele>1554.7</ele>
        <time>2025-07-26T12:42:19.484Z</time>
      </trkpt>
      <trkpt lat="42.497226" lon="2.098603">
        <ele>1549.8</ele>
        <time>2025-07-26T12:43:28.600Z</time>
      </trkpt>
      <trkpt lat="42.497265" lon="2.098944">
        <ele>1550.3</ele>
        <time>2025-07-26T12:43:57.456Z</time>
      </trkpt>
      <trkpt lat="42.497351" lon="2.099909">
        <ele>1551.5</ele>
        <time>2025-07-26T12:45:18.480Z</time>
      </trkpt>
      <trkpt lat="42.497389" lon="2.100294">
        <ele>1551.4</ele>
        <time>2025-07-26T12:45:46.430Z</time>
      </trkpt>
      <trkpt lat="42.497579" lon="2.100845">
        <ele>1550.4</ele>
        <time>2025-07-26T12:46:35.093Z</time>
      </trkpt>
      <trkpt lat="42.497847" lon="2.101421">
        <ele>1548.6</ele>
        <time>2025-07-26T12:47:33.684Z</time>
      </trkpt>
      <trkpt lat="42.498105" lon="2.102024">
        <ele>1548.0</ele>
        <time>2025-07-26T12:48:26.479Z</time>
      </trkpt>
      <trkpt lat="42.498248" lon="2.102390">
        <ele>1544.8</ele>
        <time>2025-07-26T12:49:14.518Z</time>
      </trkpt>
      <trkpt lat="42.498370" lon="2.102730">
        <ele>1542.0</ele>
        <time>2025-07-26T12:49:58.332Z</time>
      </trkpt>
      <trkpt lat="42.498425" lon="2.103207">
        <ele>1538.4</ele>
        <time>2025-07-26T12:50:53.795Z</time>
      </trkpt>
      <trkpt lat="42.498502" lon="2.103591">
        <ele>1535.3</ele>
        <time>2025-07-26T12:51:40.376Z</time>
      </trkpt>
      <trkpt lat="42.498604" lon="2.104020">
        <ele>1531.7</ele>
        <time>2025-07-26T12:52:33.970Z</time>
      </trkpt>
      <trkpt lat="42.498503" lon="2.104445">
        <ele>1531.1</ele>
        <time>2025-07-26T12:53:09.570Z</time>
      </trkpt>
      <trkpt lat="42.498414" lon="2.104767">
        <ele>1530.6</ele>
        <time>2025-07-26T12:53:37.593Z</time>
      </trkpt>
      <trkpt lat="42.498447" lon="2.105291">
        <ele>1529.6</ele>
        <time>2025-07-26T12:54:20.271Z</time>
      </trkpt>
      <trkpt lat="42.498539" lon="2.105872">
        <ele>1528.7</ele>
        <time>2025-07-26T12:55:07.620Z</time>
      </trkpt>
      <trkpt lat="42.499006" lon="2.106601">
        <ele>1524.8</ele>
        <time>2025-07-26T12:56:38.839Z</time>
      </trkpt>
      <trkpt lat="42.499189" lon="2.106909">
        <ele>1522.9</ele>
        <time>2025-07-26T12:57:18.373Z</time>
      </trkpt>
      <trkpt lat="42.499345" lon="2.107521">
        <ele>1519.6</ele>
        <time>2025-07-26T12:58:23.600Z</time>
      </trkpt>
      <trkpt lat="42.499395" lon="2.107866">
        <ele>1517.8</ele>
        <time>2025-07-26T12:58:59.122Z</time>
      </trkpt>
      <trkpt lat="42.499499" lon="2.108441">
        <ele>1514.8</ele>
        <time>2025-07-26T12:59:58.743Z</time>
      </trkpt>
      <trkpt lat="42.499684" lon="2.109403">
        <ele>1510.8</ele>
        <time>2025-07-26T13:01:32.516Z</time>
      </trkpt>
      <trkpt lat="42.499749" lon="2.109777">
        <ele>1509.4</ele>
        <time>2025-07-26T13:02:07.972Z</time>
      </trkpt>
      <trkpt lat="42.499829" lon="2.110239">
        <ele>1507.7</ele>
        <time>2025-07-26T13:02:51.897Z</time>
      </trkpt>
      <trkpt lat="42.499910" lon="2.110555">
        <ele>1506.3</ele>
        <time>2025-07-26T13:03:23.425Z</time>
      </trkpt>
      <trkpt lat="42.499819" lon="2.110819">
        <ele>1505.0</ele>
        <time>2025-07-26T13:03:55.748Z</time>
      </trkpt>
      <trkpt lat="42.499622" lon="2.110605">
        <ele>1507.1</ele>
        <time>2025-07-26T13:04:42.383Z</time>
      </trkpt>
      <trkpt lat="42.499288" lon="2.110424">
        <ele>1509.0</ele>
        <time>2025-07-26T13:05:37.084Z</time>
      </trkpt>
      <trkpt lat="42.499114" lon="2.110573">
        <ele>1509.6</ele>
        <time>2025-07-26T13:06:04.827Z</time>
      </trkpt>
      <trkpt lat="42.499346" lon="2.110677">
        <ele>1507.5</ele>
        <time>2025-07-26T13:06:42.270Z</time>
      </trkpt>
      <trkpt lat="42.499538" lon="2.111076">
        <ele>1503.8</ele>
        <time>2025-07-26T13:07:38.260Z</time>
      </trkpt>
      <trkpt lat="42.499746" lon="2.111467">
        <ele>1499.7</ele>
        <time>2025-07-26T13:08:36.739Z</time>
      </trkpt>
      <trkpt lat="42.499965" lon="2.111655">
        <ele>1497.5</ele>
        <time>2025-07-26T13:09:14.362Z</time>
      </trkpt>
      <trkpt lat="42.500169" lon="2.111969">
        <ele>1496.3</ele>
        <time>2025-07-26T13:09:51.217Z</time>
      </trkpt>
      <trkpt lat="42.500311" lon="2.112377">
        <ele>1495.4</ele>
        <time>2025-07-26T13:10:28.679Z</time>
      </trkpt>
      <trkpt lat="42.500327" lon="2.112755">
        <ele>1494.5</ele>
        <time>2025-07-26T13:11:06.300Z</time>
      </trkpt>
      <trkpt lat="42.500336" lon="2.113071">
        <ele>1494.4</ele>
        <time>2025-07-26T13:11:29.407Z</time>
      </trkpt>
      <trkpt lat="42.500405" lon="2.113498">
        <ele>1494.2</ele>
        <time>2025-07-26T13:12:01.362Z</time>
      </trkpt>
      <trkpt lat="42.500477" lon="2.113899">
        <ele>1496.3</ele>
        <time>2025-07-26T13:12:52.380Z</time>
      </trkpt>
      <trkpt lat="42.500610" lon="2.114355">
        <ele>1498.9</ele>
        <time>2025-07-26T13:13:53.038Z</time>
      </trkpt>
      <trkpt lat="42.500591" lon="2.114731">
        <ele>1498.0</ele>
        <time>2025-07-26T13:14:24.769Z</time>
      </trkpt>
      <trkpt lat="42.500562" lon="2.115023">
        <ele>1497.5</ele>
        <time>2025-07-26T13:14:51.189Z</time>
      </trkpt>
      <trkpt lat="42.500564" lon="2.115402">
        <ele>1497.3</ele>
        <time>2025-07-26T13:15:19.159Z</time>
      </trkpt>
      <trkpt lat="42.500595" lon="2.115788">
        <ele>1497.0</ele>
        <time>2025-07-26T13:15:47.781Z</time>
      </trkpt>
      <trkpt lat="42.500889" lon="2.116814">
        <ele>1494.1</ele>
        <time>2025-07-26T13:17:22.663Z</time>
      </trkpt>
      <trkpt lat="42.501114" lon="2.117390">
        <ele>1488.9</ele>
        <time>2025-07-26T13:18:39.664Z</time>
      </trkpt>
      <trkpt lat="42.501343" lon="2.117882">
        <ele>1484.2</ele>
        <time>2025-07-26T13:19:48.489Z</time>
      </trkpt>
      <trkpt lat="42.501532" lon="2.118301">
        <ele>1481.9</ele>
        <time>2025-07-26T13:20:37.424Z</time>
      </trkpt>
      <trkpt lat="42.501567" lon="2.118597">
        <ele>1481.3</ele>
        <time>2025-07-26T13:21:02.893Z</time>
      </trkpt>
      <trkpt lat="42.501542" lon="2.118909">
        <ele>1480.6</ele>
        <time>2025-07-26T13:21:28.854Z</time>
      </trkpt>
      <trkpt lat="42.501183" lon="2.119100">
        <ele>1479.5</ele>
        <time>2025-07-26T13:22:12.413Z</time>
      </trkpt>
      <trkpt lat="42.500928" lon="2.119284">
        <ele>1479.4</ele>
        <time>2025-07-26T13:22:41.392Z</time>
      </trkpt>
      <trkpt lat="42.500746" lon="2.119595">
        <ele>1480.3</ele>
        <time>2025-07-26T13:23:19.072Z</time>
      </trkpt>
      <trkpt lat="42.500544" lon="2.120014">
        <ele>1482.6</ele>
        <time>2025-07-26T13:24:18.014Z</time>
      </trkpt>
      <trkpt lat="42.500450" lon="2.120303">
        <ele>1484.9</ele>
        <time>2025-07-26T13:25:04.230Z</time>
      </trkpt>
      <trkpt lat="42.500405" lon="2.120616">
        <ele>1487.3</ele>
        <time>2025-07-26T13:25:51.803Z</time>
      </trkpt>
      <trkpt lat="42.500389" lon="2.120962">
        <ele>1491.1</ele>
        <time>2025-07-26T13:26:55.236Z</time>
      </trkpt>
      <trkpt lat="42.500195" lon="2.121278">
        <ele>1495.5</ele>
        <time>2025-07-26T13:28:10.224Z</time>
      </trkpt>
      <trkpt lat="42.500077" lon="2.121552">
        <ele>1496.9</ele>
        <time>2025-07-26T13:28:48.602Z</time>
      </trkpt>
      <trkpt lat="42.500240" lon="2.121824">
        <ele>1498.2</ele>
        <time>2025-07-26T13:29:27.370Z</time>
      </trkpt>
      <trkpt lat="42.500515" lon="2.122304">
        <ele>1497.7</ele>
        <time>2025-07-26T13:30:13.292Z</time>
      </trkpt>
      <trkpt lat="42.500479" lon="2.122688">
        <ele>1501.9</ele>
        <time>2025-07-26T13:31:25.724Z</time>
      </trkpt>
      <trkpt lat="42.500390" lon="2.123000">
        <ele>1506.9</ele>
        <time>2025-07-26T13:32:41.338Z</time>
      </trkpt>
      <trkpt lat="42.500247" lon="2.123418">
        <ele>1512.1</ele>
        <time>2025-07-26T13:34:07.140Z</time>
      </trkpt>
      <trkpt lat="42.500176" lon="2.123707">
        <ele>1515.6</ele>
        <time>2025-07-26T13:35:04.132Z</time>
      </trkpt>
      <trkpt lat="42.499860" lon="2.124396">
        <ele>1518.7</ele>
        <time>2025-07-26T13:36:33.007Z</time>
      </trkpt>
      <trkpt lat="42.499568" lon="2.124862">
        <ele>1519.9</ele>
        <time>2025-07-26T13:37:28.139Z</time>
      </trkpt>
      <trkpt lat="42.499187" lon="2.125383">
        <ele>1522.5</ele>
        <time>2025-07-26T13:38:46.981Z</time>
      </trkpt>
      <trkpt lat="42.498909" lon="2.125770">
        <ele>1524.4</ele>
        <time>2025-07-26T13:39:44.323Z</time>
      </trkpt>
      <trkpt lat="42.498712" lon="2.125929">
        <ele>1525.0</ele>
        <time>2025-07-26T13:40:13.142Z</time>
      </trkpt>
      <trkpt lat="42.498375" lon="2.126168">
        <ele>1525.9</ele>
        <time>2025-07-26T13:40:57.802Z</time>
      </trkpt>
      <trkpt lat="42.498155" lon="2.126325">
        <ele>1525.2</ele>
        <time>2025-07-26T13:41:25.414Z</time>
      </trkpt>
      <trkpt lat="42.497917" lon="2.126412">
        <ele>1524.6</ele>
        <time>2025-07-26T13:41:52.936Z</time>
      </trkpt>
      <trkpt lat="42.497720" lon="2.126561">
        <ele>1521.2</ele>
        <time>2025-07-26T13:42:34.940Z</time>
      </trkpt>
      <trkpt lat="42.497459" lon="2.126835">
        <ele>1516.2</ele>
        <time>2025-07-26T13:43:36.531Z</time>
      </trkpt>
      <trkpt lat="42.497234" lon="2.126973">
        <ele>1510.6</ele>
        <time>2025-07-26T13:44:33.674Z</time>
      </trkpt>
      <trkpt lat="42.496988" lon="2.127086">
        <ele>1504.8</ele>
        <time>2025-07-26T13:45:33.038Z</time>
      </trkpt>
      <trkpt lat="42.496748" lon="2.127189">
        <ele>1500.2</ele>
        <time>2025-07-26T13:46:24.809Z</time>
      </trkpt>
      <trkpt lat="42.496510" lon="2.127292">
        <ele>1495.6</ele>
        <time>2025-07-26T13:47:17.032Z</time>
      </trkpt>
      <trkpt lat="42.496274" lon="2.127433">
        <ele>1491.8</ele>
        <time>2025-07-26T13:48:04.805Z</time>
      </trkpt>
      <trkpt lat="42.496049" lon="2.127553">
        <ele>1488.3</ele>
        <time>2025-07-26T13:48:49.434Z</time>
      </trkpt>
      <trkpt lat="42.495816" lon="2.127694">
        <ele>1486.6</ele>
        <time>2025-07-26T13:49:24.307Z</time>
      </trkpt>
      <trkpt lat="42.495565" lon="2.127646">
        <ele>1485.0</ele>
        <time>2025-07-26T13:49:58.166Z</time>
      </trkpt>
      <trkpt lat="42.495170" lon="2.127550">
        <ele>1485.7</ele>
        <time>2025-07-26T13:50:43.775Z</time>
      </trkpt>
      <trkpt lat="42.494889" lon="2.127498">
        <ele>1486.2</ele>
        <time>2025-07-26T13:51:15.204Z</time>
      </trkpt>
      <trkpt lat="42.494664" lon="2.127473">
        <ele>1486.4</ele>
        <time>2025-07-26T13:51:39.800Z</time>
      </trkpt>
      <trkpt lat="42.494461" lon="2.127787">
        <ele>1487.4</ele>
        <time>2025-07-26T13:52:19.741Z</time>
      </trkpt>
      <trkpt lat="42.494321" lon="2.128010">
        <ele>1489.0</ele>
        <time>2025-07-26T13:52:58.035Z</time>
      </trkpt>
      <trkpt lat="42.494157" lon="2.127852">
        <ele>1490.8</ele>
        <time>2025-07-26T13:53:39.190Z</time>
      </trkpt>
      <trkpt lat="42.494201" lon="2.128084">
        <ele>1490.7</ele>
        <time>2025-07-26T13:54:01.686Z</time>
      </trkpt>
      <trkpt lat="42.494393" lon="2.128453">
        <ele>1490.5</ele>
        <time>2025-07-26T13:54:34.551Z</time>
      </trkpt>
      <trkpt lat="42.494441" lon="2.128780">
        <ele>1492.2</ele>
        <time>2025-07-26T13:55:16.206Z</time>
      </trkpt>
      <trkpt lat="42.494512" lon="2.129215">
        <ele>1494.6</ele>
        <time>2025-07-26T13:56:11.969Z</time>
      </trkpt>
      <trkpt lat="42.494405" lon="2.129553">
        <ele>1499.7</ele>
        <time>2025-07-26T13:57:30.894Z</time>
      </trkpt>
      <trkpt lat="42.494239" lon="2.129849">
        <ele>1504.0</ele>
        <time>2025-07-26T13:58:41.610Z</time>
      </trkpt>
      <trkpt lat="42.494168" lon="2.130213">
        <ele>1506.2</ele>
        <time>2025-07-26T13:59:31.473Z</time>
      </trkpt>
      <trkpt lat="42.494132" lon="2.130560">
        <ele>1507.8</ele>
        <time>2025-07-26T14:00:13.053Z</time>
      </trkpt>
      <trkpt lat="42.494057" lon="2.130901">
        <ele>1508.8</ele>
        <time>2025-07-26T14:00:48.237Z</time>
      </trkpt>
      <trkpt lat="42.493938" lon="2.131367">
        <ele>1508.8</ele>
        <time>2025-07-26T14:01:23.209Z</time>
      </trkpt>
      <trkpt lat="42.493842" lon="2.131700">
        <ele>1507.7</ele>
        <time>2025-07-26T14:01:57.298Z</time>
      </trkpt>
      <trkpt lat="42.493468" lon="2.132009">
        <ele>1510.4</ele>
        <time>2025-07-26T14:03:07.970Z</time>
      </trkpt>
      <trkpt lat="42.493284" lon="2.132318">
        <ele>1511.7</ele>
        <time>2025-07-26T14:03:52.677Z</time>
      </trkpt>
      <trkpt lat="42.493399" lon="2.132746">
        <ele>1513.0</ele>
        <time>2025-07-26T14:04:39.502Z</time>
      </trkpt>
      <trkpt lat="42.493532" lon="2.133074">
        <ele>1514.1</ele>
        <time>2025-07-26T14:05:16.769Z</time>
      </trkpt>
      <trkpt lat="42.493793" lon="2.133234">
        <ele>1512.8</ele>
        <time>2025-07-26T14:05:52.798Z</time>
      </trkpt>
      <trkpt lat="42.494014" lon="2.133254">
        <ele>1511.1</ele>
        <time>2025-07-26T14:06:25.664Z</time>
      </trkpt>
      <trkpt lat="42.493828" lon="2.133466">
        <ele>1516.2</ele>
        <time>2025-07-26T14:07:42.477Z</time>
      </trkpt>
      <trkpt lat="42.493620" lon="2.133801">
        <ele>1523.0</ele>
        <time>2025-07-26T14:09:23.576Z</time>
      </trkpt>
      <trkpt lat="42.493494" lon="2.134223">
        <ele>1528.2</ele>
        <time>2025-07-26T14:10:48.745Z</time>
      </trkpt>
      <trkpt lat="42.493396" lon="2.134603">
        <ele>1531.0</ele>
        <time>2025-07-26T14:11:48.830Z</time>
      </trkpt>
      <trkpt lat="42.493401" lon="2.134940">
        <ele>1530.5</ele>
        <time>2025-07-26T14:12:15.771Z</time>
      </trkpt>
      <trkpt lat="42.493399" lon="2.135388">
        <ele>1529.7</ele>
        <time>2025-07-26T14:12:51.563Z</time>
      </trkpt>
      <trkpt lat="42.493468" lon="2.135761">
        <ele>1527.7</ele>
        <time>2025-07-26T14:13:31.325Z</time>
      </trkpt>
      <trkpt lat="42.493711" lon="2.136088">
        <ele>1525.3</ele>
        <time>2025-07-26T14:14:18.523Z</time>
      </trkpt>
      <trkpt lat="42.493719" lon="2.136239">
        <ele>1524.5</ele>
        <time>2025-07-26T14:14:34.079Z</time>
      </trkpt>
    </trkseg>
  </trk>
</gpx>
