<?xml version="1.0" encoding="UTF-8"?>
<gpx version="1.1" creator="carnet-trek seed" xmlns="http://www.topografix.com/GPX/1/1">
  <metadata>
    <name>GR70 3 – Le Bouchet-Saint-Nicolas → Pradelles</name>
  </metadata>
  <wpt lat="44.842000" lon="3.832000">
    <ele>1100</ele>
    <name>Landos</name>
    <sym>Restaurant</sym>
  </wpt>
  <wpt lat="44.770000" lon="3.885000">
    <ele>1150</ele>
    <name>Pradelles</name>
    <sym>Lodging</sym>
  </wpt>
  <trk>
    <name>GR70 3 – Le Bouchet-Saint-Nicolas → Pradelles</name>
    <type>hike</type>
    <trkseg>
      <trkpt lat="44.891500" lon="3.788500">
        <ele>1219.4</ele>
        <time>2025-05-12T07:30:00.000Z</time>
      </trkpt>
      <trkpt lat="44.891256" lon="3.788667">
        <ele>1219.6</ele>
        <time>2025-05-12T07:30:27.756Z</time>
      </trkpt>
      <trkpt lat="44.891013" lon="3.788836">
        <ele>1218.2</ele>
        <time>2025-05-12T07:31:01.839Z</time>
      </trkpt>
      <trkpt lat="44.890773" lon="3.789011">
        <ele>1216.5</ele>
        <time>2025-05-12T07:31:37.548Z</time>
      </trkpt>
      <trkpt lat="44.890534" lon="3.789189">
        <ele>1214.8</ele>
        <time>2025-05-12T07:32:13.824Z</time>
      </trkpt>
      <trkpt lat="44.890299" lon="3.789377">
        <ele>1215.5</ele>
        <time>2025-05-12T07:32:46.334Z</time>
      </trkpt>
      <trkpt lat="44.890070" lon="3.789580">
        <ele>1214.2</ele>
        <time>2025-05-12T07:33:19.516Z</time>
      </trkpt>
      <trkpt lat="44.889843" lon="3.789788">
        <ele>1212.6</ele>
        <time>2025-05-12T07:33:55.186Z</time>
      </trkpt>
      <trkpt lat="44.889620" lon="3.790003">
        <ele>1211.6</ele>
        <time>2025-05-12T07:34:26.980Z</time>
      </trkpt>
      <trkpt lat="44.889405" lon="3.790238">
        <ele>1210.9</ele>
        <time>2025-05-12T07:34:56.605Z</time>
      </trkpt>
      <trkpt lat="44.889193" lon="3.790481">
        <ele>1210.3</ele>
        <time>2025-05-12T07:35:26.249Z</time>
      </trkpt>
      <trkpt lat="44.888982" lon="3.790725">
        <ele>1208.4</ele>
        <time>2025-05-12T07:36:04.008Z</time>
      </trkpt>
      <trkpt lat="44.888776" lon="3.790982">
        <ele>1209.0</ele>
        <time>2025-05-12T07:36:37.108Z</time>
      </trkpt>
      <trkpt lat="44.888570" lon="3.791238">
        <ele>1207.3</ele>
        <time>2025-05-12T07:37:13.932Z</time>
      </trkpt>
      <trkpt lat="44.888364" lon="3.791495">
        <ele>1206.0</ele>
        <time>2025-05-12T07:37:47.868Z</time>
      </trkpt>
      <trkpt lat="44.888159" lon="3.791753">
        <ele>1206.2</ele>
        <time>2025-05-12T07:38:16.691Z</time>
      </trkpt>
      <trkpt lat="44.887958" lon="3.792021">
        <ele>1206.1</ele>
        <time>2025-05-12T07:38:44.044Z</time>
      </trkpt>
      <trkpt lat="44.887744" lon="3.792260">
        <ele>1206.1</ele>
        <time>2025-05-12T07:39:10.082Z</time>
      </trkpt>
      <trkpt lat="44.887534" lon="3.792506">
        <ele>1204.3</ele>
        <time>2025-05-12T07:39:46.882Z</time>
      </trkpt>
      <trkpt lat="44.887305" lon="3.792708">
        <ele>1204.7</ele>
        <time>2025-05-12T07:40:16.846Z</time>
      </trkpt>
      <trkpt lat="44.887079" lon="3.792919">
        <ele>1204.0</ele>
        <time>2025-05-12T07:40:46.884Z</time>
      </trkpt>
      <trkpt lat="44.886846" lon="3.793110">
        <ele>1204.2</ele>
        <time>2025-05-12T07:41:15.286Z</time>
      </trkpt>
      <trkpt lat="44.886600" lon="3.793272">
        <ele>1204.5</ele>
        <time>2025-05-12T07:41:43.614Z</time>
      </trkpt>
      <trkpt lat="44.886356" lon="3.793438">
        <ele>1203.1</ele>
        <time>2025-05-12T07:42:17.884Z</time>
      </trkpt>
      <trkpt lat="44.886096" lon="3.793567">
        <ele>1204.4</ele>
        <time>2025-05-12T07:42:58.167Z</time>
      </trkpt>
      <trkpt lat="44.885834" lon="3.793692">
        <ele>1203.4</ele>
        <time>2025-05-12T07:43:30.509Z</time>
      </trkpt>
      <trkpt lat="44.885561" lon="3.793790">
        <ele>1203.7</ele>
        <time>2025-05-12T07:44:00.038Z</time>
      </trkpt>
      <trkpt lat="44.885287" lon="3.793887">
        <ele>1203.6</ele>
        <time>2025-05-12T07:44:27.309Z</time>
      </trkpt>
      <trkpt lat="44.884997" lon="3.793943">
        <ele>1203.8</ele>
        <time>2025-05-12T07:44:57.067Z</time>
      </trkpt>
      <trkpt lat="44.884713" lon="3.794017">
        <ele>1203.7</ele>
        <time>2025-05-12T07:45:25.418Z</time>
      </trkpt>
      <trkpt lat="44.884425" lon="3.794078">
        <ele>1205.1</ele>
        <time>2025-05-12T07:46:08.369Z</time>
      </trkpt>
      <trkpt lat="44.884149" lon="3.794171">
        <ele>1203.7</ele>
        <time>2025-05-12T07:46:43.769Z</time>
      </trkpt>
      <trkpt lat="44.883868" lon="3.794249">
        <ele>1205.7</ele>
        <time>2025-05-12T07:47:31.636Z</time>
      </trkpt>
      <trkpt lat="44.883589" lon="3.794334">
        <ele>1205.2</ele>
        <time>2025-05-12T07:48:01.901Z</time>
      </trkpt>
      <trkpt lat="44.883326" lon="3.794454">
        <ele>1205.1</ele>
        <time>2025-05-12T07:48:29.172Z</time>
      </trkpt>
      <trkpt lat="44.883060" lon="3.794570">
        <ele>1205.1</ele>
        <time>2025-05-12T07:48:55.801Z</time>
      </trkpt>
      <trkpt lat="44.882803" lon="3.794707">
        <ele>1206.3</ele>
        <time>2025-05-12T07:49:34.046Z</time>
      </trkpt>
      <trkpt lat="44.882566" lon="3.794889">
        <ele>1206.8</ele>
        <time>2025-05-12T07:50:05.541Z</time>
      </trkpt>
      <trkpt lat="44.882324" lon="3.795061">
        <ele>1206.9</ele>
        <time>2025-05-12T07:50:32.090Z</time>
      </trkpt>
      <trkpt lat="44.882103" lon="3.795282">
        <ele>1206.0</ele>
        <time>2025-05-12T07:51:03.252Z</time>
      </trkpt>
      <trkpt lat="44.881892" lon="3.795526">
        <ele>1207.1</ele>
        <time>2025-05-12T07:51:41.189Z</time>
      </trkpt>
      <trkpt lat="44.881701" lon="3.795817">
        <ele>1206.7</ele>
        <time>2025-05-12T07:52:10.950Z</time>
      </trkpt>
      <trkpt lat="44.881511" lon="3.796113">
        <ele>1206.1</ele>
        <time>2025-05-12T07:52:41.039Z</time>
      </trkpt>
      <trkpt lat="44.881338" lon="3.796447">
        <ele>1207.4</ele>
        <time>2025-05-12T07:53:22.503Z</time>
      </trkpt>
      <trkpt lat="44.881158" lon="3.796764">
        <ele>1207.0</ele>
        <time>2025-05-12T07:53:52.478Z</time>
      </trkpt>
      <trkpt lat="44.880988" lon="3.797106">
        <ele>1206.8</ele>
        <time>2025-05-12T07:54:22.153Z</time>
      </trkpt>
      <trkpt lat="44.880820" lon="3.797452">
        <ele>1205.8</ele>
        <time>2025-05-12T07:54:56.183Z</time>
      </trkpt>
      <trkpt lat="44.880670" lon="3.797840">
        <ele>1204.9</ele>
        <time>2025-05-12T07:55:31.781Z</time>
      </trkpt>
      <trkpt lat="44.880506" lon="3.798198">
        <ele>1205.2</ele>
        <time>2025-05-12T07:56:04.088Z</time>
      </trkpt>
      <trkpt lat="44.880336" lon="3.798537">
        <ele>1204.3</ele>
        <time>2025-05-12T07:56:37.644Z</time>
      </trkpt>
      <trkpt lat="44.880159" lon="3.798863">
        <ele>1204.5</ele>
        <time>2025-05-12T07:57:07.369Z</time>
      </trkpt>
      <trkpt lat="44.879982" lon="3.799188">
        <ele>1204.1</ele>
        <time>2025-05-12T07:57:37.859Z</time>
      </trkpt>
      <trkpt lat="44.879796" lon="3.799491">
        <ele>1203.4</ele>
        <time>2025-05-12T07:58:08.726Z</time>
      </trkpt>
      <trkpt lat="44.879598" lon="3.799767">
        <ele>1203.0</ele>
        <time>2025-05-12T07:58:37.716Z</time>
      </trkpt>
      <trkpt lat="44.879389" lon="3.800016">
        <ele>1201.1</ele>
        <time>2025-05-12T07:59:15.279Z</time>
      </trkpt>
      <trkpt lat="44.879168" lon="3.800237">
        <ele>1201.6</ele>
        <time>2025-05-12T07:59:46.027Z</time>
      </trkpt>
      <trkpt lat="44.878938" lon="3.800438">
        <ele>1199.7</ele>
        <time>2025-05-12T08:00:23.206Z</time>
      </trkpt>
      <trkpt lat="44.878692" lon="3.800599">
        <ele>1198.8</ele>
        <time>2025-05-12T08:00:54.178Z</time>
      </trkpt>
      <trkpt lat="44.878433" lon="3.800731">
        <ele>1198.4</ele>
        <time>2025-05-12T08:01:22.717Z</time>
      </trkpt>
      <trkpt lat="44.878151" lon="3.800809">
        <ele>1197.2</ele>
        <time>2025-05-12T08:01:57.420Z</time>
      </trkpt>
      <trkpt lat="44.877881" lon="3.800914">
        <ele>1195.3</ele>
        <time>2025-05-12T08:02:35.800Z</time>
      </trkpt>
      <trkpt lat="44.877581" lon="3.800947">
        <ele>1194.8</ele>
        <time>2025-05-12T08:03:07.258Z</time>
      </trkpt>
      <trkpt lat="44.877293" lon="3.801009">
        <ele>1192.2</ele>
        <time>2025-05-12T08:03:50.991Z</time>
      </trkpt>
      <trkpt lat="44.876995" lon="3.801049">
        <ele>1192.0</ele>
        <time>2025-05-12T08:04:20.495Z</time>
      </trkpt>
      <trkpt lat="44.876701" lon="3.801097">
        <ele>1190.5</ele>
        <time>2025-05-12T08:04:57.719Z</time>
      </trkpt>
      <trkpt lat="44.876400" lon="3.801129">
        <ele>1188.4</ele>
        <time>2025-05-12T08:05:39.271Z</time>
      </trkpt>
      <trkpt lat="44.876097" lon="3.801156">
        <ele>1187.3</ele>
        <time>2025-05-12T08:06:14.693Z</time>
      </trkpt>
      <trkpt lat="44.875807" lon="3.801215">
        <ele>1184.8</ele>
        <time>2025-05-12T08:06:57.422Z</time>
      </trkpt>
      <trkpt lat="44.875517" lon="3.801272">
        <ele>1183.4</ele>
        <time>2025-05-12T08:07:33.798Z</time>
      </trkpt>
      <trkpt lat="44.875229" lon="3.801335">
        <ele>1180.8</ele>
        <time>2025-05-12T08:08:17.200Z</time>
      </trkpt>
      <trkpt lat="44.874961" lon="3.801444">
        <ele>1179.6</ele>
        <time>2025-05-12T08:08:50.971Z</time>
      </trkpt>
      <trkpt lat="44.874708" lon="3.801590">
        <ele>1178.8</ele>
        <time>2025-05-12T08:09:21.688Z</time>
      </trkpt>
      <trkpt lat="44.874455" lon="3.801736">
        <ele>1177.5</ele>
        <time>2025-05-12T08:09:55.377Z</time>
      </trkpt>
      <trkpt lat="44.874212" lon="3.801905">
        <ele>1175.1</ele>
        <time>2025-05-12T08:10:35.919Z</time>
      </trkpt>
      <trkpt lat="44.873992" lon="3.802129">
        <ele>1173.5</ele>
        <time>2025-05-12T08:11:11.486Z</time>
      </trkpt>
      <trkpt lat="44.873771" lon="3.802351">
        <ele>1172.0</ele>
        <time>2025-05-12T08:11:46.157Z</time>
      </trkpt>
      <trkpt lat="44.873567" lon="3.802610">
        <ele>1171.6</ele>
        <time>2025-05-12T08:12:14.762Z</time>
      </trkpt>
      <trkpt lat="44.873367" lon="3.802882">
        <ele>1170.3</ele>
        <time>2025-05-12T08:12:49.212Z</time>
      </trkpt>
      <trkpt lat="44.873173" lon="3.803167">
        <ele>1167.2</ele>
        <time>2025-05-12T08:13:34.310Z</time>
      </trkpt>
      <trkpt lat="44.872989" lon="3.803474">
        <ele>1166.7</ele>
        <time>2025-05-12T08:14:04.408Z</time>
      </trkpt>
      <trkpt lat="44.872809" lon="3.803792">
        <ele>1165.4</ele>
        <time>2025-05-12T08:14:40.026Z</time>
      </trkpt>
      <trkpt lat="44.872632" lon="3.804117">
        <ele>1164.8</ele>
        <time>2025-05-12T08:15:10.993Z</time>
      </trkpt>
      <trkpt lat="44.872447" lon="3.804423">
        <ele>1162.2</ele>
        <time>2025-05-12T08:15:53.935Z</time>
      </trkpt>
      <trkpt lat="44.872264" lon="3.804734">
        <ele>1161.1</ele>
        <time>2025-05-12T08:16:27.426Z</time>
      </trkpt>
      <trkpt lat="44.872088" lon="3.805062">
        <ele>1161.2</ele>
        <time>2025-05-12T08:16:55.381Z</time>
      </trkpt>
      <trkpt lat="44.871894" lon="3.805347">
        <ele>1160.2</ele>
        <time>2025-05-12T08:17:27.708Z</time>
      </trkpt>
      <trkpt lat="44.871702" lon="3.805636">
        <ele>1157.6</ele>
        <time>2025-05-12T08:18:10.482Z</time>
      </trkpt>
      <trkpt lat="44.871503" lon="3.805909">
        <ele>1156.8</ele>
        <time>2025-05-12T08:18:41.515Z</time>
      </trkpt>
      <trkpt lat="44.871291" lon="3.806152">
        <ele>1156.4</ele>
        <time>2025-05-12T08:19:10.031Z</time>
      </trkpt>
      <trkpt lat="44.871071" lon="3.806374">
        <ele>1155.9</ele>
        <time>2025-05-12T08:19:38.527Z</time>
      </trkpt>
      <trkpt lat="44.870848" lon="3.806590">
        <ele>1156.3</ele>
        <time>2025-05-12T08:20:08.089Z</time>
      </trkpt>
      <trkpt lat="44.870612" lon="3.806776">
        <ele>1154.5</ele>
        <time>2025-05-12T08:20:44.413Z</time>
      </trkpt>
      <trkpt lat="44.870377" lon="3.806964">
        <ele>1153.3</ele>
        <time>2025-05-12T08:21:17.619Z</time>
      </trkpt>
      <trkpt lat="44.870130" lon="3.807124">
        <ele>1154.2</ele>
        <time>2025-05-12T08:21:53.380Z</time>
      </trkpt>
      <trkpt lat="44.869881" lon="3.807278">
        <ele>1152.8</ele>
        <time>2025-05-12T08:22:28.073Z</time>
      </trkpt>
      <trkpt lat="44.869628" lon="3.807424">
        <ele>1153.4</ele>
        <time>2025-05-12T08:23:00.179Z</time>
      </trkpt>
      <trkpt lat="44.869368" lon="3.807552">
        <ele>1152.2</ele>
        <time>2025-05-12T08:23:33.421Z</time>
      </trkpt>
      <trkpt lat="44.869111" lon="3.807690">
        <ele>1152.5</ele>
        <time>2025-05-12T08:24:02.922Z</time>
      </trkpt>
      <trkpt lat="44.868851" lon="3.807818">
        <ele>1151.5</ele>
        <time>2025-05-12T08:24:35.189Z</time>
      </trkpt>
      <trkpt lat="44.868593" lon="3.807951">
        <ele>1152.0</ele>
        <time>2025-05-12T08:25:06.294Z</time>
      </trkpt>
      <trkpt lat="44.868342" lon="3.808102">
        <ele>1152.0</ele>
        <time>2025-05-12T08:25:32.606Z</time>
      </trkpt>
      <trkpt lat="44.868086" lon="3.808239">
        <ele>1152.3</ele>
        <time>2025-05-12T08:26:02.405Z</time>
      </trkpt>
      <trkpt lat="44.867841" lon="3.808405">
        <ele>1151.9</ele>
        <time>2025-05-12T08:26:30.548Z</time>
      </trkpt>
      <trkpt lat="44.867597" lon="3.808571">
        <ele>1151.7</ele>
        <time>2025-05-12T08:26:58.096Z</time>
      </trkpt>
      <trkpt lat="44.867356" lon="3.808744">
        <ele>1151.2</ele>
        <time>2025-05-12T08:27:26.691Z</time>
      </trkpt>
      <trkpt lat="44.867123" lon="3.808936">
        <ele>1150.8</ele>
        <time>2025-05-12T08:27:54.567Z</time>
      </trkpt>
      <trkpt lat="44.866893" lon="3.809137">
        <ele>1149.8</ele>
        <time>2025-05-12T08:28:26.310Z</time>
      </trkpt>
      <trkpt lat="44.866665" lon="3.809342">
        <ele>1150.7</ele>
        <time>2025-05-12T08:29:00.862Z</time>
      </trkpt>
      <trkpt lat="44.866442" lon="3.809557">
        <ele>1151.2</ele>
        <time>2025-05-12T08:29:32.434Z</time>
      </trkpt>
      <trkpt lat="44.866220" lon="3.809777">
        <ele>1150.8</ele>
        <time>2025-05-12T08:30:00.846Z</time>
      </trkpt>
      <trkpt lat="44.866000" lon="3.810000">
        <ele>1150.2</ele>
        <time>2025-05-12T08:30:30.295Z</time>
      </trkpt>
      <trkpt lat="44.865780" lon="3.810222">
        <ele>1149.1</ele>
        <time>2025-05-12T08:31:02.555Z</time>
      </trkpt>
      <trkpt lat="44.865565" lon="3.810455">
        <ele>1150.4</ele>
        <time>2025-05-12T08:31:41.681Z</time>
      </trkpt>
      <trkpt lat="44.865352" lon="3.810691">
        <ele>1150.1</ele>
        <time>2025-05-12T08:32:09.522Z</time>
      </trkpt>
      <trkpt lat="44.865141" lon="3.810932">
        <ele>1149.1</ele>
        <time>2025-05-12T08:32:41.382Z</time>
      </trkpt>
      <trkpt lat="44.864931" lon="3.811174">
        <ele>1149.0</ele>
        <time>2025-05-12T08:33:07.886Z</time>
      </trkpt>
      <trkpt lat="44.864718" lon="3.811410">
        <ele>1148.5</ele>
        <time>2025-05-12T08:33:36.629Z</time>
      </trkpt>
      <trkpt lat="44.864505" lon="3.811647">
        <ele>1150.0</ele>
        <time>2025-05-12T08:34:17.362Z</time>
      </trkpt>
      <trkpt lat="44.864292" lon="3.811884">
        <ele>1148.7</ele>
        <time>2025-05-12T08:34:50.979Z</time>
      </trkpt>
      <trkpt lat="44.864071" lon="3.812104">
        <ele>1148.4</ele>
        <time>2025-05-12T08:35:18.357Z</time>
      </trkpt>
      <trkpt lat="44.863844" lon="3.812311">
        <ele>1149.0</ele>
        <time>2025-05-12T08:35:50.367Z</time>
      </trkpt>
      <trkpt lat="44.863618" lon="3.812519">
        <ele>1149.7</ele>
        <time>2025-05-12T08:36:23.719Z</time>
      </trkpt>
      <trkpt lat="44.863377" lon="3.812694">
        <ele>1149.2</ele>
        <time>2025-05-12T08:36:53.044Z</time>
      </trkpt>
      <trkpt lat="44.863139" lon="3.812877">
        <ele>1149.4</ele>
        <time>2025-05-12T08:37:21.067Z</time>
      </trkpt>
      <trkpt lat="44.862888" lon="3.813032">
        <ele>1149.2</ele>
        <time>2025-05-12T08:37:48.276Z</time>
      </trkpt>
      <trkpt lat="44.862637" lon="3.813185">
        <ele>1149.2</ele>
        <time>2025-05-12T08:38:14.947Z</time>
      </trkpt>
      <trkpt lat="44.862373" lon="3.813311">
        <ele>1149.2</ele>
        <time>2025-05-12T08:38:41.584Z</time>
      </trkpt>
      <trkpt lat="44.862112" lon="3.813443">
        <ele>1150.6</ele>
        <time>2025-05-12T08:39:21.858Z</time>
      </trkpt>
      <trkpt lat="44.861850" lon="3.813574">
        <ele>1149.1</ele>
        <time>2025-05-12T08:39:57.292Z</time>
      </trkpt>
      <trkpt lat="44.861576" lon="3.813678">
        <ele>1150.4</ele>
        <time>2025-05-12T08:40:37.640Z</time>
      </trkpt>
      <trkpt lat="44.861309" lon="3.813798">
        <ele>1149.0</ele>
        <time>2025-05-12T08:41:12.354Z</time>
      </trkpt>
      <trkpt lat="44.861052" lon="3.813939">
        <ele>1148.4</ele>
        <time>2025-05-12T08:41:42.370Z</time>
      </trkpt>
      <trkpt lat="44.860784" lon="3.814056">
        <ele>1148.7</ele>
        <time>2025-05-12T08:42:12.317Z</time>
      </trkpt>
      <trkpt lat="44.860538" lon="3.814222">
        <ele>1148.3</ele>
        <time>2025-05-12T08:42:40.505Z</time>
      </trkpt>
      <trkpt lat="44.860279" lon="3.814359">
        <ele>1148.3</ele>
        <time>2025-05-12T08:43:07.125Z</time>
      </trkpt>
      <trkpt lat="44.860037" lon="3.814531">
        <ele>1148.0</ele>
        <time>2025-05-12T08:43:35.076Z</time>
      </trkpt>
      <trkpt lat="44.859815" lon="3.814749">
        <ele>1147.1</ele>
        <time>2025-05-12T08:44:06.121Z</time>
      </trkpt>
      <trkpt lat="44.859581" lon="3.814939">
        <ele>1146.3</ele>
        <time>2025-05-12T08:44:36.732Z</time>
      </trkpt>
      <trkpt lat="44.859379" lon="3.815200">
        <ele>1145.0</ele>
        <time>2025-05-12T08:45:10.705Z</time>
      </trkpt>
      <trkpt lat="44.859176" lon="3.815458">
        <ele>1145.3</ele>
        <time>2025-05-12T08:45:40.088Z</time>
      </trkpt>
      <trkpt lat="44.858975" lon="3.815720">
        <ele>1144.9</ele>
        <time>2025-05-12T08:46:08.570Z</time>
      </trkpt>
      <trkpt lat="44.858793" lon="3.816025">
        <ele>1143.1</ele>
        <time>2025-05-12T08:46:45.904Z</time>
      </trkpt>
      <trkpt lat="44.858613" lon="3.816334">
        <ele>1143.2</ele>
        <time>2025-05-12T08:47:13.334Z</time>
      </trkpt>
      <trkpt lat="44.858446" lon="3.816671">
        <ele>1141.7</ele>
        <time>2025-05-12T08:47:49.793Z</time>
      </trkpt>
      <trkpt lat="44.858278" lon="3.817004">
        <ele>1139.8</ele>
        <time>2025-05-12T08:48:28.889Z</time>
      </trkpt>
      <trkpt lat="44.858128" lon="3.817379">
        <ele>1140.0</ele>
        <time>2025-05-12T08:48:59.409Z</time>
      </trkpt>
      <trkpt lat="44.857965" lon="3.817724">
        <ele>1137.5</ele>
        <time>2025-05-12T08:49:42.563Z</time>
      </trkpt>
      <trkpt lat="44.857796" lon="3.818055">
        <ele>1135.7</ele>
        <time>2025-05-12T08:50:20.746Z</time>
      </trkpt>
      <trkpt lat="44.857641" lon="3.818418">
        <ele>1135.9</ele>
        <time>2025-05-12T08:50:51.083Z</time>
      </trkpt>
      <trkpt lat="44.857465" lon="3.818735">
        <ele>1134.2</ele>
        <time>2025-05-12T08:51:28.485Z</time>
      </trkpt>
      <trkpt lat="44.857276" lon="3.819024">
        <ele>1132.3</ele>
        <time>2025-05-12T08:52:06.441Z</time>
      </trkpt>
      <trkpt lat="44.857089" lon="3.819317">
        <ele>1131.4</ele>
        <time>2025-05-12T08:52:38.167Z</time>
      </trkpt>
      <trkpt lat="44.856889" lon="3.819582">
        <ele>1129.1</ele>
        <time>2025-05-12T08:53:17.995Z</time>
      </trkpt>
      <trkpt lat="44.856691" lon="3.819852">
        <ele>1128.0</ele>
        <time>2025-05-12T08:53:50.841Z</time>
      </trkpt>
      <trkpt lat="44.856467" lon="3.820064">
        <ele>1127.4</ele>
        <time>2025-05-12T08:54:20.470Z</time>
      </trkpt>
      <trkpt lat="44.856226" lon="3.820239">
        <ele>1125.7</ele>
        <time>2025-05-12T08:54:56.582Z</time>
      </trkpt>
      <trkpt lat="44.855981" lon="3.820408">
        <ele>1124.1</ele>
        <time>2025-05-12T08:55:31.672Z</time>
      </trkpt>
      <trkpt lat="44.855708" lon="3.820513">
        <ele>1122.0</ele>
        <time>2025-05-12T08:56:11.692Z</time>
      </trkpt>
      <trkpt lat="44.855442" lon="3.820635">
        <ele>1120.9</ele>
        <time>2025-05-12T08:56:44.907Z</time>
      </trkpt>
      <trkpt lat="44.855167" lon="3.820738">
        <ele>1119.3</ele>
        <time>2025-05-12T08:57:21.202Z</time>
      </trkpt>
      <trkpt lat="44.854868" lon="3.820787">
        <ele>1117.0</ele>
        <time>2025-05-12T08:58:03.828Z</time>
      </trkpt>
      <trkpt lat="44.854569" lon="3.820838">
        <ele>1117.0</ele>
        <time>2025-05-12T08:58:32.489Z</time>
      </trkpt>
      <trkpt lat="44.854277" lon="3.820903">
        <ele>1114.4</ele>
        <time>2025-05-12T08:59:16.188Z</time>
      </trkpt>
      <trkpt lat="44.853975" lon="3.820945">
        <ele>1113.3</ele>
        <time>2025-05-12T08:59:52.355Z</time>
      </trkpt>
      <trkpt lat="44.853658" lon="3.820956">
        <ele>1112.8</ele>
        <time>2025-05-12T09:00:25.226Z</time>
      </trkpt>
      <trkpt lat="44.853366" lon="3.821021">
        <ele>1112.0</ele>
        <time>2025-05-12T09:00:58.456Z</time>
      </trkpt>
      <trkpt lat="44.853069" lon="3.821077">
        <ele>1110.1</ele>
        <time>2025-05-12T09:01:37.988Z</time>
      </trkpt>
      <trkpt lat="44.852792" lon="3.821173">
        <ele>1109.1</ele>
        <time>2025-05-12T09:02:11.275Z</time>
      </trkpt>
      <trkpt lat="44.852525" lon="3.821294">
        <ele>1107.9</ele>
        <time>2025-05-12T09:02:45.135Z</time>
      </trkpt>
      <trkpt lat="44.852257" lon="3.821410">
        <ele>1108.2</ele>
        <time>2025-05-12T09:03:15.035Z</time>
      </trkpt>
      <trkpt lat="44.851999" lon="3.821550">
        <ele>1106.8</ele>
        <time>2025-05-12T09:03:49.712Z</time>
      </trkpt>
      <trkpt lat="44.851759" lon="3.821727">
        <ele>1106.3</ele>
        <time>2025-05-12T09:04:18.990Z</time>
      </trkpt>
      <trkpt lat="44.851539" lon="3.821950">
        <ele>1106.0</ele>
        <time>2025-05-12T09:04:46.428Z</time>
      </trkpt>
      <trkpt lat="44.851330" lon="3.822194">
        <ele>1105.6</ele>
        <time>2025-05-12T09:05:14.516Z</time>
      </trkpt>
      <trkpt lat="44.851116" lon="3.822430">
        <ele>1104.6</ele>
        <time>2025-05-12T09:05:46.480Z</time>
      </trkpt>
      <trkpt lat="44.850924" lon="3.822711">
        <ele>1103.9</ele>
        <time>2025-05-12T09:06:17.309Z</time>
      </trkpt>
      <trkpt lat="44.850746" lon="3.823023">
        <ele>1105.1</ele>
        <time>2025-05-12T09:06:56.822Z</time>
      </trkpt>
      <trkpt lat="44.850579" lon="3.823359">
        <ele>1103.7</ele>
        <time>2025-05-12T09:07:32.983Z</time>
      </trkpt>
      <trkpt lat="44.850407" lon="3.823686">
        <ele>1104.7</ele>
        <time>2025-05-12T09:08:11.044Z</time>
      </trkpt>
      <trkpt lat="44.850259" lon="3.824065">
        <ele>1102.8</ele>
        <time>2025-05-12T09:08:51.694Z</time>
      </trkpt>
      <trkpt lat="44.850096" lon="3.824410">
        <ele>1103.2</ele>
        <time>2025-05-12T09:09:23.509Z</time>
      </trkpt>
      <trkpt lat="44.849933" lon="3.824755">
        <ele>1103.1</ele>
        <time>2025-05-12T09:09:51.887Z</time>
      </trkpt>
      <trkpt lat="44.849766" lon="3.825091">
        <ele>1104.2</ele>
        <time>2025-05-12T09:10:31.017Z</time>
      </trkpt>
      <trkpt lat="44.849595" lon="3.825420">
        <ele>1104.4</ele>
        <time>2025-05-12T09:11:00.972Z</time>
      </trkpt>
      <trkpt lat="44.849430" lon="3.825761">
        <ele>1104.4</ele>
        <time>2025-05-12T09:11:29.242Z</time>
      </trkpt>
      <trkpt lat="44.849239" lon="3.826045">
        <ele>1103.9</ele>
        <time>2025-05-12T09:11:58.354Z</time>
      </trkpt>
      <trkpt lat="44.849051" lon="3.826335">
        <ele>1104.6</ele>
        <time>2025-05-12T09:12:32.196Z</time>
      </trkpt>
      <trkpt lat="44.848851" lon="3.826601">
        <ele>1104.1</ele>
        <time>2025-05-12T09:13:01.373Z</time>
      </trkpt>
      <trkpt lat="44.848645" lon="3.826853">
        <ele>1104.9</ele>
        <time>2025-05-12T09:13:35.527Z</time>
      </trkpt>
      <trkpt lat="44.848422" lon="3.827067">
        <ele>1105.6</ele>
        <time>2025-05-12T09:14:08.563Z</time>
      </trkpt>
      <trkpt lat="44.848188" lon="3.827257">
        <ele>1105.4</ele>
        <time>2025-05-12T09:14:35.595Z</time>
      </trkpt>
      <trkpt lat="44.847950" lon="3.827441">
        <ele>1106.9</ele>
        <time>2025-05-12T09:15:16.423Z</time>
      </trkpt>
      <trkpt lat="44.847709" lon="3.827617">
        <ele>1106.9</ele>
        <time>2025-05-12T09:15:42.629Z</time>
      </trkpt>
      <trkpt lat="44.847446" lon="3.827744">
        <ele>1106.3</ele>
        <time>2025-05-12T09:16:12.878Z</time>
      </trkpt>
      <trkpt lat="44.847187" lon="3.827882">
        <ele>1107.3</ele>
        <time>2025-05-12T09:16:49.631Z</time>
      </trkpt>
      <trkpt lat="44.846926" lon="3.828013">
        <ele>1107.6</ele>
        <time>2025-05-12T09:17:19.077Z</time>
      </trkpt>
      <trkpt lat="44.846656" lon="3.828125">
        <ele>1108.6</ele>
        <time>2025-05-12T09:17:55.740Z</time>
      </trkpt>
      <trkpt lat="44.846394" lon="3.828256">
        <ele>1108.2</ele>
        <time>2025-05-12T09:18:24.125Z</time>
      </trkpt>
      <trkpt lat="44.846122" lon="3.828366">
        <ele>1107.2</ele>
        <time>2025-05-12T09:18:57.257Z</time>
      </trkpt>
      <trkpt lat="44.845858" lon="3.828491">
        <ele>1107.0</ele>
        <time>2025-05-12T09:19:24.809Z</time>
      </trkpt>
      <trkpt lat="44.845599" lon="3.828628">
        <ele>1109.0</ele>
        <time>2025-05-12T09:20:10.952Z</time>
      </trkpt>
      <trkpt lat="44.845339" lon="3.828763">
        <ele>1108.6</ele>
        <time>2025-05-12T09:20:39.521Z</time>
      </trkpt>
      <trkpt lat="44.845086" lon="3.828912">
        <ele>1107.1</ele>
        <time>2025-05-12T09:21:14.876Z</time>
      </trkpt>
      <trkpt lat="44.844847" lon="3.829092">
        <ele>1108.1</ele>
        <time>2025-05-12T09:21:51.467Z</time>
      </trkpt>
      <trkpt lat="44.844606" lon="3.829269">
        <ele>1106.6</ele>
        <time>2025-05-12T09:22:26.524Z</time>
      </trkpt>
      <trkpt lat="44.844374" lon="3.829465">
        <ele>1106.3</ele>
        <time>2025-05-12T09:22:53.847Z</time>
      </trkpt>
      <trkpt lat="44.844145" lon="3.829666">
        <ele>1107.8</ele>
        <time>2025-05-12T09:23:34.587Z</time>
      </trkpt>
      <trkpt lat="44.843924" lon="3.829886">
        <ele>1105.7</ele>
        <time>2025-05-12T09:24:13.005Z</time>
      </trkpt>
      <trkpt lat="44.843707" lon="3.830114">
        <ele>1105.5</ele>
        <time>2025-05-12T09:24:39.828Z</time>
      </trkpt>
      <trkpt lat="44.843494" lon="3.830350">
        <ele>1104.7</ele>
        <time>2025-05-12T09:25:10.649Z</time>
      </trkpt>
      <trkpt lat="44.843283" lon="3.830591">
        <ele>1103.7</ele>
        <time>2025-05-12T09:25:42.090Z</time>
      </trkpt>
      <trkpt lat="44.843074" lon="3.830836">
        <ele>1104.6</ele>
        <time>2025-05-12T09:26:17.300Z</time>
      </trkpt>
      <trkpt lat="44.842862" lon="3.831076">
        <ele>1102.6</ele>
        <time>2025-05-12T09:26:55.188Z</time>
      </trkpt>
      <trkpt lat="44.842651" lon="3.831316">
        <ele>1102.9</ele>
        <time>2025-05-12T09:27:23.279Z</time>
      </trkpt>
      <trkpt lat="44.842437" lon="3.831551">
        <ele>1102.6</ele>
        <time>2025-05-12T09:27:50.899Z</time>
      </trkpt>
      <trkpt lat="44.842221" lon="3.831781">
        <ele>1100.9</ele>
        <time>2025-05-12T09:28:26.814Z</time>
      </trkpt>
      <trkpt lat="44.842000" lon="3.832000">
        <ele>1100.3</ele>
        <time>2025-05-12T09:28:56.253Z</time>
      </trkpt>
      <trkpt lat="44.841779" lon="3.832221">
        <ele>1099.9</ele>
        <time>2025-05-12T09:29:23.975Z</time>
      </trkpt>
      <trkpt lat="44.841562" lon="3.832449">
        <ele>1101.7</ele>
        <time>2025-05-12T09:30:07.942Z</time>
      </trkpt>
      <trkpt lat="44.841346" lon="3.832680">
        <ele>1101.8</ele>
        <time>2025-05-12T09:30:35.232Z</time>
      </trkpt>
      <trkpt lat="44.841133" lon="3.832918">
        <ele>1103.0</ele>
        <time>2025-05-12T09:31:13.396Z</time>
      </trkpt>
      <trkpt lat="44.840919" lon="3.833153">
        <ele>1103.7</ele>
        <time>2025-05-12T09:31:46.331Z</time>
      </trkpt>
      <trkpt lat="44.840706" lon="3.833391">
        <ele>1105.2</ele>
        <time>2025-05-12T09:32:27.523Z</time>
      </trkpt>
      <trkpt lat="44.840492" lon="3.833626">
        <ele>1107.0</ele>
        <time>2025-05-12T09:33:11.332Z</time>
      </trkpt>
      <trkpt lat="44.840276" lon="3.833857">
        <ele>1107.1</ele>
        <time>2025-05-12T09:33:39.078Z</time>
      </trkpt>
      <trkpt lat="44.840058" lon="3.834084">
        <ele>1108.5</ele>
        <time>2025-05-12T09:34:18.812Z</time>
      </trkpt>
      <trkpt lat="44.839832" lon="3.834294">
        <ele>1108.1</ele>
        <time>2025-05-12T09:34:46.781Z</time>
      </trkpt>
      <trkpt lat="44.839609" lon="3.834510">
        <ele>1109.9</ele>
        <time>2025-05-12T09:35:31.219Z</time>
      </trkpt>
      <trkpt lat="44.839374" lon="3.834702">
        <ele>1111.9</ele>
        <time>2025-05-12T09:36:17.444Z</time>
      </trkpt>
      <trkpt lat="44.839140" lon="3.834893">
        <ele>1111.4</ele>
        <time>2025-05-12T09:36:46.404Z</time>
      </trkpt>
      <trkpt lat="44.838901" lon="3.835076">
        <ele>1113.6</ele>
        <time>2025-05-12T09:37:34.665Z</time>
      </trkpt>
      <trkpt lat="44.838650" lon="3.835233">
        <ele>1114.2</ele>
        <time>2025-05-12T09:38:07.189Z</time>
      </trkpt>
      <trkpt lat="44.838403" lon="3.835399">
        <ele>1115.3</ele>
        <time>2025-05-12T09:38:44.300Z</time>
      </trkpt>
      <trkpt lat="44.838150" lon="3.835550">
        <ele>1116.4</ele>
        <time>2025-05-12T09:39:21.943Z</time>
      </trkpt>
      <trkpt lat="44.837895" lon="3.835700">
        <ele>1118.1</ele>
        <time>2025-05-12T09:40:05.651Z</time>
      </trkpt>
      <trkpt lat="44.837640" lon="3.835848">
        <ele>1118.9</ele>
        <time>2025-05-12T09:40:40.320Z</time>
      </trkpt>
      <trkpt lat="44.837380" lon="3.835986">
        <ele>1119.7</ele>
        <time>2025-05-12T09:41:15.206Z</time>
      </trkpt>
      <trkpt lat="44.837125" lon="3.836135">
        <ele>1120.9</ele>
        <time>2025-05-12T09:41:54.085Z</time>
      </trkpt>
      <trkpt lat="44.836866" lon="3.836275">
        <ele>1121.8</ele>
        <time>2025-05-12T09:42:29.003Z</time>
      </trkpt>
      <trkpt lat="44.836618" lon="3.836438">
        <ele>1122.3</ele>
        <time>2025-05-12T09:43:01.022Z</time>
      </trkpt>
      <trkpt lat="44.836376" lon="3.836613">
        <ele>1123.9</ele>
        <time>2025-05-12T09:43:43.420Z</time>
      </trkpt>
      <trkpt lat="44.836132" lon="3.836785">
        <ele>1124.4</ele>
        <time>2025-05-12T09:44:14.074Z</time>
      </trkpt>
      <trkpt lat="44.835899" lon="3.836979">
        <ele>1126.0</ele>
        <time>2025-05-12T09:44:55.936Z</time>
      </trkpt>
      <trkpt lat="44.835668" lon="3.837179">
        <ele>1126.7</ele>
        <time>2025-05-12T09:45:29.910Z</time>
      </trkpt>
      <trkpt lat="44.835453" lon="3.837412">
        <ele>1128.4</ele>
        <time>2025-05-12T09:46:12.322Z</time>
      </trkpt>
      <trkpt lat="44.835246" lon="3.837662">
        <ele>1129.3</ele>
        <time>2025-05-12T09:46:47.724Z</time>
      </trkpt>
      <trkpt lat="44.835047" lon="3.837929">
        <ele>1129.0</ele>
        <time>2025-05-12T09:47:15.781Z</time>
      </trkpt>
      <trkpt lat="44.834843" lon="3.838187">
        <ele>1129.8</ele>
        <time>2025-05-12T09:47:50.866Z</time>
      </trkpt>
      <trkpt lat="44.834658" lon="3.838483">
        <ele>1131.0</ele>
        <time>2025-05-12T09:48:29.078Z</time>
      </trkpt>
      <trkpt lat="44.834478" lon="3.838790">
        <ele>1131.0</ele>
        <time>2025-05-12T09:48:56.687Z</time>
      </trkpt>
      <trkpt lat="44.834311" lon="3.839126">
        <ele>1132.6</ele>
        <time>2025-05-12T09:49:40.707Z</time>
      </trkpt>
      <trkpt lat="44.834136" lon="3.839445">
        <ele>1132.7</ele>
        <time>2025-05-12T09:50:08.590Z</time>
      </trkpt>
      <trkpt lat="44.833962" lon="3.839763">
        <ele>1132.7</ele>
        <time>2025-05-12T09:50:35.825Z</time>
      </trkpt>
      <trkpt lat="44.833790" lon="3.840089">
        <ele>1132.8</ele>
        <time>2025-05-12T09:51:04.924Z</time>
      </trkpt>
      <trkpt lat="44.833619" lon="3.840414">
        <ele>1134.5</ele>
        <time>2025-05-12T09:51:49.297Z</time>
      </trkpt>
      <trkpt lat="44.833450" lon="3.840747">
        <ele>1134.8</ele>
        <time>2025-05-12T09:52:19.865Z</time>
      </trkpt>
      <trkpt lat="44.833270" lon="3.841052">
        <ele>1135.2</ele>
        <time>2025-05-12T09:52:51.304Z</time>
      </trkpt>
      <trkpt lat="44.833082" lon="3.841344">
        <ele>1135.5</ele>
        <time>2025-05-12T09:53:20.582Z</time>
      </trkpt>
      <trkpt lat="44.832874" lon="3.841593">
        <ele>1135.4</ele>
        <time>2025-05-12T09:53:46.670Z</time>
      </trkpt>
      <trkpt lat="44.832679" lon="3.841868">
        <ele>1134.9</ele>
        <time>2025-05-12T09:54:16.205Z</time>
      </trkpt>
      <trkpt lat="44.832460" lon="3.842093">
        <ele>1134.3</ele>
        <time>2025-05-12T09:54:45.627Z</time>
      </trkpt>
      <trkpt lat="44.832225" lon="3.842282">
        <ele>1135.7</ele>
        <time>2025-05-12T09:55:26.127Z</time>
      </trkpt>
      <trkpt lat="44.831980" lon="3.842453">
        <ele>1135.1</ele>
        <time>2025-05-12T09:55:55.943Z</time>
      </trkpt>
      <trkpt lat="44.831739" lon="3.842631">
        <ele>1135.4</ele>
        <time>2025-05-12T09:56:24.862Z</time>
      </trkpt>
      <trkpt lat="44.831481" lon="3.842773">
        <ele>1135.7</ele>
        <time>2025-05-12T09:56:54.690Z</time>
      </trkpt>
      <trkpt lat="44.831198" lon="3.842861">
        <ele>1135.2</ele>
        <time>2025-05-12T09:57:25.485Z</time>
      </trkpt>
      <trkpt lat="44.830923" lon="3.842968">
        <ele>1134.9</ele>
        <time>2025-05-12T09:57:54.597Z</time>
      </trkpt>
      <trkpt lat="44.830632" lon="3.843040">
        <ele>1133.5</ele>
        <time>2025-05-12T09:58:30.717Z</time>
      </trkpt>
      <trkpt lat="44.830348" lon="3.843126">
        <ele>1133.7</ele>
        <time>2025-05-12T09:58:59.927Z</time>
      </trkpt>
      <trkpt lat="44.830048" lon="3.843179">
        <ele>1134.3</ele>
        <time>2025-05-12T09:59:35.253Z</time>
      </trkpt>
      <trkpt lat="44.829749" lon="3.843234">
        <ele>1132.5</ele>
        <time>2025-05-12T10:00:14.652Z</time>
      </trkpt>
      <trkpt lat="44.829448" lon="3.843286">
        <ele>1131.9</ele>
        <time>2025-05-12T10:00:47.157Z</time>
      </trkpt>
      <trkpt lat="44.829165" lon="3.843374">
        <ele>1132.9</ele>
        <time>2025-05-12T10:01:25.119Z</time>
      </trkpt>
      <trkpt lat="44.828872" lon="3.843442">
        <ele>1132.5</ele>
        <time>2025-05-12T10:01:56.259Z</time>
      </trkpt>
      <trkpt lat="44.828601" lon="3.843556">
        <ele>1131.5</ele>
        <time>2025-05-12T10:02:28.840Z</time>
      </trkpt>
      <trkpt lat="44.828338" lon="3.843687">
        <ele>1131.6</ele>
        <time>2025-05-12T10:02:55.821Z</time>
      </trkpt>
      <trkpt lat="44.828078" lon="3.843826">
        <ele>1130.9</ele>
        <time>2025-05-12T10:03:26.220Z</time>
      </trkpt>
      <trkpt lat="44.827817" lon="3.843962">
        <ele>1130.7</ele>
        <time>2025-05-12T10:03:53.975Z</time>
      </trkpt>
      <trkpt lat="44.827587" lon="3.844162">
        <ele>1130.5</ele>
        <time>2025-05-12T10:04:21.236Z</time>
      </trkpt>
      <trkpt lat="44.827364" lon="3.844379">
        <ele>1128.4</ele>
        <time>2025-05-12T10:04:59.312Z</time>
      </trkpt>
      <trkpt lat="44.827161" lon="3.844637">
        <ele>1129.0</ele>
        <time>2025-05-12T10:05:31.920Z</time>
      </trkpt>
      <trkpt lat="44.826962" lon="3.844905">
        <ele>1127.9</ele>
        <time>2025-05-12T10:06:04.917Z</time>
      </trkpt>
      <trkpt lat="44.826775" lon="3.845198">
        <ele>1128.9</ele>
        <time>2025-05-12T10:06:41.484Z</time>
      </trkpt>
      <trkpt lat="44.826603" lon="3.845522">
        <ele>1128.3</ele>
        <time>2025-05-12T10:07:12.561Z</time>
      </trkpt>
      <trkpt lat="44.826441" lon="3.845868">
        <ele>1126.8</ele>
        <time>2025-05-12T10:07:49.340Z</time>
      </trkpt>
      <trkpt lat="44.826283" lon="3.846221">
        <ele>1126.8</ele>
        <time>2025-05-12T10:08:17.706Z</time>
      </trkpt>
      <trkpt lat="44.826129" lon="3.846584">
        <ele>1126.5</ele>
        <time>2025-05-12T10:08:47.794Z</time>
      </trkpt>
      <trkpt lat="44.825986" lon="3.846969">
        <ele>1126.4</ele>
        <time>2025-05-12T10:09:17.754Z</time>
      </trkpt>
      <trkpt lat="44.825845" lon="3.847360">
        <ele>1125.9</ele>
        <time>2025-05-12T10:09:50.836Z</time>
      </trkpt>
      <trkpt lat="44.825681" lon="3.847701">
        <ele>1125.4</ele>
        <time>2025-05-12T10:10:21.420Z</time>
      </trkpt>
      <trkpt lat="44.825535" lon="3.848082">
        <ele>1126.5</ele>
        <time>2025-05-12T10:11:02.096Z</time>
      </trkpt>
      <trkpt lat="44.825372" lon="3.848425">
        <ele>1124.9</ele>
        <time>2025-05-12T10:11:40.000Z</time>
      </trkpt>
      <trkpt lat="44.825195" lon="3.848740">
        <ele>1125.8</ele>
        <time>2025-05-12T10:12:16.621Z</time>
      </trkpt>
      <trkpt lat="44.825029" lon="3.849075">
        <ele>1125.6</ele>
        <time>2025-05-12T10:12:45.178Z</time>
      </trkpt>
      <trkpt lat="44.824833" lon="3.849349">
        <ele>1125.6</ele>
        <time>2025-05-12T10:13:11.633Z</time>
      </trkpt>
      <trkpt lat="44.824627" lon="3.849602">
        <ele>1125.8</ele>
        <time>2025-05-12T10:13:39.138Z</time>
      </trkpt>
      <trkpt lat="44.824408" lon="3.849827">
        <ele>1125.1</ele>
        <time>2025-05-12T10:14:09.021Z</time>
      </trkpt>
      <trkpt lat="44.824189" lon="3.850051">
        <ele>1127.3</ele>
        <time>2025-05-12T10:14:57.280Z</time>
      </trkpt>
      <trkpt lat="44.823941" lon="3.850215">
        <ele>1127.3</ele>
        <time>2025-05-12T10:15:23.837Z</time>
      </trkpt>
      <trkpt lat="44.823687" lon="3.850364">
        <ele>1126.2</ele>
        <time>2025-05-12T10:15:56.926Z</time>
      </trkpt>
      <trkpt lat="44.823409" lon="3.850466">
        <ele>1127.9</ele>
        <time>2025-05-12T10:16:42.378Z</time>
      </trkpt>
      <trkpt lat="44.823136" lon="3.850576">
        <ele>1127.4</ele>
        <time>2025-05-12T10:17:12.568Z</time>
      </trkpt>
      <trkpt lat="44.822847" lon="3.850652">
        <ele>1129.2</ele>
        <time>2025-05-12T10:17:59.208Z</time>
      </trkpt>
      <trkpt lat="44.822567" lon="3.850747">
        <ele>1128.8</ele>
        <time>2025-05-12T10:18:29.359Z</time>
      </trkpt>
      <trkpt lat="44.822272" lon="3.850809">
        <ele>1129.3</ele>
        <time>2025-05-12T10:19:03.372Z</time>
      </trkpt>
      <trkpt lat="44.821967" lon="3.850853">
        <ele>1130.8</ele>
        <time>2025-05-12T10:19:47.747Z</time>
      </trkpt>
      <trkpt lat="44.821683" lon="3.850939">
        <ele>1131.2</ele>
        <time>2025-05-12T10:20:19.935Z</time>
      </trkpt>
      <trkpt lat="44.821379" lon="3.850983">
        <ele>1132.2</ele>
        <time>2025-05-12T10:20:59.327Z</time>
      </trkpt>
      <trkpt lat="44.821099" lon="3.851078">
        <ele>1133.9</ele>
        <time>2025-05-12T10:21:43.712Z</time>
      </trkpt>
      <trkpt lat="44.820819" lon="3.851174">
        <ele>1134.3</ele>
        <time>2025-05-12T10:22:15.736Z</time>
      </trkpt>
      <trkpt lat="44.820542" lon="3.851275">
        <ele>1135.3</ele>
        <time>2025-05-12T10:22:52.794Z</time>
      </trkpt>
      <trkpt lat="44.820275" lon="3.851399">
        <ele>1135.4</ele>
        <time>2025-05-12T10:23:20.844Z</time>
      </trkpt>
      <trkpt lat="44.820016" lon="3.851538">
        <ele>1136.1</ele>
        <time>2025-05-12T10:23:54.851Z</time>
      </trkpt>
      <trkpt lat="44.819772" lon="3.851710">
        <ele>1137.7</ele>
        <time>2025-05-12T10:24:36.472Z</time>
      </trkpt>
      <trkpt lat="44.819552" lon="3.851932">
        <ele>1140.2</ele>
        <time>2025-05-12T10:25:28.613Z</time>
      </trkpt>
      <trkpt lat="44.819330" lon="3.852151">
        <ele>1141.2</ele>
        <time>2025-05-12T10:26:04.958Z</time>
      </trkpt>
      <trkpt lat="44.819117" lon="3.852389">
        <ele>1141.4</ele>
        <time>2025-05-12T10:26:32.864Z</time>
      </trkpt>
      <trkpt lat="44.818917" lon="3.852653">
        <ele>1142.1</ele>
        <time>2025-05-12T10:27:05.446Z</time>
      </trkpt>
      <trkpt lat="44.818729" lon="3.852944">
        <ele>1144.2</ele>
        <time>2025-05-12T10:27:53.752Z</time>
      </trkpt>
      <trkpt lat="44.818546" lon="3.853245">
        <ele>1145.6</ele>
        <time>2025-05-12T10:28:35.389Z</time>
      </trkpt>
      <trkpt lat="44.818357" lon="3.853535">
        <ele>1147.3</ele>
        <time>2025-05-12T10:29:19.261Z</time>
      </trkpt>
      <trkpt lat="44.818191" lon="3.853872">
        <ele>1149.0</ele>
        <time>2025-05-12T10:30:04.043Z</time>
      </trkpt>
      <trkpt lat="44.818015" lon="3.854187">
        <ele>1149.9</ele>
        <time>2025-05-12T10:30:40.717Z</time>
      </trkpt>
      <trkpt lat="44.817854" lon="3.854535">
        <ele>1150.8</ele>
        <time>2025-05-12T10:31:18.001Z</time>
      </trkpt>
      <trkpt lat="44.817682" lon="3.854860">
        <ele>1153.3</ele>
        <time>2025-05-12T10:32:11.180Z</time>
      </trkpt>
      <trkpt lat="44.817497" lon="3.855157">
        <ele>1153.0</ele>
        <time>2025-05-12T10:32:39.627Z</time>
      </trkpt>
      <trkpt lat="44.817324" lon="3.855479">
        <ele>1154.6</ele>
        <time>2025-05-12T10:33:23.825Z</time>
      </trkpt>
      <trkpt lat="44.817137" lon="3.855771">
        <ele>1156.5</ele>
        <time>2025-05-12T10:34:09.468Z</time>
      </trkpt>
      <trkpt lat="44.816942" lon="3.856046">
        <ele>1157.5</ele>
        <time>2025-05-12T10:34:46.498Z</time>
      </trkpt>
      <trkpt lat="44.816752" lon="3.856333">
        <ele>1158.7</ele>
        <time>2025-05-12T10:35:24.771Z</time>
      </trkpt>
      <trkpt lat="44.816541" lon="3.856575">
        <ele>1161.1</ele>
        <time>2025-05-12T10:36:15.947Z</time>
      </trkpt>
      <trkpt lat="44.816327" lon="3.856811">
        <ele>1161.8</ele>
        <time>2025-05-12T10:36:48.972Z</time>
      </trkpt>
      <trkpt lat="44.816099" lon="3.857015">
        <ele>1161.8</ele>
        <time>2025-05-12T10:37:14.921Z</time>
      </trkpt>
      <trkpt lat="44.815864" lon="3.857207">
        <ele>1164.8</ele>
        <time>2025-05-12T10:38:11.790Z</time>
      </trkpt>
      <trkpt lat="44.815636" lon="3.857412">
        <ele>1165.1</ele>
        <time>2025-05-12T10:38:40.152Z</time>
      </trkpt>
      <trkpt lat="44.815390" lon="3.857581">
        <ele>1166.0</ele>
        <time>2025-05-12T10:39:15.721Z</time>
      </trkpt>
      <trkpt lat="44.815134" lon="3.857725">
        <ele>1167.9</ele>
        <time>2025-05-12T10:40:02.056Z</time>
      </trkpt>
      <trkpt lat="44.814886" lon="3.857890">
        <ele>1167.7</ele>
        <time>2025-05-12T10:40:29.366Z</time>
      </trkpt>
      <trkpt lat="44.814626" lon="3.858027">
        <ele>1168.9</ele>
        <time>2025-05-12T10:41:08.330Z</time>
      </trkpt>
      <trkpt lat="44.814369" lon="3.858171">
        <ele>1169.5</ele>
        <time>2025-05-12T10:41:40.637Z</time>
      </trkpt>
      <trkpt lat="44.814113" lon="3.858317">
        <ele>1171.6</ele>
        <time>2025-05-12T10:42:27.840Z</time>
      </trkpt>
      <trkpt lat="44.813857" lon="3.858464">
        <ele>1173.0</ele>
        <time>2025-05-12T10:43:09.293Z</time>
      </trkpt>
      <trkpt lat="44.813606" lon="3.858621">
        <ele>1171.9</ele>
        <time>2025-05-12T10:43:42.097Z</time>
      </trkpt>
      <trkpt lat="44.813354" lon="3.858775">
        <ele>1173.4</ele>
        <time>2025-05-12T10:44:23.405Z</time>
      </trkpt>
      <trkpt lat="44.813110" lon="3.858947">
        <ele>1173.9</ele>
        <time>2025-05-12T10:44:54.620Z</time>
      </trkpt>
      <trkpt lat="44.812865" lon="3.859118">
        <ele>1175.6</ele>
        <time>2025-05-12T10:45:37.852Z</time>
      </trkpt>
      <trkpt lat="44.812628" lon="3.859303">
        <ele>1176.7</ele>
        <time>2025-05-12T10:46:15.346Z</time>
      </trkpt>
      <trkpt lat="44.812397" lon="3.859503">
        <ele>1176.2</ele>
        <time>2025-05-12T10:46:44.244Z</time>
      </trkpt>
      <trkpt lat="44.812171" lon="3.859712">
        <ele>1176.7</ele>
        <time>2025-05-12T10:47:15.039Z</time>
      </trkpt>
      <trkpt lat="44.811947" lon="3.859927">
        <ele>1176.5</ele>
        <time>2025-05-12T10:47:42.100Z</time>
      </trkpt>
      <trkpt lat="44.811726" lon="3.860146">
        <ele>1178.6</ele>
        <time>2025-05-12T10:48:29.750Z</time>
      </trkpt>
      <trkpt lat="44.811509" lon="3.860376">
        <ele>1178.8</ele>
        <time>2025-05-12T10:48:57.395Z</time>
      </trkpt>
      <trkpt lat="44.811294" lon="3.860609">
        <ele>1178.1</ele>
        <time>2025-05-12T10:49:27.068Z</time>
      </trkpt>
      <trkpt lat="44.811080" lon="3.860844">
        <ele>1179.6</ele>
        <time>2025-05-12T10:50:07.801Z</time>
      </trkpt>
      <trkpt lat="44.810867" lon="3.861081">
        <ele>1179.6</ele>
        <time>2025-05-12T10:50:33.938Z</time>
      </trkpt>
      <trkpt lat="44.810652" lon="3.861315">
        <ele>1178.9</ele>
        <time>2025-05-12T10:51:03.835Z</time>
      </trkpt>
      <trkpt lat="44.810437" lon="3.861549">
        <ele>1179.3</ele>
        <time>2025-05-12T10:51:33.752Z</time>
      </trkpt>
      <trkpt lat="44.810220" lon="3.861778">
        <ele>1179.6</ele>
        <time>2025-05-12T10:52:02.419Z</time>
      </trkpt>
      <trkpt lat="44.810000" lon="3.862000">
        <ele>1179.7</ele>
        <time>2025-05-12T10:52:29.136Z</time>
      </trkpt>
      <trkpt lat="44.809750" lon="3.862142">
        <ele>1179.6</ele>
        <time>2025-05-12T10:52:55.102Z</time>
      </trkpt>
      <trkpt lat="44.809501" lon="3.862290">
        <ele>1179.0</ele>
        <time>2025-05-12T10:53:24.945Z</time>
      </trkpt>
      <trkpt lat="44.809254" lon="3.862446">
        <ele>1179.8</ele>
        <time>2025-05-12T10:53:59.821Z</time>
      </trkpt>
      <trkpt lat="44.809010" lon="3.862609">
        <ele>1179.1</ele>
        <time>2025-05-12T10:54:30.332Z</time>
      </trkpt>
      <trkpt lat="44.808767" lon="3.862776">
        <ele>1179.7</ele>
        <time>2025-05-12T10:55:03.031Z</time>
      </trkpt>
      <trkpt lat="44.808525" lon="3.862948">
        <ele>1178.7</ele>
        <time>2025-05-12T10:55:34.988Z</time>
      </trkpt>
      <trkpt lat="44.808285" lon="3.863126">
        <ele>1178.3</ele>
        <time>2025-05-12T10:56:03.534Z</time>
      </trkpt>
      <trkpt lat="44.808043" lon="3.863298">
        <ele>1179.1</ele>
        <time>2025-05-12T10:56:37.876Z</time>
      </trkpt>
      <trkpt lat="44.807801" lon="3.863470">
        <ele>1179.2</ele>
        <time>2025-05-12T10:57:04.789Z</time>
      </trkpt>
      <trkpt lat="44.807558" lon="3.863638">
        <ele>1179.6</ele>
        <time>2025-05-12T10:57:34.806Z</time>
      </trkpt>
      <trkpt lat="44.807316" lon="3.863809">
        <ele>1178.3</ele>
        <time>2025-05-12T10:58:08.506Z</time>
      </trkpt>
      <trkpt lat="44.807070" lon="3.863966">
        <ele>1178.8</ele>
        <time>2025-05-12T10:58:39.513Z</time>
      </trkpt>
      <trkpt lat="44.806820" lon="3.864112">
        <ele>1178.8</ele>
        <time>2025-05-12T10:59:05.563Z</time>
      </trkpt>
      <trkpt lat="44.806571" lon="3.864258">
        <ele>1178.9</ele>
        <time>2025-05-12T10:59:32.130Z</time>
      </trkpt>
      <trkpt lat="44.806316" lon="3.864385">
        <ele>1180.3</ele>
        <time>2025-05-12T11:00:12.028Z</time>
      </trkpt>
      <trkpt lat="44.806056" lon="3.864495">
        <ele>1180.3</ele>
        <time>2025-05-12T11:00:38.488Z</time>
      </trkpt>
      <trkpt lat="44.805795" lon="3.864600">
        <ele>1179.9</ele>
        <time>2025-05-12T11:01:07.110Z</time>
      </trkpt>
      <trkpt lat="44.805534" lon="3.864707">
        <ele>1181.6</ele>
        <time>2025-05-12T11:01:50.449Z</time>
      </trkpt>
      <trkpt lat="44.805264" lon="3.864780">
        <ele>1180.4</ele>
        <time>2025-05-12T11:02:23.585Z</time>
      </trkpt>
      <trkpt lat="44.804995" lon="3.864858">
        <ele>1180.8</ele>
        <time>2025-05-12T11:02:54.037Z</time>
      </trkpt>
      <trkpt lat="44.804727" lon="3.864940">
        <ele>1181.1</ele>
        <time>2025-05-12T11:03:22.856Z</time>
      </trkpt>
      <trkpt lat="44.804453" lon="3.865000">
        <ele>1181.4</ele>
        <time>2025-05-12T11:03:52.060Z</time>
      </trkpt>
      <trkpt lat="44.804184" lon="3.865077">
        <ele>1183.0</ele>
        <time>2025-05-12T11:04:34.889Z</time>
      </trkpt>
      <trkpt lat="44.803912" lon="3.865147">
        <ele>1183.0</ele>
        <time>2025-05-12T11:05:01.228Z</time>
      </trkpt>
      <trkpt lat="44.803642" lon="3.865219">
        <ele>1183.8</ele>
        <time>2025-05-12T11:05:36.299Z</time>
      </trkpt>
      <trkpt lat="44.803372" lon="3.865297">
        <ele>1183.9</ele>
        <time>2025-05-12T11:06:03.115Z</time>
      </trkpt>
      <trkpt lat="44.803106" lon="3.865383">
        <ele>1183.9</ele>
        <time>2025-05-12T11:06:29.321Z</time>
      </trkpt>
      <trkpt lat="44.802842" lon="3.865477">
        <ele>1184.5</ele>
        <time>2025-05-12T11:07:01.167Z</time>
      </trkpt>
      <trkpt lat="44.802586" lon="3.865601">
        <ele>1185.6</ele>
        <time>2025-05-12T11:07:38.963Z</time>
      </trkpt>
      <trkpt lat="44.802333" lon="3.865737">
        <ele>1186.5</ele>
        <time>2025-05-12T11:08:14.197Z</time>
      </trkpt>
      <trkpt lat="44.802089" lon="3.865898">
        <ele>1185.6</ele>
        <time>2025-05-12T11:08:45.561Z</time>
      </trkpt>
      <trkpt lat="44.801845" lon="3.866065">
        <ele>1186.4</ele>
        <time>2025-05-12T11:09:19.637Z</time>
      </trkpt>
      <trkpt lat="44.801603" lon="3.866237">
        <ele>1188.1</ele>
        <time>2025-05-12T11:10:02.977Z</time>
      </trkpt>
      <trkpt lat="44.801376" lon="3.866460">
        <ele>1187.1</ele>
        <time>2025-05-12T11:10:35.460Z</time>
      </trkpt>
      <trkpt lat="44.801148" lon="3.866679">
        <ele>1187.3</ele>
        <time>2025-05-12T11:11:03.304Z</time>
      </trkpt>
      <trkpt lat="44.800931" lon="3.866937">
        <ele>1188.9</ele>
        <time>2025-05-12T11:11:47.203Z</time>
      </trkpt>
      <trkpt lat="44.800708" lon="3.867174">
        <ele>1188.2</ele>
        <time>2025-05-12T11:12:17.695Z</time>
      </trkpt>
      <trkpt lat="44.800494" lon="3.867442">
        <ele>1188.5</ele>
        <time>2025-05-12T11:12:47.964Z</time>
      </trkpt>
      <trkpt lat="44.800275" lon="3.867692">
        <ele>1188.7</ele>
        <time>2025-05-12T11:13:16.336Z</time>
      </trkpt>
      <trkpt lat="44.800065" lon="3.867973">
        <ele>1188.8</ele>
        <time>2025-05-12T11:13:45.551Z</time>
      </trkpt>
      <trkpt lat="44.799854" lon="3.868253">
        <ele>1189.9</ele>
        <time>2025-05-12T11:14:24.054Z</time>
      </trkpt>
      <trkpt lat="44.799632" lon="3.868495">
        <ele>1190.0</ele>
        <time>2025-05-12T11:14:51.318Z</time>
      </trkpt>
      <trkpt lat="44.799420" lon="3.868769">
        <ele>1190.9</ele>
        <time>2025-05-12T11:15:28.210Z</time>
      </trkpt>
      <trkpt lat="44.799193" lon="3.868992">
        <ele>1190.1</ele>
        <time>2025-05-12T11:15:59.067Z</time>
      </trkpt>
      <trkpt lat="44.798968" lon="3.869222">
        <ele>1189.8</ele>
        <time>2025-05-12T11:16:27.422Z</time>
      </trkpt>
      <trkpt lat="44.798736" lon="3.869430">
        <ele>1189.5</ele>
        <time>2025-05-12T11:16:55.483Z</time>
      </trkpt>
      <trkpt lat="44.798489" lon="3.869583">
        <ele>1189.5</ele>
        <time>2025-05-12T11:17:21.391Z</time>
      </trkpt>
      <trkpt lat="44.798240" lon="3.869730">
        <ele>1189.8</ele>
        <time>2025-05-12T11:17:49.985Z</time>
      </trkpt>
      <trkpt lat="44.797988" lon="3.869865">
        <ele>1189.1</ele>
        <time>2025-05-12T11:18:19.647Z</time>
      </trkpt>
      <trkpt lat="44.797726" lon="3.869968">
        <ele>1188.6</ele>
        <time>2025-05-12T11:18:48.725Z</time>
      </trkpt>
      <trkpt lat="44.797460" lon="3.870058">
        <ele>1189.4</ele>
        <time>2025-05-12T11:19:23.425Z</time>
      </trkpt>
      <trkpt lat="44.797182" lon="3.870105">
        <ele>1189.1</ele>
        <time>2025-05-12T11:19:52.390Z</time>
      </trkpt>
      <trkpt lat="44.796896" lon="3.870122">
        <ele>1187.7</ele>
        <time>2025-05-12T11:20:28.065Z</time>
      </trkpt>
      <trkpt lat="44.796614" lon="3.870155">
        <ele>1187.9</ele>
        <time>2025-05-12T11:20:57.176Z</time>
      </trkpt>
      <trkpt lat="44.796320" lon="3.870146">
        <ele>1187.6</ele>
        <time>2025-05-12T11:21:26.644Z</time>
      </trkpt>
      <trkpt lat="44.796019" lon="3.870117">
        <ele>1186.6</ele>
        <time>2025-05-12T11:22:01.748Z</time>
      </trkpt>
      <trkpt lat="44.795729" lon="3.870121">
        <ele>1187.3</ele>
        <time>2025-05-12T11:22:37.306Z</time>
      </trkpt>
      <trkpt lat="44.795425" lon="3.870079">
        <ele>1185.8</ele>
        <time>2025-05-12T11:23:15.720Z</time>
      </trkpt>
      <trkpt lat="44.795128" lon="3.870061">
        <ele>1185.5</ele>
        <time>2025-05-12T11:23:45.814Z</time>
      </trkpt>
      <trkpt lat="44.794842" lon="3.870079">
        <ele>1183.6</ele>
        <time>2025-05-12T11:24:24.409Z</time>
      </trkpt>
      <trkpt lat="44.794558" lon="3.870104">
        <ele>1182.9</ele>
        <time>2025-05-12T11:24:55.794Z</time>
      </trkpt>
      <trkpt lat="44.794266" lon="3.870103">
        <ele>1182.8</ele>
        <time>2025-05-12T11:25:24.391Z</time>
      </trkpt>
      <trkpt lat="44.793996" lon="3.870177">
        <ele>1182.0</ele>
        <time>2025-05-12T11:25:55.571Z</time>
      </trkpt>
      <trkpt lat="44.793720" lon="3.870231">
        <ele>1181.4</ele>
        <time>2025-05-12T11:26:25.426Z</time>
      </trkpt>
      <trkpt lat="44.793459" lon="3.870339">
        <ele>1180.9</ele>
        <time>2025-05-12T11:26:54.112Z</time>
      </trkpt>
      <trkpt lat="44.793210" lon="3.870486">
        <ele>1179.3</ele>
        <time>2025-05-12T11:27:29.602Z</time>
      </trkpt>
      <trkpt lat="44.792957" lon="3.870618">
        <ele>1178.1</ele>
        <time>2025-05-12T11:28:02.546Z</time>
      </trkpt>
      <trkpt lat="44.792726" lon="3.870829">
        <ele>1177.2</ele>
        <time>2025-05-12T11:28:34.054Z</time>
      </trkpt>
      <trkpt lat="44.792502" lon="3.871061">
        <ele>1175.8</ele>
        <time>2025-05-12T11:29:09.432Z</time>
      </trkpt>
      <trkpt lat="44.792277" lon="3.871290">
        <ele>1174.0</ele>
        <time>2025-05-12T11:29:46.493Z</time>
      </trkpt>
      <trkpt lat="44.792070" lon="3.871586">
        <ele>1173.8</ele>
        <time>2025-05-12T11:30:15.859Z</time>
      </trkpt>
      <trkpt lat="44.791862" lon="3.871875">
        <ele>1172.2</ele>
        <time>2025-05-12T11:30:52.859Z</time>
      </trkpt>
      <trkpt lat="44.791653" lon="3.872157">
        <ele>1171.1</ele>
        <time>2025-05-12T11:31:27.104Z</time>
      </trkpt>
      <trkpt lat="44.791456" lon="3.872487">
        <ele>1170.2</ele>
        <time>2025-05-12T11:32:01.636Z</time>
      </trkpt>
      <trkpt lat="44.791260" lon="3.872816">
        <ele>1168.7</ele>
        <time>2025-05-12T11:32:40.096Z</time>
      </trkpt>
      <trkpt lat="44.791058" lon="3.873124">
        <ele>1167.7</ele>
        <time>2025-05-12T11:33:14.307Z</time>
      </trkpt>
      <trkpt lat="44.790860" lon="3.873447">
        <ele>1165.9</ele>
        <time>2025-05-12T11:33:53.788Z</time>
      </trkpt>
      <trkpt lat="44.790654" lon="3.873744">
        <ele>1164.6</ele>
        <time>2025-05-12T11:34:29.946Z</time>
      </trkpt>
      <trkpt lat="44.790452" lon="3.874054">
        <ele>1164.4</ele>
        <time>2025-05-12T11:34:59.830Z</time>
      </trkpt>
      <trkpt lat="44.790231" lon="3.874298">
        <ele>1163.1</ele>
        <time>2025-05-12T11:35:34.078Z</time>
      </trkpt>
      <trkpt lat="44.790017" lon="3.874566">
        <ele>1162.1</ele>
        <time>2025-05-12T11:36:07.539Z</time>
      </trkpt>
      <trkpt lat="44.789790" lon="3.874791">
        <ele>1160.9</ele>
        <time>2025-05-12T11:36:41.180Z</time>
      </trkpt>
      <trkpt lat="44.789551" lon="3.874972">
        <ele>1159.1</ele>
        <time>2025-05-12T11:37:17.504Z</time>
      </trkpt>
      <trkpt lat="44.789302" lon="3.875117">
        <ele>1158.8</ele>
        <time>2025-05-12T11:37:45.451Z</time>
      </trkpt>
      <trkpt lat="44.789051" lon="3.875258">
        <ele>1156.3</ele>
        <time>2025-05-12T11:38:26.045Z</time>
      </trkpt>
      <trkpt lat="44.788782" lon="3.875337">
        <ele>1155.1</ele>
        <time>2025-05-12T11:38:59.235Z</time>
      </trkpt>
      <trkpt lat="44.788518" lon="3.875431">
        <ele>1154.5</ele>
        <time>2025-05-12T11:39:28.927Z</time>
      </trkpt>
      <trkpt lat="44.788230" lon="3.875446">
        <ele>1153.7</ele>
        <time>2025-05-12T11:40:01.142Z</time>
      </trkpt>
      <trkpt lat="44.787946" lon="3.875473">
        <ele>1152.1</ele>
        <time>2025-05-12T11:40:37.521Z</time>
      </trkpt>
      <trkpt lat="44.787647" lon="3.875446">
        <ele>1151.2</ele>
        <time>2025-05-12T11:41:11.524Z</time>
      </trkpt>
      <trkpt lat="44.787364" lon="3.875474">
        <ele>1151.0</ele>
        <time>2025-05-12T11:41:40.280Z</time>
      </trkpt>
      <trkpt lat="44.787054" lon="3.875410">
        <ele>1149.7</ele>
        <time>2025-05-12T11:42:17.967Z</time>
      </trkpt>
      <trkpt lat="44.786760" lon="3.875404">
        <ele>1147.5</ele>
        <time>2025-05-12T11:42:58.751Z</time>
      </trkpt>
      <trkpt lat="44.786458" lon="3.875366">
        <ele>1147.0</ele>
        <time>2025-05-12T11:43:30.814Z</time>
      </trkpt>
      <trkpt lat="44.786159" lon="3.875341">
        <ele>1147.3</ele>
        <time>2025-05-12T11:44:02.658Z</time>
      </trkpt>
      <trkpt lat="44.785867" lon="3.875340">
        <ele>1145.2</ele>
        <time>2025-05-12T11:44:43.374Z</time>
      </trkpt>
      <trkpt lat="44.785571" lon="3.875327">
        <ele>1145.8</ele>
        <time>2025-05-12T11:45:18.209Z</time>
      </trkpt>
      <trkpt lat="44.785289" lon="3.875357">
        <ele>1144.1</ele>
        <time>2025-05-12T11:45:55.788Z</time>
      </trkpt>
      <trkpt lat="44.785013" lon="3.875412">
        <ele>1144.6</ele>
        <time>2025-05-12T11:46:27.220Z</time>
      </trkpt>
      <trkpt lat="44.784743" lon="3.875487">
        <ele>1142.4</ele>
        <time>2025-05-12T11:47:06.443Z</time>
      </trkpt>
      <trkpt lat="44.784480" lon="3.875587">
        <ele>1142.7</ele>
        <time>2025-05-12T11:47:35.233Z</time>
      </trkpt>
      <trkpt lat="44.784222" lon="3.875702">
        <ele>1142.8</ele>
        <time>2025-05-12T11:48:01.988Z</time>
      </trkpt>
      <trkpt lat="44.783983" lon="3.875884">
        <ele>1141.7</ele>
        <time>2025-05-12T11:48:34.251Z</time>
      </trkpt>
      <trkpt lat="44.783734" lon="3.876029">
        <ele>1141.9</ele>
        <time>2025-05-12T11:49:02.144Z</time>
      </trkpt>
      <trkpt lat="44.783509" lon="3.876260">
        <ele>1140.7</ele>
        <time>2025-05-12T11:49:35.856Z</time>
      </trkpt>
      <trkpt lat="44.783289" lon="3.876508">
        <ele>1139.8</ele>
        <time>2025-05-12T11:50:07.876Z</time>
      </trkpt>
      <trkpt lat="44.783072" lon="3.876765">
        <ele>1140.7</ele>
        <time>2025-05-12T11:50:43.545Z</time>
      </trkpt>
      <trkpt lat="44.782855" lon="3.877026">
        <ele>1140.3</ele>
        <time>2025-05-12T11:51:13.117Z</time>
      </trkpt>
      <trkpt lat="44.782642" lon="3.877296">
        <ele>1140.4</ele>
        <time>2025-05-12T11:51:42.215Z</time>
      </trkpt>
      <trkpt lat="44.782437" lon="3.877596">
        <ele>1138.7</ele>
        <time>2025-05-12T11:52:20.679Z</time>
      </trkpt>
      <trkpt lat="44.782228" lon="3.877881">
        <ele>1140.1</ele>
        <time>2025-05-12T11:53:02.691Z</time>
      </trkpt>
      <trkpt lat="44.782026" lon="3.878191">
        <ele>1139.7</ele>
        <time>2025-05-12T11:53:33.853Z</time>
      </trkpt>
      <trkpt lat="44.781816" lon="3.878473">
        <ele>1139.9</ele>
        <time>2025-05-12T11:54:03.625Z</time>
      </trkpt>
      <trkpt lat="44.781605" lon="3.878752">
        <ele>1139.6</ele>
        <time>2025-05-12T11:54:32.471Z</time>
      </trkpt>
      <trkpt lat="44.781388" lon="3.879009">
        <ele>1140.6</ele>
        <time>2025-05-12T11:55:09.250Z</time>
      </trkpt>
      <trkpt lat="44.781161" lon="3.879231">
        <ele>1139.3</ele>
        <time>2025-05-12T11:55:43.402Z</time>
      </trkpt>
      <trkpt lat="44.780938" lon="3.879469">
        <ele>1140.2</ele>
        <time>2025-05-12T11:56:19.059Z</time>
      </trkpt>
      <trkpt lat="44.780698" lon="3.879645">
        <ele>1141.1</ele>
        <time>2025-05-12T11:56:54.254Z</time>
      </trkpt>
      <trkpt lat="44.780466" lon="3.879852">
        <ele>1141.7</ele>
        <time>2025-05-12T11:57:27.002Z</time>
      </trkpt>
      <trkpt lat="44.780213" lon="3.879987">
        <ele>1141.6</ele>
        <time>2025-05-12T11:57:53.724Z</time>
      </trkpt>
      <trkpt lat="44.779961" lon="3.880122">
        <ele>1140.8</ele>
        <time>2025-05-12T11:58:23.889Z</time>
      </trkpt>
      <trkpt lat="44.779700" lon="3.880230">
        <ele>1141.1</ele>
        <time>2025-05-12T11:58:52.150Z</time>
      </trkpt>
      <trkpt lat="44.779434" lon="3.880317">
        <ele>1141.4</ele>
        <time>2025-05-12T11:59:22.041Z</time>
      </trkpt>
      <trkpt lat="44.779168" lon="3.880404">
        <ele>1142.1</ele>
        <time>2025-05-12T11:59:55.392Z</time>
      </trkpt>
      <trkpt lat="44.778891" lon="3.880456">
        <ele>1142.3</ele>
        <time>2025-05-12T12:00:23.165Z</time>
      </trkpt>
      <trkpt lat="44.778613" lon="3.880503">
        <ele>1143.7</ele>
        <time>2025-05-12T12:01:04.899Z</time>
      </trkpt>
      <trkpt lat="44.778337" lon="3.880557">
        <ele>1144.2</ele>
        <time>2025-05-12T12:01:36.390Z</time>
      </trkpt>
      <trkpt lat="44.778057" lon="3.880596">
        <ele>1144.8</ele>
        <time>2025-05-12T12:02:09.750Z</time>
      </trkpt>
      <trkpt lat="44.777774" lon="3.880625">
        <ele>1144.7</ele>
        <time>2025-05-12T12:02:37.468Z</time>
      </trkpt>
      <trkpt lat="44.777490" lon="3.880655">
        <ele>1144.9</ele>
        <time>2025-05-12T12:03:06.624Z</time>
      </trkpt>
      <trkpt lat="44.777217" lon="3.880718">
        <ele>1145.4</ele>
        <time>2025-05-12T12:03:37.772Z</time>
      </trkpt>
      <trkpt lat="44.776941" lon="3.880773">
        <ele>1145.9</ele>
        <time>2025-05-12T12:04:10.117Z</time>
      </trkpt>
      <trkpt lat="44.776668" lon="3.880834">
        <ele>1147.7</ele>
        <time>2025-05-12T12:04:54.500Z</time>
      </trkpt>
      <trkpt lat="44.776404" lon="3.880930">
        <ele>1148.3</ele>
        <time>2025-05-12T12:05:27.156Z</time>
      </trkpt>
      <trkpt lat="44.776135" lon="3.881008">
        <ele>1147.6</ele>
        <time>2025-05-12T12:05:57.855Z</time>
      </trkpt>
      <trkpt lat="44.775877" lon="3.881125">
        <ele>1147.9</ele>
        <time>2025-05-12T12:06:26.418Z</time>
      </trkpt>
      <trkpt lat="44.775624" lon="3.881259">
        <ele>1149.6</ele>
        <time>2025-05-12T12:07:10.464Z</time>
      </trkpt>
      <trkpt lat="44.775373" lon="3.881399">
        <ele>1148.9</ele>
        <time>2025-05-12T12:07:40.328Z</time>
      </trkpt>
      <trkpt lat="44.775126" lon="3.881551">
        <ele>1150.3</ele>
        <time>2025-05-12T12:08:20.013Z</time>
      </trkpt>
      <trkpt lat="44.774885" lon="3.881728">
        <ele>1149.3</ele>
        <time>2025-05-12T12:08:51.674Z</time>
      </trkpt>
      <trkpt lat="44.774648" lon="3.881915">
        <ele>1150.8</ele>
        <time>2025-05-12T12:09:32.440Z</time>
      </trkpt>
      <trkpt lat="44.774410" lon="3.882102">
        <ele>1149.7</ele>
        <time>2025-05-12T12:10:04.654Z</time>
      </trkpt>
      <trkpt lat="44.774175" lon="3.882299">
        <ele>1150.1</ele>
        <time>2025-05-12T12:10:34.336Z</time>
      </trkpt>
      <trkpt lat="44.773939" lon="3.882489">
        <ele>1152.1</ele>
        <time>2025-05-12T12:11:20.824Z</time>
      </trkpt>
      <trkpt lat="44.773707" lon="3.882695">
        <ele>1152.0</ele>
        <time>2025-05-12T12:11:47.238Z</time>
      </trkpt>
      <trkpt lat="44.773472" lon="3.882892">
        <ele>1151.3</ele>
        <time>2025-05-12T12:12:17.468Z</time>
      </trkpt>
      <trkpt lat="44.773237" lon="3.883087">
        <ele>1151.7</ele>
        <time>2025-05-12T12:12:47.419Z</time>
      </trkpt>
      <trkpt lat="44.772998" lon="3.883267">
        <ele>1152.1</ele>
        <time>2025-05-12T12:13:17.360Z</time>
      </trkpt>
      <trkpt lat="44.772759" lon="3.883450">
        <ele>1151.8</ele>
        <time>2025-05-12T12:13:44.854Z</time>
      </trkpt>
      <trkpt lat="44.772518" lon="3.883624">
        <ele>1152.3</ele>
        <time>2025-05-12T12:14:15.839Z</time>
      </trkpt>
      <trkpt lat="44.772276" lon="3.883796">
        <ele>1151.7</ele>
        <time>2025-05-12T12:14:45.695Z</time>
      </trkpt>
      <trkpt lat="44.772030" lon="3.883955">
        <ele>1151.4</ele>
        <time>2025-05-12T12:15:12.905Z</time>
      </trkpt>
      <trkpt lat="44.771781" lon="3.884100">
        <ele>1151.7</ele>
        <time>2025-05-12T12:15:41.842Z</time>
      </trkpt>
      <trkpt lat="44.771531" lon="3.884243">
        <ele>1151.8</ele>
        <time>2025-05-12T12:16:08.570Z</time>
      </trkpt>
      <trkpt lat="44.771278" lon="3.884379">
        <ele>1152.0</ele>
        <time>2025-05-12T12:16:36.352Z</time>
      </trkpt>
      <trkpt lat="44.771024" lon="3.884506">
        <ele>1151.8</ele>
        <time>2025-05-12T12:17:03.444Z</time>
      </trkpt>
      <trkpt lat="44.770768" lon="3.884631">
        <ele>1152.0</ele>
        <time>2025-05-12T12:17:31.124Z</time>
      </trkpt>
      <trkpt lat="44.770512" lon="3.884753">
        <ele>1151.4</ele>
        <time>2025-05-12T12:18:00.337Z</time>
      </trkpt>
      <trkpt lat="44.770256" lon="3.884876">
        <ele>1150.4</ele>
        <time>2025-05-12T12:18:32.103Z</time>
      </trkpt>
      <trkpt lat="44.770000" lon="3.885000">
        <ele>1150.0</ele>
        <time>2025-05-12T12:19:00.319Z</time>
      </trkpt>
    </trkseg>
  </trk>
</gpx>
