<?xml version="1.0" encoding="UTF-8"?>
<gpx version="1.1" creator="carnet-trek seed (OpenStreetMap, EU-DEM)" xmlns="http://www.topografix.com/GPX/1/1">
  <metadata>
    <name>GR10 – Chalets d&apos;Iraty → Logibar</name>
    <copyright author="OpenStreetMap contributors"><license>https://opendatacommons.org/licenses/odbl/</license></copyright>
  </metadata>
  <wpt lat="43.039386" lon="-1.052001">
    <name>Chalets d&apos;Iraty</name>
    <sym>Lodging</sym>
  </wpt>
  <wpt lat="43.053327" lon="-1.028984">
    <name>Point culminant (1414 m)</name>
    <sym>Summit</sym>
  </wpt>
  <wpt lat="43.030661" lon="-0.952827">
    <name>Logibar</name>
    <sym>Convenience Store</sym>
  </wpt>
  <trk>
    <name>GR10 – Chalets d&apos;Iraty → Logibar</name>
    <type>hike</type>
    <trkseg>
      <trkpt lat="43.039386" lon="-1.052001">
        <ele>1194.8</ele>
        <time>2025-06-22T07:30:00.000Z</time>
      </trkpt>
      <trkpt lat="43.039747" lon="-1.052192">
        <ele>1205.9</ele>
        <time>2025-06-22T07:32:39.248Z</time>
      </trkpt>
      <trkpt lat="43.040080" lon="-1.052467">
        <ele>1211.9</ele>
        <time>2025-06-22T07:34:18.695Z</time>
      </trkpt>
      <trkpt lat="43.040274" lon="-1.052642">
        <ele>1215.6</ele>
        <time>2025-06-22T07:35:17.990Z</time>
      </trkpt>
      <trkpt lat="43.040481" lon="-1.052828">
        <ele>1219.9</ele>
        <time>2025-06-22T07:36:26.280Z</time>
      </trkpt>
      <trkpt lat="43.040522" lon="-1.052520">
        <ele>1224.8</ele>
        <time>2025-06-22T07:37:43.176Z</time>
      </trkpt>
      <trkpt lat="43.040367" lon="-1.051961">
        <ele>1233.9</ele>
        <time>2025-06-22T07:39:58.801Z</time>
      </trkpt>
      <trkpt lat="43.040391" lon="-1.051708">
        <ele>1237.0</ele>
        <time>2025-06-22T07:40:54.607Z</time>
      </trkpt>
      <trkpt lat="43.040869" lon="-1.052157">
        <ele>1239.8</ele>
        <time>2025-06-22T07:42:19.259Z</time>
      </trkpt>
      <trkpt lat="43.041158" lon="-1.052320">
        <ele>1237.4</ele>
        <time>2025-06-22T07:43:03.842Z</time>
      </trkpt>
      <trkpt lat="43.041590" lon="-1.052508">
        <ele>1233.8</ele>
        <time>2025-06-22T07:44:08.425Z</time>
      </trkpt>
      <trkpt lat="43.041832" lon="-1.052726">
        <ele>1231.5</ele>
        <time>2025-06-22T07:44:49.759Z</time>
      </trkpt>
      <trkpt lat="43.041931" lon="-1.052383">
        <ele>1228.9</ele>
        <time>2025-06-22T07:45:37.728Z</time>
      </trkpt>
      <trkpt lat="43.041766" lon="-1.051460">
        <ele>1256.5</ele>
        <time>2025-06-22T07:51:28.724Z</time>
      </trkpt>
      <trkpt lat="43.041641" lon="-1.051164">
        <ele>1255.0</ele>
        <time>2025-06-22T07:52:01.625Z</time>
      </trkpt>
      <trkpt lat="43.041459" lon="-1.050978">
        <ele>1253.7</ele>
        <time>2025-06-22T07:52:31.355Z</time>
      </trkpt>
      <trkpt lat="43.041178" lon="-1.050736">
        <ele>1252.6</ele>
        <time>2025-06-22T07:53:09.772Z</time>
      </trkpt>
      <trkpt lat="43.040962" lon="-1.050323">
        <ele>1255.6</ele>
        <time>2025-06-22T07:54:16.760Z</time>
      </trkpt>
      <trkpt lat="43.040795" lon="-1.049955">
        <ele>1260.0</ele>
        <time>2025-06-22T07:55:32.063Z</time>
      </trkpt>
      <trkpt lat="43.040605" lon="-1.049566">
        <ele>1261.6</ele>
        <time>2025-06-22T07:56:21.073Z</time>
      </trkpt>
      <trkpt lat="43.040404" lon="-1.049211">
        <ele>1262.5</ele>
        <time>2025-06-22T07:57:00.864Z</time>
      </trkpt>
      <trkpt lat="43.040211" lon="-1.048654">
        <ele>1262.2</ele>
        <time>2025-06-22T07:57:45.626Z</time>
      </trkpt>
      <trkpt lat="43.039983" lon="-1.048107">
        <ele>1265.4</ele>
        <time>2025-06-22T07:59:02.951Z</time>
      </trkpt>
      <trkpt lat="43.039753" lon="-1.047441">
        <ele>1280.4</ele>
        <time>2025-06-22T08:02:27.552Z</time>
      </trkpt>
      <trkpt lat="43.039593" lon="-1.046890">
        <ele>1288.2</ele>
        <time>2025-06-22T08:04:29.777Z</time>
      </trkpt>
      <trkpt lat="43.039481" lon="-1.046489">
        <ele>1293.9</ele>
        <time>2025-06-22T08:05:58.105Z</time>
      </trkpt>
      <trkpt lat="43.039463" lon="-1.046091">
        <ele>1299.3</ele>
        <time>2025-06-22T08:07:21.201Z</time>
      </trkpt>
      <trkpt lat="43.039495" lon="-1.045644">
        <ele>1305.3</ele>
        <time>2025-06-22T08:08:54.561Z</time>
      </trkpt>
      <trkpt lat="43.039490" lon="-1.044600">
        <ele>1321.5</ele>
        <time>2025-06-22T08:12:53.856Z</time>
      </trkpt>
      <trkpt lat="43.039426" lon="-1.044169">
        <ele>1326.8</ele>
        <time>2025-06-22T08:14:19.148Z</time>
      </trkpt>
      <trkpt lat="43.039364" lon="-1.043721">
        <ele>1332.3</ele>
        <time>2025-06-22T08:15:47.417Z</time>
      </trkpt>
      <trkpt lat="43.039312" lon="-1.043288">
        <ele>1333.5</ele>
        <time>2025-06-22T08:16:30.249Z</time>
      </trkpt>
      <trkpt lat="43.039219" lon="-1.042472">
        <ele>1335.7</ele>
        <time>2025-06-22T08:17:51.005Z</time>
      </trkpt>
      <trkpt lat="43.039159" lon="-1.041521">
        <ele>1331.9</ele>
        <time>2025-06-22T08:19:20.712Z</time>
      </trkpt>
      <trkpt lat="43.039150" lon="-1.040631">
        <ele>1336.9</ele>
        <time>2025-06-22T08:21:13.939Z</time>
      </trkpt>
      <trkpt lat="43.039203" lon="-1.039354">
        <ele>1324.0</ele>
        <time>2025-06-22T08:24:00.267Z</time>
      </trkpt>
      <trkpt lat="43.038661" lon="-1.037756">
        <ele>1331.7</ele>
        <time>2025-06-22T08:27:22.869Z</time>
      </trkpt>
      <trkpt lat="43.038470" lon="-1.036922">
        <ele>1331.1</ele>
        <time>2025-06-22T08:28:27.592Z</time>
      </trkpt>
      <trkpt lat="43.038367" lon="-1.036637">
        <ele>1330.1</ele>
        <time>2025-06-22T08:28:55.727Z</time>
      </trkpt>
      <trkpt lat="43.038172" lon="-1.036224">
        <ele>1328.6</ele>
        <time>2025-06-22T08:29:39.111Z</time>
      </trkpt>
      <trkpt lat="43.037996" lon="-1.035922">
        <ele>1326.6</ele>
        <time>2025-06-22T08:30:17.579Z</time>
      </trkpt>
      <trkpt lat="43.037814" lon="-1.035590">
        <ele>1324.6</ele>
        <time>2025-06-22T08:30:58.935Z</time>
      </trkpt>
      <trkpt lat="43.037672" lon="-1.035302">
        <ele>1324.0</ele>
        <time>2025-06-22T08:31:26.349Z</time>
      </trkpt>
      <trkpt lat="43.037328" lon="-1.035057">
        <ele>1323.2</ele>
        <time>2025-06-22T08:32:08.628Z</time>
      </trkpt>
      <trkpt lat="43.036904" lon="-1.034999">
        <ele>1322.9</ele>
        <time>2025-06-22T08:32:51.266Z</time>
      </trkpt>
      <trkpt lat="43.036700" lon="-1.034865">
        <ele>1323.1</ele>
        <time>2025-06-22T08:33:19.659Z</time>
      </trkpt>
      <trkpt lat="43.036539" lon="-1.034643">
        <ele>1323.4</ele>
        <time>2025-06-22T08:33:45.439Z</time>
      </trkpt>
      <trkpt lat="43.036291" lon="-1.034531">
        <ele>1325.9</ele>
        <time>2025-06-22T08:34:36.487Z</time>
      </trkpt>
      <trkpt lat="43.036093" lon="-1.034351">
        <ele>1328.2</ele>
        <time>2025-06-22T08:35:22.893Z</time>
      </trkpt>
      <trkpt lat="43.035891" lon="-1.034059">
        <ele>1328.5</ele>
        <time>2025-06-22T08:35:54.197Z</time>
      </trkpt>
      <trkpt lat="43.035807" lon="-1.033705">
        <ele>1328.8</ele>
        <time>2025-06-22T08:36:23.267Z</time>
      </trkpt>
      <trkpt lat="43.035801" lon="-1.033209">
        <ele>1326.7</ele>
        <time>2025-06-22T08:37:10.659Z</time>
      </trkpt>
      <trkpt lat="43.035793" lon="-1.032899">
        <ele>1326.8</ele>
        <time>2025-06-22T08:37:33.478Z</time>
      </trkpt>
      <trkpt lat="43.035764" lon="-1.032429">
        <ele>1328.7</ele>
        <time>2025-06-22T08:38:26.392Z</time>
      </trkpt>
      <trkpt lat="43.035899" lon="-1.031914">
        <ele>1329.4</ele>
        <time>2025-06-22T08:39:11.454Z</time>
      </trkpt>
      <trkpt lat="43.036164" lon="-1.031422">
        <ele>1329.2</ele>
        <time>2025-06-22T08:39:55.111Z</time>
      </trkpt>
      <trkpt lat="43.036342" lon="-1.031053">
        <ele>1328.8</ele>
        <time>2025-06-22T08:40:28.345Z</time>
      </trkpt>
      <trkpt lat="43.036515" lon="-1.030710">
        <ele>1327.7</ele>
        <time>2025-06-22T08:41:04.078Z</time>
      </trkpt>
      <trkpt lat="43.036678" lon="-1.030281">
        <ele>1328.1</ele>
        <time>2025-06-22T08:41:42.341Z</time>
      </trkpt>
      <trkpt lat="43.036794" lon="-1.029707">
        <ele>1330.6</ele>
        <time>2025-06-22T08:42:49.550Z</time>
      </trkpt>
      <trkpt lat="43.037010" lon="-1.029291">
        <ele>1328.9</ele>
        <time>2025-06-22T08:43:35.845Z</time>
      </trkpt>
      <trkpt lat="43.037303" lon="-1.028806">
        <ele>1326.7</ele>
        <time>2025-06-22T08:44:32.519Z</time>
      </trkpt>
      <trkpt lat="43.037636" lon="-1.028229">
        <ele>1326.2</ele>
        <time>2025-06-22T08:45:26.673Z</time>
      </trkpt>
      <trkpt lat="43.037837" lon="-1.027793">
        <ele>1327.2</ele>
        <time>2025-06-22T08:46:12.430Z</time>
      </trkpt>
      <trkpt lat="43.037994" lon="-1.027407">
        <ele>1328.0</ele>
        <time>2025-06-22T08:46:51.634Z</time>
      </trkpt>
      <trkpt lat="43.038131" lon="-1.026947">
        <ele>1327.8</ele>
        <time>2025-06-22T08:47:27.775Z</time>
      </trkpt>
      <trkpt lat="43.038088" lon="-1.026628">
        <ele>1327.1</ele>
        <time>2025-06-22T08:47:55.533Z</time>
      </trkpt>
      <trkpt lat="43.038233" lon="-1.026327">
        <ele>1325.7</ele>
        <time>2025-06-22T08:48:32.787Z</time>
      </trkpt>
      <trkpt lat="43.038534" lon="-1.026056">
        <ele>1325.9</ele>
        <time>2025-06-22T08:49:09.096Z</time>
      </trkpt>
      <trkpt lat="43.038833" lon="-1.025985">
        <ele>1327.9</ele>
        <time>2025-06-22T08:49:59.323Z</time>
      </trkpt>
      <trkpt lat="43.039244" lon="-1.025969">
        <ele>1333.1</ele>
        <time>2025-06-22T08:51:32.136Z</time>
      </trkpt>
      <trkpt lat="43.039443" lon="-1.025761">
        <ele>1329.7</ele>
        <time>2025-06-22T08:52:17.898Z</time>
      </trkpt>
      <trkpt lat="43.039438" lon="-1.025347">
        <ele>1322.9</ele>
        <time>2025-06-22T08:53:27.200Z</time>
      </trkpt>
      <trkpt lat="43.039480" lon="-1.024893">
        <ele>1311.3</ele>
        <time>2025-06-22T08:55:08.870Z</time>
      </trkpt>
      <trkpt lat="43.039544" lon="-1.024536">
        <ele>1306.2</ele>
        <time>2025-06-22T08:56:04.998Z</time>
      </trkpt>
      <trkpt lat="43.039916" lon="-1.024438">
        <ele>1305.5</ele>
        <time>2025-06-22T08:56:46.471Z</time>
      </trkpt>
      <trkpt lat="43.040151" lon="-1.024349">
        <ele>1304.1</ele>
        <time>2025-06-22T08:57:18.498Z</time>
      </trkpt>
      <trkpt lat="43.040554" lon="-1.024166">
        <ele>1301.5</ele>
        <time>2025-06-22T08:58:14.306Z</time>
      </trkpt>
      <trkpt lat="43.041073" lon="-1.024041">
        <ele>1290.6</ele>
        <time>2025-06-22T09:00:10.578Z</time>
      </trkpt>
      <trkpt lat="43.041374" lon="-1.023994">
        <ele>1286.6</ele>
        <time>2025-06-22T09:01:03.727Z</time>
      </trkpt>
      <trkpt lat="43.041580" lon="-1.024411">
        <ele>1285.3</ele>
        <time>2025-06-22T09:01:46.316Z</time>
      </trkpt>
      <trkpt lat="43.041778" lon="-1.024725">
        <ele>1288.3</ele>
        <time>2025-06-22T09:02:46.748Z</time>
      </trkpt>
      <trkpt lat="43.041950" lon="-1.024984">
        <ele>1283.1</ele>
        <time>2025-06-22T09:03:42.235Z</time>
      </trkpt>
      <trkpt lat="43.042278" lon="-1.025118">
        <ele>1276.2</ele>
        <time>2025-06-22T09:04:56.434Z</time>
      </trkpt>
      <trkpt lat="43.042563" lon="-1.025245">
        <ele>1268.3</ele>
        <time>2025-06-22T09:06:12.183Z</time>
      </trkpt>
      <trkpt lat="43.042922" lon="-1.025459">
        <ele>1258.2</ele>
        <time>2025-06-22T09:07:50.625Z</time>
      </trkpt>
      <trkpt lat="43.043274" lon="-1.025754">
        <ele>1254.6</ele>
        <time>2025-06-22T09:08:51.097Z</time>
      </trkpt>
      <trkpt lat="43.043542" lon="-1.025897">
        <ele>1253.6</ele>
        <time>2025-06-22T09:09:24.605Z</time>
      </trkpt>
      <trkpt lat="43.043756" lon="-1.025991">
        <ele>1254.1</ele>
        <time>2025-06-22T09:09:51.882Z</time>
      </trkpt>
      <trkpt lat="43.044069" lon="-1.026041">
        <ele>1254.7</ele>
        <time>2025-06-22T09:10:28.441Z</time>
      </trkpt>
      <trkpt lat="43.044361" lon="-1.025868">
        <ele>1266.1</ele>
        <time>2025-06-22T09:12:56.381Z</time>
      </trkpt>
      <trkpt lat="43.044604" lon="-1.025465">
        <ele>1274.1</ele>
        <time>2025-06-22T09:14:55.083Z</time>
      </trkpt>
      <trkpt lat="43.044774" lon="-1.025105">
        <ele>1277.6</ele>
        <time>2025-06-22T09:16:01.061Z</time>
      </trkpt>
      <trkpt lat="43.044998" lon="-1.025004">
        <ele>1286.7</ele>
        <time>2025-06-22T09:18:02.399Z</time>
      </trkpt>
      <trkpt lat="43.045261" lon="-1.025322">
        <ele>1300.1</ele>
        <time>2025-06-22T09:20:53.796Z</time>
      </trkpt>
      <trkpt lat="43.045482" lon="-1.025630">
        <ele>1314.0</ele>
        <time>2025-06-22T09:23:46.893Z</time>
      </trkpt>
      <trkpt lat="43.045744" lon="-1.025756">
        <ele>1321.1</ele>
        <time>2025-06-22T09:25:26.306Z</time>
      </trkpt>
      <trkpt lat="43.046008" lon="-1.026104">
        <ele>1332.6</ele>
        <time>2025-06-22T09:28:04.743Z</time>
      </trkpt>
      <trkpt lat="43.046155" lon="-1.026681">
        <ele>1345.6</ele>
        <time>2025-06-22T09:31:01.016Z</time>
      </trkpt>
      <trkpt lat="43.046380" lon="-1.027012">
        <ele>1355.6</ele>
        <time>2025-06-22T09:33:15.428Z</time>
      </trkpt>
      <trkpt lat="43.046621" lon="-1.027229">
        <ele>1362.5</ele>
        <time>2025-06-22T09:34:53.728Z</time>
      </trkpt>
      <trkpt lat="43.046958" lon="-1.027421">
        <ele>1369.1</ele>
        <time>2025-06-22T09:36:35.841Z</time>
      </trkpt>
      <trkpt lat="43.047228" lon="-1.027496">
        <ele>1371.4</ele>
        <time>2025-06-22T09:37:26.792Z</time>
      </trkpt>
      <trkpt lat="43.047580" lon="-1.027573">
        <ele>1374.6</ele>
        <time>2025-06-22T09:38:32.915Z</time>
      </trkpt>
      <trkpt lat="43.048657" lon="-1.027821">
        <ele>1375.8</ele>
        <time>2025-06-22T09:40:29.637Z</time>
      </trkpt>
      <trkpt lat="43.049048" lon="-1.027815">
        <ele>1376.3</ele>
        <time>2025-06-22T09:41:11.778Z</time>
      </trkpt>
      <trkpt lat="43.050066" lon="-1.027714">
        <ele>1377.5</ele>
        <time>2025-06-22T09:43:01.911Z</time>
      </trkpt>
      <trkpt lat="43.050567" lon="-1.027592">
        <ele>1379.9</ele>
        <time>2025-06-22T09:44:14.597Z</time>
      </trkpt>
      <trkpt lat="43.051149" lon="-1.027574">
        <ele>1381.9</ele>
        <time>2025-06-22T09:45:31.484Z</time>
      </trkpt>
      <trkpt lat="43.051531" lon="-1.027755">
        <ele>1392.8</ele>
        <time>2025-06-22T09:48:02.055Z</time>
      </trkpt>
      <trkpt lat="43.051802" lon="-1.027985">
        <ele>1401.4</ele>
        <time>2025-06-22T09:50:00.716Z</time>
      </trkpt>
      <trkpt lat="43.052007" lon="-1.028166">
        <ele>1403.0</ele>
        <time>2025-06-22T09:50:40.807Z</time>
      </trkpt>
      <trkpt lat="43.052305" lon="-1.028445">
        <ele>1405.4</ele>
        <time>2025-06-22T09:51:40.000Z</time>
      </trkpt>
      <trkpt lat="43.052538" lon="-1.028609">
        <ele>1408.0</ele>
        <time>2025-06-22T09:52:31.437Z</time>
      </trkpt>
      <trkpt lat="43.052925" lon="-1.028807">
        <ele>1412.1</ele>
        <time>2025-06-22T09:53:52.336Z</time>
      </trkpt>
      <trkpt lat="43.053327" lon="-1.028984">
        <ele>1414.4</ele>
        <time>2025-06-22T09:54:56.992Z</time>
      </trkpt>
      <trkpt lat="43.053578" lon="-1.029471">
        <ele>1411.2</ele>
        <time>2025-06-22T09:55:57.853Z</time>
      </trkpt>
      <trkpt lat="43.053739" lon="-1.029960">
        <ele>1407.2</ele>
        <time>2025-06-22T09:56:59.747Z</time>
      </trkpt>
      <trkpt lat="43.053990" lon="-1.030115">
        <ele>1404.8</ele>
        <time>2025-06-22T09:57:40.525Z</time>
      </trkpt>
      <trkpt lat="43.054133" lon="-1.030557">
        <ele>1404.1</ele>
        <time>2025-06-22T09:58:18.342Z</time>
      </trkpt>
      <trkpt lat="43.054234" lon="-1.030448">
        <ele>1399.4</ele>
        <time>2025-06-22T09:59:13.254Z</time>
      </trkpt>
      <trkpt lat="43.054367" lon="-1.030046">
        <ele>1391.3</ele>
        <time>2025-06-22T10:00:32.748Z</time>
      </trkpt>
      <trkpt lat="43.054717" lon="-1.029376">
        <ele>1376.9</ele>
        <time>2025-06-22T10:02:56.499Z</time>
      </trkpt>
      <trkpt lat="43.054887" lon="-1.028942">
        <ele>1370.5</ele>
        <time>2025-06-22T10:04:09.705Z</time>
      </trkpt>
      <trkpt lat="43.055017" lon="-1.028696">
        <ele>1368.9</ele>
        <time>2025-06-22T10:04:41.003Z</time>
      </trkpt>
      <trkpt lat="43.055180" lon="-1.028320">
        <ele>1370.1</ele>
        <time>2025-06-22T10:05:23.585Z</time>
      </trkpt>
      <trkpt lat="43.055069" lon="-1.027995">
        <ele>1371.0</ele>
        <time>2025-06-22T10:05:57.802Z</time>
      </trkpt>
      <trkpt lat="43.055114" lon="-1.027557">
        <ele>1371.8</ele>
        <time>2025-06-22T10:06:36.899Z</time>
      </trkpt>
      <trkpt lat="43.055056" lon="-1.027171">
        <ele>1372.4</ele>
        <time>2025-06-22T10:07:10.668Z</time>
      </trkpt>
      <trkpt lat="43.055077" lon="-1.026835">
        <ele>1372.7</ele>
        <time>2025-06-22T10:07:40.498Z</time>
      </trkpt>
      <trkpt lat="43.055137" lon="-1.026401">
        <ele>1368.7</ele>
        <time>2025-06-22T10:08:36.355Z</time>
      </trkpt>
      <trkpt lat="43.055191" lon="-1.026162">
        <ele>1364.3</ele>
        <time>2025-06-22T10:09:24.486Z</time>
      </trkpt>
      <trkpt lat="43.055098" lon="-1.025863">
        <ele>1364.6</ele>
        <time>2025-06-22T10:09:51.155Z</time>
      </trkpt>
      <trkpt lat="43.055303" lon="-1.025387">
        <ele>1360.4</ele>
        <time>2025-06-22T10:10:56.476Z</time>
      </trkpt>
      <trkpt lat="43.055416" lon="-1.024984">
        <ele>1353.1</ele>
        <time>2025-06-22T10:12:10.204Z</time>
      </trkpt>
      <trkpt lat="43.055588" lon="-1.024712">
        <ele>1351.2</ele>
        <time>2025-06-22T10:12:47.341Z</time>
      </trkpt>
      <trkpt lat="43.055710" lon="-1.024431">
        <ele>1348.0</ele>
        <time>2025-06-22T10:13:33.158Z</time>
      </trkpt>
      <trkpt lat="43.055909" lon="-1.024175">
        <ele>1342.0</ele>
        <time>2025-06-22T10:14:35.580Z</time>
      </trkpt>
      <trkpt lat="43.056053" lon="-1.023875">
        <ele>1336.3</ele>
        <time>2025-06-22T10:15:34.548Z</time>
      </trkpt>
      <trkpt lat="43.056414" lon="-1.023713">
        <ele>1326.5</ele>
        <time>2025-06-22T10:17:09.528Z</time>
      </trkpt>
      <trkpt lat="43.056574" lon="-1.023420">
        <ele>1319.3</ele>
        <time>2025-06-22T10:18:19.287Z</time>
      </trkpt>
      <trkpt lat="43.056931" lon="-1.022905">
        <ele>1304.8</ele>
        <time>2025-06-22T10:20:38.722Z</time>
      </trkpt>
      <trkpt lat="43.057301" lon="-1.022897">
        <ele>1289.4</ele>
        <time>2025-06-22T10:22:50.306Z</time>
      </trkpt>
      <trkpt lat="43.057582" lon="-1.022980">
        <ele>1280.1</ele>
        <time>2025-06-22T10:24:13.789Z</time>
      </trkpt>
      <trkpt lat="43.057758" lon="-1.022816">
        <ele>1275.3</ele>
        <time>2025-06-22T10:25:04.289Z</time>
      </trkpt>
      <trkpt lat="43.057822" lon="-1.022425">
        <ele>1268.9</ele>
        <time>2025-06-22T10:26:10.150Z</time>
      </trkpt>
      <trkpt lat="43.057946" lon="-1.022152">
        <ele>1264.3</ele>
        <time>2025-06-22T10:27:00.106Z</time>
      </trkpt>
      <trkpt lat="43.058050" lon="-1.021871">
        <ele>1259.8</ele>
        <time>2025-06-22T10:27:49.066Z</time>
      </trkpt>
      <trkpt lat="43.058148" lon="-1.021386">
        <ele>1253.3</ele>
        <time>2025-06-22T10:29:03.309Z</time>
      </trkpt>
      <trkpt lat="43.058633" lon="-1.020537">
        <ele>1239.3</ele>
        <time>2025-06-22T10:31:42.341Z</time>
      </trkpt>
      <trkpt lat="43.058913" lon="-1.020193">
        <ele>1232.7</ele>
        <time>2025-06-22T10:32:58.829Z</time>
      </trkpt>
      <trkpt lat="43.058913" lon="-1.019777">
        <ele>1225.9</ele>
        <time>2025-06-22T10:34:10.379Z</time>
      </trkpt>
      <trkpt lat="43.059001" lon="-1.019420">
        <ele>1219.5</ele>
        <time>2025-06-22T10:35:15.363Z</time>
      </trkpt>
      <trkpt lat="43.058595" lon="-1.018928">
        <ele>1203.3</ele>
        <time>2025-06-22T10:37:45.738Z</time>
      </trkpt>
      <trkpt lat="43.058467" lon="-1.019264">
        <ele>1208.8</ele>
        <time>2025-06-22T10:39:08.506Z</time>
      </trkpt>
      <trkpt lat="43.058171" lon="-1.019522">
        <ele>1211.8</ele>
        <time>2025-06-22T10:40:13.800Z</time>
      </trkpt>
      <trkpt lat="43.057912" lon="-1.019605">
        <ele>1210.2</ele>
        <time>2025-06-22T10:40:48.550Z</time>
      </trkpt>
      <trkpt lat="43.057583" lon="-1.019801">
        <ele>1207.1</ele>
        <time>2025-06-22T10:41:41.899Z</time>
      </trkpt>
      <trkpt lat="43.057223" lon="-1.019906">
        <ele>1202.5</ele>
        <time>2025-06-22T10:42:44.495Z</time>
      </trkpt>
      <trkpt lat="43.056913" lon="-1.020133">
        <ele>1201.1</ele>
        <time>2025-06-22T10:43:26.004Z</time>
      </trkpt>
      <trkpt lat="43.056579" lon="-1.020280">
        <ele>1200.5</ele>
        <time>2025-06-22T10:44:03.192Z</time>
      </trkpt>
      <trkpt lat="43.056196" lon="-1.020552">
        <ele>1201.1</ele>
        <time>2025-06-22T10:44:50.827Z</time>
      </trkpt>
      <trkpt lat="43.055980" lon="-1.020672">
        <ele>1200.6</ele>
        <time>2025-06-22T10:45:16.307Z</time>
      </trkpt>
      <trkpt lat="43.055677" lon="-1.020766">
        <ele>1199.9</ele>
        <time>2025-06-22T10:45:50.420Z</time>
      </trkpt>
      <trkpt lat="43.055445" lon="-1.020768">
        <ele>1191.9</ele>
        <time>2025-06-22T10:47:00.230Z</time>
      </trkpt>
      <trkpt lat="43.055163" lon="-1.020729">
        <ele>1182.0</ele>
        <time>2025-06-22T10:48:27.672Z</time>
      </trkpt>
      <trkpt lat="43.054935" lon="-1.020342">
        <ele>1183.8</ele>
        <time>2025-06-22T10:49:21.511Z</time>
      </trkpt>
      <trkpt lat="43.054787" lon="-1.019863">
        <ele>1177.9</ele>
        <time>2025-06-22T10:50:34.587Z</time>
      </trkpt>
      <trkpt lat="43.054683" lon="-1.019513">
        <ele>1176.3</ele>
        <time>2025-06-22T10:51:11.294Z</time>
      </trkpt>
      <trkpt lat="43.054457" lon="-1.019438">
        <ele>1184.4</ele>
        <time>2025-06-22T10:52:57.165Z</time>
      </trkpt>
      <trkpt lat="43.054099" lon="-1.019451">
        <ele>1192.9</ele>
        <time>2025-06-22T10:54:58.557Z</time>
      </trkpt>
      <trkpt lat="43.053945" lon="-1.019222">
        <ele>1194.5</ele>
        <time>2025-06-22T10:55:38.422Z</time>
      </trkpt>
      <trkpt lat="43.053714" lon="-1.018727">
        <ele>1195.7</ele>
        <time>2025-06-22T10:56:31.372Z</time>
      </trkpt>
      <trkpt lat="43.053631" lon="-1.018265">
        <ele>1191.8</ele>
        <time>2025-06-22T10:57:28.285Z</time>
      </trkpt>
      <trkpt lat="43.053678" lon="-1.017803">
        <ele>1181.9</ele>
        <time>2025-06-22T10:59:00.126Z</time>
      </trkpt>
      <trkpt lat="43.053810" lon="-1.017222">
        <ele>1167.1</ele>
        <time>2025-06-22T11:01:11.402Z</time>
      </trkpt>
      <trkpt lat="43.053760" lon="-1.016850">
        <ele>1167.7</ele>
        <time>2025-06-22T11:01:45.117Z</time>
      </trkpt>
      <trkpt lat="43.053401" lon="-1.016517">
        <ele>1177.8</ele>
        <time>2025-06-22T11:04:10.490Z</time>
      </trkpt>
      <trkpt lat="43.053076" lon="-1.016288">
        <ele>1184.9</ele>
        <time>2025-06-22T11:05:58.642Z</time>
      </trkpt>
      <trkpt lat="43.052867" lon="-1.016123">
        <ele>1185.2</ele>
        <time>2025-06-22T11:06:24.956Z</time>
      </trkpt>
      <trkpt lat="43.052843" lon="-1.015579">
        <ele>1170.8</ele>
        <time>2025-06-22T11:08:29.550Z</time>
      </trkpt>
      <trkpt lat="43.052824" lon="-1.015173">
        <ele>1162.4</ele>
        <time>2025-06-22T11:09:48.045Z</time>
      </trkpt>
      <trkpt lat="43.052880" lon="-1.014862">
        <ele>1155.2</ele>
        <time>2025-06-22T11:10:56.567Z</time>
      </trkpt>
      <trkpt lat="43.053074" lon="-1.014516">
        <ele>1147.8</ele>
        <time>2025-06-22T11:12:11.279Z</time>
      </trkpt>
      <trkpt lat="43.053207" lon="-1.014267">
        <ele>1143.4</ele>
        <time>2025-06-22T11:12:59.191Z</time>
      </trkpt>
      <trkpt lat="43.053386" lon="-1.014007">
        <ele>1139.4</ele>
        <time>2025-06-22T11:13:48.183Z</time>
      </trkpt>
      <trkpt lat="43.053469" lon="-1.013659">
        <ele>1136.5</ele>
        <time>2025-06-22T11:14:31.789Z</time>
      </trkpt>
      <trkpt lat="43.053493" lon="-1.013225">
        <ele>1134.5</ele>
        <time>2025-06-22T11:15:14.345Z</time>
      </trkpt>
      <trkpt lat="43.053555" lon="-1.012917">
        <ele>1131.3</ele>
        <time>2025-06-22T11:15:55.880Z</time>
      </trkpt>
      <trkpt lat="43.053629" lon="-1.012547">
        <ele>1127.4</ele>
        <time>2025-06-22T11:16:45.873Z</time>
      </trkpt>
      <trkpt lat="43.053655" lon="-1.012121">
        <ele>1127.9</ele>
        <time>2025-06-22T11:17:20.819Z</time>
      </trkpt>
      <trkpt lat="43.054264" lon="-1.010383">
        <ele>1130.1</ele>
        <time>2025-06-22T11:19:58.558Z</time>
      </trkpt>
      <trkpt lat="43.054482" lon="-1.009724">
        <ele>1127.5</ele>
        <time>2025-06-22T11:21:04.278Z</time>
      </trkpt>
      <trkpt lat="43.054633" lon="-1.009101">
        <ele>1128.3</ele>
        <time>2025-06-22T11:21:58.384Z</time>
      </trkpt>
      <trkpt lat="43.054767" lon="-1.008580">
        <ele>1130.0</ele>
        <time>2025-06-22T11:22:53.545Z</time>
      </trkpt>
      <trkpt lat="43.054877" lon="-1.007954">
        <ele>1131.9</ele>
        <time>2025-06-22T11:23:57.814Z</time>
      </trkpt>
      <trkpt lat="43.054794" lon="-1.007534">
        <ele>1131.9</ele>
        <time>2025-06-22T11:24:28.736Z</time>
      </trkpt>
      <trkpt lat="43.054658" lon="-1.007212">
        <ele>1132.0</ele>
        <time>2025-06-22T11:24:55.141Z</time>
      </trkpt>
      <trkpt lat="43.054444" lon="-1.006787">
        <ele>1126.4</ele>
        <time>2025-06-22T11:26:04.386Z</time>
      </trkpt>
      <trkpt lat="43.054269" lon="-1.006436">
        <ele>1121.9</ele>
        <time>2025-06-22T11:27:01.299Z</time>
      </trkpt>
      <trkpt lat="43.053969" lon="-1.005479">
        <ele>1096.8</ele>
        <time>2025-06-22T11:30:44.089Z</time>
      </trkpt>
      <trkpt lat="43.053947" lon="-1.005064">
        <ele>1086.2</ele>
        <time>2025-06-22T11:32:17.071Z</time>
      </trkpt>
      <trkpt lat="43.053991" lon="-1.004682">
        <ele>1076.2</ele>
        <time>2025-06-22T11:33:43.534Z</time>
      </trkpt>
      <trkpt lat="43.053999" lon="-1.004251">
        <ele>1070.2</ele>
        <time>2025-06-22T11:34:50.010Z</time>
      </trkpt>
      <trkpt lat="43.053955" lon="-1.003737">
        <ele>1062.9</ele>
        <time>2025-06-22T11:36:09.798Z</time>
      </trkpt>
      <trkpt lat="43.053717" lon="-1.003609">
        <ele>1060.2</ele>
        <time>2025-06-22T11:36:50.400Z</time>
      </trkpt>
      <trkpt lat="43.053200" lon="-1.002697">
        <ele>1051.2</ele>
        <time>2025-06-22T11:39:04.513Z</time>
      </trkpt>
      <trkpt lat="43.053188" lon="-1.002241">
        <ele>1051.0</ele>
        <time>2025-06-22T11:39:37.332Z</time>
      </trkpt>
      <trkpt lat="43.052966" lon="-1.001555">
        <ele>1049.1</ele>
        <time>2025-06-22T11:40:41.053Z</time>
      </trkpt>
      <trkpt lat="43.052646" lon="-1.000048">
        <ele>1043.4</ele>
        <time>2025-06-22T11:43:04.797Z</time>
      </trkpt>
      <trkpt lat="43.052765" lon="-0.999583">
        <ele>1045.9</ele>
        <time>2025-06-22T11:44:08.323Z</time>
      </trkpt>
      <trkpt lat="43.052906" lon="-0.999301">
        <ele>1047.5</ele>
        <time>2025-06-22T11:44:48.561Z</time>
      </trkpt>
      <trkpt lat="43.052985" lon="-0.998798">
        <ele>1041.6</ele>
        <time>2025-06-22T11:45:59.748Z</time>
      </trkpt>
      <trkpt lat="43.053025" lon="-0.998356">
        <ele>1036.4</ele>
        <time>2025-06-22T11:47:02.932Z</time>
      </trkpt>
      <trkpt lat="43.053048" lon="-0.997988">
        <ele>1029.6</ele>
        <time>2025-06-22T11:48:09.507Z</time>
      </trkpt>
      <trkpt lat="43.053168" lon="-0.997706">
        <ele>1023.6</ele>
        <time>2025-06-22T11:49:08.386Z</time>
      </trkpt>
      <trkpt lat="43.053548" lon="-0.997503">
        <ele>1024.1</ele>
        <time>2025-06-22T11:49:53.164Z</time>
      </trkpt>
      <trkpt lat="43.053784" lon="-0.997355">
        <ele>1024.5</ele>
        <time>2025-06-22T11:50:21.591Z</time>
      </trkpt>
      <trkpt lat="43.054188" lon="-0.997101">
        <ele>1017.3</ele>
        <time>2025-06-22T11:51:46.803Z</time>
      </trkpt>
      <trkpt lat="43.054266" lon="-0.996516">
        <ele>1010.4</ele>
        <time>2025-06-22T11:53:10.123Z</time>
      </trkpt>
      <trkpt lat="43.053809" lon="-0.994540">
        <ele>1003.6</ele>
        <time>2025-06-22T11:56:15.090Z</time>
      </trkpt>
      <trkpt lat="43.053762" lon="-0.994229">
        <ele>1004.3</ele>
        <time>2025-06-22T11:56:44.154Z</time>
      </trkpt>
      <trkpt lat="43.054640" lon="-0.994100">
        <ele>1007.1</ele>
        <time>2025-06-22T11:58:44.003Z</time>
      </trkpt>
      <trkpt lat="43.054987" lon="-0.994109">
        <ele>1007.4</ele>
        <time>2025-06-22T11:59:20.439Z</time>
      </trkpt>
      <trkpt lat="43.055446" lon="-0.994092">
        <ele>1007.8</ele>
        <time>2025-06-22T12:00:08.478Z</time>
      </trkpt>
      <trkpt lat="43.055690" lon="-0.993504">
        <ele>1013.6</ele>
        <time>2025-06-22T12:01:54.800Z</time>
      </trkpt>
      <trkpt lat="43.055528" lon="-0.992651">
        <ele>1020.8</ele>
        <time>2025-06-22T12:04:12.085Z</time>
      </trkpt>
      <trkpt lat="43.055473" lon="-0.992351">
        <ele>1021.8</ele>
        <time>2025-06-22T12:04:43.927Z</time>
      </trkpt>
      <trkpt lat="43.055217" lon="-0.991345">
        <ele>1025.3</ele>
        <time>2025-06-22T12:06:33.456Z</time>
      </trkpt>
      <trkpt lat="43.055262" lon="-0.990851">
        <ele>1027.0</ele>
        <time>2025-06-22T12:07:26.382Z</time>
      </trkpt>
      <trkpt lat="43.055326" lon="-0.989968">
        <ele>1030.2</ele>
        <time>2025-06-22T12:09:00.638Z</time>
      </trkpt>
      <trkpt lat="43.055618" lon="-0.988945">
        <ele>1035.4</ele>
        <time>2025-06-22T12:11:10.515Z</time>
      </trkpt>
      <trkpt lat="43.055516" lon="-0.988618">
        <ele>1034.5</ele>
        <time>2025-06-22T12:11:40.256Z</time>
      </trkpt>
      <trkpt lat="43.055321" lon="-0.988465">
        <ele>1033.8</ele>
        <time>2025-06-22T12:12:06.062Z</time>
      </trkpt>
      <trkpt lat="43.054752" lon="-0.988287">
        <ele>1029.9</ele>
        <time>2025-06-22T12:13:25.312Z</time>
      </trkpt>
      <trkpt lat="43.053980" lon="-0.987522">
        <ele>1034.1</ele>
        <time>2025-06-22T12:15:39.605Z</time>
      </trkpt>
      <trkpt lat="43.053733" lon="-0.987295">
        <ele>1030.0</ele>
        <time>2025-06-22T12:16:32.796Z</time>
      </trkpt>
      <trkpt lat="43.053572" lon="-0.987024">
        <ele>1026.4</ele>
        <time>2025-06-22T12:17:18.240Z</time>
      </trkpt>
      <trkpt lat="43.053687" lon="-0.986486">
        <ele>1029.1</ele>
        <time>2025-06-22T12:18:27.080Z</time>
      </trkpt>
      <trkpt lat="43.053654" lon="-0.986172">
        <ele>1026.2</ele>
        <time>2025-06-22T12:19:07.044Z</time>
      </trkpt>
      <trkpt lat="43.053529" lon="-0.985802">
        <ele>1019.1</ele>
        <time>2025-06-22T12:20:17.800Z</time>
      </trkpt>
      <trkpt lat="43.053560" lon="-0.985498">
        <ele>1017.0</ele>
        <time>2025-06-22T12:20:51.997Z</time>
      </trkpt>
      <trkpt lat="43.053696" lon="-0.985232">
        <ele>1017.1</ele>
        <time>2025-06-22T12:21:15.309Z</time>
      </trkpt>
      <trkpt lat="43.053864" lon="-0.984657">
        <ele>1017.2</ele>
        <time>2025-06-22T12:21:59.753Z</time>
      </trkpt>
      <trkpt lat="43.053959" lon="-0.984139">
        <ele>1013.4</ele>
        <time>2025-06-22T12:22:59.592Z</time>
      </trkpt>
      <trkpt lat="43.054026" lon="-0.983758">
        <ele>1008.3</ele>
        <time>2025-06-22T12:23:57.847Z</time>
      </trkpt>
      <trkpt lat="43.053897" lon="-0.983377">
        <ele>999.6</ele>
        <time>2025-06-22T12:25:20.017Z</time>
      </trkpt>
      <trkpt lat="43.053740" lon="-0.983103">
        <ele>993.9</ele>
        <time>2025-06-22T12:26:18.555Z</time>
      </trkpt>
      <trkpt lat="43.053685" lon="-0.982668">
        <ele>988.3</ele>
        <time>2025-06-22T12:27:23.166Z</time>
      </trkpt>
      <trkpt lat="43.053681" lon="-0.982364">
        <ele>988.6</ele>
        <time>2025-06-22T12:27:50.869Z</time>
      </trkpt>
      <trkpt lat="43.053726" lon="-0.981996">
        <ele>988.9</ele>
        <time>2025-06-22T12:28:19.835Z</time>
      </trkpt>
      <trkpt lat="43.053535" lon="-0.981440">
        <ele>981.4</ele>
        <time>2025-06-22T12:29:48.702Z</time>
      </trkpt>
      <trkpt lat="43.053343" lon="-0.981159">
        <ele>974.2</ele>
        <time>2025-06-22T12:30:58.542Z</time>
      </trkpt>
      <trkpt lat="43.053110" lon="-0.980566">
        <ele>968.1</ele>
        <time>2025-06-22T12:32:22.609Z</time>
      </trkpt>
      <trkpt lat="43.052878" lon="-0.980048">
        <ele>965.4</ele>
        <time>2025-06-22T12:33:21.433Z</time>
      </trkpt>
      <trkpt lat="43.052686" lon="-0.979523">
        <ele>961.4</ele>
        <time>2025-06-22T12:34:28.250Z</time>
      </trkpt>
      <trkpt lat="43.052587" lon="-0.979020">
        <ele>963.2</ele>
        <time>2025-06-22T12:35:23.673Z</time>
      </trkpt>
      <trkpt lat="43.052467" lon="-0.978617">
        <ele>964.7</ele>
        <time>2025-06-22T12:36:09.152Z</time>
      </trkpt>
      <trkpt lat="43.052279" lon="-0.978213">
        <ele>967.6</ele>
        <time>2025-06-22T12:37:12.393Z</time>
      </trkpt>
      <trkpt lat="43.051983" lon="-0.977619">
        <ele>965.0</ele>
        <time>2025-06-22T12:38:18.197Z</time>
      </trkpt>
      <trkpt lat="43.051697" lon="-0.977464">
        <ele>961.2</ele>
        <time>2025-06-22T12:39:10.880Z</time>
      </trkpt>
      <trkpt lat="43.051445" lon="-0.976889">
        <ele>964.8</ele>
        <time>2025-06-22T12:40:35.037Z</time>
      </trkpt>
      <trkpt lat="43.051313" lon="-0.976508">
        <ele>967.7</ele>
        <time>2025-06-22T12:41:34.488Z</time>
      </trkpt>
      <trkpt lat="43.051189" lon="-0.976152">
        <ele>970.4</ele>
        <time>2025-06-22T12:42:29.995Z</time>
      </trkpt>
      <trkpt lat="43.050975" lon="-0.975702">
        <ele>969.0</ele>
        <time>2025-06-22T12:43:16.456Z</time>
      </trkpt>
      <trkpt lat="43.050879" lon="-0.975409">
        <ele>968.2</ele>
        <time>2025-06-22T12:43:43.807Z</time>
      </trkpt>
      <trkpt lat="43.050733" lon="-0.974872">
        <ele>970.5</ele>
        <time>2025-06-22T12:44:47.721Z</time>
      </trkpt>
      <trkpt lat="43.050651" lon="-0.974460">
        <ele>972.3</ele>
        <time>2025-06-22T12:45:35.373Z</time>
      </trkpt>
      <trkpt lat="43.050528" lon="-0.974172">
        <ele>971.5</ele>
        <time>2025-06-22T12:46:03.029Z</time>
      </trkpt>
      <trkpt lat="43.050386" lon="-0.973835">
        <ele>970.6</ele>
        <time>2025-06-22T12:46:35.315Z</time>
      </trkpt>
      <trkpt lat="43.050231" lon="-0.973305">
        <ele>973.4</ele>
        <time>2025-06-22T12:47:43.486Z</time>
      </trkpt>
      <trkpt lat="43.050076" lon="-0.972999">
        <ele>975.2</ele>
        <time>2025-06-22T12:48:27.912Z</time>
      </trkpt>
      <trkpt lat="43.049953" lon="-0.972611">
        <ele>977.4</ele>
        <time>2025-06-22T12:49:19.718Z</time>
      </trkpt>
      <trkpt lat="43.049825" lon="-0.972074">
        <ele>983.5</ele>
        <time>2025-06-22T12:51:02.934Z</time>
      </trkpt>
      <trkpt lat="43.049629" lon="-0.971319">
        <ele>994.4</ele>
        <time>2025-06-22T12:53:51.076Z</time>
      </trkpt>
      <trkpt lat="43.049538" lon="-0.970851">
        <ele>999.3</ele>
        <time>2025-06-22T12:55:15.105Z</time>
      </trkpt>
      <trkpt lat="43.049405" lon="-0.970507">
        <ele>1003.2</ele>
        <time>2025-06-22T12:56:22.408Z</time>
      </trkpt>
      <trkpt lat="43.049268" lon="-0.970245">
        <ele>1001.8</ele>
        <time>2025-06-22T12:56:53.741Z</time>
      </trkpt>
      <trkpt lat="43.049141" lon="-0.969952">
        <ele>1000.2</ele>
        <time>2025-06-22T12:57:26.944Z</time>
      </trkpt>
      <trkpt lat="43.049031" lon="-0.969571">
        <ele>1006.2</ele>
        <time>2025-06-22T12:58:57.389Z</time>
      </trkpt>
      <trkpt lat="43.048885" lon="-0.968984">
        <ele>1016.2</ele>
        <time>2025-06-22T13:01:23.865Z</time>
      </trkpt>
      <trkpt lat="43.048862" lon="-0.968640">
        <ele>1022.1</ele>
        <time>2025-06-22T13:02:48.663Z</time>
      </trkpt>
      <trkpt lat="43.049024" lon="-0.968425">
        <ele>1026.0</ele>
        <time>2025-06-22T13:03:53.237Z</time>
      </trkpt>
      <trkpt lat="43.048845" lon="-0.968055">
        <ele>1030.8</ele>
        <time>2025-06-22T13:05:13.415Z</time>
      </trkpt>
      <trkpt lat="43.048602" lon="-0.968078">
        <ele>1027.1</ele>
        <time>2025-06-22T13:05:58.664Z</time>
      </trkpt>
      <trkpt lat="43.048358" lon="-0.968254">
        <ele>1022.8</ele>
        <time>2025-06-22T13:06:51.925Z</time>
      </trkpt>
      <trkpt lat="43.048125" lon="-0.968295">
        <ele>1022.4</ele>
        <time>2025-06-22T13:07:17.736Z</time>
      </trkpt>
      <trkpt lat="43.047831" lon="-0.968289">
        <ele>1021.9</ele>
        <time>2025-06-22T13:07:48.939Z</time>
      </trkpt>
      <trkpt lat="43.047562" lon="-0.968296">
        <ele>1022.5</ele>
        <time>2025-06-22T13:08:20.781Z</time>
      </trkpt>
      <trkpt lat="43.047190" lon="-0.968373">
        <ele>1023.3</ele>
        <time>2025-06-22T13:09:05.156Z</time>
      </trkpt>
      <trkpt lat="43.046919" lon="-0.968239">
        <ele>1023.6</ele>
        <time>2025-06-22T13:09:36.671Z</time>
      </trkpt>
      <trkpt lat="43.046612" lon="-0.968233">
        <ele>1023.6</ele>
        <time>2025-06-22T13:10:06.863Z</time>
      </trkpt>
      <trkpt lat="43.046382" lon="-0.968349">
        <ele>1023.4</ele>
        <time>2025-06-22T13:10:31.758Z</time>
      </trkpt>
      <trkpt lat="43.046161" lon="-0.968506">
        <ele>1023.1</ele>
        <time>2025-06-22T13:10:57.066Z</time>
      </trkpt>
      <trkpt lat="43.045900" lon="-0.968837">
        <ele>1022.1</ele>
        <time>2025-06-22T13:11:37.164Z</time>
      </trkpt>
      <trkpt lat="43.045532" lon="-0.969386">
        <ele>1020.5</ele>
        <time>2025-06-22T13:12:38.391Z</time>
      </trkpt>
      <trkpt lat="43.045098" lon="-0.969850">
        <ele>1025.1</ele>
        <time>2025-06-22T13:14:18.447Z</time>
      </trkpt>
      <trkpt lat="43.044861" lon="-0.970099">
        <ele>1027.7</ele>
        <time>2025-06-22T13:15:13.739Z</time>
      </trkpt>
      <trkpt lat="43.044465" lon="-0.970421">
        <ele>1031.7</ele>
        <time>2025-06-22T13:16:38.847Z</time>
      </trkpt>
      <trkpt lat="43.044284" lon="-0.970893">
        <ele>1028.8</ele>
        <time>2025-06-22T13:17:35.802Z</time>
      </trkpt>
      <trkpt lat="43.044267" lon="-0.971280">
        <ele>1026.7</ele>
        <time>2025-06-22T13:18:15.016Z</time>
      </trkpt>
      <trkpt lat="43.044184" lon="-0.971578">
        <ele>1022.8</ele>
        <time>2025-06-22T13:19:01.050Z</time>
      </trkpt>
      <trkpt lat="43.043604" lon="-0.972535">
        <ele>1007.7</ele>
        <time>2025-06-22T13:21:58.352Z</time>
      </trkpt>
      <trkpt lat="43.043294" lon="-0.973004">
        <ele>1002.7</ele>
        <time>2025-06-22T13:23:12.427Z</time>
      </trkpt>
      <trkpt lat="43.042798" lon="-0.973043">
        <ele>1005.1</ele>
        <time>2025-06-22T13:24:26.971Z</time>
      </trkpt>
      <trkpt lat="43.042335" lon="-0.972574">
        <ele>1010.9</ele>
        <time>2025-06-22T13:26:22.285Z</time>
      </trkpt>
      <trkpt lat="43.042113" lon="-0.972385">
        <ele>1011.1</ele>
        <time>2025-06-22T13:26:49.009Z</time>
      </trkpt>
      <trkpt lat="43.041907" lon="-0.972145">
        <ele>1011.2</ele>
        <time>2025-06-22T13:27:16.439Z</time>
      </trkpt>
      <trkpt lat="43.041665" lon="-0.971880">
        <ele>1012.6</ele>
        <time>2025-06-22T13:27:59.618Z</time>
      </trkpt>
      <trkpt lat="43.041447" lon="-0.971691">
        <ele>1013.7</ele>
        <time>2025-06-22T13:28:35.534Z</time>
      </trkpt>
      <trkpt lat="43.040790" lon="-0.971311">
        <ele>1018.3</ele>
        <time>2025-06-22T13:30:31.578Z</time>
      </trkpt>
      <trkpt lat="43.040520" lon="-0.971141">
        <ele>1021.4</ele>
        <time>2025-06-22T13:31:30.933Z</time>
      </trkpt>
      <trkpt lat="43.040339" lon="-0.970921">
        <ele>1023.8</ele>
        <time>2025-06-22T13:32:19.145Z</time>
      </trkpt>
      <trkpt lat="43.040324" lon="-0.969997">
        <ele>1033.8</ele>
        <time>2025-06-22T13:35:08.685Z</time>
      </trkpt>
      <trkpt lat="43.040539" lon="-0.969547">
        <ele>1032.3</ele>
        <time>2025-06-22T13:35:55.215Z</time>
      </trkpt>
      <trkpt lat="43.040859" lon="-0.968704">
        <ele>1022.1</ele>
        <time>2025-06-22T13:38:02.642Z</time>
      </trkpt>
      <trkpt lat="43.040884" lon="-0.968117">
        <ele>1011.3</ele>
        <time>2025-06-22T13:39:49.193Z</time>
      </trkpt>
      <trkpt lat="43.040770" lon="-0.967583">
        <ele>1002.5</ele>
        <time>2025-06-22T13:41:21.056Z</time>
      </trkpt>
      <trkpt lat="43.040746" lon="-0.967171">
        <ele>997.0</ele>
        <time>2025-06-22T13:42:22.662Z</time>
      </trkpt>
      <trkpt lat="43.040665" lon="-0.966802">
        <ele>992.5</ele>
        <time>2025-06-22T13:43:16.192Z</time>
      </trkpt>
      <trkpt lat="43.040466" lon="-0.966352">
        <ele>986.5</ele>
        <time>2025-06-22T13:44:29.065Z</time>
      </trkpt>
      <trkpt lat="43.040242" lon="-0.966210">
        <ele>981.3</ele>
        <time>2025-06-22T13:45:24.569Z</time>
      </trkpt>
      <trkpt lat="43.039984" lon="-0.966074">
        <ele>975.5</ele>
        <time>2025-06-22T13:46:25.604Z</time>
      </trkpt>
      <trkpt lat="43.039679" lon="-0.965831">
        <ele>966.1</ele>
        <time>2025-06-22T13:47:58.736Z</time>
      </trkpt>
      <trkpt lat="43.039445" lon="-0.965736">
        <ele>959.9</ele>
        <time>2025-06-22T13:49:00.301Z</time>
      </trkpt>
      <trkpt lat="43.039384" lon="-0.965482">
        <ele>953.9</ele>
        <time>2025-06-22T13:50:00.392Z</time>
      </trkpt>
      <trkpt lat="43.039177" lon="-0.965349">
        <ele>944.9</ele>
        <time>2025-06-22T13:51:20.617Z</time>
      </trkpt>
      <trkpt lat="43.038965" lon="-0.965067">
        <ele>933.2</ele>
        <time>2025-06-22T13:53:02.134Z</time>
      </trkpt>
      <trkpt lat="43.038726" lon="-0.964622">
        <ele>920.2</ele>
        <time>2025-06-22T13:54:59.625Z</time>
      </trkpt>
      <trkpt lat="43.038551" lon="-0.964234">
        <ele>910.9</ele>
        <time>2025-06-22T13:56:27.311Z</time>
      </trkpt>
      <trkpt lat="43.038226" lon="-0.963934">
        <ele>902.6</ele>
        <time>2025-06-22T13:57:54.849Z</time>
      </trkpt>
      <trkpt lat="43.037911" lon="-0.963597">
        <ele>895.9</ele>
        <time>2025-06-22T13:59:13.462Z</time>
      </trkpt>
      <trkpt lat="43.037600" lon="-0.963146">
        <ele>888.3</ele>
        <time>2025-06-22T14:00:42.223Z</time>
      </trkpt>
      <trkpt lat="43.037342" lon="-0.962909">
        <ele>890.1</ele>
        <time>2025-06-22T14:01:30.874Z</time>
      </trkpt>
      <trkpt lat="43.037024" lon="-0.962632">
        <ele>896.9</ele>
        <time>2025-06-22T14:03:16.864Z</time>
      </trkpt>
      <trkpt lat="43.036813" lon="-0.962471">
        <ele>904.0</ele>
        <time>2025-06-22T14:04:53.103Z</time>
      </trkpt>
      <trkpt lat="43.036622" lon="-0.962011">
        <ele>914.2</ele>
        <time>2025-06-22T14:07:16.496Z</time>
      </trkpt>
      <trkpt lat="43.036329" lon="-0.961689">
        <ele>923.4</ele>
        <time>2025-06-22T14:09:27.865Z</time>
      </trkpt>
      <trkpt lat="43.036056" lon="-0.961540">
        <ele>927.4</ele>
        <time>2025-06-22T14:10:36.478Z</time>
      </trkpt>
      <trkpt lat="43.035915" lon="-0.961102">
        <ele>932.6</ele>
        <time>2025-06-22T14:12:06.600Z</time>
      </trkpt>
      <trkpt lat="43.035933" lon="-0.960436">
        <ele>930.4</ele>
        <time>2025-06-22T14:13:06.219Z</time>
      </trkpt>
      <trkpt lat="43.035921" lon="-0.960033">
        <ele>925.7</ele>
        <time>2025-06-22T14:14:02.797Z</time>
      </trkpt>
      <trkpt lat="43.035796" lon="-0.959664">
        <ele>920.9</ele>
        <time>2025-06-22T14:14:59.737Z</time>
      </trkpt>
      <trkpt lat="43.035728" lon="-0.959345">
        <ele>918.5</ele>
        <time>2025-06-22T14:15:37.354Z</time>
      </trkpt>
      <trkpt lat="43.035632" lon="-0.959021">
        <ele>916.0</ele>
        <time>2025-06-22T14:16:16.819Z</time>
      </trkpt>
      <trkpt lat="43.035449" lon="-0.958710">
        <ele>917.2</ele>
        <time>2025-06-22T14:16:57.944Z</time>
      </trkpt>
      <trkpt lat="43.035234" lon="-0.958477">
        <ele>918.5</ele>
        <time>2025-06-22T14:17:36.596Z</time>
      </trkpt>
      <trkpt lat="43.034625" lon="-0.958105">
        <ele>925.1</ele>
        <time>2025-06-22T14:19:48.409Z</time>
      </trkpt>
      <trkpt lat="43.034473" lon="-0.957860">
        <ele>926.0</ele>
        <time>2025-06-22T14:20:20.236Z</time>
      </trkpt>
      <trkpt lat="43.034434" lon="-0.957515">
        <ele>926.9</ele>
        <time>2025-06-22T14:20:54.358Z</time>
      </trkpt>
      <trkpt lat="43.034097" lon="-0.956835">
        <ele>930.0</ele>
        <time>2025-06-22T14:22:22.816Z</time>
      </trkpt>
      <trkpt lat="43.033895" lon="-0.956481">
        <ele>937.0</ele>
        <time>2025-06-22T14:24:06.790Z</time>
      </trkpt>
      <trkpt lat="43.033665" lon="-0.956232">
        <ele>943.4</ele>
        <time>2025-06-22T14:25:39.983Z</time>
      </trkpt>
      <trkpt lat="43.033446" lon="-0.955993">
        <ele>951.8</ele>
        <time>2025-06-22T14:27:34.227Z</time>
      </trkpt>
      <trkpt lat="43.033132" lon="-0.955699">
        <ele>963.4</ele>
        <time>2025-06-22T14:30:09.253Z</time>
      </trkpt>
      <trkpt lat="43.032753" lon="-0.955522">
        <ele>971.4</ele>
        <time>2025-06-22T14:32:10.138Z</time>
      </trkpt>
      <trkpt lat="43.032262" lon="-0.955573">
        <ele>973.8</ele>
        <time>2025-06-22T14:33:21.455Z</time>
      </trkpt>
      <trkpt lat="43.032033" lon="-0.955439">
        <ele>978.1</ele>
        <time>2025-06-22T14:34:32.190Z</time>
      </trkpt>
      <trkpt lat="43.031914" lon="-0.955112">
        <ele>984.3</ele>
        <time>2025-06-22T14:36:02.877Z</time>
      </trkpt>
      <trkpt lat="43.031611" lon="-0.954782">
        <ele>987.4</ele>
        <time>2025-06-22T14:37:11.691Z</time>
      </trkpt>
      <trkpt lat="43.031477" lon="-0.954268">
        <ele>990.9</ele>
        <time>2025-06-22T14:38:25.881Z</time>
      </trkpt>
      <trkpt lat="43.031369" lon="-0.953865">
        <ele>991.1</ele>
        <time>2025-06-22T14:38:59.420Z</time>
      </trkpt>
      <trkpt lat="43.031200" lon="-0.953550">
        <ele>988.0</ele>
        <time>2025-06-22T14:39:45.537Z</time>
      </trkpt>
      <trkpt lat="43.030922" lon="-0.953401">
        <ele>980.7</ele>
        <time>2025-06-22T14:40:58.126Z</time>
      </trkpt>
      <trkpt lat="43.030711" lon="-0.953122">
        <ele>971.1</ele>
        <time>2025-06-22T14:42:24.116Z</time>
      </trkpt>
      <trkpt lat="43.030661" lon="-0.952827">
        <ele>973.1</ele>
        <time>2025-06-22T14:43:05.789Z</time>
      </trkpt>
    </trkseg>
  </trk>
</gpx>
