<?xml version="1.0" encoding="UTF-8"?>
<gpx version="1.1" creator="carnet-trek seed" xmlns="http://www.topografix.com/GPX/1/1">
  <metadata>
    <name>Calanques 1 – Callelongue → Morgiou</name>
  </metadata>
  <wpt lat="43.213300" lon="5.353000">
    <ele>20</ele>
    <name>Callelongue</name>
    <sym>Restaurant</sym>
  </wpt>
  <wpt lat="43.215000" lon="5.380000">
    <ele>300</ele>
    <name>Col de la Galinette</name>
    <sym>Summit</sym>
  </wpt>
  <wpt lat="43.209500" lon="5.418000">
    <ele>10</ele>
    <name>Calanque de Sormiou</name>
    <sym>Drinking Water</sym>
  </wpt>
  <wpt lat="43.212000" lon="5.448000">
    <ele>5</ele>
    <name>Calanque de Morgiou</name>
    <sym>Restaurant</sym>
  </wpt>
  <trk>
    <name>Calanques 1 – Callelongue → Morgiou</name>
    <type>hike</type>
    <trkseg>
      <trkpt lat="43.213300" lon="5.353000">
        <ele>19.2</ele>
        <time>2025-04-12T07:30:00.000Z</time>
      </trkpt>
      <trkpt lat="43.213386" lon="5.353352">
        <ele>24.4</ele>
        <time>2025-04-12T07:31:18.792Z</time>
      </trkpt>
      <trkpt lat="43.213486" lon="5.353697">
        <ele>27.7</ele>
        <time>2025-04-12T07:32:18.697Z</time>
      </trkpt>
      <trkpt lat="43.213608" lon="5.354032">
        <ele>33.1</ele>
        <time>2025-04-12T07:33:40.348Z</time>
      </trkpt>
      <trkpt lat="43.213729" lon="5.354367">
        <ele>38.6</ele>
        <time>2025-04-12T07:35:03.154Z</time>
      </trkpt>
      <trkpt lat="43.213850" lon="5.354702">
        <ele>43.2</ele>
        <time>2025-04-12T07:36:16.638Z</time>
      </trkpt>
      <trkpt lat="43.213942" lon="5.355051">
        <ele>48.3</ele>
        <time>2025-04-12T07:37:34.386Z</time>
      </trkpt>
      <trkpt lat="43.214017" lon="5.355408">
        <ele>52.7</ele>
        <time>2025-04-12T07:38:45.721Z</time>
      </trkpt>
      <trkpt lat="43.214034" lon="5.355791">
        <ele>57.9</ele>
        <time>2025-04-12T07:40:05.255Z</time>
      </trkpt>
      <trkpt lat="43.214055" lon="5.356173">
        <ele>63.2</ele>
        <time>2025-04-12T07:41:26.847Z</time>
      </trkpt>
      <trkpt lat="43.214060" lon="5.356562">
        <ele>67.3</ele>
        <time>2025-04-12T07:42:35.974Z</time>
      </trkpt>
      <trkpt lat="43.214058" lon="5.356955">
        <ele>71.8</ele>
        <time>2025-04-12T07:43:49.753Z</time>
      </trkpt>
      <trkpt lat="43.214112" lon="5.357321">
        <ele>76.3</ele>
        <time>2025-04-12T07:45:02.057Z</time>
      </trkpt>
      <trkpt lat="43.214184" lon="5.357679">
        <ele>81.3</ele>
        <time>2025-04-12T07:46:19.307Z</time>
      </trkpt>
      <trkpt lat="43.214316" lon="5.358009">
        <ele>85.7</ele>
        <time>2025-04-12T07:47:30.149Z</time>
      </trkpt>
      <trkpt lat="43.214455" lon="5.358336">
        <ele>87.8</ele>
        <time>2025-04-12T07:48:18.653Z</time>
      </trkpt>
      <trkpt lat="43.214651" lon="5.358637">
        <ele>91.8</ele>
        <time>2025-04-12T07:49:27.398Z</time>
      </trkpt>
      <trkpt lat="43.214850" lon="5.358936">
        <ele>95.3</ele>
        <time>2025-04-12T07:50:31.847Z</time>
      </trkpt>
      <trkpt lat="43.215040" lon="5.359239">
        <ele>98.2</ele>
        <time>2025-04-12T07:51:29.471Z</time>
      </trkpt>
      <trkpt lat="43.215216" lon="5.359549">
        <ele>102.9</ele>
        <time>2025-04-12T07:52:45.248Z</time>
      </trkpt>
      <trkpt lat="43.215325" lon="5.359890">
        <ele>105.1</ele>
        <time>2025-04-12T07:53:33.349Z</time>
      </trkpt>
      <trkpt lat="43.215376" lon="5.360258">
        <ele>108.7</ele>
        <time>2025-04-12T07:54:36.615Z</time>
      </trkpt>
      <trkpt lat="43.215361" lon="5.360657">
        <ele>112.5</ele>
        <time>2025-04-12T07:55:42.827Z</time>
      </trkpt>
      <trkpt lat="43.215373" lon="5.361042">
        <ele>116.3</ele>
        <time>2025-04-12T07:56:49.508Z</time>
      </trkpt>
      <trkpt lat="43.215338" lon="5.361450">
        <ele>119.0</ele>
        <time>2025-04-12T07:57:44.914Z</time>
      </trkpt>
      <trkpt lat="43.215322" lon="5.361849">
        <ele>123.2</ele>
        <time>2025-04-12T07:58:56.255Z</time>
      </trkpt>
      <trkpt lat="43.215365" lon="5.362220">
        <ele>128.9</ele>
        <time>2025-04-12T08:00:20.956Z</time>
      </trkpt>
      <trkpt lat="43.215418" lon="5.362587">
        <ele>132.1</ele>
        <time>2025-04-12T08:01:19.553Z</time>
      </trkpt>
      <trkpt lat="43.215520" lon="5.362931">
        <ele>136.3</ele>
        <time>2025-04-12T08:02:29.068Z</time>
      </trkpt>
      <trkpt lat="43.215675" lon="5.363251">
        <ele>142.3</ele>
        <time>2025-04-12T08:03:57.792Z</time>
      </trkpt>
      <trkpt lat="43.215817" lon="5.363577">
        <ele>146.9</ele>
        <time>2025-04-12T08:05:10.968Z</time>
      </trkpt>
      <trkpt lat="43.215976" lon="5.363894">
        <ele>151.0</ele>
        <time>2025-04-12T08:06:20.292Z</time>
      </trkpt>
      <trkpt lat="43.216107" lon="5.364225">
        <ele>156.5</ele>
        <time>2025-04-12T08:07:42.286Z</time>
      </trkpt>
      <trkpt lat="43.216221" lon="5.364563">
        <ele>161.2</ele>
        <time>2025-04-12T08:08:57.356Z</time>
      </trkpt>
      <trkpt lat="43.216311" lon="5.364913">
        <ele>166.8</ele>
        <time>2025-04-12T08:10:20.042Z</time>
      </trkpt>
      <trkpt lat="43.216374" lon="5.365275">
        <ele>172.1</ele>
        <time>2025-04-12T08:11:40.739Z</time>
      </trkpt>
      <trkpt lat="43.216436" lon="5.365638">
        <ele>175.5</ele>
        <time>2025-04-12T08:12:41.806Z</time>
      </trkpt>
      <trkpt lat="43.216500" lon="5.366000">
        <ele>180.6</ele>
        <time>2025-04-12T08:14:00.205Z</time>
      </trkpt>
      <trkpt lat="43.216424" lon="5.366361">
        <ele>182.3</ele>
        <time>2025-04-12T08:14:43.238Z</time>
      </trkpt>
      <trkpt lat="43.216338" lon="5.366720">
        <ele>184.6</ele>
        <time>2025-04-12T08:15:33.495Z</time>
      </trkpt>
      <trkpt lat="43.216241" lon="5.367077">
        <ele>188.8</ele>
        <time>2025-04-12T08:16:42.997Z</time>
      </trkpt>
      <trkpt lat="43.216148" lon="5.367435">
        <ele>190.2</ele>
        <time>2025-04-12T08:17:23.609Z</time>
      </trkpt>
      <trkpt lat="43.216060" lon="5.367793">
        <ele>193.4</ele>
        <time>2025-04-12T08:18:22.807Z</time>
      </trkpt>
      <trkpt lat="43.215977" lon="5.368153">
        <ele>195.8</ele>
        <time>2025-04-12T08:19:13.630Z</time>
      </trkpt>
      <trkpt lat="43.215908" lon="5.368515">
        <ele>199.2</ele>
        <time>2025-04-12T08:20:15.270Z</time>
      </trkpt>
      <trkpt lat="43.215837" lon="5.368877">
        <ele>202.5</ele>
        <time>2025-04-12T08:21:15.358Z</time>
      </trkpt>
      <trkpt lat="43.215802" lon="5.369247">
        <ele>204.6</ele>
        <time>2025-04-12T08:22:02.267Z</time>
      </trkpt>
      <trkpt lat="43.215789" lon="5.369620">
        <ele>208.8</ele>
        <time>2025-04-12T08:23:11.094Z</time>
      </trkpt>
      <trkpt lat="43.215782" lon="5.369995">
        <ele>213.3</ele>
        <time>2025-04-12T08:24:24.099Z</time>
      </trkpt>
      <trkpt lat="43.215803" lon="5.370376">
        <ele>216.2</ele>
        <time>2025-04-12T08:25:20.451Z</time>
      </trkpt>
      <trkpt lat="43.215851" lon="5.370762">
        <ele>221.1</ele>
        <time>2025-04-12T08:26:37.877Z</time>
      </trkpt>
      <trkpt lat="43.215888" lon="5.371146">
        <ele>224.3</ele>
        <time>2025-04-12T08:27:37.463Z</time>
      </trkpt>
      <trkpt lat="43.215943" lon="5.371533">
        <ele>228.0</ele>
        <time>2025-04-12T08:28:43.464Z</time>
      </trkpt>
      <trkpt lat="43.215992" lon="5.371920">
        <ele>232.5</ele>
        <time>2025-04-12T08:29:56.464Z</time>
      </trkpt>
      <trkpt lat="43.216079" lon="5.372314">
        <ele>236.1</ele>
        <time>2025-04-12T08:31:02.067Z</time>
      </trkpt>
      <trkpt lat="43.216140" lon="5.372702">
        <ele>241.1</ele>
        <time>2025-04-12T08:32:20.801Z</time>
      </trkpt>
      <trkpt lat="43.216173" lon="5.373085">
        <ele>244.1</ele>
        <time>2025-04-12T08:33:18.634Z</time>
      </trkpt>
      <trkpt lat="43.216205" lon="5.373468">
        <ele>247.9</ele>
        <time>2025-04-12T08:34:24.867Z</time>
      </trkpt>
      <trkpt lat="43.216222" lon="5.373848">
        <ele>251.0</ele>
        <time>2025-04-12T08:35:22.606Z</time>
      </trkpt>
      <trkpt lat="43.216203" lon="5.374221">
        <ele>255.5</ele>
        <time>2025-04-12T08:36:35.536Z</time>
      </trkpt>
      <trkpt lat="43.216156" lon="5.374587">
        <ele>258.4</ele>
        <time>2025-04-12T08:37:31.380Z</time>
      </trkpt>
      <trkpt lat="43.216100" lon="5.374952">
        <ele>261.7</ele>
        <time>2025-04-12T08:38:30.924Z</time>
      </trkpt>
      <trkpt lat="43.216024" lon="5.375314">
        <ele>263.0</ele>
        <time>2025-04-12T08:39:10.549Z</time>
      </trkpt>
      <trkpt lat="43.215957" lon="5.375677">
        <ele>265.8</ele>
        <time>2025-04-12T08:40:04.784Z</time>
      </trkpt>
      <trkpt lat="43.215842" lon="5.376030">
        <ele>269.1</ele>
        <time>2025-04-12T08:41:05.715Z</time>
      </trkpt>
      <trkpt lat="43.215740" lon="5.376385">
        <ele>269.5</ele>
        <time>2025-04-12T08:41:36.899Z</time>
      </trkpt>
      <trkpt lat="43.215616" lon="5.376737">
        <ele>273.7</ele>
        <time>2025-04-12T08:42:46.498Z</time>
      </trkpt>
      <trkpt lat="43.215491" lon="5.377088">
        <ele>274.8</ele>
        <time>2025-04-12T08:43:25.088Z</time>
      </trkpt>
      <trkpt lat="43.215389" lon="5.377444">
        <ele>277.6</ele>
        <time>2025-04-12T08:44:20.447Z</time>
      </trkpt>
      <trkpt lat="43.215272" lon="5.377796">
        <ele>279.7</ele>
        <time>2025-04-12T08:45:08.913Z</time>
      </trkpt>
      <trkpt lat="43.215198" lon="5.378158">
        <ele>284.0</ele>
        <time>2025-04-12T08:46:20.024Z</time>
      </trkpt>
      <trkpt lat="43.215114" lon="5.378517">
        <ele>287.2</ele>
        <time>2025-04-12T08:47:19.038Z</time>
      </trkpt>
      <trkpt lat="43.215069" lon="5.378885">
        <ele>289.8</ele>
        <time>2025-04-12T08:48:11.066Z</time>
      </trkpt>
      <trkpt lat="43.215029" lon="5.379253">
        <ele>293.4</ele>
        <time>2025-04-12T08:49:14.233Z</time>
      </trkpt>
      <trkpt lat="43.215006" lon="5.379625">
        <ele>295.5</ele>
        <time>2025-04-12T08:50:01.649Z</time>
      </trkpt>
      <trkpt lat="43.215000" lon="5.380000">
        <ele>300.4</ele>
        <time>2025-04-12T08:51:18.656Z</time>
      </trkpt>
      <trkpt lat="43.214919" lon="5.380352">
        <ele>296.8</ele>
        <time>2025-04-12T08:52:05.856Z</time>
      </trkpt>
      <trkpt lat="43.214822" lon="5.380697">
        <ele>293.5</ele>
        <time>2025-04-12T08:52:51.757Z</time>
      </trkpt>
      <trkpt lat="43.214710" lon="5.381036">
        <ele>289.8</ele>
        <time>2025-04-12T08:53:39.492Z</time>
      </trkpt>
      <trkpt lat="43.214582" lon="5.381368">
        <ele>287.5</ele>
        <time>2025-04-12T08:54:19.727Z</time>
      </trkpt>
      <trkpt lat="43.214448" lon="5.381698">
        <ele>283.3</ele>
        <time>2025-04-12T08:55:11.033Z</time>
      </trkpt>
      <trkpt lat="43.214303" lon="5.382023">
        <ele>280.2</ele>
        <time>2025-04-12T08:55:55.976Z</time>
      </trkpt>
      <trkpt lat="43.214159" lon="5.382348">
        <ele>277.7</ele>
        <time>2025-04-12T08:56:37.764Z</time>
      </trkpt>
      <trkpt lat="43.214018" lon="5.382675">
        <ele>273.2</ele>
        <time>2025-04-12T08:57:30.824Z</time>
      </trkpt>
      <trkpt lat="43.213889" lon="5.383007">
        <ele>270.8</ele>
        <time>2025-04-12T08:58:11.185Z</time>
      </trkpt>
      <trkpt lat="43.213764" lon="5.383340">
        <ele>266.9</ele>
        <time>2025-04-12T08:59:01.135Z</time>
      </trkpt>
      <trkpt lat="43.213664" lon="5.383684">
        <ele>262.8</ele>
        <time>2025-04-12T08:59:51.213Z</time>
      </trkpt>
      <trkpt lat="43.213572" lon="5.384032">
        <ele>259.6</ele>
        <time>2025-04-12T09:00:36.103Z</time>
      </trkpt>
      <trkpt lat="43.213509" lon="5.384391">
        <ele>255.4</ele>
        <time>2025-04-12T09:01:27.042Z</time>
      </trkpt>
      <trkpt lat="43.213471" lon="5.384761">
        <ele>252.3</ele>
        <time>2025-04-12T09:02:11.688Z</time>
      </trkpt>
      <trkpt lat="43.213423" lon="5.385127">
        <ele>250.9</ele>
        <time>2025-04-12T09:02:45.787Z</time>
      </trkpt>
      <trkpt lat="43.213434" lon="5.385517">
        <ele>247.8</ele>
        <time>2025-04-12T09:03:31.414Z</time>
      </trkpt>
      <trkpt lat="43.213436" lon="5.385903">
        <ele>245.3</ele>
        <time>2025-04-12T09:04:13.151Z</time>
      </trkpt>
      <trkpt lat="43.213484" lon="5.386309">
        <ele>241.8</ele>
        <time>2025-04-12T09:05:02.879Z</time>
      </trkpt>
      <trkpt lat="43.213519" lon="5.386710">
        <ele>239.7</ele>
        <time>2025-04-12T09:05:43.158Z</time>
      </trkpt>
      <trkpt lat="43.213540" lon="5.387104">
        <ele>238.2</ele>
        <time>2025-04-12T09:06:19.750Z</time>
      </trkpt>
      <trkpt lat="43.213611" lon="5.387520">
        <ele>235.8</ele>
        <time>2025-04-12T09:07:03.648Z</time>
      </trkpt>
      <trkpt lat="43.213646" lon="5.387920">
        <ele>232.7</ele>
        <time>2025-04-12T09:07:50.811Z</time>
      </trkpt>
      <trkpt lat="43.213688" lon="5.388323">
        <ele>231.0</ele>
        <time>2025-04-12T09:08:28.888Z</time>
      </trkpt>
      <trkpt lat="43.213686" lon="5.388708">
        <ele>229.1</ele>
        <time>2025-04-12T09:09:07.308Z</time>
      </trkpt>
      <trkpt lat="43.213715" lon="5.389106">
        <ele>228.8</ele>
        <time>2025-04-12T09:09:36.671Z</time>
      </trkpt>
      <trkpt lat="43.213665" lon="5.389471">
        <ele>225.3</ele>
        <time>2025-04-12T09:10:23.632Z</time>
      </trkpt>
      <trkpt lat="43.213642" lon="5.389847">
        <ele>224.5</ele>
        <time>2025-04-12T09:10:54.849Z</time>
      </trkpt>
      <trkpt lat="43.213574" lon="5.390204">
        <ele>221.4</ele>
        <time>2025-04-12T09:11:38.744Z</time>
      </trkpt>
      <trkpt lat="43.213487" lon="5.390554">
        <ele>219.8</ele>
        <time>2025-04-12T09:12:14.077Z</time>
      </trkpt>
      <trkpt lat="43.213361" lon="5.390887">
        <ele>218.2</ele>
        <time>2025-04-12T09:12:49.992Z</time>
      </trkpt>
      <trkpt lat="43.213231" lon="5.391218">
        <ele>214.5</ele>
        <time>2025-04-12T09:13:38.100Z</time>
      </trkpt>
      <trkpt lat="43.213065" lon="5.391535">
        <ele>212.1</ele>
        <time>2025-04-12T09:14:19.385Z</time>
      </trkpt>
      <trkpt lat="43.212870" lon="5.391839">
        <ele>208.7</ele>
        <time>2025-04-12T09:15:08.080Z</time>
      </trkpt>
      <trkpt lat="43.212709" lon="5.392157">
        <ele>207.1</ele>
        <time>2025-04-12T09:15:44.677Z</time>
      </trkpt>
      <trkpt lat="43.212525" lon="5.392466">
        <ele>203.0</ele>
        <time>2025-04-12T09:16:37.011Z</time>
      </trkpt>
      <trkpt lat="43.212325" lon="5.392768">
        <ele>199.3</ele>
        <time>2025-04-12T09:17:27.366Z</time>
      </trkpt>
      <trkpt lat="43.212132" lon="5.393073">
        <ele>197.6</ele>
        <time>2025-04-12T09:18:05.636Z</time>
      </trkpt>
      <trkpt lat="43.211959" lon="5.393386">
        <ele>192.5</ele>
        <time>2025-04-12T09:19:03.494Z</time>
      </trkpt>
      <trkpt lat="43.211801" lon="5.393706">
        <ele>189.7</ele>
        <time>2025-04-12T09:19:47.120Z</time>
      </trkpt>
      <trkpt lat="43.211664" lon="5.394034">
        <ele>186.2</ele>
        <time>2025-04-12T09:20:34.348Z</time>
      </trkpt>
      <trkpt lat="43.211534" lon="5.394366">
        <ele>183.1</ele>
        <time>2025-04-12T09:21:19.136Z</time>
      </trkpt>
      <trkpt lat="43.211410" lon="5.394700">
        <ele>179.6</ele>
        <time>2025-04-12T09:22:06.092Z</time>
      </trkpt>
      <trkpt lat="43.211329" lon="5.395052">
        <ele>175.1</ele>
        <time>2025-04-12T09:22:59.008Z</time>
      </trkpt>
      <trkpt lat="43.211258" lon="5.395407">
        <ele>172.1</ele>
        <time>2025-04-12T09:23:42.327Z</time>
      </trkpt>
      <trkpt lat="43.211203" lon="5.395770">
        <ele>168.8</ele>
        <time>2025-04-12T09:24:28.016Z</time>
      </trkpt>
      <trkpt lat="43.211157" lon="5.396137">
        <ele>165.2</ele>
        <time>2025-04-12T09:25:15.662Z</time>
      </trkpt>
      <trkpt lat="43.211123" lon="5.396508">
        <ele>162.1</ele>
        <time>2025-04-12T09:26:00.422Z</time>
      </trkpt>
      <trkpt lat="43.211100" lon="5.396884">
        <ele>159.1</ele>
        <time>2025-04-12T09:26:44.418Z</time>
      </trkpt>
      <trkpt lat="43.211069" lon="5.397257">
        <ele>154.7</ele>
        <time>2025-04-12T09:27:36.906Z</time>
      </trkpt>
      <trkpt lat="43.211039" lon="5.397630">
        <ele>153.6</ele>
        <time>2025-04-12T09:28:09.599Z</time>
      </trkpt>
      <trkpt lat="43.211000" lon="5.398000">
        <ele>150.7</ele>
        <time>2025-04-12T09:28:53.119Z</time>
      </trkpt>
      <trkpt lat="43.210935" lon="5.398365">
        <ele>147.9</ele>
        <time>2025-04-12T09:29:35.624Z</time>
      </trkpt>
      <trkpt lat="43.210878" lon="5.398731">
        <ele>144.7</ele>
        <time>2025-04-12T09:30:21.078Z</time>
      </trkpt>
      <trkpt lat="43.210840" lon="5.399100">
        <ele>141.8</ele>
        <time>2025-04-12T09:31:04.264Z</time>
      </trkpt>
      <trkpt lat="43.210814" lon="5.399471">
        <ele>137.7</ele>
        <time>2025-04-12T09:31:54.567Z</time>
      </trkpt>
      <trkpt lat="43.210799" lon="5.399843">
        <ele>135.9</ele>
        <time>2025-04-12T09:32:31.481Z</time>
      </trkpt>
      <trkpt lat="43.210814" lon="5.400220">
        <ele>132.7</ele>
        <time>2025-04-12T09:33:16.637Z</time>
      </trkpt>
      <trkpt lat="43.210840" lon="5.400597">
        <ele>131.3</ele>
        <time>2025-04-12T09:33:51.697Z</time>
      </trkpt>
      <trkpt lat="43.210875" lon="5.400977">
        <ele>128.9</ele>
        <time>2025-04-12T09:34:32.826Z</time>
      </trkpt>
      <trkpt lat="43.210922" lon="5.401358">
        <ele>126.3</ele>
        <time>2025-04-12T09:35:14.762Z</time>
      </trkpt>
      <trkpt lat="43.210966" lon="5.401738">
        <ele>124.9</ele>
        <time>2025-04-12T09:35:50.270Z</time>
      </trkpt>
      <trkpt lat="43.211038" lon="5.402123">
        <ele>122.5</ele>
        <time>2025-04-12T09:36:32.013Z</time>
      </trkpt>
      <trkpt lat="43.211087" lon="5.402504">
        <ele>121.2</ele>
        <time>2025-04-12T09:37:06.926Z</time>
      </trkpt>
      <trkpt lat="43.211148" lon="5.402887">
        <ele>119.1</ele>
        <time>2025-04-12T09:37:46.697Z</time>
      </trkpt>
      <trkpt lat="43.211163" lon="5.403263">
        <ele>116.5</ele>
        <time>2025-04-12T09:38:28.141Z</time>
      </trkpt>
      <trkpt lat="43.211210" lon="5.403644">
        <ele>114.8</ele>
        <time>2025-04-12T09:39:05.493Z</time>
      </trkpt>
      <trkpt lat="43.211191" lon="5.404016">
        <ele>113.2</ele>
        <time>2025-04-12T09:39:40.892Z</time>
      </trkpt>
      <trkpt lat="43.211189" lon="5.404390">
        <ele>111.6</ele>
        <time>2025-04-12T09:40:16.391Z</time>
      </trkpt>
      <trkpt lat="43.211148" lon="5.404758">
        <ele>110.5</ele>
        <time>2025-04-12T09:40:48.985Z</time>
      </trkpt>
      <trkpt lat="43.211057" lon="5.405120">
        <ele>108.6</ele>
        <time>2025-04-12T09:41:27.013Z</time>
      </trkpt>
      <trkpt lat="43.210965" lon="5.405481">
        <ele>104.9</ele>
        <time>2025-04-12T09:42:15.486Z</time>
      </trkpt>
      <trkpt lat="43.210872" lon="5.405842">
        <ele>104.1</ele>
        <time>2025-04-12T09:42:46.913Z</time>
      </trkpt>
      <trkpt lat="43.210745" lon="5.406198">
        <ele>100.9</ele>
        <time>2025-04-12T09:43:33.737Z</time>
      </trkpt>
      <trkpt lat="43.210573" lon="5.406548">
        <ele>97.6</ele>
        <time>2025-04-12T09:44:23.203Z</time>
      </trkpt>
      <trkpt lat="43.210434" lon="5.406903">
        <ele>95.6</ele>
        <time>2025-04-12T09:45:03.127Z</time>
      </trkpt>
      <trkpt lat="43.210277" lon="5.407255">
        <ele>91.8</ele>
        <time>2025-04-12T09:45:54.630Z</time>
      </trkpt>
      <trkpt lat="43.210111" lon="5.407606">
        <ele>89.7</ele>
        <time>2025-04-12T09:46:36.097Z</time>
      </trkpt>
      <trkpt lat="43.209927" lon="5.407954">
        <ele>85.1</ele>
        <time>2025-04-12T09:47:33.430Z</time>
      </trkpt>
      <trkpt lat="43.209773" lon="5.408307">
        <ele>83.1</ele>
        <time>2025-04-12T09:48:14.431Z</time>
      </trkpt>
      <trkpt lat="43.209658" lon="5.408665">
        <ele>78.3</ele>
        <time>2025-04-12T09:49:10.314Z</time>
      </trkpt>
      <trkpt lat="43.209530" lon="5.409021">
        <ele>74.8</ele>
        <time>2025-04-12T09:49:58.517Z</time>
      </trkpt>
      <trkpt lat="43.209457" lon="5.409385">
        <ele>70.6</ele>
        <time>2025-04-12T09:50:50.230Z</time>
      </trkpt>
      <trkpt lat="43.209372" lon="5.409747">
        <ele>68.7</ele>
        <time>2025-04-12T09:51:27.895Z</time>
      </trkpt>
      <trkpt lat="43.209322" lon="5.410115">
        <ele>64.0</ele>
        <time>2025-04-12T09:52:22.026Z</time>
      </trkpt>
      <trkpt lat="43.209303" lon="5.410486">
        <ele>60.0</ele>
        <time>2025-04-12T09:53:12.226Z</time>
      </trkpt>
      <trkpt lat="43.209325" lon="5.410864">
        <ele>56.6</ele>
        <time>2025-04-12T09:53:58.954Z</time>
      </trkpt>
      <trkpt lat="43.209339" lon="5.411240">
        <ele>54.8</ele>
        <time>2025-04-12T09:54:35.763Z</time>
      </trkpt>
      <trkpt lat="43.209398" lon="5.411623">
        <ele>50.2</ele>
        <time>2025-04-12T09:55:30.518Z</time>
      </trkpt>
      <trkpt lat="43.209448" lon="5.412004">
        <ele>47.7</ele>
        <time>2025-04-12T09:56:12.481Z</time>
      </trkpt>
      <trkpt lat="43.209536" lon="5.412391">
        <ele>44.5</ele>
        <time>2025-04-12T09:56:59.446Z</time>
      </trkpt>
      <trkpt lat="43.209613" lon="5.412776">
        <ele>41.9</ele>
        <time>2025-04-12T09:57:42.844Z</time>
      </trkpt>
      <trkpt lat="43.209693" lon="5.413161">
        <ele>38.5</ele>
        <time>2025-04-12T09:58:31.101Z</time>
      </trkpt>
      <trkpt lat="43.209762" lon="5.413546">
        <ele>36.5</ele>
        <time>2025-04-12T09:59:10.598Z</time>
      </trkpt>
      <trkpt lat="43.209804" lon="5.413926">
        <ele>34.5</ele>
        <time>2025-04-12T09:59:49.382Z</time>
      </trkpt>
      <trkpt lat="43.209862" lon="5.414308">
        <ele>32.3</ele>
        <time>2025-04-12T10:00:29.777Z</time>
      </trkpt>
      <trkpt lat="43.209888" lon="5.414686">
        <ele>29.7</ele>
        <time>2025-04-12T10:01:12.069Z</time>
      </trkpt>
      <trkpt lat="43.209911" lon="5.415064">
        <ele>27.3</ele>
        <time>2025-04-12T10:01:52.325Z</time>
      </trkpt>
      <trkpt lat="43.209898" lon="5.415436">
        <ele>25.0</ele>
        <time>2025-04-12T10:02:32.483Z</time>
      </trkpt>
      <trkpt lat="43.209882" lon="5.415808">
        <ele>22.7</ele>
        <time>2025-04-12T10:03:11.777Z</time>
      </trkpt>
      <trkpt lat="43.209835" lon="5.416176">
        <ele>21.7</ele>
        <time>2025-04-12T10:03:44.155Z</time>
      </trkpt>
      <trkpt lat="43.209787" lon="5.416543">
        <ele>18.5</ele>
        <time>2025-04-12T10:04:28.932Z</time>
      </trkpt>
      <trkpt lat="43.209722" lon="5.416908">
        <ele>17.5</ele>
        <time>2025-04-12T10:05:01.106Z</time>
      </trkpt>
      <trkpt lat="43.209647" lon="5.417272">
        <ele>15.4</ele>
        <time>2025-04-12T10:05:40.205Z</time>
      </trkpt>
      <trkpt lat="43.209574" lon="5.417636">
        <ele>12.8</ele>
        <time>2025-04-12T10:06:21.845Z</time>
      </trkpt>
      <trkpt lat="43.209500" lon="5.418000">
        <ele>10.2</ele>
        <time>2025-04-12T10:07:03.843Z</time>
      </trkpt>
      <trkpt lat="43.209580" lon="5.418353">
        <ele>15.1</ele>
        <time>2025-04-12T10:08:20.097Z</time>
      </trkpt>
      <trkpt lat="43.209641" lon="5.418716">
        <ele>18.3</ele>
        <time>2025-04-12T10:09:19.370Z</time>
      </trkpt>
      <trkpt lat="43.209695" lon="5.419082">
        <ele>24.2</ele>
        <time>2025-04-12T10:10:45.467Z</time>
      </trkpt>
      <trkpt lat="43.209752" lon="5.419446">
        <ele>28.8</ele>
        <time>2025-04-12T10:11:59.004Z</time>
      </trkpt>
      <trkpt lat="43.209836" lon="5.419798">
        <ele>32.2</ele>
        <time>2025-04-12T10:12:59.630Z</time>
      </trkpt>
      <trkpt lat="43.209933" lon="5.420143">
        <ele>35.3</ele>
        <time>2025-04-12T10:13:56.755Z</time>
      </trkpt>
      <trkpt lat="43.210064" lon="5.420473">
        <ele>40.7</ele>
        <time>2025-04-12T10:15:19.013Z</time>
      </trkpt>
      <trkpt lat="43.210231" lon="5.420785">
        <ele>44.2</ele>
        <time>2025-04-12T10:16:21.192Z</time>
      </trkpt>
      <trkpt lat="43.210389" lon="5.421102">
        <ele>48.9</ele>
        <time>2025-04-12T10:17:36.798Z</time>
      </trkpt>
      <trkpt lat="43.210547" lon="5.421419">
        <ele>54.0</ele>
        <time>2025-04-12T10:18:55.463Z</time>
      </trkpt>
      <trkpt lat="43.210683" lon="5.421746">
        <ele>58.7</ele>
        <time>2025-04-12T10:20:10.319Z</time>
      </trkpt>
      <trkpt lat="43.210800" lon="5.422083">
        <ele>62.1</ele>
        <time>2025-04-12T10:21:11.270Z</time>
      </trkpt>
      <trkpt lat="43.210847" lon="5.422452">
        <ele>67.9</ele>
        <time>2025-04-12T10:22:37.167Z</time>
      </trkpt>
      <trkpt lat="43.210849" lon="5.422842">
        <ele>72.1</ele>
        <time>2025-04-12T10:23:47.462Z</time>
      </trkpt>
      <trkpt lat="43.210835" lon="5.423239">
        <ele>78.2</ele>
        <time>2025-04-12T10:25:17.347Z</time>
      </trkpt>
      <trkpt lat="43.210808" lon="5.423643">
        <ele>83.4</ele>
        <time>2025-04-12T10:26:39.062Z</time>
      </trkpt>
      <trkpt lat="43.210774" lon="5.424051">
        <ele>89.5</ele>
        <time>2025-04-12T10:28:10.384Z</time>
      </trkpt>
      <trkpt lat="43.210789" lon="5.424434">
        <ele>95.3</ele>
        <time>2025-04-12T10:29:36.321Z</time>
      </trkpt>
      <trkpt lat="43.210851" lon="5.424797">
        <ele>101.6</ele>
        <time>2025-04-12T10:31:07.316Z</time>
      </trkpt>
      <trkpt lat="43.210984" lon="5.425125">
        <ele>106.8</ele>
        <time>2025-04-12T10:32:26.519Z</time>
      </trkpt>
      <trkpt lat="43.211135" lon="5.425445">
        <ele>111.7</ele>
        <time>2025-04-12T10:33:44.007Z</time>
      </trkpt>
      <trkpt lat="43.211351" lon="5.425735">
        <ele>117.2</ele>
        <time>2025-04-12T10:35:09.585Z</time>
      </trkpt>
      <trkpt lat="43.211564" lon="5.426026">
        <ele>124.2</ele>
        <time>2025-04-12T10:36:49.662Z</time>
      </trkpt>
      <trkpt lat="43.211738" lon="5.426335">
        <ele>129.3</ele>
        <time>2025-04-12T10:38:09.429Z</time>
      </trkpt>
      <trkpt lat="43.211922" lon="5.426640">
        <ele>134.8</ele>
        <time>2025-04-12T10:39:33.111Z</time>
      </trkpt>
      <trkpt lat="43.212031" lon="5.426980">
        <ele>138.8</ele>
        <time>2025-04-12T10:40:40.417Z</time>
      </trkpt>
      <trkpt lat="43.212119" lon="5.427329">
        <ele>143.8</ele>
        <time>2025-04-12T10:41:57.158Z</time>
      </trkpt>
      <trkpt lat="43.212135" lon="5.427713">
        <ele>148.7</ele>
        <time>2025-04-12T10:43:14.795Z</time>
      </trkpt>
      <trkpt lat="43.212159" lon="5.428093">
        <ele>151.9</ele>
        <time>2025-04-12T10:44:13.939Z</time>
      </trkpt>
      <trkpt lat="43.212140" lon="5.428493">
        <ele>156.8</ele>
        <time>2025-04-12T10:45:32.526Z</time>
      </trkpt>
      <trkpt lat="43.212157" lon="5.428876">
        <ele>159.8</ele>
        <time>2025-04-12T10:46:29.387Z</time>
      </trkpt>
      <trkpt lat="43.212171" lon="5.429261">
        <ele>165.3</ele>
        <time>2025-04-12T10:47:53.122Z</time>
      </trkpt>
      <trkpt lat="43.212233" lon="5.429623">
        <ele>168.4</ele>
        <time>2025-04-12T10:48:50.610Z</time>
      </trkpt>
      <trkpt lat="43.212339" lon="5.429964">
        <ele>172.7</ele>
        <time>2025-04-12T10:50:00.578Z</time>
      </trkpt>
      <trkpt lat="43.212453" lon="5.430302">
        <ele>176.9</ele>
        <time>2025-04-12T10:51:09.788Z</time>
      </trkpt>
      <trkpt lat="43.212589" lon="5.430629">
        <ele>180.9</ele>
        <time>2025-04-12T10:52:17.107Z</time>
      </trkpt>
      <trkpt lat="43.212720" lon="5.430958">
        <ele>186.3</ele>
        <time>2025-04-12T10:53:38.738Z</time>
      </trkpt>
      <trkpt lat="43.212833" lon="5.431296">
        <ele>190.0</ele>
        <time>2025-04-12T10:54:42.728Z</time>
      </trkpt>
      <trkpt lat="43.212926" lon="5.431644">
        <ele>194.7</ele>
        <time>2025-04-12T10:55:57.271Z</time>
      </trkpt>
      <trkpt lat="43.213000" lon="5.432000">
        <ele>200.1</ele>
        <time>2025-04-12T10:57:17.768Z</time>
      </trkpt>
      <trkpt lat="43.212959" lon="5.432370">
        <ele>195.4</ele>
        <time>2025-04-12T10:58:11.644Z</time>
      </trkpt>
      <trkpt lat="43.212932" lon="5.432742">
        <ele>189.9</ele>
        <time>2025-04-12T10:59:10.722Z</time>
      </trkpt>
      <trkpt lat="43.212931" lon="5.433116">
        <ele>184.9</ele>
        <time>2025-04-12T11:00:06.450Z</time>
      </trkpt>
      <trkpt lat="43.212942" lon="5.433493">
        <ele>181.2</ele>
        <time>2025-04-12T11:00:55.133Z</time>
      </trkpt>
      <trkpt lat="43.212971" lon="5.433871">
        <ele>176.9</ele>
        <time>2025-04-12T11:01:47.228Z</time>
      </trkpt>
      <trkpt lat="43.212995" lon="5.434248">
        <ele>171.9</ele>
        <time>2025-04-12T11:02:43.645Z</time>
      </trkpt>
      <trkpt lat="43.213011" lon="5.434625">
        <ele>167.3</ele>
        <time>2025-04-12T11:03:37.620Z</time>
      </trkpt>
      <trkpt lat="43.212978" lon="5.434996">
        <ele>163.4</ele>
        <time>2025-04-12T11:04:26.561Z</time>
      </trkpt>
      <trkpt lat="43.212908" lon="5.435363">
        <ele>160.3</ele>
        <time>2025-04-12T11:05:11.952Z</time>
      </trkpt>
      <trkpt lat="43.212813" lon="5.435726">
        <ele>155.5</ele>
        <time>2025-04-12T11:06:07.225Z</time>
      </trkpt>
      <trkpt lat="43.212692" lon="5.436087">
        <ele>151.5</ele>
        <time>2025-04-12T11:06:59.083Z</time>
      </trkpt>
      <trkpt lat="43.212560" lon="5.436446">
        <ele>148.5</ele>
        <time>2025-04-12T11:07:44.926Z</time>
      </trkpt>
      <trkpt lat="43.212442" lon="5.436807">
        <ele>144.1</ele>
        <time>2025-04-12T11:08:38.933Z</time>
      </trkpt>
      <trkpt lat="43.212370" lon="5.437173">
        <ele>141.0</ele>
        <time>2025-04-12T11:09:23.753Z</time>
      </trkpt>
      <trkpt lat="43.212350" lon="5.437546">
        <ele>137.5</ele>
        <time>2025-04-12T11:10:10.517Z</time>
      </trkpt>
      <trkpt lat="43.212405" lon="5.437927">
        <ele>133.3</ele>
        <time>2025-04-12T11:11:03.159Z</time>
      </trkpt>
      <trkpt lat="43.212474" lon="5.438310">
        <ele>129.8</ele>
        <time>2025-04-12T11:11:51.358Z</time>
      </trkpt>
      <trkpt lat="43.212583" lon="5.438698">
        <ele>123.8</ele>
        <time>2025-04-12T11:12:56.092Z</time>
      </trkpt>
      <trkpt lat="43.212713" lon="5.439088">
        <ele>120.6</ele>
        <time>2025-04-12T11:13:45.009Z</time>
      </trkpt>
      <trkpt lat="43.212811" lon="5.439474">
        <ele>114.8</ele>
        <time>2025-04-12T11:14:48.214Z</time>
      </trkpt>
      <trkpt lat="43.212858" lon="5.439855">
        <ele>109.4</ele>
        <time>2025-04-12T11:15:47.668Z</time>
      </trkpt>
      <trkpt lat="43.212847" lon="5.440228">
        <ele>105.7</ele>
        <time>2025-04-12T11:16:35.912Z</time>
      </trkpt>
      <trkpt lat="43.212755" lon="5.440592">
        <ele>99.9</ele>
        <time>2025-04-12T11:17:37.260Z</time>
      </trkpt>
      <trkpt lat="43.212633" lon="5.440953">
        <ele>95.1</ele>
        <time>2025-04-12T11:18:33.659Z</time>
      </trkpt>
      <trkpt lat="43.212480" lon="5.441310">
        <ele>89.6</ele>
        <time>2025-04-12T11:19:35.474Z</time>
      </trkpt>
      <trkpt lat="43.212303" lon="5.441664">
        <ele>83.6</ele>
        <time>2025-04-12T11:20:41.569Z</time>
      </trkpt>
      <trkpt lat="43.212154" lon="5.442021">
        <ele>77.7</ele>
        <time>2025-04-12T11:21:45.139Z</time>
      </trkpt>
      <trkpt lat="43.212068" lon="5.442386">
        <ele>73.1</ele>
        <time>2025-04-12T11:22:39.448Z</time>
      </trkpt>
      <trkpt lat="43.212015" lon="5.442754">
        <ele>67.8</ele>
        <time>2025-04-12T11:23:37.670Z</time>
      </trkpt>
      <trkpt lat="43.212041" lon="5.443132">
        <ele>61.7</ele>
        <time>2025-04-12T11:24:40.476Z</time>
      </trkpt>
      <trkpt lat="43.212098" lon="5.443514">
        <ele>56.4</ele>
        <time>2025-04-12T11:25:38.975Z</time>
      </trkpt>
      <trkpt lat="43.212170" lon="5.443897">
        <ele>52.4</ele>
        <time>2025-04-12T11:26:30.501Z</time>
      </trkpt>
      <trkpt lat="43.212262" lon="5.444283">
        <ele>47.4</ele>
        <time>2025-04-12T11:27:28.969Z</time>
      </trkpt>
      <trkpt lat="43.212307" lon="5.444663">
        <ele>42.4</ele>
        <time>2025-04-12T11:28:25.460Z</time>
      </trkpt>
      <trkpt lat="43.212351" lon="5.445043">
        <ele>37.7</ele>
        <time>2025-04-12T11:29:20.348Z</time>
      </trkpt>
      <trkpt lat="43.212330" lon="5.445415">
        <ele>32.8</ele>
        <time>2025-04-12T11:30:15.663Z</time>
      </trkpt>
      <trkpt lat="43.212288" lon="5.445785">
        <ele>29.1</ele>
        <time>2025-04-12T11:31:04.117Z</time>
      </trkpt>
      <trkpt lat="43.212219" lon="5.446152">
        <ele>25.6</ele>
        <time>2025-04-12T11:31:51.215Z</time>
      </trkpt>
      <trkpt lat="43.212138" lon="5.446517">
        <ele>20.4</ele>
        <time>2025-04-12T11:32:49.199Z</time>
      </trkpt>
      <trkpt lat="43.212080" lon="5.446885">
        <ele>16.9</ele>
        <time>2025-04-12T11:33:36.523Z</time>
      </trkpt>
      <trkpt lat="43.212029" lon="5.447254">
        <ele>13.3</ele>
        <time>2025-04-12T11:34:23.727Z</time>
      </trkpt>
      <trkpt lat="43.212006" lon="5.447626">
        <ele>8.6</ele>
        <time>2025-04-12T11:35:17.871Z</time>
      </trkpt>
      <trkpt lat="43.212000" lon="5.448000">
        <ele>4.4</ele>
        <time>2025-04-12T11:36:09.127Z</time>
      </trkpt>
    </trkseg>
  </trk>
</gpx>
