<?xml version="1.0" encoding="UTF-8"?>
<gpx version="1.1" creator="carnet-trek seed (OpenStreetMap, EU-DEM)" xmlns="http://www.topografix.com/GPX/1/1">
  <metadata>
    <name>GR10 – Fos → Refuge de l&apos;Étang d&apos;Araing</name>
    <copyright author="OpenStreetMap contributors"><license>https://opendatacommons.org/licenses/odbl/</license></copyright>
  </metadata>
  <wpt lat="42.874077" lon="0.734271">
    <name>Fos</name>
    <sym>Convenience Store</sym>
  </wpt>
  <wpt lat="42.836942" lon="0.858124">
    <name>Point culminant (2190 m)</name>
    <sym>Summit</sym>
  </wpt>
  <wpt lat="42.873879" lon="0.734370">
    <name>Gite dÉtape</name>
    <sym>Lodging</sym>
  </wpt>
  <wpt lat="42.834680" lon="0.873405">
    <name>Refuge de l&apos;etang d&apos;Araing</name>
    <sym>Lodging</sym>
  </wpt>
  <wpt lat="42.834591" lon="0.873392">
    <name>Refuge de l&apos;Étang d&apos;Araing</name>
    <sym>Lodging</sym>
  </wpt>
  <trk>
    <name>GR10 – Fos → Refuge de l&apos;Étang d&apos;Araing</name>
    <type>hike</type>
    <trkseg>
      <trkpt lat="42.874077" lon="0.734271">
        <ele>547.4</ele>
        <time>2025-07-12T07:30:00.000Z</time>
      </trkpt>
      <trkpt lat="42.873887" lon="0.734578">
        <ele>548.9</ele>
        <time>2025-07-12T07:30:43.543Z</time>
      </trkpt>
      <trkpt lat="42.873929" lon="0.734959">
        <ele>550.3</ele>
        <time>2025-07-12T07:31:24.873Z</time>
      </trkpt>
      <trkpt lat="42.873870" lon="0.735255">
        <ele>551.3</ele>
        <time>2025-07-12T07:31:57.138Z</time>
      </trkpt>
      <trkpt lat="42.873759" lon="0.735586">
        <ele>551.2</ele>
        <time>2025-07-12T07:32:23.210Z</time>
      </trkpt>
      <trkpt lat="42.873750" lon="0.735937">
        <ele>551.5</ele>
        <time>2025-07-12T07:32:51.385Z</time>
      </trkpt>
      <trkpt lat="42.873997" lon="0.736229">
        <ele>554.1</ele>
        <time>2025-07-12T07:33:54.318Z</time>
      </trkpt>
      <trkpt lat="42.874137" lon="0.736522">
        <ele>556.2</ele>
        <time>2025-07-12T07:34:43.577Z</time>
      </trkpt>
      <trkpt lat="42.874389" lon="0.736738">
        <ele>558.3</ele>
        <time>2025-07-12T07:35:33.651Z</time>
      </trkpt>
      <trkpt lat="42.874531" lon="0.737194">
        <ele>560.0</ele>
        <time>2025-07-12T07:36:26.433Z</time>
      </trkpt>
      <trkpt lat="42.874516" lon="0.737613">
        <ele>561.1</ele>
        <time>2025-07-12T07:37:07.295Z</time>
      </trkpt>
      <trkpt lat="42.874386" lon="0.737975">
        <ele>562.0</ele>
        <time>2025-07-12T07:37:44.210Z</time>
      </trkpt>
      <trkpt lat="42.874166" lon="0.738370">
        <ele>563.4</ele>
        <time>2025-07-12T07:38:33.966Z</time>
      </trkpt>
      <trkpt lat="42.873971" lon="0.738692">
        <ele>564.7</ele>
        <time>2025-07-12T07:39:17.287Z</time>
      </trkpt>
      <trkpt lat="42.873820" lon="0.739056">
        <ele>568.6</ele>
        <time>2025-07-12T07:40:26.638Z</time>
      </trkpt>
      <trkpt lat="42.873698" lon="0.739456">
        <ele>572.5</ele>
        <time>2025-07-12T07:41:37.033Z</time>
      </trkpt>
      <trkpt lat="42.873736" lon="0.740060">
        <ele>574.1</ele>
        <time>2025-07-12T07:42:36.458Z</time>
      </trkpt>
      <trkpt lat="42.873353" lon="0.740745">
        <ele>576.5</ele>
        <time>2025-07-12T07:44:00.947Z</time>
      </trkpt>
      <trkpt lat="42.872927" lon="0.741098">
        <ele>576.6</ele>
        <time>2025-07-12T07:44:49.423Z</time>
      </trkpt>
      <trkpt lat="42.872751" lon="0.741493">
        <ele>572.8</ele>
        <time>2025-07-12T07:45:44.431Z</time>
      </trkpt>
      <trkpt lat="42.872432" lon="0.741683">
        <ele>568.9</ele>
        <time>2025-07-12T07:46:41.036Z</time>
      </trkpt>
      <trkpt lat="42.872270" lon="0.742367">
        <ele>562.2</ele>
        <time>2025-07-12T07:48:12.637Z</time>
      </trkpt>
      <trkpt lat="42.872070" lon="0.742521">
        <ele>560.1</ele>
        <time>2025-07-12T07:48:46.999Z</time>
      </trkpt>
      <trkpt lat="42.871956" lon="0.742827">
        <ele>557.8</ele>
        <time>2025-07-12T07:49:24.610Z</time>
      </trkpt>
      <trkpt lat="42.871744" lon="0.743031">
        <ele>556.7</ele>
        <time>2025-07-12T07:49:56.004Z</time>
      </trkpt>
      <trkpt lat="42.871532" lon="0.743486">
        <ele>555.0</ele>
        <time>2025-07-12T07:50:45.785Z</time>
      </trkpt>
      <trkpt lat="42.871581" lon="0.744029">
        <ele>561.2</ele>
        <time>2025-07-12T07:52:29.049Z</time>
      </trkpt>
      <trkpt lat="42.871647" lon="0.744353">
        <ele>564.9</ele>
        <time>2025-07-12T07:53:30.562Z</time>
      </trkpt>
      <trkpt lat="42.871552" lon="0.744739">
        <ele>567.0</ele>
        <time>2025-07-12T07:54:21.147Z</time>
      </trkpt>
      <trkpt lat="42.871123" lon="0.745020">
        <ele>570.5</ele>
        <time>2025-07-12T07:55:42.160Z</time>
      </trkpt>
      <trkpt lat="42.870807" lon="0.745111">
        <ele>570.1</ele>
        <time>2025-07-12T07:56:14.832Z</time>
      </trkpt>
      <trkpt lat="42.870600" lon="0.745328">
        <ele>569.9</ele>
        <time>2025-07-12T07:56:41.213Z</time>
      </trkpt>
      <trkpt lat="42.870422" lon="0.745517">
        <ele>569.5</ele>
        <time>2025-07-12T07:57:05.064Z</time>
      </trkpt>
      <trkpt lat="42.870003" lon="0.745714">
        <ele>568.7</ele>
        <time>2025-07-12T07:57:52.292Z</time>
      </trkpt>
      <trkpt lat="42.869655" lon="0.745871">
        <ele>568.7</ele>
        <time>2025-07-12T07:58:27.658Z</time>
      </trkpt>
      <trkpt lat="42.869380" lon="0.746085">
        <ele>568.6</ele>
        <time>2025-07-12T07:58:58.098Z</time>
      </trkpt>
      <trkpt lat="42.869071" lon="0.746455">
        <ele>569.2</ele>
        <time>2025-07-12T07:59:43.894Z</time>
      </trkpt>
      <trkpt lat="42.868786" lon="0.746620">
        <ele>569.8</ele>
        <time>2025-07-12T08:00:19.830Z</time>
      </trkpt>
      <trkpt lat="42.868430" lon="0.746957">
        <ele>571.0</ele>
        <time>2025-07-12T08:01:14.723Z</time>
      </trkpt>
      <trkpt lat="42.867931" lon="0.747085">
        <ele>564.7</ele>
        <time>2025-07-12T08:02:40.895Z</time>
      </trkpt>
      <trkpt lat="42.867690" lon="0.747215">
        <ele>564.6</ele>
        <time>2025-07-12T08:03:06.182Z</time>
      </trkpt>
      <trkpt lat="42.867447" lon="0.747470">
        <ele>564.5</ele>
        <time>2025-07-12T08:03:36.377Z</time>
      </trkpt>
      <trkpt lat="42.867253" lon="0.747446">
        <ele>562.5</ele>
        <time>2025-07-12T08:04:14.330Z</time>
      </trkpt>
      <trkpt lat="42.867087" lon="0.747682">
        <ele>560.7</ele>
        <time>2025-07-12T08:04:47.966Z</time>
      </trkpt>
      <trkpt lat="42.866984" lon="0.748006">
        <ele>562.6</ele>
        <time>2025-07-12T08:05:32.675Z</time>
      </trkpt>
      <trkpt lat="42.866782" lon="0.748251">
        <ele>564.3</ele>
        <time>2025-07-12T08:06:15.757Z</time>
      </trkpt>
      <trkpt lat="42.866338" lon="0.748877">
        <ele>564.3</ele>
        <time>2025-07-12T08:07:17.252Z</time>
      </trkpt>
      <trkpt lat="42.866115" lon="0.749038">
        <ele>565.8</ele>
        <time>2025-07-12T08:07:56.086Z</time>
      </trkpt>
      <trkpt lat="42.866099" lon="0.749407">
        <ele>567.4</ele>
        <time>2025-07-12T08:08:39.678Z</time>
      </trkpt>
      <trkpt lat="42.865949" lon="0.749642">
        <ele>569.0</ele>
        <time>2025-07-12T08:09:17.950Z</time>
      </trkpt>
      <trkpt lat="42.865771" lon="0.749895">
        <ele>570.7</ele>
        <time>2025-07-12T08:09:59.982Z</time>
      </trkpt>
      <trkpt lat="42.865522" lon="0.750072">
        <ele>572.0</ele>
        <time>2025-07-12T08:10:40.740Z</time>
      </trkpt>
      <trkpt lat="42.865208" lon="0.750094">
        <ele>572.0</ele>
        <time>2025-07-12T08:11:10.882Z</time>
      </trkpt>
      <trkpt lat="42.865000" lon="0.749963">
        <ele>570.1</ele>
        <time>2025-07-12T08:11:44.976Z</time>
      </trkpt>
      <trkpt lat="42.864757" lon="0.749788">
        <ele>567.9</ele>
        <time>2025-07-12T08:12:25.044Z</time>
      </trkpt>
      <trkpt lat="42.864480" lon="0.749744">
        <ele>565.8</ele>
        <time>2025-07-12T08:13:04.328Z</time>
      </trkpt>
      <trkpt lat="42.864278" lon="0.749892">
        <ele>567.4</ele>
        <time>2025-07-12T08:13:44.343Z</time>
      </trkpt>
      <trkpt lat="42.863917" lon="0.750088">
        <ele>570.1</ele>
        <time>2025-07-12T08:14:48.745Z</time>
      </trkpt>
      <trkpt lat="42.863514" lon="0.750292">
        <ele>573.4</ele>
        <time>2025-07-12T08:16:03.760Z</time>
      </trkpt>
      <trkpt lat="42.863188" lon="0.750390">
        <ele>575.9</ele>
        <time>2025-07-12T08:17:02.029Z</time>
      </trkpt>
      <trkpt lat="42.863188" lon="0.750622">
        <ele>577.0</ele>
        <time>2025-07-12T08:17:37.664Z</time>
      </trkpt>
      <trkpt lat="42.863627" lon="0.750500">
        <ele>578.8</ele>
        <time>2025-07-12T08:18:38.973Z</time>
      </trkpt>
      <trkpt lat="42.863924" lon="0.750398">
        <ele>576.9</ele>
        <time>2025-07-12T08:19:19.543Z</time>
      </trkpt>
      <trkpt lat="42.864180" lon="0.750277">
        <ele>576.9</ele>
        <time>2025-07-12T08:19:45.421Z</time>
      </trkpt>
      <trkpt lat="42.864523" lon="0.750448">
        <ele>581.0</ele>
        <time>2025-07-12T08:21:02.947Z</time>
      </trkpt>
      <trkpt lat="42.864753" lon="0.750705">
        <ele>588.3</ele>
        <time>2025-07-12T08:22:45.667Z</time>
      </trkpt>
      <trkpt lat="42.864951" lon="0.750963">
        <ele>594.9</ele>
        <time>2025-07-12T08:24:20.452Z</time>
      </trkpt>
      <trkpt lat="42.865345" lon="0.751203">
        <ele>596.1</ele>
        <time>2025-07-12T08:25:17.129Z</time>
      </trkpt>
      <trkpt lat="42.865611" lon="0.751221">
        <ele>598.6</ele>
        <time>2025-07-12T08:26:10.849Z</time>
      </trkpt>
      <trkpt lat="42.865515" lon="0.751832">
        <ele>609.2</ele>
        <time>2025-07-12T08:28:43.107Z</time>
      </trkpt>
      <trkpt lat="42.865480" lon="0.752355">
        <ele>621.0</ele>
        <time>2025-07-12T08:31:21.252Z</time>
      </trkpt>
      <trkpt lat="42.865302" lon="0.752615">
        <ele>627.9</ele>
        <time>2025-07-12T08:32:56.670Z</time>
      </trkpt>
      <trkpt lat="42.865159" lon="0.752864">
        <ele>634.0</ele>
        <time>2025-07-12T08:34:21.652Z</time>
      </trkpt>
      <trkpt lat="42.865141" lon="0.753331">
        <ele>633.7</ele>
        <time>2025-07-12T08:34:56.600Z</time>
      </trkpt>
      <trkpt lat="42.865211" lon="0.753661">
        <ele>633.5</ele>
        <time>2025-07-12T08:35:21.741Z</time>
      </trkpt>
      <trkpt lat="42.865133" lon="0.754229">
        <ele>639.5</ele>
        <time>2025-07-12T08:37:05.532Z</time>
      </trkpt>
      <trkpt lat="42.865027" lon="0.754581">
        <ele>643.3</ele>
        <time>2025-07-12T08:38:11.084Z</time>
      </trkpt>
      <trkpt lat="42.864906" lon="0.754892">
        <ele>647.9</ele>
        <time>2025-07-12T08:39:22.587Z</time>
      </trkpt>
      <trkpt lat="42.864822" lon="0.755435">
        <ele>655.1</ele>
        <time>2025-07-12T08:41:15.472Z</time>
      </trkpt>
      <trkpt lat="42.864911" lon="0.756134">
        <ele>650.8</ele>
        <time>2025-07-12T08:42:30.815Z</time>
      </trkpt>
      <trkpt lat="42.864867" lon="0.756688">
        <ele>656.8</ele>
        <time>2025-07-12T08:44:12.093Z</time>
      </trkpt>
      <trkpt lat="42.864859" lon="0.757215">
        <ele>662.2</ele>
        <time>2025-07-12T08:45:44.854Z</time>
      </trkpt>
      <trkpt lat="42.864970" lon="0.757771">
        <ele>664.3</ele>
        <time>2025-07-12T08:46:46.668Z</time>
      </trkpt>
      <trkpt lat="42.865028" lon="0.758235">
        <ele>666.0</ele>
        <time>2025-07-12T08:47:37.139Z</time>
      </trkpt>
      <trkpt lat="42.865163" lon="0.758625">
        <ele>662.7</ele>
        <time>2025-07-12T08:48:26.840Z</time>
      </trkpt>
      <trkpt lat="42.865297" lon="0.758944">
        <ele>660.0</ele>
        <time>2025-07-12T08:49:09.185Z</time>
      </trkpt>
      <trkpt lat="42.865420" lon="0.759370">
        <ele>659.3</ele>
        <time>2025-07-12T08:49:45.168Z</time>
      </trkpt>
      <trkpt lat="42.865513" lon="0.759842">
        <ele>658.6</ele>
        <time>2025-07-12T08:50:23.649Z</time>
      </trkpt>
      <trkpt lat="42.865527" lon="0.760415">
        <ele>660.2</ele>
        <time>2025-07-12T08:51:20.670Z</time>
      </trkpt>
      <trkpt lat="42.865588" lon="0.761025">
        <ele>662.0</ele>
        <time>2025-07-12T08:52:21.924Z</time>
      </trkpt>
      <trkpt lat="42.865642" lon="0.761460">
        <ele>663.1</ele>
        <time>2025-07-12T08:53:04.204Z</time>
      </trkpt>
      <trkpt lat="42.865744" lon="0.761909">
        <ele>664.3</ele>
        <time>2025-07-12T08:53:49.340Z</time>
      </trkpt>
      <trkpt lat="42.865868" lon="0.762490">
        <ele>664.5</ele>
        <time>2025-07-12T08:54:35.310Z</time>
      </trkpt>
      <trkpt lat="42.865936" lon="0.762905">
        <ele>661.7</ele>
        <time>2025-07-12T08:55:22.200Z</time>
      </trkpt>
      <trkpt lat="42.866170" lon="0.763454">
        <ele>657.4</ele>
        <time>2025-07-12T08:56:32.394Z</time>
      </trkpt>
      <trkpt lat="42.866368" lon="0.763821">
        <ele>654.3</ele>
        <time>2025-07-12T08:57:22.923Z</time>
      </trkpt>
      <trkpt lat="42.866721" lon="0.763953">
        <ele>654.7</ele>
        <time>2025-07-12T08:58:02.785Z</time>
      </trkpt>
      <trkpt lat="42.867067" lon="0.764695">
        <ele>659.9</ele>
        <time>2025-07-12T08:59:58.273Z</time>
      </trkpt>
      <trkpt lat="42.867228" lon="0.764982">
        <ele>665.8</ele>
        <time>2025-07-12T09:01:23.526Z</time>
      </trkpt>
      <trkpt lat="42.867472" lon="0.764913">
        <ele>672.5</ele>
        <time>2025-07-12T09:03:07.045Z</time>
      </trkpt>
      <trkpt lat="42.867593" lon="0.764493">
        <ele>677.2</ele>
        <time>2025-07-12T09:04:27.309Z</time>
      </trkpt>
      <trkpt lat="42.867591" lon="0.764094">
        <ele>679.3</ele>
        <time>2025-07-12T09:05:16.813Z</time>
      </trkpt>
      <trkpt lat="42.867707" lon="0.763624">
        <ele>681.9</ele>
        <time>2025-07-12T09:06:18.308Z</time>
      </trkpt>
      <trkpt lat="42.867907" lon="0.763075">
        <ele>689.0</ele>
        <time>2025-07-12T09:08:14.292Z</time>
      </trkpt>
      <trkpt lat="42.868032" lon="0.762721">
        <ele>693.6</ele>
        <time>2025-07-12T09:09:28.797Z</time>
      </trkpt>
      <trkpt lat="42.868069" lon="0.761813">
        <ele>700.3</ele>
        <time>2025-07-12T09:11:41.501Z</time>
      </trkpt>
      <trkpt lat="42.867987" lon="0.761305">
        <ele>702.7</ele>
        <time>2025-07-12T09:12:41.863Z</time>
      </trkpt>
      <trkpt lat="42.868042" lon="0.760829">
        <ele>707.3</ele>
        <time>2025-07-12T09:14:04.737Z</time>
      </trkpt>
      <trkpt lat="42.868066" lon="0.760436">
        <ele>712.4</ele>
        <time>2025-07-12T09:15:24.914Z</time>
      </trkpt>
      <trkpt lat="42.868062" lon="0.760084">
        <ele>715.8</ele>
        <time>2025-07-12T09:16:24.332Z</time>
      </trkpt>
      <trkpt lat="42.868165" lon="0.759790">
        <ele>719.0</ele>
        <time>2025-07-12T09:17:20.167Z</time>
      </trkpt>
      <trkpt lat="42.868412" lon="0.759640">
        <ele>726.2</ele>
        <time>2025-07-12T09:19:03.945Z</time>
      </trkpt>
      <trkpt lat="42.868527" lon="0.759881">
        <ele>732.4</ele>
        <time>2025-07-12T09:20:33.828Z</time>
      </trkpt>
      <trkpt lat="42.868620" lon="0.760689">
        <ele>731.4</ele>
        <time>2025-07-12T09:21:36.970Z</time>
      </trkpt>
      <trkpt lat="42.868783" lon="0.761181">
        <ele>735.3</ele>
        <time>2025-07-12T09:22:54.282Z</time>
      </trkpt>
      <trkpt lat="42.869281" lon="0.763668">
        <ele>743.4</ele>
        <time>2025-07-12T09:27:18.228Z</time>
      </trkpt>
      <trkpt lat="42.869333" lon="0.764189">
        <ele>743.9</ele>
        <time>2025-07-12T09:28:00.133Z</time>
      </trkpt>
      <trkpt lat="42.869452" lon="0.764694">
        <ele>744.4</ele>
        <time>2025-07-12T09:28:42.522Z</time>
      </trkpt>
      <trkpt lat="42.869502" lon="0.765101">
        <ele>745.1</ele>
        <time>2025-07-12T09:29:17.833Z</time>
      </trkpt>
      <trkpt lat="42.869568" lon="0.765468">
        <ele>745.6</ele>
        <time>2025-07-12T09:29:50.204Z</time>
      </trkpt>
      <trkpt lat="42.869598" lon="0.765816">
        <ele>746.3</ele>
        <time>2025-07-12T09:30:21.257Z</time>
      </trkpt>
      <trkpt lat="42.870060" lon="0.767985">
        <ele>762.1</ele>
        <time>2025-07-12T09:35:42.321Z</time>
      </trkpt>
      <trkpt lat="42.870103" lon="0.768296">
        <ele>762.1</ele>
        <time>2025-07-12T09:36:04.838Z</time>
      </trkpt>
      <trkpt lat="42.870143" lon="0.768875">
        <ele>761.9</ele>
        <time>2025-07-12T09:36:46.259Z</time>
      </trkpt>
      <trkpt lat="42.870326" lon="0.769881">
        <ele>765.5</ele>
        <time>2025-07-12T09:38:35.114Z</time>
      </trkpt>
      <trkpt lat="42.870420" lon="0.770381">
        <ele>768.2</ele>
        <time>2025-07-12T09:39:39.530Z</time>
      </trkpt>
      <trkpt lat="42.870463" lon="0.770687">
        <ele>769.9</ele>
        <time>2025-07-12T09:40:18.503Z</time>
      </trkpt>
      <trkpt lat="42.870503" lon="0.771300">
        <ele>772.4</ele>
        <time>2025-07-12T09:41:26.994Z</time>
      </trkpt>
      <trkpt lat="42.870534" lon="0.771666">
        <ele>773.2</ele>
        <time>2025-07-12T09:42:01.281Z</time>
      </trkpt>
      <trkpt lat="42.870697" lon="0.772248">
        <ele>774.1</ele>
        <time>2025-07-12T09:42:53.590Z</time>
      </trkpt>
      <trkpt lat="42.871299" lon="0.774181">
        <ele>775.1</ele>
        <time>2025-07-12T09:45:30.932Z</time>
      </trkpt>
      <trkpt lat="42.871854" lon="0.775277">
        <ele>781.9</ele>
        <time>2025-07-12T09:48:14.246Z</time>
      </trkpt>
      <trkpt lat="42.872258" lon="0.775603">
        <ele>795.7</ele>
        <time>2025-07-12T09:51:20.729Z</time>
      </trkpt>
      <trkpt lat="42.872331" lon="0.776215">
        <ele>789.1</ele>
        <time>2025-07-12T09:52:46.011Z</time>
      </trkpt>
      <trkpt lat="42.872529" lon="0.776643">
        <ele>792.3</ele>
        <time>2025-07-12T09:53:55.410Z</time>
      </trkpt>
      <trkpt lat="42.872621" lon="0.777001">
        <ele>794.7</ele>
        <time>2025-07-12T09:54:46.551Z</time>
      </trkpt>
      <trkpt lat="42.872839" lon="0.777414">
        <ele>798.9</ele>
        <time>2025-07-12T09:56:04.985Z</time>
      </trkpt>
      <trkpt lat="42.872956" lon="0.777691">
        <ele>798.7</ele>
        <time>2025-07-12T09:56:28.571Z</time>
      </trkpt>
      <trkpt lat="42.872990" lon="0.778044">
        <ele>795.4</ele>
        <time>2025-07-12T09:57:13.572Z</time>
      </trkpt>
      <trkpt lat="42.872965" lon="0.778370">
        <ele>793.7</ele>
        <time>2025-07-12T09:57:47.368Z</time>
      </trkpt>
      <trkpt lat="42.873168" lon="0.779032">
        <ele>793.4</ele>
        <time>2025-07-12T09:58:39.304Z</time>
      </trkpt>
      <trkpt lat="42.873301" lon="0.779339">
        <ele>794.7</ele>
        <time>2025-07-12T09:59:17.641Z</time>
      </trkpt>
      <trkpt lat="42.873379" lon="0.779666">
        <ele>796.0</ele>
        <time>2025-07-12T09:59:54.549Z</time>
      </trkpt>
      <trkpt lat="42.873373" lon="0.780129">
        <ele>793.4</ele>
        <time>2025-07-12T10:00:42.335Z</time>
      </trkpt>
      <trkpt lat="42.873521" lon="0.780397">
        <ele>794.6</ele>
        <time>2025-07-12T10:01:18.963Z</time>
      </trkpt>
      <trkpt lat="42.873939" lon="0.780594">
        <ele>806.0</ele>
        <time>2025-07-12T10:03:58.239Z</time>
      </trkpt>
      <trkpt lat="42.874443" lon="0.780706">
        <ele>823.9</ele>
        <time>2025-07-12T10:07:51.464Z</time>
      </trkpt>
      <trkpt lat="42.874569" lon="0.781091">
        <ele>816.1</ele>
        <time>2025-07-12T10:09:10.626Z</time>
      </trkpt>
      <trkpt lat="42.874760" lon="0.781535">
        <ele>820.7</ele>
        <time>2025-07-12T10:10:34.133Z</time>
      </trkpt>
      <trkpt lat="42.874964" lon="0.781762">
        <ele>828.1</ele>
        <time>2025-07-12T10:12:15.594Z</time>
      </trkpt>
      <trkpt lat="42.875164" lon="0.781958">
        <ele>831.1</ele>
        <time>2025-07-12T10:13:09.948Z</time>
      </trkpt>
      <trkpt lat="42.875186" lon="0.782245">
        <ele>834.0</ele>
        <time>2025-07-12T10:14:02.328Z</time>
      </trkpt>
      <trkpt lat="42.874951" lon="0.782340">
        <ele>827.8</ele>
        <time>2025-07-12T10:15:03.189Z</time>
      </trkpt>
      <trkpt lat="42.874502" lon="0.782431">
        <ele>816.5</ele>
        <time>2025-07-12T10:16:54.436Z</time>
      </trkpt>
      <trkpt lat="42.873966" lon="0.782298">
        <ele>805.8</ele>
        <time>2025-07-12T10:18:51.172Z</time>
      </trkpt>
      <trkpt lat="42.873603" lon="0.782396">
        <ele>802.5</ele>
        <time>2025-07-12T10:19:46.947Z</time>
      </trkpt>
      <trkpt lat="42.873392" lon="0.782515">
        <ele>800.5</ele>
        <time>2025-07-12T10:20:20.793Z</time>
      </trkpt>
      <trkpt lat="42.873260" lon="0.782754">
        <ele>807.3</ele>
        <time>2025-07-12T10:21:52.469Z</time>
      </trkpt>
      <trkpt lat="42.873336" lon="0.783290">
        <ele>819.4</ele>
        <time>2025-07-12T10:24:35.702Z</time>
      </trkpt>
      <trkpt lat="42.873285" lon="0.783637">
        <ele>825.6</ele>
        <time>2025-07-12T10:26:04.249Z</time>
      </trkpt>
      <trkpt lat="42.873115" lon="0.783883">
        <ele>831.3</ele>
        <time>2025-07-12T10:27:26.835Z</time>
      </trkpt>
      <trkpt lat="42.872909" lon="0.784141">
        <ele>832.8</ele>
        <time>2025-07-12T10:28:09.473Z</time>
      </trkpt>
      <trkpt lat="42.872375" lon="0.784852">
        <ele>837.0</ele>
        <time>2025-07-12T10:30:03.293Z</time>
      </trkpt>
      <trkpt lat="42.872136" lon="0.785235">
        <ele>842.1</ele>
        <time>2025-07-12T10:31:30.660Z</time>
      </trkpt>
      <trkpt lat="42.871949" lon="0.785499">
        <ele>844.3</ele>
        <time>2025-07-12T10:32:19.465Z</time>
      </trkpt>
      <trkpt lat="42.871670" lon="0.785628">
        <ele>840.4</ele>
        <time>2025-07-12T10:33:11.148Z</time>
      </trkpt>
      <trkpt lat="42.871458" lon="0.785752">
        <ele>839.9</ele>
        <time>2025-07-12T10:33:35.978Z</time>
      </trkpt>
      <trkpt lat="42.871308" lon="0.786317">
        <ele>848.4</ele>
        <time>2025-07-12T10:35:45.559Z</time>
      </trkpt>
      <trkpt lat="42.871444" lon="0.786626">
        <ele>859.2</ele>
        <time>2025-07-12T10:38:02.465Z</time>
      </trkpt>
      <trkpt lat="42.871481" lon="0.786904">
        <ele>865.2</ele>
        <time>2025-07-12T10:39:26.861Z</time>
      </trkpt>
      <trkpt lat="42.871013" lon="0.786872">
        <ele>856.6</ele>
        <time>2025-07-12T10:41:04.609Z</time>
      </trkpt>
      <trkpt lat="42.870596" lon="0.786580">
        <ele>841.3</ele>
        <time>2025-07-12T10:43:21.119Z</time>
      </trkpt>
      <trkpt lat="42.870134" lon="0.786990">
        <ele>847.3</ele>
        <time>2025-07-12T10:45:18.270Z</time>
      </trkpt>
      <trkpt lat="42.869827" lon="0.787303">
        <ele>852.7</ele>
        <time>2025-07-12T10:46:50.092Z</time>
      </trkpt>
      <trkpt lat="42.869926" lon="0.787368">
        <ele>854.8</ele>
        <time>2025-07-12T10:47:36.948Z</time>
      </trkpt>
      <trkpt lat="42.870410" lon="0.787215">
        <ele>857.9</ele>
        <time>2025-07-12T10:48:56.842Z</time>
      </trkpt>
      <trkpt lat="42.870660" lon="0.787102">
        <ele>860.4</ele>
        <time>2025-07-12T10:49:47.547Z</time>
      </trkpt>
      <trkpt lat="42.870435" lon="0.787403">
        <ele>863.9</ele>
        <time>2025-07-12T10:51:00.703Z</time>
      </trkpt>
      <trkpt lat="42.869999" lon="0.787789">
        <ele>872.3</ele>
        <time>2025-07-12T10:53:16.772Z</time>
      </trkpt>
      <trkpt lat="42.869768" lon="0.787960">
        <ele>875.6</ele>
        <time>2025-07-12T10:54:15.264Z</time>
      </trkpt>
      <trkpt lat="42.869387" lon="0.788265">
        <ele>881.1</ele>
        <time>2025-07-12T10:55:53.855Z</time>
      </trkpt>
      <trkpt lat="42.869241" lon="0.788574">
        <ele>886.2</ele>
        <time>2025-07-12T10:57:12.992Z</time>
      </trkpt>
      <trkpt lat="42.868898" lon="0.788728">
        <ele>890.4</ele>
        <time>2025-07-12T10:58:30.134Z</time>
      </trkpt>
      <trkpt lat="42.868628" lon="0.788991">
        <ele>890.7</ele>
        <time>2025-07-12T10:59:05.054Z</time>
      </trkpt>
      <trkpt lat="42.868228" lon="0.789464">
        <ele>898.8</ele>
        <time>2025-07-12T11:01:19.506Z</time>
      </trkpt>
      <trkpt lat="42.867731" lon="0.790044">
        <ele>911.9</ele>
        <time>2025-07-12T11:04:35.975Z</time>
      </trkpt>
      <trkpt lat="42.867509" lon="0.790319">
        <ele>915.9</ele>
        <time>2025-07-12T11:05:46.047Z</time>
      </trkpt>
      <trkpt lat="42.866875" lon="0.790849">
        <ele>914.1</ele>
        <time>2025-07-12T11:07:07.701Z</time>
      </trkpt>
      <trkpt lat="42.866602" lon="0.791473">
        <ele>924.3</ele>
        <time>2025-07-12T11:09:43.021Z</time>
      </trkpt>
      <trkpt lat="42.866357" lon="0.791843">
        <ele>929.1</ele>
        <time>2025-07-12T11:11:07.340Z</time>
      </trkpt>
      <trkpt lat="42.866179" lon="0.792244">
        <ele>933.6</ele>
        <time>2025-07-12T11:12:26.625Z</time>
      </trkpt>
      <trkpt lat="42.866014" lon="0.792560">
        <ele>937.7</ele>
        <time>2025-07-12T11:13:36.083Z</time>
      </trkpt>
      <trkpt lat="42.865913" lon="0.792921">
        <ele>941.8</ele>
        <time>2025-07-12T11:14:45.252Z</time>
      </trkpt>
      <trkpt lat="42.865800" lon="0.793197">
        <ele>943.7</ele>
        <time>2025-07-12T11:15:26.583Z</time>
      </trkpt>
      <trkpt lat="42.865933" lon="0.793041">
        <ele>945.5</ele>
        <time>2025-07-12T11:16:07.292Z</time>
      </trkpt>
      <trkpt lat="42.866191" lon="0.792631">
        <ele>943.9</ele>
        <time>2025-07-12T11:16:54.648Z</time>
      </trkpt>
      <trkpt lat="42.866228" lon="0.792740">
        <ele>947.0</ele>
        <time>2025-07-12T11:17:54.796Z</time>
      </trkpt>
      <trkpt lat="42.865988" lon="0.793333">
        <ele>954.9</ele>
        <time>2025-07-12T11:20:04.072Z</time>
      </trkpt>
      <trkpt lat="42.865913" lon="0.793856">
        <ele>962.8</ele>
        <time>2025-07-12T11:22:03.162Z</time>
      </trkpt>
      <trkpt lat="42.865776" lon="0.794117">
        <ele>964.4</ele>
        <time>2025-07-12T11:22:42.181Z</time>
      </trkpt>
      <trkpt lat="42.865603" lon="0.794824">
        <ele>965.0</ele>
        <time>2025-07-12T11:23:40.910Z</time>
      </trkpt>
      <trkpt lat="42.865521" lon="0.795447">
        <ele>968.7</ele>
        <time>2025-07-12T11:25:03.461Z</time>
      </trkpt>
      <trkpt lat="42.865527" lon="0.795867">
        <ele>974.7</ele>
        <time>2025-07-12T11:26:33.946Z</time>
      </trkpt>
      <trkpt lat="42.865503" lon="0.796219">
        <ele>977.9</ele>
        <time>2025-07-12T11:27:32.365Z</time>
      </trkpt>
      <trkpt lat="42.865348" lon="0.797061">
        <ele>979.7</ele>
        <time>2025-07-12T11:28:51.717Z</time>
      </trkpt>
      <trkpt lat="42.865272" lon="0.797394">
        <ele>978.4</ele>
        <time>2025-07-12T11:29:23.964Z</time>
      </trkpt>
      <trkpt lat="42.865326" lon="0.797768">
        <ele>977.0</ele>
        <time>2025-07-12T11:29:59.898Z</time>
      </trkpt>
      <trkpt lat="42.865434" lon="0.798064">
        <ele>977.7</ele>
        <time>2025-07-12T11:30:30.305Z</time>
      </trkpt>
      <trkpt lat="42.865267" lon="0.798268">
        <ele>978.4</ele>
        <time>2025-07-12T11:31:01.233Z</time>
      </trkpt>
      <trkpt lat="42.865037" lon="0.798491">
        <ele>977.6</ele>
        <time>2025-07-12T11:31:32.954Z</time>
      </trkpt>
      <trkpt lat="42.864890" lon="0.798856">
        <ele>977.6</ele>
        <time>2025-07-12T11:32:02.323Z</time>
      </trkpt>
      <trkpt lat="42.864808" lon="0.799191">
        <ele>978.9</ele>
        <time>2025-07-12T11:32:40.527Z</time>
      </trkpt>
      <trkpt lat="42.864756" lon="0.799569">
        <ele>983.5</ele>
        <time>2025-07-12T11:33:54.526Z</time>
      </trkpt>
      <trkpt lat="42.864851" lon="0.800147">
        <ele>993.8</ele>
        <time>2025-07-12T11:36:22.505Z</time>
      </trkpt>
      <trkpt lat="42.864943" lon="0.800549">
        <ele>1003.8</ele>
        <time>2025-07-12T11:38:35.041Z</time>
      </trkpt>
      <trkpt lat="42.865093" lon="0.800904">
        <ele>1010.6</ele>
        <time>2025-07-12T11:40:13.133Z</time>
      </trkpt>
      <trkpt lat="42.865057" lon="0.801199">
        <ele>1011.7</ele>
        <time>2025-07-12T11:40:51.051Z</time>
      </trkpt>
      <trkpt lat="42.865032" lon="0.801495">
        <ele>1016.4</ele>
        <time>2025-07-12T11:42:03.030Z</time>
      </trkpt>
      <trkpt lat="42.865246" lon="0.802047">
        <ele>1029.5</ele>
        <time>2025-07-12T11:45:01.622Z</time>
      </trkpt>
      <trkpt lat="42.865406" lon="0.802596">
        <ele>1041.9</ele>
        <time>2025-07-12T11:47:49.978Z</time>
      </trkpt>
      <trkpt lat="42.865585" lon="0.802953">
        <ele>1048.0</ele>
        <time>2025-07-12T11:49:23.493Z</time>
      </trkpt>
      <trkpt lat="42.865728" lon="0.803250">
        <ele>1051.4</ele>
        <time>2025-07-12T11:50:23.857Z</time>
      </trkpt>
      <trkpt lat="42.865880" lon="0.803492">
        <ele>1051.3</ele>
        <time>2025-07-12T11:50:46.696Z</time>
      </trkpt>
      <trkpt lat="42.865645" lon="0.803709">
        <ele>1051.2</ele>
        <time>2025-07-12T11:51:15.963Z</time>
      </trkpt>
      <trkpt lat="42.865461" lon="0.803843">
        <ele>1052.0</ele>
        <time>2025-07-12T11:51:45.843Z</time>
      </trkpt>
      <trkpt lat="42.865419" lon="0.804164">
        <ele>1052.9</ele>
        <time>2025-07-12T11:52:17.550Z</time>
      </trkpt>
      <trkpt lat="42.865314" lon="0.804488">
        <ele>1052.7</ele>
        <time>2025-07-12T11:52:43.794Z</time>
      </trkpt>
      <trkpt lat="42.865291" lon="0.804787">
        <ele>1052.5</ele>
        <time>2025-07-12T11:53:07.031Z</time>
      </trkpt>
      <trkpt lat="42.865066" lon="0.804948">
        <ele>1048.6</ele>
        <time>2025-07-12T11:53:55.423Z</time>
      </trkpt>
      <trkpt lat="42.864860" lon="0.805386">
        <ele>1042.8</ele>
        <time>2025-07-12T11:55:06.664Z</time>
      </trkpt>
      <trkpt lat="42.864638" lon="0.805916">
        <ele>1040.9</ele>
        <time>2025-07-12T11:56:00.691Z</time>
      </trkpt>
      <trkpt lat="42.864534" lon="0.806194">
        <ele>1039.9</ele>
        <time>2025-07-12T11:56:28.267Z</time>
      </trkpt>
      <trkpt lat="42.864585" lon="0.806555">
        <ele>1047.4</ele>
        <time>2025-07-12T11:58:12.075Z</time>
      </trkpt>
      <trkpt lat="42.864660" lon="0.807016">
        <ele>1056.6</ele>
        <time>2025-07-12T12:00:20.411Z</time>
      </trkpt>
      <trkpt lat="42.864701" lon="0.807360">
        <ele>1062.7</ele>
        <time>2025-07-12T12:01:48.132Z</time>
      </trkpt>
      <trkpt lat="42.864599" lon="0.807680">
        <ele>1065.7</ele>
        <time>2025-07-12T12:02:43.999Z</time>
      </trkpt>
      <trkpt lat="42.864449" lon="0.807999">
        <ele>1066.9</ele>
        <time>2025-07-12T12:03:24.841Z</time>
      </trkpt>
      <trkpt lat="42.864176" lon="0.808024">
        <ele>1060.0</ele>
        <time>2025-07-12T12:04:32.049Z</time>
      </trkpt>
      <trkpt lat="42.863947" lon="0.808194">
        <ele>1053.5</ele>
        <time>2025-07-12T12:05:35.946Z</time>
      </trkpt>
      <trkpt lat="42.863866" lon="0.808489">
        <ele>1059.4</ele>
        <time>2025-07-12T12:06:58.982Z</time>
      </trkpt>
      <trkpt lat="42.863743" lon="0.808825">
        <ele>1066.4</ele>
        <time>2025-07-12T12:08:36.591Z</time>
      </trkpt>
      <trkpt lat="42.863624" lon="0.809234">
        <ele>1074.4</ele>
        <time>2025-07-12T12:10:30.304Z</time>
      </trkpt>
      <trkpt lat="42.863491" lon="0.809669">
        <ele>1080.2</ele>
        <time>2025-07-12T12:12:02.960Z</time>
      </trkpt>
      <trkpt lat="42.863365" lon="0.809945">
        <ele>1082.3</ele>
        <time>2025-07-12T12:12:46.899Z</time>
      </trkpt>
      <trkpt lat="42.863203" lon="0.810248">
        <ele>1086.4</ele>
        <time>2025-07-12T12:13:55.211Z</time>
      </trkpt>
      <trkpt lat="42.863177" lon="0.810639">
        <ele>1093.9</ele>
        <time>2025-07-12T12:15:39.841Z</time>
      </trkpt>
      <trkpt lat="42.863158" lon="0.810956">
        <ele>1097.7</ele>
        <time>2025-07-12T12:16:42.366Z</time>
      </trkpt>
      <trkpt lat="42.863104" lon="0.811353">
        <ele>1100.4</ele>
        <time>2025-07-12T12:17:38.088Z</time>
      </trkpt>
      <trkpt lat="42.863010" lon="0.811879">
        <ele>1104.0</ele>
        <time>2025-07-12T12:18:52.721Z</time>
      </trkpt>
      <trkpt lat="42.863032" lon="0.812183">
        <ele>1111.5</ele>
        <time>2025-07-12T12:20:31.827Z</time>
      </trkpt>
      <trkpt lat="42.863263" lon="0.812486">
        <ele>1122.0</ele>
        <time>2025-07-12T12:22:50.313Z</time>
      </trkpt>
      <trkpt lat="42.863421" lon="0.812873">
        <ele>1131.4</ele>
        <time>2025-07-12T12:24:58.318Z</time>
      </trkpt>
      <trkpt lat="42.863534" lon="0.813170">
        <ele>1138.6</ele>
        <time>2025-07-12T12:26:35.051Z</time>
      </trkpt>
      <trkpt lat="42.863589" lon="0.813641">
        <ele>1139.5</ele>
        <time>2025-07-12T12:27:18.264Z</time>
      </trkpt>
      <trkpt lat="42.863625" lon="0.814059">
        <ele>1141.1</ele>
        <time>2025-07-12T12:28:03.895Z</time>
      </trkpt>
      <trkpt lat="42.863747" lon="0.814710">
        <ele>1144.7</ele>
        <time>2025-07-12T12:29:28.645Z</time>
      </trkpt>
      <trkpt lat="42.863874" lon="0.815012">
        <ele>1151.7</ele>
        <time>2025-07-12T12:31:04.968Z</time>
      </trkpt>
      <trkpt lat="42.864049" lon="0.815430">
        <ele>1161.4</ele>
        <time>2025-07-12T12:33:18.268Z</time>
      </trkpt>
      <trkpt lat="42.864129" lon="0.815793">
        <ele>1166.4</ele>
        <time>2025-07-12T12:34:35.597Z</time>
      </trkpt>
      <trkpt lat="42.864150" lon="0.816128">
        <ele>1170.8</ele>
        <time>2025-07-12T12:35:44.226Z</time>
      </trkpt>
      <trkpt lat="42.864135" lon="0.816455">
        <ele>1170.8</ele>
        <time>2025-07-12T12:36:07.207Z</time>
      </trkpt>
      <trkpt lat="42.864051" lon="0.816964">
        <ele>1170.7</ele>
        <time>2025-07-12T12:36:43.749Z</time>
      </trkpt>
      <trkpt lat="42.863970" lon="0.817456">
        <ele>1177.0</ele>
        <time>2025-07-12T12:38:23.808Z</time>
      </trkpt>
      <trkpt lat="42.863904" lon="0.817785">
        <ele>1175.5</ele>
        <time>2025-07-12T12:39:01.487Z</time>
      </trkpt>
      <trkpt lat="42.863613" lon="0.817785">
        <ele>1169.7</ele>
        <time>2025-07-12T12:40:04.386Z</time>
      </trkpt>
      <trkpt lat="42.863479" lon="0.818131">
        <ele>1175.9</ele>
        <time>2025-07-12T12:41:35.798Z</time>
      </trkpt>
      <trkpt lat="42.863362" lon="0.818350">
        <ele>1180.8</ele>
        <time>2025-07-12T12:42:48.096Z</time>
      </trkpt>
      <trkpt lat="42.863169" lon="0.818754">
        <ele>1191.8</ele>
        <time>2025-07-12T12:45:14.888Z</time>
      </trkpt>
      <trkpt lat="42.863009" lon="0.819208">
        <ele>1204.2</ele>
        <time>2025-07-12T12:47:58.114Z</time>
      </trkpt>
      <trkpt lat="42.862757" lon="0.819652">
        <ele>1218.9</ele>
        <time>2025-07-12T12:51:08.876Z</time>
      </trkpt>
      <trkpt lat="42.862652" lon="0.819973">
        <ele>1228.0</ele>
        <time>2025-07-12T12:53:06.503Z</time>
      </trkpt>
      <trkpt lat="42.862506" lon="0.820223">
        <ele>1236.2</ele>
        <time>2025-07-12T12:54:53.572Z</time>
      </trkpt>
      <trkpt lat="42.862358" lon="0.820522">
        <ele>1242.9</ele>
        <time>2025-07-12T12:56:27.783Z</time>
      </trkpt>
      <trkpt lat="42.862194" lon="0.820937">
        <ele>1251.8</ele>
        <time>2025-07-12T12:58:31.413Z</time>
      </trkpt>
      <trkpt lat="42.862260" lon="0.821218">
        <ele>1263.4</ele>
        <time>2025-07-12T13:00:54.370Z</time>
      </trkpt>
      <trkpt lat="42.861969" lon="0.821672">
        <ele>1278.5</ele>
        <time>2025-07-12T13:04:12.143Z</time>
      </trkpt>
      <trkpt lat="42.861671" lon="0.821960">
        <ele>1286.8</ele>
        <time>2025-07-12T13:06:12.370Z</time>
      </trkpt>
      <trkpt lat="42.861323" lon="0.822336">
        <ele>1294.7</ele>
        <time>2025-07-12T13:08:16.450Z</time>
      </trkpt>
      <trkpt lat="42.861093" lon="0.822637">
        <ele>1305.0</ele>
        <time>2025-07-12T13:10:33.395Z</time>
      </trkpt>
      <trkpt lat="42.860979" lon="0.823055">
        <ele>1318.9</ele>
        <time>2025-07-12T13:13:27.723Z</time>
      </trkpt>
      <trkpt lat="42.860900" lon="0.823382">
        <ele>1325.5</ele>
        <time>2025-07-12T13:14:59.753Z</time>
      </trkpt>
      <trkpt lat="42.860790" lon="0.823828">
        <ele>1334.6</ele>
        <time>2025-07-12T13:17:06.028Z</time>
      </trkpt>
      <trkpt lat="42.860705" lon="0.824384">
        <ele>1341.2</ele>
        <time>2025-07-12T13:18:53.657Z</time>
      </trkpt>
      <trkpt lat="42.860772" lon="0.824795">
        <ele>1351.2</ele>
        <time>2025-07-12T13:21:06.783Z</time>
      </trkpt>
      <trkpt lat="42.860923" lon="0.825172">
        <ele>1365.3</ele>
        <time>2025-07-12T13:24:01.814Z</time>
      </trkpt>
      <trkpt lat="42.861003" lon="0.825472">
        <ele>1366.9</ele>
        <time>2025-07-12T13:24:40.417Z</time>
      </trkpt>
      <trkpt lat="42.860833" lon="0.825953">
        <ele>1369.7</ele>
        <time>2025-07-12T13:25:48.671Z</time>
      </trkpt>
      <trkpt lat="42.860748" lon="0.826329">
        <ele>1374.6</ele>
        <time>2025-07-12T13:27:06.549Z</time>
      </trkpt>
      <trkpt lat="42.860784" lon="0.826630">
        <ele>1378.4</ele>
        <time>2025-07-12T13:28:06.930Z</time>
      </trkpt>
      <trkpt lat="42.860662" lon="0.826727">
        <ele>1376.7</ele>
        <time>2025-07-12T13:28:41.664Z</time>
      </trkpt>
      <trkpt lat="42.860490" lon="0.826724">
        <ele>1376.5</ele>
        <time>2025-07-12T13:29:05.995Z</time>
      </trkpt>
      <trkpt lat="42.860448" lon="0.827105">
        <ele>1383.3</ele>
        <time>2025-07-12T13:30:42.574Z</time>
      </trkpt>
      <trkpt lat="42.860326" lon="0.827545">
        <ele>1391.8</ele>
        <time>2025-07-12T13:32:43.272Z</time>
      </trkpt>
      <trkpt lat="42.860171" lon="0.827775">
        <ele>1397.6</ele>
        <time>2025-07-12T13:34:04.746Z</time>
      </trkpt>
      <trkpt lat="42.860080" lon="0.828124">
        <ele>1404.4</ele>
        <time>2025-07-12T13:35:40.885Z</time>
      </trkpt>
      <trkpt lat="42.859990" lon="0.828500">
        <ele>1414.5</ele>
        <time>2025-07-12T13:37:51.510Z</time>
      </trkpt>
      <trkpt lat="42.859923" lon="0.829047">
        <ele>1428.7</ele>
        <time>2025-07-12T13:40:56.925Z</time>
      </trkpt>
      <trkpt lat="42.859807" lon="0.829715">
        <ele>1449.2</ele>
        <time>2025-07-12T13:45:16.466Z</time>
      </trkpt>
      <trkpt lat="42.859691" lon="0.830235">
        <ele>1463.3</ele>
        <time>2025-07-12T13:48:18.914Z</time>
      </trkpt>
      <trkpt lat="42.859653" lon="0.830562">
        <ele>1468.5</ele>
        <time>2025-07-12T13:49:36.330Z</time>
      </trkpt>
      <trkpt lat="42.859557" lon="0.830449">
        <ele>1470.0</ele>
        <time>2025-07-12T13:50:19.899Z</time>
      </trkpt>
      <trkpt lat="42.859425" lon="0.830112">
        <ele>1473.8</ele>
        <time>2025-07-12T13:51:25.087Z</time>
      </trkpt>
      <trkpt lat="42.859323" lon="0.829827">
        <ele>1479.1</ele>
        <time>2025-07-12T13:52:43.593Z</time>
      </trkpt>
      <trkpt lat="42.859141" lon="0.829592">
        <ele>1485.4</ele>
        <time>2025-07-12T13:54:12.130Z</time>
      </trkpt>
      <trkpt lat="42.859075" lon="0.829884">
        <ele>1492.6</ele>
        <time>2025-07-12T13:55:49.550Z</time>
      </trkpt>
      <trkpt lat="42.858992" lon="0.830028">
        <ele>1502.9</ele>
        <time>2025-07-12T13:57:59.547Z</time>
      </trkpt>
      <trkpt lat="42.858817" lon="0.829796">
        <ele>1515.3</ele>
        <time>2025-07-12T14:00:30.618Z</time>
      </trkpt>
      <trkpt lat="42.858710" lon="0.829800">
        <ele>1524.9</ele>
        <time>2025-07-12T14:02:33.636Z</time>
      </trkpt>
      <trkpt lat="42.858672" lon="0.830151">
        <ele>1532.5</ele>
        <time>2025-07-12T14:04:16.584Z</time>
      </trkpt>
      <trkpt lat="42.858601" lon="0.830568">
        <ele>1540.4</ele>
        <time>2025-07-12T14:06:08.018Z</time>
      </trkpt>
      <trkpt lat="42.858525" lon="0.831074">
        <ele>1552.0</ele>
        <time>2025-07-12T14:08:43.889Z</time>
      </trkpt>
      <trkpt lat="42.858421" lon="0.831423">
        <ele>1562.4</ele>
        <time>2025-07-12T14:10:57.650Z</time>
      </trkpt>
      <trkpt lat="42.858236" lon="0.831726">
        <ele>1573.6</ele>
        <time>2025-07-12T14:13:20.230Z</time>
      </trkpt>
      <trkpt lat="42.858128" lon="0.832066">
        <ele>1584.1</ele>
        <time>2025-07-12T14:15:34.695Z</time>
      </trkpt>
      <trkpt lat="42.857903" lon="0.832316">
        <ele>1595.7</ele>
        <time>2025-07-12T14:18:01.426Z</time>
      </trkpt>
      <trkpt lat="42.857785" lon="0.832625">
        <ele>1604.1</ele>
        <time>2025-07-12T14:19:53.624Z</time>
      </trkpt>
      <trkpt lat="42.857709" lon="0.832917">
        <ele>1608.8</ele>
        <time>2025-07-12T14:21:04.575Z</time>
      </trkpt>
      <trkpt lat="42.857672" lon="0.833336">
        <ele>1615.6</ele>
        <time>2025-07-12T14:22:45.018Z</time>
      </trkpt>
      <trkpt lat="42.857618" lon="0.833821">
        <ele>1624.7</ele>
        <time>2025-07-12T14:24:52.941Z</time>
      </trkpt>
      <trkpt lat="42.857579" lon="0.834253">
        <ele>1636.3</ele>
        <time>2025-07-12T14:27:22.315Z</time>
      </trkpt>
      <trkpt lat="42.857752" lon="0.834634">
        <ele>1644.4</ele>
        <time>2025-07-12T14:29:17.832Z</time>
      </trkpt>
      <trkpt lat="42.857898" lon="0.834939">
        <ele>1644.8</ele>
        <time>2025-07-12T14:29:47.897Z</time>
      </trkpt>
      <trkpt lat="42.857917" lon="0.835234">
        <ele>1650.0</ele>
        <time>2025-07-12T14:31:04.485Z</time>
      </trkpt>
      <trkpt lat="42.857689" lon="0.835122">
        <ele>1659.6</ele>
        <time>2025-07-12T14:33:06.286Z</time>
      </trkpt>
      <trkpt lat="42.857497" lon="0.834977">
        <ele>1667.3</ele>
        <time>2025-07-12T14:34:47.106Z</time>
      </trkpt>
      <trkpt lat="42.857524" lon="0.835200">
        <ele>1676.5</ele>
        <time>2025-07-12T14:36:52.753Z</time>
      </trkpt>
      <trkpt lat="42.857465" lon="0.835315">
        <ele>1689.9</ele>
        <time>2025-07-12T14:39:33.981Z</time>
      </trkpt>
      <trkpt lat="42.857379" lon="0.835444">
        <ele>1707.5</ele>
        <time>2025-07-12T14:43:00.180Z</time>
      </trkpt>
      <trkpt lat="42.857257" lon="0.835637">
        <ele>1712.8</ele>
        <time>2025-07-12T14:44:16.967Z</time>
      </trkpt>
      <trkpt lat="42.857497" lon="0.835814">
        <ele>1710.8</ele>
        <time>2025-07-12T14:44:56.304Z</time>
      </trkpt>
      <trkpt lat="42.857406" lon="0.835937">
        <ele>1719.3</ele>
        <time>2025-07-12T14:46:46.533Z</time>
      </trkpt>
      <trkpt lat="42.857394" lon="0.836098">
        <ele>1731.2</ele>
        <time>2025-07-12T14:49:10.894Z</time>
      </trkpt>
      <trkpt lat="42.857546" lon="0.836383">
        <ele>1741.1</ele>
        <time>2025-07-12T14:51:17.305Z</time>
      </trkpt>
      <trkpt lat="42.857502" lon="0.836575">
        <ele>1750.6</ele>
        <time>2025-07-12T14:53:23.525Z</time>
      </trkpt>
      <trkpt lat="42.857524" lon="0.837001">
        <ele>1765.9</ele>
        <time>2025-07-12T14:56:31.131Z</time>
      </trkpt>
      <trkpt lat="42.857465" lon="0.837150">
        <ele>1776.5</ele>
        <time>2025-07-12T14:58:42.292Z</time>
      </trkpt>
      <trkpt lat="42.857337" lon="0.837421">
        <ele>1784.7</ele>
        <time>2025-07-12T15:00:31.408Z</time>
      </trkpt>
      <trkpt lat="42.857233" lon="0.837753">
        <ele>1793.6</ele>
        <time>2025-07-12T15:02:31.342Z</time>
      </trkpt>
      <trkpt lat="42.857046" lon="0.837882">
        <ele>1799.7</ele>
        <time>2025-07-12T15:03:58.937Z</time>
      </trkpt>
      <trkpt lat="42.856798" lon="0.838088">
        <ele>1806.3</ele>
        <time>2025-07-12T15:05:35.919Z</time>
      </trkpt>
      <trkpt lat="42.856589" lon="0.838304">
        <ele>1812.0</ele>
        <time>2025-07-12T15:06:59.068Z</time>
      </trkpt>
      <trkpt lat="42.856507" lon="0.838614">
        <ele>1818.6</ele>
        <time>2025-07-12T15:08:30.337Z</time>
      </trkpt>
      <trkpt lat="42.856273" lon="0.838807">
        <ele>1825.9</ele>
        <time>2025-07-12T15:10:12.247Z</time>
      </trkpt>
      <trkpt lat="42.856133" lon="0.838708">
        <ele>1830.6</ele>
        <time>2025-07-12T15:11:25.878Z</time>
      </trkpt>
      <trkpt lat="42.855927" lon="0.838841">
        <ele>1834.9</ele>
        <time>2025-07-12T15:12:31.619Z</time>
      </trkpt>
      <trkpt lat="42.855708" lon="0.838994">
        <ele>1841.7</ele>
        <time>2025-07-12T15:14:05.976Z</time>
      </trkpt>
      <trkpt lat="42.855484" lon="0.839089">
        <ele>1848.1</ele>
        <time>2025-07-12T15:15:35.098Z</time>
      </trkpt>
      <trkpt lat="42.855294" lon="0.839285">
        <ele>1852.9</ele>
        <time>2025-07-12T15:16:48.942Z</time>
      </trkpt>
      <trkpt lat="42.854990" lon="0.839319">
        <ele>1858.9</ele>
        <time>2025-07-12T15:18:20.720Z</time>
      </trkpt>
      <trkpt lat="42.854744" lon="0.839389">
        <ele>1861.4</ele>
        <time>2025-07-12T15:19:11.393Z</time>
      </trkpt>
      <trkpt lat="42.854533" lon="0.839514">
        <ele>1863.5</ele>
        <time>2025-07-12T15:19:55.700Z</time>
      </trkpt>
      <trkpt lat="42.854391" lon="0.839851">
        <ele>1865.0</ele>
        <time>2025-07-12T15:20:38.686Z</time>
      </trkpt>
      <trkpt lat="42.854198" lon="0.840194">
        <ele>1869.0</ele>
        <time>2025-07-12T15:21:50.198Z</time>
      </trkpt>
      <trkpt lat="42.853986" lon="0.840414">
        <ele>1874.0</ele>
        <time>2025-07-12T15:23:07.105Z</time>
      </trkpt>
      <trkpt lat="42.853881" lon="0.840702">
        <ele>1881.3</ele>
        <time>2025-07-12T15:24:44.783Z</time>
      </trkpt>
      <trkpt lat="42.853664" lon="0.841043">
        <ele>1894.3</ele>
        <time>2025-07-12T15:27:29.955Z</time>
      </trkpt>
      <trkpt lat="42.853484" lon="0.841298">
        <ele>1904.0</ele>
        <time>2025-07-12T15:29:35.452Z</time>
      </trkpt>
      <trkpt lat="42.853284" lon="0.841572">
        <ele>1913.6</ele>
        <time>2025-07-12T15:31:41.382Z</time>
      </trkpt>
      <trkpt lat="42.853149" lon="0.842010">
        <ele>1922.0</ele>
        <time>2025-07-12T15:33:41.484Z</time>
      </trkpt>
      <trkpt lat="42.853122" lon="0.842304">
        <ele>1925.3</ele>
        <time>2025-07-12T15:34:37.223Z</time>
      </trkpt>
      <trkpt lat="42.852955" lon="0.842517">
        <ele>1927.9</ele>
        <time>2025-07-12T15:35:28.446Z</time>
      </trkpt>
      <trkpt lat="42.852726" lon="0.842698">
        <ele>1927.4</ele>
        <time>2025-07-12T15:35:57.308Z</time>
      </trkpt>
      <trkpt lat="42.852507" lon="0.842829">
        <ele>1926.5</ele>
        <time>2025-07-12T15:36:25.603Z</time>
      </trkpt>
      <trkpt lat="42.852157" lon="0.843303">
        <ele>1926.7</ele>
        <time>2025-07-12T15:37:15.023Z</time>
      </trkpt>
      <trkpt lat="42.852021" lon="0.843655">
        <ele>1929.0</ele>
        <time>2025-07-12T15:38:06.006Z</time>
      </trkpt>
      <trkpt lat="42.851956" lon="0.844004">
        <ele>1931.0</ele>
        <time>2025-07-12T15:38:52.142Z</time>
      </trkpt>
      <trkpt lat="42.851841" lon="0.844424">
        <ele>1933.4</ele>
        <time>2025-07-12T15:39:49.504Z</time>
      </trkpt>
      <trkpt lat="42.851777" lon="0.844731">
        <ele>1934.6</ele>
        <time>2025-07-12T15:40:24.739Z</time>
      </trkpt>
      <trkpt lat="42.851667" lon="0.844988">
        <ele>1935.4</ele>
        <time>2025-07-12T15:40:55.190Z</time>
      </trkpt>
      <trkpt lat="42.851464" lon="0.845079">
        <ele>1936.2</ele>
        <time>2025-07-12T15:41:26.046Z</time>
      </trkpt>
      <trkpt lat="42.851210" lon="0.845158">
        <ele>1937.1</ele>
        <time>2025-07-12T15:42:00.341Z</time>
      </trkpt>
      <trkpt lat="42.850911" lon="0.845263">
        <ele>1938.4</ele>
        <time>2025-07-12T15:42:43.222Z</time>
      </trkpt>
      <trkpt lat="42.850567" lon="0.845486">
        <ele>1940.6</ele>
        <time>2025-07-12T15:43:42.048Z</time>
      </trkpt>
      <trkpt lat="42.850347" lon="0.845684">
        <ele>1945.0</ele>
        <time>2025-07-12T15:44:52.754Z</time>
      </trkpt>
      <trkpt lat="42.850083" lon="0.845896">
        <ele>1950.0</ele>
        <time>2025-07-12T15:46:13.921Z</time>
      </trkpt>
      <trkpt lat="42.849869" lon="0.846036">
        <ele>1953.7</ele>
        <time>2025-07-12T15:47:14.804Z</time>
      </trkpt>
      <trkpt lat="42.849590" lon="0.846001">
        <ele>1956.9</ele>
        <time>2025-07-12T15:48:14.494Z</time>
      </trkpt>
      <trkpt lat="42.849217" lon="0.845781">
        <ele>1955.8</ele>
        <time>2025-07-12T15:49:00.132Z</time>
      </trkpt>
      <trkpt lat="42.848908" lon="0.845751">
        <ele>1958.3</ele>
        <time>2025-07-12T15:49:55.192Z</time>
      </trkpt>
      <trkpt lat="42.848688" lon="0.845664">
        <ele>1960.1</ele>
        <time>2025-07-12T15:50:35.664Z</time>
      </trkpt>
      <trkpt lat="42.848292" lon="0.845766">
        <ele>1968.7</ele>
        <time>2025-07-12T15:52:43.061Z</time>
      </trkpt>
      <trkpt lat="42.848062" lon="0.845891">
        <ele>1974.0</ele>
        <time>2025-07-12T15:54:01.030Z</time>
      </trkpt>
      <trkpt lat="42.847853" lon="0.846085">
        <ele>1981.6</ele>
        <time>2025-07-12T15:55:42.847Z</time>
      </trkpt>
      <trkpt lat="42.847600" lon="0.846387">
        <ele>1991.7</ele>
        <time>2025-07-12T15:57:59.690Z</time>
      </trkpt>
      <trkpt lat="42.847293" lon="0.846666">
        <ele>1998.4</ele>
        <time>2025-07-12T15:59:44.145Z</time>
      </trkpt>
      <trkpt lat="42.847132" lon="0.846937">
        <ele>2002.1</ele>
        <time>2025-07-12T16:00:46.281Z</time>
      </trkpt>
      <trkpt lat="42.846787" lon="0.846927">
        <ele>2005.5</ele>
        <time>2025-07-12T16:01:55.189Z</time>
      </trkpt>
      <trkpt lat="42.846530" lon="0.846878">
        <ele>2008.7</ele>
        <time>2025-07-12T16:02:52.489Z</time>
      </trkpt>
      <trkpt lat="42.846289" lon="0.846849">
        <ele>2011.6</ele>
        <time>2025-07-12T16:03:45.915Z</time>
      </trkpt>
      <trkpt lat="42.846042" lon="0.846698">
        <ele>2015.6</ele>
        <time>2025-07-12T16:04:53.279Z</time>
      </trkpt>
      <trkpt lat="42.845821" lon="0.846722">
        <ele>2019.4</ele>
        <time>2025-07-12T16:05:53.148Z</time>
      </trkpt>
      <trkpt lat="42.845562" lon="0.846901">
        <ele>2026.3</ele>
        <time>2025-07-12T16:07:32.919Z</time>
      </trkpt>
      <trkpt lat="42.845343" lon="0.846983">
        <ele>2031.7</ele>
        <time>2025-07-12T16:08:49.631Z</time>
      </trkpt>
      <trkpt lat="42.845080" lon="0.847101">
        <ele>2037.3</ele>
        <time>2025-07-12T16:10:14.416Z</time>
      </trkpt>
      <trkpt lat="42.844794" lon="0.847339">
        <ele>2044.4</ele>
        <time>2025-07-12T16:11:59.157Z</time>
      </trkpt>
      <trkpt lat="42.844587" lon="0.847468">
        <ele>2049.3</ele>
        <time>2025-07-12T16:13:11.276Z</time>
      </trkpt>
      <trkpt lat="42.844310" lon="0.847436">
        <ele>2055.7</ele>
        <time>2025-07-12T16:14:44.680Z</time>
      </trkpt>
      <trkpt lat="42.844099" lon="0.847229">
        <ele>2061.9</ele>
        <time>2025-07-12T16:16:13.305Z</time>
      </trkpt>
      <trkpt lat="42.843806" lon="0.846973">
        <ele>2072.0</ele>
        <time>2025-07-12T16:18:31.075Z</time>
      </trkpt>
      <trkpt lat="42.843601" lon="0.846746">
        <ele>2081.1</ele>
        <time>2025-07-12T16:20:30.466Z</time>
      </trkpt>
      <trkpt lat="42.843385" lon="0.846713">
        <ele>2090.2</ele>
        <time>2025-07-12T16:22:26.784Z</time>
      </trkpt>
      <trkpt lat="42.843149" lon="0.846782">
        <ele>2097.4</ele>
        <time>2025-07-12T16:24:04.359Z</time>
      </trkpt>
      <trkpt lat="42.842949" lon="0.847122">
        <ele>2106.4</ele>
        <time>2025-07-12T16:26:07.949Z</time>
      </trkpt>
      <trkpt lat="42.842752" lon="0.847452">
        <ele>2114.1</ele>
        <time>2025-07-12T16:27:57.150Z</time>
      </trkpt>
      <trkpt lat="42.842518" lon="0.847718">
        <ele>2121.9</ele>
        <time>2025-07-12T16:29:47.031Z</time>
      </trkpt>
      <trkpt lat="42.842333" lon="0.847972">
        <ele>2129.4</ele>
        <time>2025-07-12T16:31:28.650Z</time>
      </trkpt>
      <trkpt lat="42.842027" lon="0.848283">
        <ele>2139.3</ele>
        <time>2025-07-12T16:33:47.240Z</time>
      </trkpt>
      <trkpt lat="42.841710" lon="0.848517">
        <ele>2147.7</ele>
        <time>2025-07-12T16:35:48.284Z</time>
      </trkpt>
      <trkpt lat="42.841543" lon="0.848737">
        <ele>2150.0</ele>
        <time>2025-07-12T16:36:34.160Z</time>
      </trkpt>
      <trkpt lat="42.841267" lon="0.849002">
        <ele>2151.2</ele>
        <time>2025-07-12T16:37:18.774Z</time>
      </trkpt>
      <trkpt lat="42.841132" lon="0.849316">
        <ele>2149.3</ele>
        <time>2025-07-12T16:37:55.614Z</time>
      </trkpt>
      <trkpt lat="42.840927" lon="0.849553">
        <ele>2148.9</ele>
        <time>2025-07-12T16:38:23.576Z</time>
      </trkpt>
      <trkpt lat="42.840679" lon="0.849708">
        <ele>2149.8</ele>
        <time>2025-07-12T16:38:58.734Z</time>
      </trkpt>
      <trkpt lat="42.840493" lon="0.850032">
        <ele>2149.7</ele>
        <time>2025-07-12T16:39:28.025Z</time>
      </trkpt>
      <trkpt lat="42.840237" lon="0.850496">
        <ele>2148.6</ele>
        <time>2025-07-12T16:40:15.598Z</time>
      </trkpt>
      <trkpt lat="42.840058" lon="0.850807">
        <ele>2153.1</ele>
        <time>2025-07-12T16:41:30.254Z</time>
      </trkpt>
      <trkpt lat="42.839847" lon="0.851054">
        <ele>2158.8</ele>
        <time>2025-07-12T16:42:55.079Z</time>
      </trkpt>
      <trkpt lat="42.839602" lon="0.851317">
        <ele>2168.1</ele>
        <time>2025-07-12T16:45:00.950Z</time>
      </trkpt>
      <trkpt lat="42.839348" lon="0.851682">
        <ele>2177.4</ele>
        <time>2025-07-12T16:47:11.790Z</time>
      </trkpt>
      <trkpt lat="42.839206" lon="0.851934">
        <ele>2182.2</ele>
        <time>2025-07-12T16:48:23.102Z</time>
      </trkpt>
      <trkpt lat="42.838958" lon="0.852339">
        <ele>2186.0</ele>
        <time>2025-07-12T16:49:39.756Z</time>
      </trkpt>
      <trkpt lat="42.838803" lon="0.852591">
        <ele>2187.3</ele>
        <time>2025-07-12T16:50:15.716Z</time>
      </trkpt>
      <trkpt lat="42.838583" lon="0.852924">
        <ele>2185.1</ele>
        <time>2025-07-12T16:51:00.202Z</time>
      </trkpt>
      <trkpt lat="42.838418" lon="0.853165">
        <ele>2183.7</ele>
        <time>2025-07-12T16:51:32.133Z</time>
      </trkpt>
      <trkpt lat="42.838237" lon="0.853404">
        <ele>2182.4</ele>
        <time>2025-07-12T16:52:04.229Z</time>
      </trkpt>
      <trkpt lat="42.838060" lon="0.853731">
        <ele>2181.9</ele>
        <time>2025-07-12T16:52:35.621Z</time>
      </trkpt>
      <trkpt lat="42.837869" lon="0.854042">
        <ele>2182.0</ele>
        <time>2025-07-12T16:53:05.361Z</time>
      </trkpt>
      <trkpt lat="42.837657" lon="0.854369">
        <ele>2181.2</ele>
        <time>2025-07-12T16:53:40.554Z</time>
      </trkpt>
      <trkpt lat="42.837566" lon="0.854670">
        <ele>2180.9</ele>
        <time>2025-07-12T16:54:05.420Z</time>
      </trkpt>
      <trkpt lat="42.837497" lon="0.854970">
        <ele>2181.6</ele>
        <time>2025-07-12T16:54:34.480Z</time>
      </trkpt>
      <trkpt lat="42.837381" lon="0.855289">
        <ele>2181.8</ele>
        <time>2025-07-12T16:55:01.807Z</time>
      </trkpt>
      <trkpt lat="42.837269" lon="0.855676">
        <ele>2179.5</ele>
        <time>2025-07-12T16:55:45.032Z</time>
      </trkpt>
      <trkpt lat="42.837143" lon="0.856220">
        <ele>2179.4</ele>
        <time>2025-07-12T16:56:25.888Z</time>
      </trkpt>
      <trkpt lat="42.837108" lon="0.856649">
        <ele>2180.1</ele>
        <time>2025-07-12T16:57:04.018Z</time>
      </trkpt>
      <trkpt lat="42.837066" lon="0.857121">
        <ele>2182.9</ele>
        <time>2025-07-12T16:58:05.998Z</time>
      </trkpt>
      <trkpt lat="42.837019" lon="0.857449">
        <ele>2184.7</ele>
        <time>2025-07-12T16:58:48.654Z</time>
      </trkpt>
      <trkpt lat="42.836980" lon="0.857784">
        <ele>2187.2</ele>
        <time>2025-07-12T16:59:37.433Z</time>
      </trkpt>
      <trkpt lat="42.836942" lon="0.858124">
        <ele>2189.6</ele>
        <time>2025-07-12T17:00:26.710Z</time>
      </trkpt>
      <trkpt lat="42.836838" lon="0.858460">
        <ele>2187.5</ele>
        <time>2025-07-12T17:01:04.893Z</time>
      </trkpt>
      <trkpt lat="42.836687" lon="0.858776">
        <ele>2185.4</ele>
        <time>2025-07-12T17:01:44.025Z</time>
      </trkpt>
      <trkpt lat="42.836480" lon="0.859152">
        <ele>2181.7</ele>
        <time>2025-07-12T17:02:40.215Z</time>
      </trkpt>
      <trkpt lat="42.836305" lon="0.859382">
        <ele>2179.0</ele>
        <time>2025-07-12T17:03:20.032Z</time>
      </trkpt>
      <trkpt lat="42.836103" lon="0.859621">
        <ele>2175.6</ele>
        <time>2025-07-12T17:04:05.942Z</time>
      </trkpt>
      <trkpt lat="42.835841" lon="0.859702">
        <ele>2173.3</ele>
        <time>2025-07-12T17:04:45.760Z</time>
      </trkpt>
      <trkpt lat="42.835666" lon="0.859892">
        <ele>2171.7</ele>
        <time>2025-07-12T17:05:17.329Z</time>
      </trkpt>
      <trkpt lat="42.835521" lon="0.860133">
        <ele>2173.1</ele>
        <time>2025-07-12T17:05:54.202Z</time>
      </trkpt>
      <trkpt lat="42.835758" lon="0.860280">
        <ele>2177.6</ele>
        <time>2025-07-12T17:07:10.582Z</time>
      </trkpt>
      <trkpt lat="42.835985" lon="0.860434">
        <ele>2180.6</ele>
        <time>2025-07-12T17:08:06.858Z</time>
      </trkpt>
      <trkpt lat="42.836055" lon="0.860739">
        <ele>2183.5</ele>
        <time>2025-07-12T17:08:59.058Z</time>
      </trkpt>
      <trkpt lat="42.835995" lon="0.861184">
        <ele>2178.7</ele>
        <time>2025-07-12T17:09:59.352Z</time>
      </trkpt>
      <trkpt lat="42.836020" lon="0.861533">
        <ele>2174.6</ele>
        <time>2025-07-12T17:10:49.519Z</time>
      </trkpt>
      <trkpt lat="42.836060" lon="0.861862">
        <ele>2170.0</ele>
        <time>2025-07-12T17:11:41.002Z</time>
      </trkpt>
      <trkpt lat="42.836205" lon="0.862478">
        <ele>2157.0</ele>
        <time>2025-07-12T17:13:44.328Z</time>
      </trkpt>
      <trkpt lat="42.836180" lon="0.862798">
        <ele>2148.8</ele>
        <time>2025-07-12T17:14:56.169Z</time>
      </trkpt>
      <trkpt lat="42.836135" lon="0.863208">
        <ele>2138.1</ele>
        <time>2025-07-12T17:16:29.576Z</time>
      </trkpt>
      <trkpt lat="42.836027" lon="0.863555">
        <ele>2128.5</ele>
        <time>2025-07-12T17:17:54.882Z</time>
      </trkpt>
      <trkpt lat="42.835995" lon="0.863875">
        <ele>2122.4</ele>
        <time>2025-07-12T17:18:54.713Z</time>
      </trkpt>
      <trkpt lat="42.835939" lon="0.864251">
        <ele>2115.1</ele>
        <time>2025-07-12T17:20:05.421Z</time>
      </trkpt>
      <trkpt lat="42.835943" lon="0.864725">
        <ele>2107.5</ele>
        <time>2025-07-12T17:21:25.023Z</time>
      </trkpt>
      <trkpt lat="42.835856" lon="0.865085">
        <ele>2101.8</ele>
        <time>2025-07-12T17:22:25.167Z</time>
      </trkpt>
      <trkpt lat="42.835948" lon="0.865528">
        <ele>2096.6</ele>
        <time>2025-07-12T17:23:29.360Z</time>
      </trkpt>
      <trkpt lat="42.835924" lon="0.865839">
        <ele>2091.7</ele>
        <time>2025-07-12T17:24:23.161Z</time>
      </trkpt>
      <trkpt lat="42.835804" lon="0.866213">
        <ele>2084.4</ele>
        <time>2025-07-12T17:25:35.884Z</time>
      </trkpt>
      <trkpt lat="42.835812" lon="0.866522">
        <ele>2078.7</ele>
        <time>2025-07-12T17:26:31.450Z</time>
      </trkpt>
      <trkpt lat="42.835733" lon="0.866984">
        <ele>2070.0</ele>
        <time>2025-07-12T17:27:57.045Z</time>
      </trkpt>
      <trkpt lat="42.835639" lon="0.867418">
        <ele>2058.5</ele>
        <time>2025-07-12T17:29:38.019Z</time>
      </trkpt>
      <trkpt lat="42.835658" lon="0.867823">
        <ele>2048.1</ele>
        <time>2025-07-12T17:31:09.079Z</time>
      </trkpt>
      <trkpt lat="42.835584" lon="0.868130">
        <ele>2039.4</ele>
        <time>2025-07-12T17:32:23.603Z</time>
      </trkpt>
      <trkpt lat="42.835485" lon="0.868358">
        <ele>2031.5</ele>
        <time>2025-07-12T17:33:36.870Z</time>
      </trkpt>
      <trkpt lat="42.835553" lon="0.868646">
        <ele>2025.3</ele>
        <time>2025-07-12T17:34:37.970Z</time>
      </trkpt>
      <trkpt lat="42.835454" lon="0.869529">
        <ele>2011.3</ele>
        <time>2025-07-12T17:37:06.870Z</time>
      </trkpt>
      <trkpt lat="42.835446" lon="0.869923">
        <ele>2009.0</ele>
        <time>2025-07-12T17:37:48.213Z</time>
      </trkpt>
      <trkpt lat="42.835430" lon="0.870318">
        <ele>2006.7</ele>
        <time>2025-07-12T17:38:29.468Z</time>
      </trkpt>
      <trkpt lat="42.835439" lon="0.870684">
        <ele>2001.0</ele>
        <time>2025-07-12T17:39:30.251Z</time>
      </trkpt>
      <trkpt lat="42.835314" lon="0.871139">
        <ele>1993.6</ele>
        <time>2025-07-12T17:40:49.125Z</time>
      </trkpt>
      <trkpt lat="42.835253" lon="0.871621">
        <ele>1984.1</ele>
        <time>2025-07-12T17:42:20.824Z</time>
      </trkpt>
      <trkpt lat="42.835158" lon="0.872009">
        <ele>1975.0</ele>
        <time>2025-07-12T17:43:44.015Z</time>
      </trkpt>
      <trkpt lat="42.835127" lon="0.872394">
        <ele>1965.8</ele>
        <time>2025-07-12T17:45:07.298Z</time>
      </trkpt>
      <trkpt lat="42.834906" lon="0.872655">
        <ele>1955.8</ele>
        <time>2025-07-12T17:46:46.528Z</time>
      </trkpt>
      <trkpt lat="42.834782" lon="0.872926">
        <ele>1948.3</ele>
        <time>2025-07-12T17:47:55.906Z</time>
      </trkpt>
      <trkpt lat="42.834652" lon="0.873191">
        <ele>1940.7</ele>
        <time>2025-07-12T17:49:03.844Z</time>
      </trkpt>
      <trkpt lat="42.834591" lon="0.873392">
        <ele>1936.2</ele>
        <time>2025-07-12T17:49:46.867Z</time>
      </trkpt>
    </trkseg>
  </trk>
</gpx>
