<?xml version="1.0" encoding="UTF-8"?>
<gpx version="1.1" creator="carnet-trek seed (OpenStreetMap, EU-DEM)" xmlns="http://www.topografix.com/GPX/1/1">
  <metadata>
    <name>GR10 – Cauterets → Refuge des Oulettes de Gaube</name>
    <copyright author="OpenStreetMap contributors"><license>https://opendatacommons.org/licenses/odbl/</license></copyright>
  </metadata>
  <wpt lat="42.888527" lon="-0.114639">
    <name>Cauterets</name>
    <sym>Convenience Store</sym>
  </wpt>
  <wpt lat="42.794719" lon="-0.142676">
    <name>Point culminant (2148 m)</name>
    <sym>Summit</sym>
  </wpt>
  <wpt lat="42.886783" lon="-0.112229">
    <name>Gîte Beau Soleil</name>
    <sym>Lodging</sym>
  </wpt>
  <wpt lat="42.886118" lon="-0.112797">
    <name>Le Pas de l&apos;Ours</name>
    <sym>Lodging</sym>
  </wpt>
  <wpt lat="42.792712" lon="-0.141484">
    <name>Refuge des Oulettes de Gaube</name>
    <sym>Lodging</sym>
  </wpt>
  <trk>
    <name>GR10 – Cauterets → Refuge des Oulettes de Gaube</name>
    <type>hike</type>
    <trkseg>
      <trkpt lat="42.888527" lon="-0.114639">
        <ele>928.7</ele>
        <time>2025-07-02T07:30:00.000Z</time>
      </trkpt>
      <trkpt lat="42.888510" lon="-0.114260">
        <ele>930.1</ele>
        <time>2025-07-02T07:30:41.129Z</time>
      </trkpt>
      <trkpt lat="42.888399" lon="-0.113855">
        <ele>931.9</ele>
        <time>2025-07-02T07:31:29.016Z</time>
      </trkpt>
      <trkpt lat="42.888499" lon="-0.113287">
        <ele>934.5</ele>
        <time>2025-07-02T07:32:36.965Z</time>
      </trkpt>
      <trkpt lat="42.888568" lon="-0.112941">
        <ele>936.7</ele>
        <time>2025-07-02T07:33:24.726Z</time>
      </trkpt>
      <trkpt lat="42.888742" lon="-0.112692">
        <ele>938.8</ele>
        <time>2025-07-02T07:34:10.906Z</time>
      </trkpt>
      <trkpt lat="42.888925" lon="-0.112483">
        <ele>940.0</ele>
        <time>2025-07-02T07:34:47.265Z</time>
      </trkpt>
      <trkpt lat="42.889102" lon="-0.112322">
        <ele>941.1</ele>
        <time>2025-07-02T07:35:20.282Z</time>
      </trkpt>
      <trkpt lat="42.889279" lon="-0.112072">
        <ele>946.6</ele>
        <time>2025-07-02T07:36:41.030Z</time>
      </trkpt>
      <trkpt lat="42.889120" lon="-0.111923">
        <ele>951.4</ele>
        <time>2025-07-02T07:37:51.869Z</time>
      </trkpt>
      <trkpt lat="42.888885" lon="-0.112010">
        <ele>951.7</ele>
        <time>2025-07-02T07:38:18.392Z</time>
      </trkpt>
      <trkpt lat="42.888317" lon="-0.112231">
        <ele>952.5</ele>
        <time>2025-07-02T07:39:22.621Z</time>
      </trkpt>
      <trkpt lat="42.888499" lon="-0.111904">
        <ele>955.7</ele>
        <time>2025-07-02T07:40:26.541Z</time>
      </trkpt>
      <trkpt lat="42.888239" lon="-0.112038">
        <ele>958.4</ele>
        <time>2025-07-02T07:41:22.454Z</time>
      </trkpt>
      <trkpt lat="42.888439" lon="-0.111759">
        <ele>962.5</ele>
        <time>2025-07-02T07:42:32.751Z</time>
      </trkpt>
      <trkpt lat="42.888155" lon="-0.111869">
        <ele>965.8</ele>
        <time>2025-07-02T07:43:36.163Z</time>
      </trkpt>
      <trkpt lat="42.888156" lon="-0.111758">
        <ele>968.5</ele>
        <time>2025-07-02T07:44:36.234Z</time>
      </trkpt>
      <trkpt lat="42.888351" lon="-0.111572">
        <ele>971.6</ele>
        <time>2025-07-02T07:45:30.050Z</time>
      </trkpt>
      <trkpt lat="42.887970" lon="-0.111629">
        <ele>976.9</ele>
        <time>2025-07-02T07:47:02.617Z</time>
      </trkpt>
      <trkpt lat="42.888235" lon="-0.111422">
        <ele>981.6</ele>
        <time>2025-07-02T07:48:21.272Z</time>
      </trkpt>
      <trkpt lat="42.887939" lon="-0.111452">
        <ele>985.4</ele>
        <time>2025-07-02T07:49:28.855Z</time>
      </trkpt>
      <trkpt lat="42.888204" lon="-0.111259">
        <ele>989.2</ele>
        <time>2025-07-02T07:50:37.496Z</time>
      </trkpt>
      <trkpt lat="42.887912" lon="-0.111276">
        <ele>992.5</ele>
        <time>2025-07-02T07:51:43.049Z</time>
      </trkpt>
      <trkpt lat="42.888190" lon="-0.111125">
        <ele>995.4</ele>
        <time>2025-07-02T07:52:42.528Z</time>
      </trkpt>
      <trkpt lat="42.887949" lon="-0.111097">
        <ele>997.6</ele>
        <time>2025-07-02T07:53:29.309Z</time>
      </trkpt>
      <trkpt lat="42.888041" lon="-0.110983">
        <ele>1001.6</ele>
        <time>2025-07-02T07:54:33.579Z</time>
      </trkpt>
      <trkpt lat="42.887993" lon="-0.110918">
        <ele>1007.1</ele>
        <time>2025-07-02T07:55:57.958Z</time>
      </trkpt>
      <trkpt lat="42.888099" lon="-0.110786">
        <ele>1013.2</ele>
        <time>2025-07-02T07:57:42.442Z</time>
      </trkpt>
      <trkpt lat="42.887921" lon="-0.110754">
        <ele>1014.3</ele>
        <time>2025-07-02T07:58:15.794Z</time>
      </trkpt>
      <trkpt lat="42.887655" lon="-0.110805">
        <ele>1015.2</ele>
        <time>2025-07-02T07:58:51.454Z</time>
      </trkpt>
      <trkpt lat="42.887845" lon="-0.110686">
        <ele>1022.3</ele>
        <time>2025-07-02T08:00:28.530Z</time>
      </trkpt>
      <trkpt lat="42.887934" lon="-0.110506">
        <ele>1028.6</ele>
        <time>2025-07-02T08:01:56.129Z</time>
      </trkpt>
      <trkpt lat="42.887671" lon="-0.110463">
        <ele>1036.4</ele>
        <time>2025-07-02T08:03:42.008Z</time>
      </trkpt>
      <trkpt lat="42.887483" lon="-0.110510">
        <ele>1038.3</ele>
        <time>2025-07-02T08:04:30.920Z</time>
      </trkpt>
      <trkpt lat="42.887232" lon="-0.110681">
        <ele>1032.7</ele>
        <time>2025-07-02T08:05:31.778Z</time>
      </trkpt>
      <trkpt lat="42.886603" lon="-0.110711">
        <ele>1020.6</ele>
        <time>2025-07-02T08:07:44.941Z</time>
      </trkpt>
      <trkpt lat="42.886027" lon="-0.110623">
        <ele>1021.7</ele>
        <time>2025-07-02T08:08:52.297Z</time>
      </trkpt>
      <trkpt lat="42.885670" lon="-0.110451">
        <ele>1037.5</ele>
        <time>2025-07-02T08:12:10.909Z</time>
      </trkpt>
      <trkpt lat="42.885541" lon="-0.110341">
        <ele>1047.8</ele>
        <time>2025-07-02T08:14:31.450Z</time>
      </trkpt>
      <trkpt lat="42.885342" lon="-0.110059">
        <ele>1056.6</ele>
        <time>2025-07-02T08:16:43.239Z</time>
      </trkpt>
      <trkpt lat="42.885101" lon="-0.109844">
        <ele>1062.5</ele>
        <time>2025-07-02T08:18:11.483Z</time>
      </trkpt>
      <trkpt lat="42.884538" lon="-0.109578">
        <ele>1074.9</ele>
        <time>2025-07-02T08:21:15.644Z</time>
      </trkpt>
      <trkpt lat="42.884022" lon="-0.109330">
        <ele>1076.6</ele>
        <time>2025-07-02T08:22:25.461Z</time>
      </trkpt>
      <trkpt lat="42.883432" lon="-0.108881">
        <ele>1092.3</ele>
        <time>2025-07-02T08:26:10.972Z</time>
      </trkpt>
      <trkpt lat="42.883100" lon="-0.109240">
        <ele>1084.2</ele>
        <time>2025-07-02T08:27:39.660Z</time>
      </trkpt>
      <trkpt lat="42.882622" lon="-0.109109">
        <ele>1074.9</ele>
        <time>2025-07-02T08:29:21.833Z</time>
      </trkpt>
      <trkpt lat="42.882297" lon="-0.108971">
        <ele>1082.0</ele>
        <time>2025-07-02T08:31:06.772Z</time>
      </trkpt>
      <trkpt lat="42.881538" lon="-0.108534">
        <ele>1099.0</ele>
        <time>2025-07-02T08:35:20.638Z</time>
      </trkpt>
      <trkpt lat="42.881189" lon="-0.108344">
        <ele>1104.6</ele>
        <time>2025-07-02T08:36:54.199Z</time>
      </trkpt>
      <trkpt lat="42.880805" lon="-0.108207">
        <ele>1110.5</ele>
        <time>2025-07-02T08:38:32.665Z</time>
      </trkpt>
      <trkpt lat="42.880545" lon="-0.108053">
        <ele>1113.7</ele>
        <time>2025-07-02T08:39:32.097Z</time>
      </trkpt>
      <trkpt lat="42.880321" lon="-0.107999">
        <ele>1116.2</ele>
        <time>2025-07-02T08:40:19.833Z</time>
      </trkpt>
      <trkpt lat="42.879908" lon="-0.107971">
        <ele>1114.9</ele>
        <time>2025-07-02T08:41:07.171Z</time>
      </trkpt>
      <trkpt lat="42.879232" lon="-0.107752">
        <ele>1112.6</ele>
        <time>2025-07-02T08:42:26.793Z</time>
      </trkpt>
      <trkpt lat="42.878260" lon="-0.107450">
        <ele>1113.9</ele>
        <time>2025-07-02T08:44:15.195Z</time>
      </trkpt>
      <trkpt lat="42.877691" lon="-0.106931">
        <ele>1131.5</ele>
        <time>2025-07-02T08:48:21.529Z</time>
      </trkpt>
      <trkpt lat="42.877329" lon="-0.106842">
        <ele>1132.7</ele>
        <time>2025-07-02T08:49:08.389Z</time>
      </trkpt>
      <trkpt lat="42.877149" lon="-0.106621">
        <ele>1133.4</ele>
        <time>2025-07-02T08:49:39.276Z</time>
      </trkpt>
      <trkpt lat="42.876814" lon="-0.106588">
        <ele>1135.8</ele>
        <time>2025-07-02T08:50:35.458Z</time>
      </trkpt>
      <trkpt lat="42.876696" lon="-0.106267">
        <ele>1137.6</ele>
        <time>2025-07-02T08:51:19.795Z</time>
      </trkpt>
      <trkpt lat="42.876547" lon="-0.105940">
        <ele>1140.9</ele>
        <time>2025-07-02T08:52:20.658Z</time>
      </trkpt>
      <trkpt lat="42.876370" lon="-0.105957">
        <ele>1143.6</ele>
        <time>2025-07-02T08:53:10.844Z</time>
      </trkpt>
      <trkpt lat="42.876074" lon="-0.106177">
        <ele>1138.0</ele>
        <time>2025-07-02T08:54:16.427Z</time>
      </trkpt>
      <trkpt lat="42.875751" lon="-0.106182">
        <ele>1132.7</ele>
        <time>2025-07-02T08:55:19.932Z</time>
      </trkpt>
      <trkpt lat="42.875391" lon="-0.106008">
        <ele>1144.5</ele>
        <time>2025-07-02T08:57:58.321Z</time>
      </trkpt>
      <trkpt lat="42.874960" lon="-0.105861">
        <ele>1158.3</ele>
        <time>2025-07-02T09:01:02.694Z</time>
      </trkpt>
      <trkpt lat="42.874551" lon="-0.105882">
        <ele>1152.4</ele>
        <time>2025-07-02T09:02:17.203Z</time>
      </trkpt>
      <trkpt lat="42.874167" lon="-0.105865">
        <ele>1146.9</ele>
        <time>2025-07-02T09:03:27.042Z</time>
      </trkpt>
      <trkpt lat="42.873968" lon="-0.105789">
        <ele>1151.4</ele>
        <time>2025-07-02T09:04:36.693Z</time>
      </trkpt>
      <trkpt lat="42.873768" lon="-0.105575">
        <ele>1156.4</ele>
        <time>2025-07-02T09:05:54.474Z</time>
      </trkpt>
      <trkpt lat="42.873473" lon="-0.105774">
        <ele>1155.3</ele>
        <time>2025-07-02T09:06:36.232Z</time>
      </trkpt>
      <trkpt lat="42.873045" lon="-0.105709">
        <ele>1154.0</ele>
        <time>2025-07-02T09:07:25.031Z</time>
      </trkpt>
      <trkpt lat="42.872574" lon="-0.105702">
        <ele>1158.5</ele>
        <time>2025-07-02T09:08:56.906Z</time>
      </trkpt>
      <trkpt lat="42.872216" lon="-0.105727">
        <ele>1159.1</ele>
        <time>2025-07-02T09:09:36.503Z</time>
      </trkpt>
      <trkpt lat="42.871796" lon="-0.106033">
        <ele>1146.5</ele>
        <time>2025-07-02T09:11:37.080Z</time>
      </trkpt>
      <trkpt lat="42.871967" lon="-0.106205">
        <ele>1141.1</ele>
        <time>2025-07-02T09:12:37.069Z</time>
      </trkpt>
      <trkpt lat="42.872222" lon="-0.106215">
        <ele>1138.4</ele>
        <time>2025-07-02T09:13:17.762Z</time>
      </trkpt>
      <trkpt lat="42.872200" lon="-0.106395">
        <ele>1127.0</ele>
        <time>2025-07-02T09:15:04.460Z</time>
      </trkpt>
      <trkpt lat="42.872009" lon="-0.106759">
        <ele>1113.5</ele>
        <time>2025-07-02T09:16:57.023Z</time>
      </trkpt>
      <trkpt lat="42.871787" lon="-0.106875">
        <ele>1111.5</ele>
        <time>2025-07-02T09:17:32.652Z</time>
      </trkpt>
      <trkpt lat="42.871362" lon="-0.106855">
        <ele>1107.9</ele>
        <time>2025-07-02T09:18:34.742Z</time>
      </trkpt>
      <trkpt lat="42.871011" lon="-0.106988">
        <ele>1110.9</ele>
        <time>2025-07-02T09:19:42.571Z</time>
      </trkpt>
      <trkpt lat="42.871130" lon="-0.107530">
        <ele>1105.0</ele>
        <time>2025-07-02T09:20:57.149Z</time>
      </trkpt>
      <trkpt lat="42.871387" lon="-0.107609">
        <ele>1097.0</ele>
        <time>2025-07-02T09:22:12.682Z</time>
      </trkpt>
      <trkpt lat="42.871557" lon="-0.107818">
        <ele>1088.9</ele>
        <time>2025-07-02T09:23:23.564Z</time>
      </trkpt>
      <trkpt lat="42.871679" lon="-0.108143">
        <ele>1080.4</ele>
        <time>2025-07-02T09:24:40.780Z</time>
      </trkpt>
      <trkpt lat="42.871810" lon="-0.108427">
        <ele>1074.4</ele>
        <time>2025-07-02T09:25:40.968Z</time>
      </trkpt>
      <trkpt lat="42.872024" lon="-0.108745">
        <ele>1071.1</ele>
        <time>2025-07-02T09:26:32.849Z</time>
      </trkpt>
      <trkpt lat="42.872125" lon="-0.109204">
        <ele>1069.7</ele>
        <time>2025-07-02T09:27:17.043Z</time>
      </trkpt>
      <trkpt lat="42.872378" lon="-0.109589">
        <ele>1068.6</ele>
        <time>2025-07-02T09:28:06.925Z</time>
      </trkpt>
      <trkpt lat="42.872289" lon="-0.109876">
        <ele>1075.6</ele>
        <time>2025-07-02T09:29:43.138Z</time>
      </trkpt>
      <trkpt lat="42.872354" lon="-0.110096">
        <ele>1083.1</ele>
        <time>2025-07-02T09:31:27.112Z</time>
      </trkpt>
      <trkpt lat="42.872271" lon="-0.110479">
        <ele>1089.9</ele>
        <time>2025-07-02T09:33:05.228Z</time>
      </trkpt>
      <trkpt lat="42.872013" lon="-0.110759">
        <ele>1095.6</ele>
        <time>2025-07-02T09:34:36.365Z</time>
      </trkpt>
      <trkpt lat="42.871766" lon="-0.111189">
        <ele>1102.2</ele>
        <time>2025-07-02T09:36:22.928Z</time>
      </trkpt>
      <trkpt lat="42.871809" lon="-0.111388">
        <ele>1107.5</ele>
        <time>2025-07-02T09:37:47.878Z</time>
      </trkpt>
      <trkpt lat="42.871573" lon="-0.111606">
        <ele>1115.0</ele>
        <time>2025-07-02T09:39:32.005Z</time>
      </trkpt>
      <trkpt lat="42.871325" lon="-0.111850">
        <ele>1123.5</ele>
        <time>2025-07-02T09:41:28.036Z</time>
      </trkpt>
      <trkpt lat="42.871059" lon="-0.111810">
        <ele>1131.9</ele>
        <time>2025-07-02T09:43:20.764Z</time>
      </trkpt>
      <trkpt lat="42.870834" lon="-0.112044">
        <ele>1141.0</ele>
        <time>2025-07-02T09:45:22.116Z</time>
      </trkpt>
      <trkpt lat="42.870601" lon="-0.112362">
        <ele>1152.0</ele>
        <time>2025-07-02T09:47:46.387Z</time>
      </trkpt>
      <trkpt lat="42.870341" lon="-0.112526">
        <ele>1157.9</ele>
        <time>2025-07-02T09:49:16.056Z</time>
      </trkpt>
      <trkpt lat="42.870307" lon="-0.112741">
        <ele>1163.3</ele>
        <time>2025-07-02T09:50:36.584Z</time>
      </trkpt>
      <trkpt lat="42.870179" lon="-0.113116">
        <ele>1171.5</ele>
        <time>2025-07-02T09:52:29.073Z</time>
      </trkpt>
      <trkpt lat="42.870022" lon="-0.113493">
        <ele>1179.5</ele>
        <time>2025-07-02T09:54:23.257Z</time>
      </trkpt>
      <trkpt lat="42.869812" lon="-0.113643">
        <ele>1184.3</ele>
        <time>2025-07-02T09:55:34.825Z</time>
      </trkpt>
      <trkpt lat="42.869544" lon="-0.113906">
        <ele>1187.5</ele>
        <time>2025-07-02T09:56:39.903Z</time>
      </trkpt>
      <trkpt lat="42.869236" lon="-0.114031">
        <ele>1187.9</ele>
        <time>2025-07-02T09:57:14.041Z</time>
      </trkpt>
      <trkpt lat="42.868984" lon="-0.114026">
        <ele>1188.3</ele>
        <time>2025-07-02T09:57:42.378Z</time>
      </trkpt>
      <trkpt lat="42.868674" lon="-0.114064">
        <ele>1188.8</ele>
        <time>2025-07-02T09:58:17.422Z</time>
      </trkpt>
      <trkpt lat="42.868344" lon="-0.114259">
        <ele>1193.1</ele>
        <time>2025-07-02T09:59:36.869Z</time>
      </trkpt>
      <trkpt lat="42.868090" lon="-0.114423">
        <ele>1195.2</ele>
        <time>2025-07-02T10:00:25.583Z</time>
      </trkpt>
      <trkpt lat="42.867793" lon="-0.114512">
        <ele>1196.4</ele>
        <time>2025-07-02T10:01:07.497Z</time>
      </trkpt>
      <trkpt lat="42.867592" lon="-0.114636">
        <ele>1198.4</ele>
        <time>2025-07-02T10:01:49.850Z</time>
      </trkpt>
      <trkpt lat="42.867421" lon="-0.114960">
        <ele>1200.7</ele>
        <time>2025-07-02T10:02:42.264Z</time>
      </trkpt>
      <trkpt lat="42.867313" lon="-0.115372">
        <ele>1209.7</ele>
        <time>2025-07-02T10:04:44.961Z</time>
      </trkpt>
      <trkpt lat="42.867197" lon="-0.115704">
        <ele>1217.2</ele>
        <time>2025-07-02T10:06:28.562Z</time>
      </trkpt>
      <trkpt lat="42.866992" lon="-0.115872">
        <ele>1219.2</ele>
        <time>2025-07-02T10:07:11.829Z</time>
      </trkpt>
      <trkpt lat="42.866768" lon="-0.116120">
        <ele>1221.5</ele>
        <time>2025-07-02T10:08:03.400Z</time>
      </trkpt>
      <trkpt lat="42.866555" lon="-0.116255">
        <ele>1224.6</ele>
        <time>2025-07-02T10:08:57.310Z</time>
      </trkpt>
      <trkpt lat="42.866327" lon="-0.116430">
        <ele>1228.1</ele>
        <time>2025-07-02T10:09:58.400Z</time>
      </trkpt>
      <trkpt lat="42.866095" lon="-0.116533">
        <ele>1228.1</ele>
        <time>2025-07-02T10:10:22.154Z</time>
      </trkpt>
      <trkpt lat="42.865850" lon="-0.116566">
        <ele>1228.1</ele>
        <time>2025-07-02T10:10:47.192Z</time>
      </trkpt>
      <trkpt lat="42.865636" lon="-0.116738">
        <ele>1228.9</ele>
        <time>2025-07-02T10:11:23.396Z</time>
      </trkpt>
      <trkpt lat="42.865489" lon="-0.116946">
        <ele>1230.1</ele>
        <time>2025-07-02T10:11:59.636Z</time>
      </trkpt>
      <trkpt lat="42.865303" lon="-0.117496">
        <ele>1236.4</ele>
        <time>2025-07-02T10:13:47.539Z</time>
      </trkpt>
      <trkpt lat="42.865172" lon="-0.117866">
        <ele>1241.0</ele>
        <time>2025-07-02T10:15:04.296Z</time>
      </trkpt>
      <trkpt lat="42.864898" lon="-0.118147">
        <ele>1245.0</ele>
        <time>2025-07-02T10:16:18.969Z</time>
      </trkpt>
      <trkpt lat="42.864541" lon="-0.118239">
        <ele>1247.1</ele>
        <time>2025-07-02T10:17:15.019Z</time>
      </trkpt>
      <trkpt lat="42.864194" lon="-0.118224">
        <ele>1248.6</ele>
        <time>2025-07-02T10:18:04.050Z</time>
      </trkpt>
      <trkpt lat="42.864144" lon="-0.118506">
        <ele>1255.1</ele>
        <time>2025-07-02T10:19:34.788Z</time>
      </trkpt>
      <trkpt lat="42.864226" lon="-0.118642">
        <ele>1264.6</ele>
        <time>2025-07-02T10:21:34.179Z</time>
      </trkpt>
      <trkpt lat="42.864034" lon="-0.118801">
        <ele>1270.8</ele>
        <time>2025-07-02T10:23:00.693Z</time>
      </trkpt>
      <trkpt lat="42.863828" lon="-0.118965">
        <ele>1272.6</ele>
        <time>2025-07-02T10:23:42.075Z</time>
      </trkpt>
      <trkpt lat="42.864063" lon="-0.119078">
        <ele>1277.3</ele>
        <time>2025-07-02T10:24:57.255Z</time>
      </trkpt>
      <trkpt lat="42.863907" lon="-0.119320">
        <ele>1283.6</ele>
        <time>2025-07-02T10:26:27.832Z</time>
      </trkpt>
      <trkpt lat="42.863564" lon="-0.119482">
        <ele>1286.8</ele>
        <time>2025-07-02T10:27:35.723Z</time>
      </trkpt>
      <trkpt lat="42.863383" lon="-0.119747">
        <ele>1287.7</ele>
        <time>2025-07-02T10:28:12.232Z</time>
      </trkpt>
      <trkpt lat="42.863199" lon="-0.120012">
        <ele>1286.3</ele>
        <time>2025-07-02T10:28:46.069Z</time>
      </trkpt>
      <trkpt lat="42.862879" lon="-0.120387">
        <ele>1284.8</ele>
        <time>2025-07-02T10:29:35.693Z</time>
      </trkpt>
      <trkpt lat="42.862693" lon="-0.120667">
        <ele>1284.2</ele>
        <time>2025-07-02T10:30:05.564Z</time>
      </trkpt>
      <trkpt lat="42.862708" lon="-0.121740">
        <ele>1305.8</ele>
        <time>2025-07-02T10:35:02.523Z</time>
      </trkpt>
      <trkpt lat="42.862761" lon="-0.122031">
        <ele>1316.7</ele>
        <time>2025-07-02T10:37:22.146Z</time>
      </trkpt>
      <trkpt lat="42.862505" lon="-0.122340">
        <ele>1327.5</ele>
        <time>2025-07-02T10:39:46.616Z</time>
      </trkpt>
      <trkpt lat="42.862332" lon="-0.122498">
        <ele>1332.1</ele>
        <time>2025-07-02T10:40:57.282Z</time>
      </trkpt>
      <trkpt lat="42.862285" lon="-0.122741">
        <ele>1338.0</ele>
        <time>2025-07-02T10:42:22.356Z</time>
      </trkpt>
      <trkpt lat="42.862357" lon="-0.122909">
        <ele>1344.3</ele>
        <time>2025-07-02T10:43:51.339Z</time>
      </trkpt>
      <trkpt lat="42.862152" lon="-0.123038">
        <ele>1350.7</ele>
        <time>2025-07-02T10:45:18.962Z</time>
      </trkpt>
      <trkpt lat="42.861964" lon="-0.123280">
        <ele>1359.0</ele>
        <time>2025-07-02T10:47:09.309Z</time>
      </trkpt>
      <trkpt lat="42.861754" lon="-0.123431">
        <ele>1364.7</ele>
        <time>2025-07-02T10:48:31.108Z</time>
      </trkpt>
      <trkpt lat="42.861361" lon="-0.123401">
        <ele>1368.2</ele>
        <time>2025-07-02T10:49:44.035Z</time>
      </trkpt>
      <trkpt lat="42.861132" lon="-0.123443">
        <ele>1372.4</ele>
        <time>2025-07-02T10:50:49.809Z</time>
      </trkpt>
      <trkpt lat="42.860880" lon="-0.123650">
        <ele>1377.8</ele>
        <time>2025-07-02T10:52:14.065Z</time>
      </trkpt>
      <trkpt lat="42.860728" lon="-0.123909">
        <ele>1381.6</ele>
        <time>2025-07-02T10:53:16.187Z</time>
      </trkpt>
      <trkpt lat="42.860524" lon="-0.124352">
        <ele>1388.7</ele>
        <time>2025-07-02T10:55:05.818Z</time>
      </trkpt>
      <trkpt lat="42.860441" lon="-0.124628">
        <ele>1393.2</ele>
        <time>2025-07-02T10:56:13.975Z</time>
      </trkpt>
      <trkpt lat="42.860168" lon="-0.124750">
        <ele>1392.0</ele>
        <time>2025-07-02T10:56:49.158Z</time>
      </trkpt>
      <trkpt lat="42.859955" lon="-0.124836">
        <ele>1391.0</ele>
        <time>2025-07-02T10:57:16.479Z</time>
      </trkpt>
      <trkpt lat="42.859644" lon="-0.124864">
        <ele>1391.8</ele>
        <time>2025-07-02T10:57:57.461Z</time>
      </trkpt>
      <trkpt lat="42.859501" lon="-0.125224">
        <ele>1393.0</ele>
        <time>2025-07-02T10:58:38.486Z</time>
      </trkpt>
      <trkpt lat="42.859200" lon="-0.125560">
        <ele>1395.1</ele>
        <time>2025-07-02T10:59:37.123Z</time>
      </trkpt>
      <trkpt lat="42.859133" lon="-0.125870">
        <ele>1397.2</ele>
        <time>2025-07-02T11:00:22.661Z</time>
      </trkpt>
      <trkpt lat="42.858828" lon="-0.126179">
        <ele>1400.7</ele>
        <time>2025-07-02T11:01:35.384Z</time>
      </trkpt>
      <trkpt lat="42.858587" lon="-0.126535">
        <ele>1402.9</ele>
        <time>2025-07-02T11:02:32.109Z</time>
      </trkpt>
      <trkpt lat="42.858438" lon="-0.126751">
        <ele>1404.5</ele>
        <time>2025-07-02T11:03:13.312Z</time>
      </trkpt>
      <trkpt lat="42.858231" lon="-0.126953">
        <ele>1403.9</ele>
        <time>2025-07-02T11:03:41.153Z</time>
      </trkpt>
      <trkpt lat="42.858003" lon="-0.127203">
        <ele>1403.2</ele>
        <time>2025-07-02T11:04:13.380Z</time>
      </trkpt>
      <trkpt lat="42.857708" lon="-0.127432">
        <ele>1406.1</ele>
        <time>2025-07-02T11:05:15.487Z</time>
      </trkpt>
      <trkpt lat="42.857476" lon="-0.127773">
        <ele>1408.9</ele>
        <time>2025-07-02T11:06:17.251Z</time>
      </trkpt>
      <trkpt lat="42.857342" lon="-0.128034">
        <ele>1410.8</ele>
        <time>2025-07-02T11:06:59.176Z</time>
      </trkpt>
      <trkpt lat="42.857138" lon="-0.128392">
        <ele>1415.9</ele>
        <time>2025-07-02T11:08:23.347Z</time>
      </trkpt>
      <trkpt lat="42.857019" lon="-0.128672">
        <ele>1420.1</ele>
        <time>2025-07-02T11:09:29.858Z</time>
      </trkpt>
      <trkpt lat="42.856902" lon="-0.128990">
        <ele>1423.1</ele>
        <time>2025-07-02T11:10:25.460Z</time>
      </trkpt>
      <trkpt lat="42.856657" lon="-0.129282">
        <ele>1426.9</ele>
        <time>2025-07-02T11:11:34.791Z</time>
      </trkpt>
      <trkpt lat="42.856357" lon="-0.129554">
        <ele>1428.5</ele>
        <time>2025-07-02T11:12:25.919Z</time>
      </trkpt>
      <trkpt lat="42.856188" lon="-0.129719">
        <ele>1429.6</ele>
        <time>2025-07-02T11:12:58.901Z</time>
      </trkpt>
      <trkpt lat="42.856001" lon="-0.129898">
        <ele>1430.8</ele>
        <time>2025-07-02T11:13:33.411Z</time>
      </trkpt>
      <trkpt lat="42.855854" lon="-0.130206">
        <ele>1432.3</ele>
        <time>2025-07-02T11:14:14.111Z</time>
      </trkpt>
      <trkpt lat="42.855682" lon="-0.130430">
        <ele>1434.8</ele>
        <time>2025-07-02T11:15:02.522Z</time>
      </trkpt>
      <trkpt lat="42.855601" lon="-0.130755">
        <ele>1437.7</ele>
        <time>2025-07-02T11:15:58.968Z</time>
      </trkpt>
      <trkpt lat="42.855474" lon="-0.131036">
        <ele>1441.6</ele>
        <time>2025-07-02T11:17:05.324Z</time>
      </trkpt>
      <trkpt lat="42.855491" lon="-0.131283">
        <ele>1445.0</ele>
        <time>2025-07-02T11:18:02.922Z</time>
      </trkpt>
      <trkpt lat="42.855511" lon="-0.131432">
        <ele>1450.7</ele>
        <time>2025-07-02T11:19:25.506Z</time>
      </trkpt>
      <trkpt lat="42.855772" lon="-0.131326">
        <ele>1458.1</ele>
        <time>2025-07-02T11:21:12.082Z</time>
      </trkpt>
      <trkpt lat="42.855900" lon="-0.131575">
        <ele>1468.7</ele>
        <time>2025-07-02T11:23:25.040Z</time>
      </trkpt>
      <trkpt lat="42.855705" lon="-0.131981">
        <ele>1474.3</ele>
        <time>2025-07-02T11:24:58.115Z</time>
      </trkpt>
      <trkpt lat="42.855489" lon="-0.132099">
        <ele>1468.8</ele>
        <time>2025-07-02T11:25:53.784Z</time>
      </trkpt>
      <trkpt lat="42.855262" lon="-0.132032">
        <ele>1465.1</ele>
        <time>2025-07-02T11:26:38.407Z</time>
      </trkpt>
      <trkpt lat="42.854965" lon="-0.132359">
        <ele>1468.9</ele>
        <time>2025-07-02T11:27:54.423Z</time>
      </trkpt>
      <trkpt lat="42.854767" lon="-0.132707">
        <ele>1472.6</ele>
        <time>2025-07-02T11:29:03.108Z</time>
      </trkpt>
      <trkpt lat="42.854653" lon="-0.132971">
        <ele>1475.6</ele>
        <time>2025-07-02T11:29:55.864Z</time>
      </trkpt>
      <trkpt lat="42.854584" lon="-0.133488">
        <ele>1482.9</ele>
        <time>2025-07-02T11:31:47.463Z</time>
      </trkpt>
      <trkpt lat="42.854563" lon="-0.133832">
        <ele>1487.9</ele>
        <time>2025-07-02T11:33:03.816Z</time>
      </trkpt>
      <trkpt lat="42.854435" lon="-0.134223">
        <ele>1483.5</ele>
        <time>2025-07-02T11:34:01.098Z</time>
      </trkpt>
      <trkpt lat="42.854280" lon="-0.134453">
        <ele>1480.2</ele>
        <time>2025-07-02T11:34:42.206Z</time>
      </trkpt>
      <trkpt lat="42.854142" lon="-0.134815">
        <ele>1477.6</ele>
        <time>2025-07-02T11:35:27.116Z</time>
      </trkpt>
      <trkpt lat="42.853953" lon="-0.134981">
        <ele>1475.6</ele>
        <time>2025-07-02T11:36:01.052Z</time>
      </trkpt>
      <trkpt lat="42.853695" lon="-0.135114">
        <ele>1476.0</ele>
        <time>2025-07-02T11:36:32.261Z</time>
      </trkpt>
      <trkpt lat="42.853727" lon="-0.135407">
        <ele>1476.4</ele>
        <time>2025-07-02T11:36:59.641Z</time>
      </trkpt>
      <trkpt lat="42.853508" lon="-0.135588">
        <ele>1477.0</ele>
        <time>2025-07-02T11:37:30.977Z</time>
      </trkpt>
      <trkpt lat="42.853442" lon="-0.136208">
        <ele>1477.9</ele>
        <time>2025-07-02T11:38:26.198Z</time>
      </trkpt>
      <trkpt lat="42.853355" lon="-0.136575">
        <ele>1484.8</ele>
        <time>2025-07-02T11:40:05.267Z</time>
      </trkpt>
      <trkpt lat="42.853398" lon="-0.136982">
        <ele>1491.2</ele>
        <time>2025-07-02T11:41:40.214Z</time>
      </trkpt>
      <trkpt lat="42.853473" lon="-0.137291">
        <ele>1495.0</ele>
        <time>2025-07-02T11:42:42.190Z</time>
      </trkpt>
      <trkpt lat="42.853218" lon="-0.137623">
        <ele>1496.6</ele>
        <time>2025-07-02T11:43:32.671Z</time>
      </trkpt>
      <trkpt lat="42.852987" lon="-0.137984">
        <ele>1494.2</ele>
        <time>2025-07-02T11:44:21.077Z</time>
      </trkpt>
      <trkpt lat="42.852721" lon="-0.138302">
        <ele>1495.4</ele>
        <time>2025-07-02T11:45:09.057Z</time>
      </trkpt>
      <trkpt lat="42.852449" lon="-0.138406">
        <ele>1496.0</ele>
        <time>2025-07-02T11:45:42.526Z</time>
      </trkpt>
      <trkpt lat="42.852174" lon="-0.138479">
        <ele>1496.5</ele>
        <time>2025-07-02T11:46:13.716Z</time>
      </trkpt>
      <trkpt lat="42.851913" lon="-0.138623">
        <ele>1497.2</ele>
        <time>2025-07-02T11:46:48.230Z</time>
      </trkpt>
      <trkpt lat="42.851707" lon="-0.138831">
        <ele>1497.9</ele>
        <time>2025-07-02T11:47:19.775Z</time>
      </trkpt>
      <trkpt lat="42.851468" lon="-0.139163">
        <ele>1500.9</ele>
        <time>2025-07-02T11:48:23.717Z</time>
      </trkpt>
      <trkpt lat="42.851241" lon="-0.139365">
        <ele>1503.1</ele>
        <time>2025-07-02T11:49:11.916Z</time>
      </trkpt>
      <trkpt lat="42.851190" lon="-0.139541">
        <ele>1506.2</ele>
        <time>2025-07-02T11:50:24.676Z</time>
      </trkpt>
      <trkpt lat="42.851063" lon="-0.139798">
        <ele>1508.4</ele>
        <time>2025-07-02T11:51:09.603Z</time>
      </trkpt>
      <trkpt lat="42.850827" lon="-0.139748">
        <ele>1512.5</ele>
        <time>2025-07-02T11:52:30.814Z</time>
      </trkpt>
      <trkpt lat="42.850836" lon="-0.139421">
        <ele>1510.1</ele>
        <time>2025-07-02T11:53:08.282Z</time>
      </trkpt>
      <trkpt lat="42.850738" lon="-0.139042">
        <ele>1507.1</ele>
        <time>2025-07-02T11:53:54.451Z</time>
      </trkpt>
      <trkpt lat="42.850594" lon="-0.138735">
        <ele>1510.3</ele>
        <time>2025-07-02T11:54:55.335Z</time>
      </trkpt>
      <trkpt lat="42.850463" lon="-0.139089">
        <ele>1513.4</ele>
        <time>2025-07-02T11:55:54.840Z</time>
      </trkpt>
      <trkpt lat="42.850443" lon="-0.138794">
        <ele>1516.4</ele>
        <time>2025-07-02T11:56:51.743Z</time>
      </trkpt>
      <trkpt lat="42.850246" lon="-0.139200">
        <ele>1520.3</ele>
        <time>2025-07-02T11:58:06.693Z</time>
      </trkpt>
      <trkpt lat="42.850249" lon="-0.138691">
        <ele>1516.5</ele>
        <time>2025-07-02T11:59:09.438Z</time>
      </trkpt>
      <trkpt lat="42.850182" lon="-0.138361">
        <ele>1518.8</ele>
        <time>2025-07-02T11:59:57.536Z</time>
      </trkpt>
      <trkpt lat="42.850009" lon="-0.138771">
        <ele>1526.3</ele>
        <time>2025-07-02T12:01:49.221Z</time>
      </trkpt>
      <trkpt lat="42.849971" lon="-0.138578">
        <ele>1530.5</ele>
        <time>2025-07-02T12:02:54.804Z</time>
      </trkpt>
      <trkpt lat="42.849810" lon="-0.138307">
        <ele>1535.7</ele>
        <time>2025-07-02T12:04:13.772Z</time>
      </trkpt>
      <trkpt lat="42.849584" lon="-0.138485">
        <ele>1547.3</ele>
        <time>2025-07-02T12:06:39.903Z</time>
      </trkpt>
      <trkpt lat="42.849102" lon="-0.138744">
        <ele>1565.8</ele>
        <time>2025-07-02T12:10:40.233Z</time>
      </trkpt>
      <trkpt lat="42.848722" lon="-0.138697">
        <ele>1577.8</ele>
        <time>2025-07-02T12:13:20.135Z</time>
      </trkpt>
      <trkpt lat="42.848361" lon="-0.138577">
        <ele>1587.8</ele>
        <time>2025-07-02T12:15:38.287Z</time>
      </trkpt>
      <trkpt lat="42.848137" lon="-0.138453">
        <ele>1594.2</ele>
        <time>2025-07-02T12:17:07.662Z</time>
      </trkpt>
      <trkpt lat="42.847782" lon="-0.138433">
        <ele>1603.8</ele>
        <time>2025-07-02T12:19:19.788Z</time>
      </trkpt>
      <trkpt lat="42.847521" lon="-0.138350">
        <ele>1611.0</ele>
        <time>2025-07-02T12:20:59.312Z</time>
      </trkpt>
      <trkpt lat="42.847225" lon="-0.138466">
        <ele>1617.3</ele>
        <time>2025-07-02T12:22:33.951Z</time>
      </trkpt>
      <trkpt lat="42.846971" lon="-0.138536">
        <ele>1622.8</ele>
        <time>2025-07-02T12:23:56.378Z</time>
      </trkpt>
      <trkpt lat="42.846733" lon="-0.138429">
        <ele>1628.3</ele>
        <time>2025-07-02T12:25:18.174Z</time>
      </trkpt>
      <trkpt lat="42.846508" lon="-0.138680">
        <ele>1635.2</ele>
        <time>2025-07-02T12:26:58.779Z</time>
      </trkpt>
      <trkpt lat="42.846142" lon="-0.138609">
        <ele>1645.0</ele>
        <time>2025-07-02T12:29:15.823Z</time>
      </trkpt>
      <trkpt lat="42.845918" lon="-0.138640">
        <ele>1650.0</ele>
        <time>2025-07-02T12:30:31.506Z</time>
      </trkpt>
      <trkpt lat="42.845762" lon="-0.138666">
        <ele>1654.4</ele>
        <time>2025-07-02T12:31:40.422Z</time>
      </trkpt>
      <trkpt lat="42.845537" lon="-0.138748">
        <ele>1656.1</ele>
        <time>2025-07-02T12:32:21.047Z</time>
      </trkpt>
      <trkpt lat="42.845319" lon="-0.138839">
        <ele>1657.9</ele>
        <time>2025-07-02T12:33:02.248Z</time>
      </trkpt>
      <trkpt lat="42.844991" lon="-0.138954">
        <ele>1659.1</ele>
        <time>2025-07-02T12:33:46.060Z</time>
      </trkpt>
      <trkpt lat="42.844608" lon="-0.138854">
        <ele>1662.7</ele>
        <time>2025-07-02T12:35:01.086Z</time>
      </trkpt>
      <trkpt lat="42.844386" lon="-0.138742">
        <ele>1666.3</ele>
        <time>2025-07-02T12:36:00.851Z</time>
      </trkpt>
      <trkpt lat="42.844155" lon="-0.138707">
        <ele>1669.3</ele>
        <time>2025-07-02T12:36:53.146Z</time>
      </trkpt>
      <trkpt lat="42.843895" lon="-0.138773">
        <ele>1672.1</ele>
        <time>2025-07-02T12:37:47.318Z</time>
      </trkpt>
      <trkpt lat="42.843568" lon="-0.138818">
        <ele>1675.8</ele>
        <time>2025-07-02T12:38:57.422Z</time>
      </trkpt>
      <trkpt lat="42.843264" lon="-0.138837">
        <ele>1679.4</ele>
        <time>2025-07-02T12:40:03.299Z</time>
      </trkpt>
      <trkpt lat="42.842918" lon="-0.138769">
        <ele>1682.4</ele>
        <time>2025-07-02T12:41:08.851Z</time>
      </trkpt>
      <trkpt lat="42.842656" lon="-0.138776">
        <ele>1682.2</ele>
        <time>2025-07-02T12:41:35.671Z</time>
      </trkpt>
      <trkpt lat="42.842481" lon="-0.138983">
        <ele>1678.0</ele>
        <time>2025-07-02T12:42:26.512Z</time>
      </trkpt>
      <trkpt lat="42.842333" lon="-0.139175">
        <ele>1675.5</ele>
        <time>2025-07-02T12:43:10.882Z</time>
      </trkpt>
      <trkpt lat="42.842022" lon="-0.139147">
        <ele>1674.1</ele>
        <time>2025-07-02T12:43:49.348Z</time>
      </trkpt>
      <trkpt lat="42.841812" lon="-0.139005">
        <ele>1675.2</ele>
        <time>2025-07-02T12:44:22.905Z</time>
      </trkpt>
      <trkpt lat="42.841547" lon="-0.138934">
        <ele>1676.5</ele>
        <time>2025-07-02T12:45:01.688Z</time>
      </trkpt>
      <trkpt lat="42.841297" lon="-0.138885">
        <ele>1678.2</ele>
        <time>2025-07-02T12:45:44.776Z</time>
      </trkpt>
      <trkpt lat="42.841033" lon="-0.138676">
        <ele>1681.3</ele>
        <time>2025-07-02T12:46:46.568Z</time>
      </trkpt>
      <trkpt lat="42.840835" lon="-0.138485">
        <ele>1685.9</ele>
        <time>2025-07-02T12:47:58.932Z</time>
      </trkpt>
      <trkpt lat="42.840542" lon="-0.138430">
        <ele>1689.2</ele>
        <time>2025-07-02T12:49:01.216Z</time>
      </trkpt>
      <trkpt lat="42.840301" lon="-0.138430">
        <ele>1690.3</ele>
        <time>2025-07-02T12:49:36.070Z</time>
      </trkpt>
      <trkpt lat="42.840072" lon="-0.138494">
        <ele>1689.9</ele>
        <time>2025-07-02T12:50:02.703Z</time>
      </trkpt>
      <trkpt lat="42.839814" lon="-0.138625">
        <ele>1688.8</ele>
        <time>2025-07-02T12:50:35.813Z</time>
      </trkpt>
      <trkpt lat="42.839473" lon="-0.138658">
        <ele>1693.3</ele>
        <time>2025-07-02T12:51:54.403Z</time>
      </trkpt>
      <trkpt lat="42.839214" lon="-0.138779">
        <ele>1696.4</ele>
        <time>2025-07-02T12:52:53.167Z</time>
      </trkpt>
      <trkpt lat="42.838974" lon="-0.138803">
        <ele>1698.5</ele>
        <time>2025-07-02T12:53:37.793Z</time>
      </trkpt>
      <trkpt lat="42.838613" lon="-0.138732">
        <ele>1702.5</ele>
        <time>2025-07-02T12:54:54.651Z</time>
      </trkpt>
      <trkpt lat="42.838366" lon="-0.138689">
        <ele>1705.9</ele>
        <time>2025-07-02T12:55:53.405Z</time>
      </trkpt>
      <trkpt lat="42.838019" lon="-0.138482">
        <ele>1711.6</ele>
        <time>2025-07-02T12:57:28.676Z</time>
      </trkpt>
      <trkpt lat="42.837716" lon="-0.138309">
        <ele>1717.1</ele>
        <time>2025-07-02T12:58:55.929Z</time>
      </trkpt>
      <trkpt lat="42.837489" lon="-0.138298">
        <ele>1716.0</ele>
        <time>2025-07-02T12:59:24.111Z</time>
      </trkpt>
      <trkpt lat="42.837235" lon="-0.138342">
        <ele>1714.7</ele>
        <time>2025-07-02T12:59:56.310Z</time>
      </trkpt>
      <trkpt lat="42.836897" lon="-0.138353">
        <ele>1715.5</ele>
        <time>2025-07-02T13:00:36.565Z</time>
      </trkpt>
      <trkpt lat="42.836590" lon="-0.138344">
        <ele>1716.2</ele>
        <time>2025-07-02T13:01:12.590Z</time>
      </trkpt>
      <trkpt lat="42.836365" lon="-0.138453">
        <ele>1716.7</ele>
        <time>2025-07-02T13:01:40.206Z</time>
      </trkpt>
      <trkpt lat="42.836162" lon="-0.138617">
        <ele>1717.1</ele>
        <time>2025-07-02T13:02:07.459Z</time>
      </trkpt>
      <trkpt lat="42.835819" lon="-0.138680">
        <ele>1721.5</ele>
        <time>2025-07-02T13:03:25.645Z</time>
      </trkpt>
      <trkpt lat="42.835502" lon="-0.138700">
        <ele>1724.1</ele>
        <time>2025-07-02T13:04:23.651Z</time>
      </trkpt>
      <trkpt lat="42.835193" lon="-0.138793">
        <ele>1725.6</ele>
        <time>2025-07-02T13:05:08.732Z</time>
      </trkpt>
      <trkpt lat="42.834908" lon="-0.139009">
        <ele>1726.4</ele>
        <time>2025-07-02T13:05:48.502Z</time>
      </trkpt>
      <trkpt lat="42.834711" lon="-0.139154">
        <ele>1726.8</ele>
        <time>2025-07-02T13:06:14.112Z</time>
      </trkpt>
      <trkpt lat="42.834617" lon="-0.139402">
        <ele>1726.7</ele>
        <time>2025-07-02T13:06:49.517Z</time>
      </trkpt>
      <trkpt lat="42.834779" lon="-0.139653">
        <ele>1726.5</ele>
        <time>2025-07-02T13:07:14.620Z</time>
      </trkpt>
      <trkpt lat="42.834910" lon="-0.139985">
        <ele>1726.1</ele>
        <time>2025-07-02T13:07:44.044Z</time>
      </trkpt>
      <trkpt lat="42.835102" lon="-0.140270">
        <ele>1727.2</ele>
        <time>2025-07-02T13:08:22.717Z</time>
      </trkpt>
      <trkpt lat="42.835262" lon="-0.140521">
        <ele>1728.9</ele>
        <time>2025-07-02T13:09:03.314Z</time>
      </trkpt>
      <trkpt lat="42.835058" lon="-0.140967">
        <ele>1728.8</ele>
        <time>2025-07-02T13:09:41.161Z</time>
      </trkpt>
      <trkpt lat="42.834866" lon="-0.141298">
        <ele>1726.6</ele>
        <time>2025-07-02T13:10:24.190Z</time>
      </trkpt>
      <trkpt lat="42.834640" lon="-0.141467">
        <ele>1723.7</ele>
        <time>2025-07-02T13:11:05.988Z</time>
      </trkpt>
      <trkpt lat="42.834307" lon="-0.141628">
        <ele>1722.7</ele>
        <time>2025-07-02T13:11:46.544Z</time>
      </trkpt>
      <trkpt lat="42.833997" lon="-0.141721">
        <ele>1722.7</ele>
        <time>2025-07-02T13:12:17.661Z</time>
      </trkpt>
      <trkpt lat="42.833619" lon="-0.141832">
        <ele>1722.7</ele>
        <time>2025-07-02T13:12:54.621Z</time>
      </trkpt>
      <trkpt lat="42.833334" lon="-0.141742">
        <ele>1722.7</ele>
        <time>2025-07-02T13:13:23.123Z</time>
      </trkpt>
      <trkpt lat="42.832981" lon="-0.141675">
        <ele>1722.7</ele>
        <time>2025-07-02T13:13:57.222Z</time>
      </trkpt>
      <trkpt lat="42.832640" lon="-0.141693">
        <ele>1723.1</ele>
        <time>2025-07-02T13:14:34.482Z</time>
      </trkpt>
      <trkpt lat="42.832303" lon="-0.141645">
        <ele>1723.2</ele>
        <time>2025-07-02T13:15:07.525Z</time>
      </trkpt>
      <trkpt lat="42.832030" lon="-0.141539">
        <ele>1722.8</ele>
        <time>2025-07-02T13:15:36.726Z</time>
      </trkpt>
      <trkpt lat="42.831719" lon="-0.141608">
        <ele>1722.9</ele>
        <time>2025-07-02T13:16:08.174Z</time>
      </trkpt>
      <trkpt lat="42.831373" lon="-0.141790">
        <ele>1723.4</ele>
        <time>2025-07-02T13:16:48.337Z</time>
      </trkpt>
      <trkpt lat="42.831118" lon="-0.141869">
        <ele>1730.1</ele>
        <time>2025-07-02T13:18:21.989Z</time>
      </trkpt>
      <trkpt lat="42.830865" lon="-0.141848">
        <ele>1736.6</ele>
        <time>2025-07-02T13:19:53.444Z</time>
      </trkpt>
      <trkpt lat="42.830613" lon="-0.141831">
        <ele>1737.7</ele>
        <time>2025-07-02T13:20:28.740Z</time>
      </trkpt>
      <trkpt lat="42.830357" lon="-0.141797">
        <ele>1738.8</ele>
        <time>2025-07-02T13:21:05.843Z</time>
      </trkpt>
      <trkpt lat="42.830120" lon="-0.141705">
        <ele>1733.9</ele>
        <time>2025-07-02T13:21:58.738Z</time>
      </trkpt>
      <trkpt lat="42.829678" lon="-0.141520">
        <ele>1724.7</ele>
        <time>2025-07-02T13:23:38.185Z</time>
      </trkpt>
      <trkpt lat="42.829444" lon="-0.141351">
        <ele>1723.7</ele>
        <time>2025-07-02T13:24:09.523Z</time>
      </trkpt>
      <trkpt lat="42.829197" lon="-0.141289">
        <ele>1722.7</ele>
        <time>2025-07-02T13:24:41.245Z</time>
      </trkpt>
      <trkpt lat="42.829010" lon="-0.141106">
        <ele>1723.8</ele>
        <time>2025-07-02T13:25:14.543Z</time>
      </trkpt>
      <trkpt lat="42.828754" lon="-0.141064">
        <ele>1725.0</ele>
        <time>2025-07-02T13:25:51.523Z</time>
      </trkpt>
      <trkpt lat="42.828491" lon="-0.140866">
        <ele>1726.4</ele>
        <time>2025-07-02T13:26:34.889Z</time>
      </trkpt>
      <trkpt lat="42.828297" lon="-0.140662">
        <ele>1727.6</ele>
        <time>2025-07-02T13:27:10.938Z</time>
      </trkpt>
      <trkpt lat="42.828071" lon="-0.140726">
        <ele>1728.7</ele>
        <time>2025-07-02T13:27:44.446Z</time>
      </trkpt>
      <trkpt lat="42.827831" lon="-0.140611">
        <ele>1729.9</ele>
        <time>2025-07-02T13:28:23.233Z</time>
      </trkpt>
      <trkpt lat="42.827587" lon="-0.140629">
        <ele>1732.2</ele>
        <time>2025-07-02T13:29:10.236Z</time>
      </trkpt>
      <trkpt lat="42.827304" lon="-0.140539">
        <ele>1734.8</ele>
        <time>2025-07-02T13:30:05.305Z</time>
      </trkpt>
      <trkpt lat="42.827013" lon="-0.140386">
        <ele>1736.7</ele>
        <time>2025-07-02T13:30:57.193Z</time>
      </trkpt>
      <trkpt lat="42.826742" lon="-0.140255">
        <ele>1738.8</ele>
        <time>2025-07-02T13:31:46.140Z</time>
      </trkpt>
      <trkpt lat="42.826415" lon="-0.140103">
        <ele>1742.2</ele>
        <time>2025-07-02T13:32:54.659Z</time>
      </trkpt>
      <trkpt lat="42.826153" lon="-0.140002">
        <ele>1744.8</ele>
        <time>2025-07-02T13:33:50.769Z</time>
      </trkpt>
      <trkpt lat="42.825928" lon="-0.140018">
        <ele>1746.8</ele>
        <time>2025-07-02T13:34:34.649Z</time>
      </trkpt>
      <trkpt lat="42.825712" lon="-0.139877">
        <ele>1748.6</ele>
        <time>2025-07-02T13:35:18.187Z</time>
      </trkpt>
      <trkpt lat="42.825451" lon="-0.139787">
        <ele>1750.8</ele>
        <time>2025-07-02T13:36:06.134Z</time>
      </trkpt>
      <trkpt lat="42.825167" lon="-0.139804">
        <ele>1753.1</ele>
        <time>2025-07-02T13:36:57.841Z</time>
      </trkpt>
      <trkpt lat="42.824929" lon="-0.139757">
        <ele>1756.4</ele>
        <time>2025-07-02T13:37:54.593Z</time>
      </trkpt>
      <trkpt lat="42.824707" lon="-0.139711">
        <ele>1760.1</ele>
        <time>2025-07-02T13:38:55.274Z</time>
      </trkpt>
      <trkpt lat="42.824486" lon="-0.139588">
        <ele>1761.9</ele>
        <time>2025-07-02T13:39:37.051Z</time>
      </trkpt>
      <trkpt lat="42.824316" lon="-0.139393">
        <ele>1762.7</ele>
        <time>2025-07-02T13:40:07.395Z</time>
      </trkpt>
      <trkpt lat="42.824061" lon="-0.139075">
        <ele>1766.4</ele>
        <time>2025-07-02T13:41:18.840Z</time>
      </trkpt>
      <trkpt lat="42.823845" lon="-0.138920">
        <ele>1769.1</ele>
        <time>2025-07-02T13:42:09.967Z</time>
      </trkpt>
      <trkpt lat="42.823831" lon="-0.138628">
        <ele>1769.3</ele>
        <time>2025-07-02T13:42:33.963Z</time>
      </trkpt>
      <trkpt lat="42.823941" lon="-0.138360">
        <ele>1770.1</ele>
        <time>2025-07-02T13:43:05.831Z</time>
      </trkpt>
      <trkpt lat="42.823697" lon="-0.138335">
        <ele>1772.9</ele>
        <time>2025-07-02T13:43:59.263Z</time>
      </trkpt>
      <trkpt lat="42.823477" lon="-0.138416">
        <ele>1775.5</ele>
        <time>2025-07-02T13:44:46.941Z</time>
      </trkpt>
      <trkpt lat="42.823239" lon="-0.138313">
        <ele>1778.3</ele>
        <time>2025-07-02T13:45:41.971Z</time>
      </trkpt>
      <trkpt lat="42.823060" lon="-0.138081">
        <ele>1782.0</ele>
        <time>2025-07-02T13:46:43.258Z</time>
      </trkpt>
      <trkpt lat="42.822983" lon="-0.137785">
        <ele>1786.6</ele>
        <time>2025-07-02T13:47:52.719Z</time>
      </trkpt>
      <trkpt lat="42.822743" lon="-0.137630">
        <ele>1790.6</ele>
        <time>2025-07-02T13:49:00.411Z</time>
      </trkpt>
      <trkpt lat="42.822495" lon="-0.137546">
        <ele>1793.5</ele>
        <time>2025-07-02T13:49:54.816Z</time>
      </trkpt>
      <trkpt lat="42.822263" lon="-0.137490">
        <ele>1794.7</ele>
        <time>2025-07-02T13:50:30.189Z</time>
      </trkpt>
      <trkpt lat="42.822012" lon="-0.137453">
        <ele>1795.6</ele>
        <time>2025-07-02T13:51:04.217Z</time>
      </trkpt>
      <trkpt lat="42.821780" lon="-0.137397">
        <ele>1796.9</ele>
        <time>2025-07-02T13:51:39.704Z</time>
      </trkpt>
      <trkpt lat="42.821478" lon="-0.137279">
        <ele>1798.7</ele>
        <time>2025-07-02T13:52:29.079Z</time>
      </trkpt>
      <trkpt lat="42.821238" lon="-0.137175">
        <ele>1801.2</ele>
        <time>2025-07-02T13:53:19.558Z</time>
      </trkpt>
      <trkpt lat="42.820938" lon="-0.137221">
        <ele>1804.3</ele>
        <time>2025-07-02T13:54:19.980Z</time>
      </trkpt>
      <trkpt lat="42.820708" lon="-0.137240">
        <ele>1806.9</ele>
        <time>2025-07-02T13:55:10.564Z</time>
      </trkpt>
      <trkpt lat="42.820454" lon="-0.137266">
        <ele>1810.4</ele>
        <time>2025-07-02T13:56:11.724Z</time>
      </trkpt>
      <trkpt lat="42.820189" lon="-0.137236">
        <ele>1814.7</ele>
        <time>2025-07-02T13:57:21.394Z</time>
      </trkpt>
      <trkpt lat="42.819970" lon="-0.137357">
        <ele>1817.3</ele>
        <time>2025-07-02T13:58:12.289Z</time>
      </trkpt>
      <trkpt lat="42.819678" lon="-0.137577">
        <ele>1820.4</ele>
        <time>2025-07-02T13:59:17.131Z</time>
      </trkpt>
      <trkpt lat="42.819406" lon="-0.137566">
        <ele>1827.4</ele>
        <time>2025-07-02T14:00:56.601Z</time>
      </trkpt>
      <trkpt lat="42.819220" lon="-0.137380">
        <ele>1832.7</ele>
        <time>2025-07-02T14:02:13.579Z</time>
      </trkpt>
      <trkpt lat="42.819006" lon="-0.137334">
        <ele>1835.7</ele>
        <time>2025-07-02T14:03:06.221Z</time>
      </trkpt>
      <trkpt lat="42.818817" lon="-0.137527">
        <ele>1838.5</ele>
        <time>2025-07-02T14:03:58.488Z</time>
      </trkpt>
      <trkpt lat="42.818526" lon="-0.137739">
        <ele>1839.8</ele>
        <time>2025-07-02T14:04:44.330Z</time>
      </trkpt>
      <trkpt lat="42.818315" lon="-0.137840">
        <ele>1840.7</ele>
        <time>2025-07-02T14:05:17.394Z</time>
      </trkpt>
      <trkpt lat="42.818013" lon="-0.137919">
        <ele>1842.0</ele>
        <time>2025-07-02T14:06:00.062Z</time>
      </trkpt>
      <trkpt lat="42.817777" lon="-0.137754">
        <ele>1846.7</ele>
        <time>2025-07-02T14:07:14.054Z</time>
      </trkpt>
      <trkpt lat="42.817616" lon="-0.137494">
        <ele>1852.0</ele>
        <time>2025-07-02T14:08:37.269Z</time>
      </trkpt>
      <trkpt lat="42.817377" lon="-0.137455">
        <ele>1855.3</ele>
        <time>2025-07-02T14:09:35.297Z</time>
      </trkpt>
      <trkpt lat="42.817153" lon="-0.137369">
        <ele>1858.5</ele>
        <time>2025-07-02T14:10:29.938Z</time>
      </trkpt>
      <trkpt lat="42.816923" lon="-0.137331">
        <ele>1862.3</ele>
        <time>2025-07-02T14:11:31.271Z</time>
      </trkpt>
      <trkpt lat="42.816708" lon="-0.137293">
        <ele>1866.0</ele>
        <time>2025-07-02T14:12:31.329Z</time>
      </trkpt>
      <trkpt lat="42.816479" lon="-0.137356">
        <ele>1870.7</ele>
        <time>2025-07-02T14:13:41.942Z</time>
      </trkpt>
      <trkpt lat="42.816244" lon="-0.137285">
        <ele>1875.7</ele>
        <time>2025-07-02T14:14:56.495Z</time>
      </trkpt>
      <trkpt lat="42.815983" lon="-0.137254">
        <ele>1876.5</ele>
        <time>2025-07-02T14:15:30.873Z</time>
      </trkpt>
      <trkpt lat="42.815794" lon="-0.137518">
        <ele>1877.4</ele>
        <time>2025-07-02T14:16:06.194Z</time>
      </trkpt>
      <trkpt lat="42.815544" lon="-0.137444">
        <ele>1884.5</ele>
        <time>2025-07-02T14:17:44.864Z</time>
      </trkpt>
      <trkpt lat="42.815319" lon="-0.137353">
        <ele>1890.8</ele>
        <time>2025-07-02T14:19:12.898Z</time>
      </trkpt>
      <trkpt lat="42.815123" lon="-0.137217">
        <ele>1897.3</ele>
        <time>2025-07-02T14:20:41.693Z</time>
      </trkpt>
      <trkpt lat="42.814874" lon="-0.137228">
        <ele>1904.2</ele>
        <time>2025-07-02T14:22:17.229Z</time>
      </trkpt>
      <trkpt lat="42.814665" lon="-0.137177">
        <ele>1910.2</ele>
        <time>2025-07-02T14:23:40.517Z</time>
      </trkpt>
      <trkpt lat="42.814633" lon="-0.136994">
        <ele>1918.7</ele>
        <time>2025-07-02T14:25:38.440Z</time>
      </trkpt>
      <trkpt lat="42.814343" lon="-0.137007">
        <ele>1927.1</ele>
        <time>2025-07-02T14:27:33.909Z</time>
      </trkpt>
      <trkpt lat="42.814072" lon="-0.137130">
        <ele>1928.0</ele>
        <time>2025-07-02T14:28:12.725Z</time>
      </trkpt>
      <trkpt lat="42.813941" lon="-0.137383">
        <ele>1926.5</ele>
        <time>2025-07-02T14:28:45.222Z</time>
      </trkpt>
      <trkpt lat="42.813679" lon="-0.137566">
        <ele>1932.8</ele>
        <time>2025-07-02T14:30:18.181Z</time>
      </trkpt>
      <trkpt lat="42.813454" lon="-0.137688">
        <ele>1938.1</ele>
        <time>2025-07-02T14:31:36.224Z</time>
      </trkpt>
      <trkpt lat="42.813277" lon="-0.137813">
        <ele>1943.6</ele>
        <time>2025-07-02T14:32:55.261Z</time>
      </trkpt>
      <trkpt lat="42.813055" lon="-0.137753">
        <ele>1948.9</ele>
        <time>2025-07-02T14:34:11.741Z</time>
      </trkpt>
      <trkpt lat="42.812866" lon="-0.137885">
        <ele>1954.2</ele>
        <time>2025-07-02T14:35:30.674Z</time>
      </trkpt>
      <trkpt lat="42.812620" lon="-0.137693">
        <ele>1959.6</ele>
        <time>2025-07-02T14:36:53.007Z</time>
      </trkpt>
      <trkpt lat="42.812385" lon="-0.137646">
        <ele>1963.3</ele>
        <time>2025-07-02T14:37:54.061Z</time>
      </trkpt>
      <trkpt lat="42.812114" lon="-0.137663">
        <ele>1966.6</ele>
        <time>2025-07-02T14:38:55.910Z</time>
      </trkpt>
      <trkpt lat="42.811842" lon="-0.137740">
        <ele>1969.4</ele>
        <time>2025-07-02T14:39:51.735Z</time>
      </trkpt>
      <trkpt lat="42.811566" lon="-0.137676">
        <ele>1973.3</ele>
        <time>2025-07-02T14:40:58.357Z</time>
      </trkpt>
      <trkpt lat="42.811267" lon="-0.137677">
        <ele>1977.3</ele>
        <time>2025-07-02T14:42:09.101Z</time>
      </trkpt>
      <trkpt lat="42.811026" lon="-0.137704">
        <ele>1980.1</ele>
        <time>2025-07-02T14:43:01.708Z</time>
      </trkpt>
      <trkpt lat="42.810861" lon="-0.137942">
        <ele>1982.7</ele>
        <time>2025-07-02T14:43:51.743Z</time>
      </trkpt>
      <trkpt lat="42.810671" lon="-0.138129">
        <ele>1983.1</ele>
        <time>2025-07-02T14:44:18.731Z</time>
      </trkpt>
      <trkpt lat="42.810352" lon="-0.138131">
        <ele>1983.7</ele>
        <time>2025-07-02T14:44:55.617Z</time>
      </trkpt>
      <trkpt lat="42.810015" lon="-0.137952">
        <ele>1984.5</ele>
        <time>2025-07-02T14:45:38.418Z</time>
      </trkpt>
      <trkpt lat="42.809857" lon="-0.137676">
        <ele>1985.1</ele>
        <time>2025-07-02T14:46:09.868Z</time>
      </trkpt>
      <trkpt lat="42.809653" lon="-0.137441">
        <ele>1985.7</ele>
        <time>2025-07-02T14:46:41.485Z</time>
      </trkpt>
      <trkpt lat="42.809526" lon="-0.137210">
        <ele>1986.1</ele>
        <time>2025-07-02T14:47:07.810Z</time>
      </trkpt>
      <trkpt lat="42.809351" lon="-0.137013">
        <ele>1986.5</ele>
        <time>2025-07-02T14:47:33.863Z</time>
      </trkpt>
      <trkpt lat="42.809194" lon="-0.136783">
        <ele>1987.0</ele>
        <time>2025-07-02T14:48:01.304Z</time>
      </trkpt>
      <trkpt lat="42.809011" lon="-0.136556">
        <ele>1987.6</ele>
        <time>2025-07-02T14:48:32.205Z</time>
      </trkpt>
      <trkpt lat="42.808799" lon="-0.136424">
        <ele>1987.5</ele>
        <time>2025-07-02T14:48:55.496Z</time>
      </trkpt>
      <trkpt lat="42.808620" lon="-0.136570">
        <ele>1986.0</ele>
        <time>2025-07-02T14:49:26.938Z</time>
      </trkpt>
      <trkpt lat="42.808672" lon="-0.136821">
        <ele>1985.4</ele>
        <time>2025-07-02T14:49:53.028Z</time>
      </trkpt>
      <trkpt lat="42.808426" lon="-0.136890">
        <ele>1986.4</ele>
        <time>2025-07-02T14:50:29.124Z</time>
      </trkpt>
      <trkpt lat="42.808027" lon="-0.136734">
        <ele>1987.1</ele>
        <time>2025-07-02T14:51:16.284Z</time>
      </trkpt>
      <trkpt lat="42.807756" lon="-0.136678">
        <ele>1987.2</ele>
        <time>2025-07-02T14:51:44.125Z</time>
      </trkpt>
      <trkpt lat="42.807519" lon="-0.136548">
        <ele>1988.0</ele>
        <time>2025-07-02T14:52:17.022Z</time>
      </trkpt>
      <trkpt lat="42.807258" lon="-0.136648">
        <ele>1988.8</ele>
        <time>2025-07-02T14:52:52.423Z</time>
      </trkpt>
      <trkpt lat="42.806992" lon="-0.136623">
        <ele>1991.6</ele>
        <time>2025-07-02T14:53:46.600Z</time>
      </trkpt>
      <trkpt lat="42.806728" lon="-0.136610">
        <ele>1994.7</ele>
        <time>2025-07-02T14:54:44.686Z</time>
      </trkpt>
      <trkpt lat="42.806491" lon="-0.136608">
        <ele>1999.3</ele>
        <time>2025-07-02T14:55:54.662Z</time>
      </trkpt>
      <trkpt lat="42.806177" lon="-0.136849">
        <ele>2007.1</ele>
        <time>2025-07-02T14:57:51.742Z</time>
      </trkpt>
      <trkpt lat="42.805985" lon="-0.137191">
        <ele>2013.7</ele>
        <time>2025-07-02T14:59:29.701Z</time>
      </trkpt>
      <trkpt lat="42.805808" lon="-0.137512">
        <ele>2022.4</ele>
        <time>2025-07-02T15:01:27.125Z</time>
      </trkpt>
      <trkpt lat="42.805636" lon="-0.137690">
        <ele>2028.3</ele>
        <time>2025-07-02T15:02:50.744Z</time>
      </trkpt>
      <trkpt lat="42.805405" lon="-0.137546">
        <ele>2031.2</ele>
        <time>2025-07-02T15:03:46.747Z</time>
      </trkpt>
      <trkpt lat="42.805183" lon="-0.137448">
        <ele>2034.3</ele>
        <time>2025-07-02T15:04:41.680Z</time>
      </trkpt>
      <trkpt lat="42.804893" lon="-0.137386">
        <ele>2039.4</ele>
        <time>2025-07-02T15:06:03.590Z</time>
      </trkpt>
      <trkpt lat="42.804649" lon="-0.137455">
        <ele>2043.0</ele>
        <time>2025-07-02T15:07:04.194Z</time>
      </trkpt>
      <trkpt lat="42.804342" lon="-0.137398">
        <ele>2046.8</ele>
        <time>2025-07-02T15:08:14.331Z</time>
      </trkpt>
      <trkpt lat="42.803963" lon="-0.137468">
        <ele>2051.3</ele>
        <time>2025-07-02T15:09:38.308Z</time>
      </trkpt>
      <trkpt lat="42.803741" lon="-0.137545">
        <ele>2053.5</ele>
        <time>2025-07-02T15:10:23.081Z</time>
      </trkpt>
      <trkpt lat="42.803493" lon="-0.137769">
        <ele>2056.2</ele>
        <time>2025-07-02T15:11:18.956Z</time>
      </trkpt>
      <trkpt lat="42.803269" lon="-0.137879">
        <ele>2056.8</ele>
        <time>2025-07-02T15:11:48.417Z</time>
      </trkpt>
      <trkpt lat="42.802988" lon="-0.137968">
        <ele>2056.0</ele>
        <time>2025-07-02T15:12:21.245Z</time>
      </trkpt>
      <trkpt lat="42.802717" lon="-0.138021">
        <ele>2057.1</ele>
        <time>2025-07-02T15:13:00.689Z</time>
      </trkpt>
      <trkpt lat="42.802508" lon="-0.138338">
        <ele>2059.0</ele>
        <time>2025-07-02T15:13:49.730Z</time>
      </trkpt>
      <trkpt lat="42.802289" lon="-0.138491">
        <ele>2061.4</ele>
        <time>2025-07-02T15:14:38.391Z</time>
      </trkpt>
      <trkpt lat="42.802069" lon="-0.138682">
        <ele>2064.1</ele>
        <time>2025-07-02T15:15:30.536Z</time>
      </trkpt>
      <trkpt lat="42.801785" lon="-0.138846">
        <ele>2065.6</ele>
        <time>2025-07-02T15:16:16.451Z</time>
      </trkpt>
      <trkpt lat="42.801482" lon="-0.138790">
        <ele>2066.2</ele>
        <time>2025-07-02T15:16:52.449Z</time>
      </trkpt>
      <trkpt lat="42.801155" lon="-0.138788">
        <ele>2064.7</ele>
        <time>2025-07-02T15:17:33.120Z</time>
      </trkpt>
      <trkpt lat="42.800753" lon="-0.138923">
        <ele>2062.3</ele>
        <time>2025-07-02T15:18:27.917Z</time>
      </trkpt>
      <trkpt lat="42.800489" lon="-0.138911">
        <ele>2060.8</ele>
        <time>2025-07-02T15:19:02.340Z</time>
      </trkpt>
      <trkpt lat="42.799899" lon="-0.138879">
        <ele>2055.4</ele>
        <time>2025-07-02T15:20:30.738Z</time>
      </trkpt>
      <trkpt lat="42.799547" lon="-0.139127">
        <ele>2056.0</ele>
        <time>2025-07-02T15:21:14.440Z</time>
      </trkpt>
      <trkpt lat="42.799275" lon="-0.139190">
        <ele>2057.9</ele>
        <time>2025-07-02T15:22:00.266Z</time>
      </trkpt>
      <trkpt lat="42.798973" lon="-0.139326">
        <ele>2061.1</ele>
        <time>2025-07-02T15:23:03.245Z</time>
      </trkpt>
      <trkpt lat="42.798735" lon="-0.139428">
        <ele>2063.5</ele>
        <time>2025-07-02T15:23:52.767Z</time>
      </trkpt>
      <trkpt lat="42.798503" lon="-0.139427">
        <ele>2065.7</ele>
        <time>2025-07-02T15:24:37.825Z</time>
      </trkpt>
      <trkpt lat="42.798259" lon="-0.139589">
        <ele>2067.4</ele>
        <time>2025-07-02T15:25:21.110Z</time>
      </trkpt>
      <trkpt lat="42.797842" lon="-0.139944">
        <ele>2070.4</ele>
        <time>2025-07-02T15:26:39.101Z</time>
      </trkpt>
      <trkpt lat="42.797508" lon="-0.140082">
        <ele>2072.6</ele>
        <time>2025-07-02T15:27:35.437Z</time>
      </trkpt>
      <trkpt lat="42.797215" lon="-0.140280">
        <ele>2074.8</ele>
        <time>2025-07-02T15:28:28.906Z</time>
      </trkpt>
      <trkpt lat="42.796873" lon="-0.140592">
        <ele>2077.5</ele>
        <time>2025-07-02T15:29:37.252Z</time>
      </trkpt>
      <trkpt lat="42.796594" lon="-0.140675">
        <ele>2079.0</ele>
        <time>2025-07-02T15:30:21.077Z</time>
      </trkpt>
      <trkpt lat="42.796397" lon="-0.140846">
        <ele>2080.9</ele>
        <time>2025-07-02T15:31:05.180Z</time>
      </trkpt>
      <trkpt lat="42.796151" lon="-0.140988">
        <ele>2084.8</ele>
        <time>2025-07-02T15:32:10.814Z</time>
      </trkpt>
      <trkpt lat="42.795914" lon="-0.141131">
        <ele>2090.4</ele>
        <time>2025-07-02T15:33:33.956Z</time>
      </trkpt>
      <trkpt lat="42.795883" lon="-0.141474">
        <ele>2098.1</ele>
        <time>2025-07-02T15:35:17.427Z</time>
      </trkpt>
      <trkpt lat="42.795837" lon="-0.141657">
        <ele>2105.6</ele>
        <time>2025-07-02T15:37:06.969Z</time>
      </trkpt>
      <trkpt lat="42.795603" lon="-0.141707">
        <ele>2110.4</ele>
        <time>2025-07-02T15:38:19.347Z</time>
      </trkpt>
      <trkpt lat="42.795324" lon="-0.141725">
        <ele>2113.0</ele>
        <time>2025-07-02T15:39:12.758Z</time>
      </trkpt>
      <trkpt lat="42.795044" lon="-0.141760">
        <ele>2115.9</ele>
        <time>2025-07-02T15:40:10.164Z</time>
      </trkpt>
      <trkpt lat="42.794796" lon="-0.141954">
        <ele>2119.8</ele>
        <time>2025-07-02T15:41:18.226Z</time>
      </trkpt>
      <trkpt lat="42.794545" lon="-0.142014">
        <ele>2125.2</ele>
        <time>2025-07-02T15:42:38.480Z</time>
      </trkpt>
      <trkpt lat="42.794522" lon="-0.142254">
        <ele>2132.1</ele>
        <time>2025-07-02T15:44:14.149Z</time>
      </trkpt>
      <trkpt lat="42.794691" lon="-0.142256">
        <ele>2134.9</ele>
        <time>2025-07-02T15:45:05.525Z</time>
      </trkpt>
      <trkpt lat="42.794787" lon="-0.142360">
        <ele>2136.3</ele>
        <time>2025-07-02T15:45:44.364Z</time>
      </trkpt>
      <trkpt lat="42.794934" lon="-0.142549">
        <ele>2141.8</ele>
        <time>2025-07-02T15:47:04.230Z</time>
      </trkpt>
      <trkpt lat="42.794719" lon="-0.142676">
        <ele>2148.2</ele>
        <time>2025-07-02T15:48:34.575Z</time>
      </trkpt>
      <trkpt lat="42.794455" lon="-0.142697">
        <ele>2143.8</ele>
        <time>2025-07-02T15:49:27.609Z</time>
      </trkpt>
      <trkpt lat="42.794205" lon="-0.142466">
        <ele>2139.9</ele>
        <time>2025-07-02T15:50:21.366Z</time>
      </trkpt>
      <trkpt lat="42.793961" lon="-0.142388">
        <ele>2137.8</ele>
        <time>2025-07-02T15:51:00.030Z</time>
      </trkpt>
      <trkpt lat="42.793727" lon="-0.142330">
        <ele>2139.4</ele>
        <time>2025-07-02T15:51:39.110Z</time>
      </trkpt>
      <trkpt lat="42.793488" lon="-0.142284">
        <ele>2141.4</ele>
        <time>2025-07-02T15:52:23.564Z</time>
      </trkpt>
      <trkpt lat="42.793425" lon="-0.142027">
        <ele>2141.0</ele>
        <time>2025-07-02T15:52:50.489Z</time>
      </trkpt>
      <trkpt lat="42.793178" lon="-0.141873">
        <ele>2141.2</ele>
        <time>2025-07-02T15:53:20.428Z</time>
      </trkpt>
      <trkpt lat="42.792949" lon="-0.141731">
        <ele>2142.9</ele>
        <time>2025-07-02T15:54:02.625Z</time>
      </trkpt>
      <trkpt lat="42.792712" lon="-0.141484">
        <ele>2144.5</ele>
        <time>2025-07-02T15:54:49.812Z</time>
      </trkpt>
    </trkseg>
  </trk>
</gpx>
