<?xml version="1.0" encoding="UTF-8"?>
<gpx version="1.1" creator="carnet-trek seed (OpenStreetMap, EU-DEM)" xmlns="http://www.topografix.com/GPX/1/1">
  <metadata>
    <name>GR10 – Estérençuby → Chalets d&apos;Iraty</name>
    <copyright author="OpenStreetMap contributors"><license>https://opendatacommons.org/licenses/odbl/</license></copyright>
  </metadata>
  <wpt lat="43.100423" lon="-1.182194">
    <name>Estérençuby</name>
    <sym>Convenience Store</sym>
  </wpt>
  <wpt lat="43.035719" lon="-1.106007">
    <name>Point culminant (1427 m)</name>
    <sym>Summit</sym>
  </wpt>
  <wpt lat="43.039386" lon="-1.052001">
    <name>Chalets d&apos;Iraty</name>
    <sym>Lodging</sym>
  </wpt>
  <trk>
    <name>GR10 – Estérençuby → Chalets d&apos;Iraty</name>
    <type>hike</type>
    <trkseg>
      <trkpt lat="43.100423" lon="-1.182194">
        <ele>441.4</ele>
        <time>2025-06-21T07:30:00.000Z</time>
      </trkpt>
      <trkpt lat="43.100165" lon="-1.181750">
        <ele>448.0</ele>
        <time>2025-06-21T07:31:47.504Z</time>
      </trkpt>
      <trkpt lat="43.099902" lon="-1.181495">
        <ele>455.7</ele>
        <time>2025-06-21T07:33:36.875Z</time>
      </trkpt>
      <trkpt lat="43.099645" lon="-1.181479">
        <ele>461.8</ele>
        <time>2025-06-21T07:35:04.603Z</time>
      </trkpt>
      <trkpt lat="43.099444" lon="-1.181195">
        <ele>463.2</ele>
        <time>2025-06-21T07:35:47.578Z</time>
      </trkpt>
      <trkpt lat="43.099213" lon="-1.180883">
        <ele>465.6</ele>
        <time>2025-06-21T07:36:43.994Z</time>
      </trkpt>
      <trkpt lat="43.099022" lon="-1.180638">
        <ele>468.4</ele>
        <time>2025-06-21T07:37:37.448Z</time>
      </trkpt>
      <trkpt lat="43.098816" lon="-1.180505">
        <ele>470.1</ele>
        <time>2025-06-21T07:38:16.833Z</time>
      </trkpt>
      <trkpt lat="43.098706" lon="-1.180202">
        <ele>471.8</ele>
        <time>2025-06-21T07:38:57.740Z</time>
      </trkpt>
      <trkpt lat="43.098368" lon="-1.179753">
        <ele>479.4</ele>
        <time>2025-06-21T07:41:01.469Z</time>
      </trkpt>
      <trkpt lat="43.097971" lon="-1.179489">
        <ele>488.4</ele>
        <time>2025-06-21T07:43:15.745Z</time>
      </trkpt>
      <trkpt lat="43.097568" lon="-1.179194">
        <ele>496.2</ele>
        <time>2025-06-21T07:45:19.814Z</time>
      </trkpt>
      <trkpt lat="43.097231" lon="-1.179024">
        <ele>506.3</ele>
        <time>2025-06-21T07:47:37.642Z</time>
      </trkpt>
      <trkpt lat="43.097009" lon="-1.178860">
        <ele>509.5</ele>
        <time>2025-06-21T07:48:35.507Z</time>
      </trkpt>
      <trkpt lat="43.097204" lon="-1.178461">
        <ele>500.8</ele>
        <time>2025-06-21T07:50:02.811Z</time>
      </trkpt>
      <trkpt lat="43.097348" lon="-1.178094">
        <ele>498.1</ele>
        <time>2025-06-21T07:50:48.940Z</time>
      </trkpt>
      <trkpt lat="43.097336" lon="-1.177782">
        <ele>500.2</ele>
        <time>2025-06-21T07:51:32.563Z</time>
      </trkpt>
      <trkpt lat="43.097243" lon="-1.177502">
        <ele>502.3</ele>
        <time>2025-06-21T07:52:15.450Z</time>
      </trkpt>
      <trkpt lat="43.097358" lon="-1.177052">
        <ele>498.5</ele>
        <time>2025-06-21T07:53:11.881Z</time>
      </trkpt>
      <trkpt lat="43.097637" lon="-1.176512">
        <ele>493.3</ele>
        <time>2025-06-21T07:54:29.097Z</time>
      </trkpt>
      <trkpt lat="43.097669" lon="-1.176095">
        <ele>490.0</ele>
        <time>2025-06-21T07:55:17.995Z</time>
      </trkpt>
      <trkpt lat="43.097653" lon="-1.175538">
        <ele>496.6</ele>
        <time>2025-06-21T07:57:04.609Z</time>
      </trkpt>
      <trkpt lat="43.097833" lon="-1.175288">
        <ele>498.6</ele>
        <time>2025-06-21T07:57:52.647Z</time>
      </trkpt>
      <trkpt lat="43.098087" lon="-1.175268">
        <ele>498.9</ele>
        <time>2025-06-21T07:58:20.247Z</time>
      </trkpt>
      <trkpt lat="43.098524" lon="-1.175416">
        <ele>500.1</ele>
        <time>2025-06-21T07:59:15.425Z</time>
      </trkpt>
      <trkpt lat="43.098809" lon="-1.175419">
        <ele>500.9</ele>
        <time>2025-06-21T07:59:51.650Z</time>
      </trkpt>
      <trkpt lat="43.099111" lon="-1.175548">
        <ele>499.9</ele>
        <time>2025-06-21T08:00:27.698Z</time>
      </trkpt>
      <trkpt lat="43.099145" lon="-1.175486">
        <ele>501.9</ele>
        <time>2025-06-21T08:01:17.318Z</time>
      </trkpt>
      <trkpt lat="43.098937" lon="-1.175308">
        <ele>505.9</ele>
        <time>2025-06-21T08:02:21.336Z</time>
      </trkpt>
      <trkpt lat="43.098580" lon="-1.175158">
        <ele>509.0</ele>
        <time>2025-06-21T08:03:29.902Z</time>
      </trkpt>
      <trkpt lat="43.098384" lon="-1.174899">
        <ele>510.4</ele>
        <time>2025-06-21T08:04:09.787Z</time>
      </trkpt>
      <trkpt lat="43.097741" lon="-1.174365">
        <ele>520.7</ele>
        <time>2025-06-21T08:07:08.787Z</time>
      </trkpt>
      <trkpt lat="43.097422" lon="-1.174067">
        <ele>535.4</ele>
        <time>2025-06-21T08:10:16.848Z</time>
      </trkpt>
      <trkpt lat="43.096854" lon="-1.173662">
        <ele>559.8</ele>
        <time>2025-06-21T08:15:29.038Z</time>
      </trkpt>
      <trkpt lat="43.096643" lon="-1.173467">
        <ele>568.0</ele>
        <time>2025-06-21T08:17:18.036Z</time>
      </trkpt>
      <trkpt lat="43.096426" lon="-1.173222">
        <ele>577.3</ele>
        <time>2025-06-21T08:19:21.305Z</time>
      </trkpt>
      <trkpt lat="43.096106" lon="-1.172796">
        <ele>583.7</ele>
        <time>2025-06-21T08:21:09.392Z</time>
      </trkpt>
      <trkpt lat="43.095934" lon="-1.172466">
        <ele>587.0</ele>
        <time>2025-06-21T08:22:11.130Z</time>
      </trkpt>
      <trkpt lat="43.095848" lon="-1.172139">
        <ele>587.5</ele>
        <time>2025-06-21T08:22:41.465Z</time>
      </trkpt>
      <trkpt lat="43.095714" lon="-1.171750">
        <ele>588.5</ele>
        <time>2025-06-21T08:23:22.322Z</time>
      </trkpt>
      <trkpt lat="43.095648" lon="-1.171337">
        <ele>589.7</ele>
        <time>2025-06-21T08:24:03.536Z</time>
      </trkpt>
      <trkpt lat="43.095624" lon="-1.170891">
        <ele>592.7</ele>
        <time>2025-06-21T08:25:05.873Z</time>
      </trkpt>
      <trkpt lat="43.095565" lon="-1.170559">
        <ele>595.0</ele>
        <time>2025-06-21T08:25:53.641Z</time>
      </trkpt>
      <trkpt lat="43.095414" lon="-1.170016">
        <ele>595.5</ele>
        <time>2025-06-21T08:26:39.335Z</time>
      </trkpt>
      <trkpt lat="43.095334" lon="-1.169728">
        <ele>595.8</ele>
        <time>2025-06-21T08:27:03.618Z</time>
      </trkpt>
      <trkpt lat="43.095184" lon="-1.169390">
        <ele>594.7</ele>
        <time>2025-06-21T08:27:37.846Z</time>
      </trkpt>
      <trkpt lat="43.094955" lon="-1.169099">
        <ele>593.5</ele>
        <time>2025-06-21T08:28:14.938Z</time>
      </trkpt>
      <trkpt lat="43.094743" lon="-1.168987">
        <ele>593.7</ele>
        <time>2025-06-21T08:28:38.430Z</time>
      </trkpt>
      <trkpt lat="43.094367" lon="-1.168853">
        <ele>593.9</ele>
        <time>2025-06-21T08:29:18.669Z</time>
      </trkpt>
      <trkpt lat="43.093911" lon="-1.168478">
        <ele>595.3</ele>
        <time>2025-06-21T08:30:22.805Z</time>
      </trkpt>
      <trkpt lat="43.093709" lon="-1.168309">
        <ele>596.1</ele>
        <time>2025-06-21T08:30:54.428Z</time>
      </trkpt>
      <trkpt lat="43.093211" lon="-1.167909">
        <ele>598.3</ele>
        <time>2025-06-21T08:32:11.400Z</time>
      </trkpt>
      <trkpt lat="43.092957" lon="-1.167801">
        <ele>601.3</ele>
        <time>2025-06-21T08:33:08.454Z</time>
      </trkpt>
      <trkpt lat="43.092710" lon="-1.167614">
        <ele>604.6</ele>
        <time>2025-06-21T08:34:08.914Z</time>
      </trkpt>
      <trkpt lat="43.092240" lon="-1.167367">
        <ele>605.0</ele>
        <time>2025-06-21T08:35:00.893Z</time>
      </trkpt>
      <trkpt lat="43.091946" lon="-1.167126">
        <ele>604.8</ele>
        <time>2025-06-21T08:35:34.978Z</time>
      </trkpt>
      <trkpt lat="43.091687" lon="-1.166814">
        <ele>604.5</ele>
        <time>2025-06-21T08:36:09.142Z</time>
      </trkpt>
      <trkpt lat="43.091437" lon="-1.166289">
        <ele>607.9</ele>
        <time>2025-06-21T08:37:27.548Z</time>
      </trkpt>
      <trkpt lat="43.091304" lon="-1.165961">
        <ele>609.1</ele>
        <time>2025-06-21T08:38:05.851Z</time>
      </trkpt>
      <trkpt lat="43.091237" lon="-1.165580">
        <ele>610.3</ele>
        <time>2025-06-21T08:38:45.862Z</time>
      </trkpt>
      <trkpt lat="43.091084" lon="-1.165291">
        <ele>610.3</ele>
        <time>2025-06-21T08:39:11.156Z</time>
      </trkpt>
      <trkpt lat="43.090767" lon="-1.164964">
        <ele>610.0</ele>
        <time>2025-06-21T08:39:50.975Z</time>
      </trkpt>
      <trkpt lat="43.090536" lon="-1.164551">
        <ele>609.4</ele>
        <time>2025-06-21T08:40:30.718Z</time>
      </trkpt>
      <trkpt lat="43.090140" lon="-1.163773">
        <ele>612.2</ele>
        <time>2025-06-21T08:42:05.445Z</time>
      </trkpt>
      <trkpt lat="43.090034" lon="-1.163280">
        <ele>614.5</ele>
        <time>2025-06-21T08:43:04.800Z</time>
      </trkpt>
      <trkpt lat="43.089893" lon="-1.162952">
        <ele>615.7</ele>
        <time>2025-06-21T08:43:43.507Z</time>
      </trkpt>
      <trkpt lat="43.089537" lon="-1.162555">
        <ele>617.0</ele>
        <time>2025-06-21T08:44:40.959Z</time>
      </trkpt>
      <trkpt lat="43.089192" lon="-1.162110">
        <ele>617.5</ele>
        <time>2025-06-21T08:45:31.820Z</time>
      </trkpt>
      <trkpt lat="43.088988" lon="-1.161912">
        <ele>618.1</ele>
        <time>2025-06-21T08:46:01.682Z</time>
      </trkpt>
      <trkpt lat="43.088463" lon="-1.161686">
        <ele>619.9</ele>
        <time>2025-06-21T08:47:12.258Z</time>
      </trkpt>
      <trkpt lat="43.088150" lon="-1.161440">
        <ele>621.8</ele>
        <time>2025-06-21T08:48:06.504Z</time>
      </trkpt>
      <trkpt lat="43.087919" lon="-1.161177">
        <ele>623.8</ele>
        <time>2025-06-21T08:48:56.172Z</time>
      </trkpt>
      <trkpt lat="43.087633" lon="-1.160683">
        <ele>627.6</ele>
        <time>2025-06-21T08:50:18.911Z</time>
      </trkpt>
      <trkpt lat="43.087294" lon="-1.160263">
        <ele>627.5</ele>
        <time>2025-06-21T08:51:03.371Z</time>
      </trkpt>
      <trkpt lat="43.087004" lon="-1.160032">
        <ele>626.9</ele>
        <time>2025-06-21T08:51:39.102Z</time>
      </trkpt>
      <trkpt lat="43.086718" lon="-1.159872">
        <ele>626.4</ele>
        <time>2025-06-21T08:52:11.584Z</time>
      </trkpt>
      <trkpt lat="43.086323" lon="-1.159772">
        <ele>629.8</ele>
        <time>2025-06-21T08:53:24.758Z</time>
      </trkpt>
      <trkpt lat="43.086020" lon="-1.159832">
        <ele>633.5</ele>
        <time>2025-06-21T08:54:32.230Z</time>
      </trkpt>
      <trkpt lat="43.085591" lon="-1.159674">
        <ele>640.3</ele>
        <time>2025-06-21T08:56:24.837Z</time>
      </trkpt>
      <trkpt lat="43.085206" lon="-1.159483">
        <ele>650.5</ele>
        <time>2025-06-21T08:58:48.418Z</time>
      </trkpt>
      <trkpt lat="43.084891" lon="-1.159197">
        <ele>661.4</ele>
        <time>2025-06-21T09:01:18.160Z</time>
      </trkpt>
      <trkpt lat="43.084370" lon="-1.158740">
        <ele>679.6</ele>
        <time>2025-06-21T09:05:24.172Z</time>
      </trkpt>
      <trkpt lat="43.084153" lon="-1.158488">
        <ele>686.0</ele>
        <time>2025-06-21T09:06:57.384Z</time>
      </trkpt>
      <trkpt lat="43.083837" lon="-1.158246">
        <ele>694.3</ele>
        <time>2025-06-21T09:08:57.477Z</time>
      </trkpt>
      <trkpt lat="43.083368" lon="-1.157592">
        <ele>715.6</ele>
        <time>2025-06-21T09:13:40.431Z</time>
      </trkpt>
      <trkpt lat="43.082652" lon="-1.156785">
        <ele>732.6</ele>
        <time>2025-06-21T09:18:03.827Z</time>
      </trkpt>
      <trkpt lat="43.082435" lon="-1.156493">
        <ele>740.0</ele>
        <time>2025-06-21T09:19:52.593Z</time>
      </trkpt>
      <trkpt lat="43.082011" lon="-1.156114">
        <ele>750.5</ele>
        <time>2025-06-21T09:22:29.096Z</time>
      </trkpt>
      <trkpt lat="43.081784" lon="-1.155933">
        <ele>757.4</ele>
        <time>2025-06-21T09:24:05.024Z</time>
      </trkpt>
      <trkpt lat="43.081485" lon="-1.155801">
        <ele>765.7</ele>
        <time>2025-06-21T09:26:00.502Z</time>
      </trkpt>
      <trkpt lat="43.081235" lon="-1.155849">
        <ele>766.4</ele>
        <time>2025-06-21T09:26:32.789Z</time>
      </trkpt>
      <trkpt lat="43.080745" lon="-1.156097">
        <ele>768.1</ele>
        <time>2025-06-21T09:27:39.550Z</time>
      </trkpt>
      <trkpt lat="43.080546" lon="-1.156295">
        <ele>769.1</ele>
        <time>2025-06-21T09:28:13.745Z</time>
      </trkpt>
      <trkpt lat="43.080236" lon="-1.156537">
        <ele>770.6</ele>
        <time>2025-06-21T09:29:03.070Z</time>
      </trkpt>
      <trkpt lat="43.079865" lon="-1.156681">
        <ele>782.7</ele>
        <time>2025-06-21T09:31:44.569Z</time>
      </trkpt>
      <trkpt lat="43.079693" lon="-1.156483">
        <ele>789.8</ele>
        <time>2025-06-21T09:33:20.969Z</time>
      </trkpt>
      <trkpt lat="43.079415" lon="-1.156260">
        <ele>799.1</ele>
        <time>2025-06-21T09:35:26.619Z</time>
      </trkpt>
      <trkpt lat="43.079225" lon="-1.156167">
        <ele>802.3</ele>
        <time>2025-06-21T09:36:22.202Z</time>
      </trkpt>
      <trkpt lat="43.078734" lon="-1.156182">
        <ele>809.0</ele>
        <time>2025-06-21T09:38:17.822Z</time>
      </trkpt>
      <trkpt lat="43.078451" lon="-1.156130">
        <ele>810.7</ele>
        <time>2025-06-21T09:39:03.089Z</time>
      </trkpt>
      <trkpt lat="43.078213" lon="-1.155992">
        <ele>812.3</ele>
        <time>2025-06-21T09:39:44.155Z</time>
      </trkpt>
      <trkpt lat="43.077972" lon="-1.155907">
        <ele>811.4</ele>
        <time>2025-06-21T09:40:13.485Z</time>
      </trkpt>
      <trkpt lat="43.077697" lon="-1.156064">
        <ele>810.2</ele>
        <time>2025-06-21T09:40:49.813Z</time>
      </trkpt>
      <trkpt lat="43.077479" lon="-1.156466">
        <ele>810.0</ele>
        <time>2025-06-21T09:41:26.240Z</time>
      </trkpt>
      <trkpt lat="43.077078" lon="-1.157041">
        <ele>810.8</ele>
        <time>2025-06-21T09:42:29.801Z</time>
      </trkpt>
      <trkpt lat="43.076592" lon="-1.157331">
        <ele>812.0</ele>
        <time>2025-06-21T09:43:32.615Z</time>
      </trkpt>
      <trkpt lat="43.076341" lon="-1.157406">
        <ele>811.8</ele>
        <time>2025-06-21T09:43:58.120Z</time>
      </trkpt>
      <trkpt lat="43.075749" lon="-1.157273">
        <ele>806.1</ele>
        <time>2025-06-21T09:45:29.960Z</time>
      </trkpt>
      <trkpt lat="43.075229" lon="-1.157266">
        <ele>804.1</ele>
        <time>2025-06-21T09:46:31.959Z</time>
      </trkpt>
      <trkpt lat="43.074696" lon="-1.157481">
        <ele>805.5</ele>
        <time>2025-06-21T09:47:39.975Z</time>
      </trkpt>
      <trkpt lat="43.074163" lon="-1.157599">
        <ele>805.7</ele>
        <time>2025-06-21T09:48:32.536Z</time>
      </trkpt>
      <trkpt lat="43.073598" lon="-1.157491">
        <ele>808.1</ele>
        <time>2025-06-21T09:49:52.036Z</time>
      </trkpt>
      <trkpt lat="43.073489" lon="-1.157255">
        <ele>802.3</ele>
        <time>2025-06-21T09:50:48.593Z</time>
      </trkpt>
      <trkpt lat="43.073403" lon="-1.156719">
        <ele>792.1</ele>
        <time>2025-06-21T09:52:29.441Z</time>
      </trkpt>
      <trkpt lat="43.073128" lon="-1.156343">
        <ele>788.3</ele>
        <time>2025-06-21T09:53:28.984Z</time>
      </trkpt>
      <trkpt lat="43.073105" lon="-1.156043">
        <ele>783.9</ele>
        <time>2025-06-21T09:54:18.832Z</time>
      </trkpt>
      <trkpt lat="43.073167" lon="-1.155657">
        <ele>776.1</ele>
        <time>2025-06-21T09:55:33.732Z</time>
      </trkpt>
      <trkpt lat="43.072760" lon="-1.155646">
        <ele>775.7</ele>
        <time>2025-06-21T09:56:15.930Z</time>
      </trkpt>
      <trkpt lat="43.072413" lon="-1.155777">
        <ele>780.5</ele>
        <time>2025-06-21T09:57:40.114Z</time>
      </trkpt>
      <trkpt lat="43.072021" lon="-1.156196">
        <ele>791.0</ele>
        <time>2025-06-21T10:00:15.247Z</time>
      </trkpt>
      <trkpt lat="43.071813" lon="-1.156331">
        <ele>790.4</ele>
        <time>2025-06-21T10:00:41.342Z</time>
      </trkpt>
      <trkpt lat="43.071567" lon="-1.156071">
        <ele>789.5</ele>
        <time>2025-06-21T10:01:17.833Z</time>
      </trkpt>
      <trkpt lat="43.071328" lon="-1.155575">
        <ele>780.6</ele>
        <time>2025-06-21T10:02:52.430Z</time>
      </trkpt>
      <trkpt lat="43.071030" lon="-1.155426">
        <ele>782.5</ele>
        <time>2025-06-21T10:03:43.286Z</time>
      </trkpt>
      <trkpt lat="43.070802" lon="-1.155533">
        <ele>788.0</ele>
        <time>2025-06-21T10:05:03.328Z</time>
      </trkpt>
      <trkpt lat="43.070585" lon="-1.155517">
        <ele>787.2</ele>
        <time>2025-06-21T10:05:30.185Z</time>
      </trkpt>
      <trkpt lat="43.070393" lon="-1.154906">
        <ele>772.8</ele>
        <time>2025-06-21T10:07:43.333Z</time>
      </trkpt>
      <trkpt lat="43.070330" lon="-1.154592">
        <ele>767.6</ele>
        <time>2025-06-21T10:08:37.634Z</time>
      </trkpt>
      <trkpt lat="43.070068" lon="-1.154533">
        <ele>761.5</ele>
        <time>2025-06-21T10:09:41.191Z</time>
      </trkpt>
      <trkpt lat="43.069666" lon="-1.154790">
        <ele>770.8</ele>
        <time>2025-06-21T10:11:59.184Z</time>
      </trkpt>
      <trkpt lat="43.069336" lon="-1.154908">
        <ele>777.9</ele>
        <time>2025-06-21T10:13:45.262Z</time>
      </trkpt>
      <trkpt lat="43.069050" lon="-1.154608">
        <ele>765.3</ele>
        <time>2025-06-21T10:15:36.592Z</time>
      </trkpt>
      <trkpt lat="43.068818" lon="-1.154433">
        <ele>764.0</ele>
        <time>2025-06-21T10:16:10.518Z</time>
      </trkpt>
      <trkpt lat="43.068361" lon="-1.154649">
        <ele>774.1</ele>
        <time>2025-06-21T10:18:40.465Z</time>
      </trkpt>
      <trkpt lat="43.068115" lon="-1.154729">
        <ele>778.8</ele>
        <time>2025-06-21T10:19:52.454Z</time>
      </trkpt>
      <trkpt lat="43.067914" lon="-1.154552">
        <ele>783.3</ele>
        <time>2025-06-21T10:21:02.663Z</time>
      </trkpt>
      <trkpt lat="43.067762" lon="-1.153882">
        <ele>766.6</ele>
        <time>2025-06-21T10:23:31.576Z</time>
      </trkpt>
      <trkpt lat="43.067679" lon="-1.153518">
        <ele>757.4</ele>
        <time>2025-06-21T10:24:53.363Z</time>
      </trkpt>
      <trkpt lat="43.067516" lon="-1.153197">
        <ele>749.7</ele>
        <time>2025-06-21T10:26:07.622Z</time>
      </trkpt>
      <trkpt lat="43.067302" lon="-1.152982">
        <ele>746.2</ele>
        <time>2025-06-21T10:26:53.638Z</time>
      </trkpt>
      <trkpt lat="43.067011" lon="-1.152867">
        <ele>745.5</ele>
        <time>2025-06-21T10:27:27.416Z</time>
      </trkpt>
      <trkpt lat="43.066737" lon="-1.152927">
        <ele>748.0</ele>
        <time>2025-06-21T10:28:20.194Z</time>
      </trkpt>
      <trkpt lat="43.066111" lon="-1.153377">
        <ele>753.3</ele>
        <time>2025-06-21T10:30:21.615Z</time>
      </trkpt>
      <trkpt lat="43.065659" lon="-1.153605">
        <ele>750.5</ele>
        <time>2025-06-21T10:31:24.255Z</time>
      </trkpt>
      <trkpt lat="43.065451" lon="-1.153750">
        <ele>755.7</ele>
        <time>2025-06-21T10:32:40.073Z</time>
      </trkpt>
      <trkpt lat="43.065310" lon="-1.153997">
        <ele>760.8</ele>
        <time>2025-06-21T10:33:54.392Z</time>
      </trkpt>
      <trkpt lat="43.064959" lon="-1.153621">
        <ele>754.8</ele>
        <time>2025-06-21T10:35:18.439Z</time>
      </trkpt>
      <trkpt lat="43.064977" lon="-1.153178">
        <ele>746.1</ele>
        <time>2025-06-21T10:36:42.124Z</time>
      </trkpt>
      <trkpt lat="43.065079" lon="-1.152867">
        <ele>739.5</ele>
        <time>2025-06-21T10:37:45.102Z</time>
      </trkpt>
      <trkpt lat="43.065223" lon="-1.152363">
        <ele>725.7</ele>
        <time>2025-06-21T10:39:45.898Z</time>
      </trkpt>
      <trkpt lat="43.065340" lon="-1.152060">
        <ele>718.2</ele>
        <time>2025-06-21T10:40:54.877Z</time>
      </trkpt>
      <trkpt lat="43.065097" lon="-1.151883">
        <ele>715.9</ele>
        <time>2025-06-21T10:41:37.779Z</time>
      </trkpt>
      <trkpt lat="43.064859" lon="-1.151722">
        <ele>714.8</ele>
        <time>2025-06-21T10:42:09.378Z</time>
      </trkpt>
      <trkpt lat="43.064473" lon="-1.151679">
        <ele>716.1</ele>
        <time>2025-06-21T10:42:59.197Z</time>
      </trkpt>
      <trkpt lat="43.064281" lon="-1.151427">
        <ele>710.7</ele>
        <time>2025-06-21T10:43:57.876Z</time>
      </trkpt>
      <trkpt lat="43.063927" lon="-1.151341">
        <ele>703.5</ele>
        <time>2025-06-21T10:45:15.441Z</time>
      </trkpt>
      <trkpt lat="43.063666" lon="-1.151341">
        <ele>704.9</ele>
        <time>2025-06-21T10:45:55.123Z</time>
      </trkpt>
      <trkpt lat="43.063417" lon="-1.151451">
        <ele>706.3</ele>
        <time>2025-06-21T10:46:34.800Z</time>
      </trkpt>
      <trkpt lat="43.063023" lon="-1.151312">
        <ele>699.6</ele>
        <time>2025-06-21T10:47:54.295Z</time>
      </trkpt>
      <trkpt lat="43.062710" lon="-1.151279">
        <ele>698.7</ele>
        <time>2025-06-21T10:48:29.776Z</time>
      </trkpt>
      <trkpt lat="43.062476" lon="-1.151513">
        <ele>702.4</ele>
        <time>2025-06-21T10:49:36.194Z</time>
      </trkpt>
      <trkpt lat="43.062228" lon="-1.151360">
        <ele>697.0</ele>
        <time>2025-06-21T10:50:37.651Z</time>
      </trkpt>
      <trkpt lat="43.061981" lon="-1.151340">
        <ele>694.1</ele>
        <time>2025-06-21T10:51:19.206Z</time>
      </trkpt>
      <trkpt lat="43.061468" lon="-1.151489">
        <ele>695.9</ele>
        <time>2025-06-21T10:52:27.141Z</time>
      </trkpt>
      <trkpt lat="43.061174" lon="-1.151507">
        <ele>695.1</ele>
        <time>2025-06-21T10:52:59.650Z</time>
      </trkpt>
      <trkpt lat="43.061172" lon="-1.151211">
        <ele>694.2</ele>
        <time>2025-06-21T10:53:30.314Z</time>
      </trkpt>
      <trkpt lat="43.061549" lon="-1.151110">
        <ele>691.9</ele>
        <time>2025-06-21T10:54:20.941Z</time>
      </trkpt>
      <trkpt lat="43.061746" lon="-1.150926">
        <ele>688.1</ele>
        <time>2025-06-21T10:55:06.523Z</time>
      </trkpt>
      <trkpt lat="43.062346" lon="-1.150527">
        <ele>677.4</ele>
        <time>2025-06-21T10:57:14.035Z</time>
      </trkpt>
      <trkpt lat="43.062435" lon="-1.150249">
        <ele>678.8</ele>
        <time>2025-06-21T10:57:49.873Z</time>
      </trkpt>
      <trkpt lat="43.062238" lon="-1.149944">
        <ele>680.5</ele>
        <time>2025-06-21T10:58:36.357Z</time>
      </trkpt>
      <trkpt lat="43.062359" lon="-1.149745">
        <ele>679.6</ele>
        <time>2025-06-21T10:59:05.795Z</time>
      </trkpt>
      <trkpt lat="43.062660" lon="-1.150080">
        <ele>678.2</ele>
        <time>2025-06-21T10:59:51.392Z</time>
      </trkpt>
      <trkpt lat="43.062974" lon="-1.150207">
        <ele>678.0</ele>
        <time>2025-06-21T11:00:24.847Z</time>
      </trkpt>
      <trkpt lat="43.063650" lon="-1.149863">
        <ele>676.8</ele>
        <time>2025-06-21T11:01:41.105Z</time>
      </trkpt>
      <trkpt lat="43.063937" lon="-1.149772">
        <ele>674.4</ele>
        <time>2025-06-21T11:02:23.108Z</time>
      </trkpt>
      <trkpt lat="43.064209" lon="-1.149665">
        <ele>672.2</ele>
        <time>2025-06-21T11:03:03.492Z</time>
      </trkpt>
      <trkpt lat="43.064242" lon="-1.149390">
        <ele>673.4</ele>
        <time>2025-06-21T11:03:38.210Z</time>
      </trkpt>
      <trkpt lat="43.064170" lon="-1.149520">
        <ele>674.7</ele>
        <time>2025-06-21T11:04:13.761Z</time>
      </trkpt>
      <trkpt lat="43.063995" lon="-1.149322">
        <ele>681.0</ele>
        <time>2025-06-21T11:05:44.666Z</time>
      </trkpt>
      <trkpt lat="43.063786" lon="-1.149136">
        <ele>686.7</ele>
        <time>2025-06-21T11:07:07.019Z</time>
      </trkpt>
      <trkpt lat="43.063362" lon="-1.148758">
        <ele>705.8</ele>
        <time>2025-06-21T11:11:12.154Z</time>
      </trkpt>
      <trkpt lat="43.063173" lon="-1.148548">
        <ele>715.0</ele>
        <time>2025-06-21T11:13:11.166Z</time>
      </trkpt>
      <trkpt lat="43.062851" lon="-1.148080">
        <ele>731.8</ele>
        <time>2025-06-21T11:16:50.199Z</time>
      </trkpt>
      <trkpt lat="43.062731" lon="-1.147622">
        <ele>745.1</ele>
        <time>2025-06-21T11:19:41.024Z</time>
      </trkpt>
      <trkpt lat="43.062532" lon="-1.147469">
        <ele>755.1</ele>
        <time>2025-06-21T11:21:49.092Z</time>
      </trkpt>
      <trkpt lat="43.062369" lon="-1.147123">
        <ele>768.1</ele>
        <time>2025-06-21T11:24:32.865Z</time>
      </trkpt>
      <trkpt lat="43.062178" lon="-1.146884">
        <ele>779.4</ele>
        <time>2025-06-21T11:26:58.366Z</time>
      </trkpt>
      <trkpt lat="43.061956" lon="-1.146783">
        <ele>785.6</ele>
        <time>2025-06-21T11:28:25.100Z</time>
      </trkpt>
      <trkpt lat="43.061787" lon="-1.146564">
        <ele>791.9</ele>
        <time>2025-06-21T11:29:51.485Z</time>
      </trkpt>
      <trkpt lat="43.061640" lon="-1.146279">
        <ele>801.7</ele>
        <time>2025-06-21T11:31:56.711Z</time>
      </trkpt>
      <trkpt lat="43.061423" lon="-1.145980">
        <ele>813.6</ele>
        <time>2025-06-21T11:34:28.647Z</time>
      </trkpt>
      <trkpt lat="43.061123" lon="-1.145326">
        <ele>829.5</ele>
        <time>2025-06-21T11:38:07.093Z</time>
      </trkpt>
      <trkpt lat="43.061045" lon="-1.144944">
        <ele>836.8</ele>
        <time>2025-06-21T11:39:49.869Z</time>
      </trkpt>
      <trkpt lat="43.060850" lon="-1.144532">
        <ele>844.0</ele>
        <time>2025-06-21T11:41:38.436Z</time>
      </trkpt>
      <trkpt lat="43.060672" lon="-1.144243">
        <ele>847.8</ele>
        <time>2025-06-21T11:42:44.636Z</time>
      </trkpt>
      <trkpt lat="43.060403" lon="-1.144009">
        <ele>852.1</ele>
        <time>2025-06-21T11:43:59.295Z</time>
      </trkpt>
      <trkpt lat="43.060098" lon="-1.143653">
        <ele>857.2</ele>
        <time>2025-06-21T11:45:30.478Z</time>
      </trkpt>
      <trkpt lat="43.059905" lon="-1.143202">
        <ele>861.9</ele>
        <time>2025-06-21T11:46:55.224Z</time>
      </trkpt>
      <trkpt lat="43.059717" lon="-1.142804">
        <ele>866.2</ele>
        <time>2025-06-21T11:48:13.269Z</time>
      </trkpt>
      <trkpt lat="43.059404" lon="-1.142364">
        <ele>871.6</ele>
        <time>2025-06-21T11:49:51.540Z</time>
      </trkpt>
      <trkpt lat="43.059356" lon="-1.141871">
        <ele>886.2</ele>
        <time>2025-06-21T11:52:56.368Z</time>
      </trkpt>
      <trkpt lat="43.059153" lon="-1.141227">
        <ele>906.7</ele>
        <time>2025-06-21T11:57:16.906Z</time>
      </trkpt>
      <trkpt lat="43.058738" lon="-1.140737">
        <ele>918.6</ele>
        <time>2025-06-21T12:00:11.093Z</time>
      </trkpt>
      <trkpt lat="43.058654" lon="-1.140436">
        <ele>924.5</ele>
        <time>2025-06-21T12:01:34.267Z</time>
      </trkpt>
      <trkpt lat="43.058471" lon="-1.140145">
        <ele>931.4</ele>
        <time>2025-06-21T12:03:11.907Z</time>
      </trkpt>
      <trkpt lat="43.058265" lon="-1.139919">
        <ele>936.2</ele>
        <time>2025-06-21T12:04:26.734Z</time>
      </trkpt>
      <trkpt lat="43.058057" lon="-1.139721">
        <ele>941.1</ele>
        <time>2025-06-21T12:05:42.224Z</time>
      </trkpt>
      <trkpt lat="43.057778" lon="-1.139365">
        <ele>950.7</ele>
        <time>2025-06-21T12:07:57.314Z</time>
      </trkpt>
      <trkpt lat="43.057616" lon="-1.139081">
        <ele>957.3</ele>
        <time>2025-06-21T12:09:30.611Z</time>
      </trkpt>
      <trkpt lat="43.057522" lon="-1.138180">
        <ele>989.3</ele>
        <time>2025-06-21T12:16:03.293Z</time>
      </trkpt>
      <trkpt lat="43.056758" lon="-1.137086">
        <ele>1008.6</ele>
        <time>2025-06-21T12:21:07.950Z</time>
      </trkpt>
      <trkpt lat="43.056070" lon="-1.136114">
        <ele>1020.4</ele>
        <time>2025-06-21T12:24:42.987Z</time>
      </trkpt>
      <trkpt lat="43.055922" lon="-1.135830">
        <ele>1023.4</ele>
        <time>2025-06-21T12:25:44.072Z</time>
      </trkpt>
      <trkpt lat="43.056016" lon="-1.135428">
        <ele>1026.4</ele>
        <time>2025-06-21T12:26:44.040Z</time>
      </trkpt>
      <trkpt lat="43.055856" lon="-1.134650">
        <ele>1025.7</ele>
        <time>2025-06-21T12:27:44.836Z</time>
      </trkpt>
      <trkpt lat="43.055779" lon="-1.134340">
        <ele>1024.4</ele>
        <time>2025-06-21T12:28:15.584Z</time>
      </trkpt>
      <trkpt lat="43.055705" lon="-1.133979">
        <ele>1022.9</ele>
        <time>2025-06-21T12:28:50.674Z</time>
      </trkpt>
      <trkpt lat="43.055662" lon="-1.133633">
        <ele>1022.2</ele>
        <time>2025-06-21T12:29:19.614Z</time>
      </trkpt>
      <trkpt lat="43.055643" lon="-1.133145">
        <ele>1021.1</ele>
        <time>2025-06-21T12:29:59.868Z</time>
      </trkpt>
      <trkpt lat="43.055626" lon="-1.132397">
        <ele>1022.3</ele>
        <time>2025-06-21T12:31:04.258Z</time>
      </trkpt>
      <trkpt lat="43.055447" lon="-1.131609">
        <ele>1017.6</ele>
        <time>2025-06-21T12:32:30.076Z</time>
      </trkpt>
      <trkpt lat="43.055389" lon="-1.131056">
        <ele>1016.6</ele>
        <time>2025-06-21T12:33:15.248Z</time>
      </trkpt>
      <trkpt lat="43.055423" lon="-1.130354">
        <ele>1015.3</ele>
        <time>2025-06-21T12:34:12.041Z</time>
      </trkpt>
      <trkpt lat="43.055399" lon="-1.130035">
        <ele>1013.3</ele>
        <time>2025-06-21T12:34:46.376Z</time>
      </trkpt>
      <trkpt lat="43.055338" lon="-1.129723">
        <ele>1011.3</ele>
        <time>2025-06-21T12:35:21.198Z</time>
      </trkpt>
      <trkpt lat="43.055178" lon="-1.129394">
        <ele>1008.6</ele>
        <time>2025-06-21T12:36:04.969Z</time>
      </trkpt>
      <trkpt lat="43.054718" lon="-1.128809">
        <ele>1002.7</ele>
        <time>2025-06-21T12:37:40.016Z</time>
      </trkpt>
      <trkpt lat="43.054437" lon="-1.128303">
        <ele>1002.2</ele>
        <time>2025-06-21T12:38:27.140Z</time>
      </trkpt>
      <trkpt lat="43.054223" lon="-1.127906">
        <ele>1004.5</ele>
        <time>2025-06-21T12:39:25.281Z</time>
      </trkpt>
      <trkpt lat="43.053182" lon="-1.126012">
        <ele>1015.7</ele>
        <time>2025-06-21T12:44:04.662Z</time>
      </trkpt>
      <trkpt lat="43.052957" lon="-1.125583">
        <ele>1018.4</ele>
        <time>2025-06-21T12:45:10.174Z</time>
      </trkpt>
      <trkpt lat="43.052837" lon="-1.125299">
        <ele>1020.4</ele>
        <time>2025-06-21T12:45:53.240Z</time>
      </trkpt>
      <trkpt lat="43.052585" lon="-1.125341">
        <ele>1024.0</ele>
        <time>2025-06-21T12:46:56.040Z</time>
      </trkpt>
      <trkpt lat="43.052096" lon="-1.125206">
        <ele>1032.2</ele>
        <time>2025-06-21T12:49:08.395Z</time>
      </trkpt>
      <trkpt lat="43.051798" lon="-1.125101">
        <ele>1038.1</ele>
        <time>2025-06-21T12:50:37.783Z</time>
      </trkpt>
      <trkpt lat="43.051596" lon="-1.124947">
        <ele>1044.1</ele>
        <time>2025-06-21T12:52:01.581Z</time>
      </trkpt>
      <trkpt lat="43.051236" lon="-1.124674">
        <ele>1054.8</ele>
        <time>2025-06-21T12:54:30.814Z</time>
      </trkpt>
      <trkpt lat="43.051025" lon="-1.124388">
        <ele>1066.3</ele>
        <time>2025-06-21T12:56:57.401Z</time>
      </trkpt>
      <trkpt lat="43.050722" lon="-1.123859">
        <ele>1085.2</ele>
        <time>2025-06-21T13:00:59.340Z</time>
      </trkpt>
      <trkpt lat="43.050421" lon="-1.123903">
        <ele>1098.2</ele>
        <time>2025-06-21T13:03:41.719Z</time>
      </trkpt>
      <trkpt lat="43.049862" lon="-1.123715">
        <ele>1122.1</ele>
        <time>2025-06-21T13:08:43.521Z</time>
      </trkpt>
      <trkpt lat="43.049611" lon="-1.123507">
        <ele>1136.9</ele>
        <time>2025-06-21T13:11:42.772Z</time>
      </trkpt>
      <trkpt lat="43.049431" lon="-1.123101">
        <ele>1152.6</ele>
        <time>2025-06-21T13:15:00.116Z</time>
      </trkpt>
      <trkpt lat="43.049177" lon="-1.122646">
        <ele>1168.1</ele>
        <time>2025-06-21T13:18:19.160Z</time>
      </trkpt>
      <trkpt lat="43.048834" lon="-1.122375">
        <ele>1172.7</ele>
        <time>2025-06-21T13:19:44.174Z</time>
      </trkpt>
      <trkpt lat="43.048358" lon="-1.121835">
        <ele>1179.9</ele>
        <time>2025-06-21T13:21:56.951Z</time>
      </trkpt>
      <trkpt lat="43.048153" lon="-1.121615">
        <ele>1182.5</ele>
        <time>2025-06-21T13:22:48.605Z</time>
      </trkpt>
      <trkpt lat="43.048278" lon="-1.121233">
        <ele>1185.7</ele>
        <time>2025-06-21T13:23:52.328Z</time>
      </trkpt>
      <trkpt lat="43.048408" lon="-1.120850">
        <ele>1192.3</ele>
        <time>2025-06-21T13:25:29.878Z</time>
      </trkpt>
      <trkpt lat="43.048623" lon="-1.120351">
        <ele>1201.1</ele>
        <time>2025-06-21T13:27:41.036Z</time>
      </trkpt>
      <trkpt lat="43.048763" lon="-1.119899">
        <ele>1208.7</ele>
        <time>2025-06-21T13:29:33.595Z</time>
      </trkpt>
      <trkpt lat="43.048828" lon="-1.119564">
        <ele>1214.1</ele>
        <time>2025-06-21T13:30:53.193Z</time>
      </trkpt>
      <trkpt lat="43.048828" lon="-1.119195">
        <ele>1216.1</ele>
        <time>2025-06-21T13:31:39.213Z</time>
      </trkpt>
      <trkpt lat="43.048698" lon="-1.117929">
        <ele>1222.9</ele>
        <time>2025-06-21T13:34:18.408Z</time>
      </trkpt>
      <trkpt lat="43.048553" lon="-1.117495">
        <ele>1232.0</ele>
        <time>2025-06-21T13:36:25.524Z</time>
      </trkpt>
      <trkpt lat="43.048286" lon="-1.117087">
        <ele>1242.5</ele>
        <time>2025-06-21T13:38:51.107Z</time>
      </trkpt>
      <trkpt lat="43.048067" lon="-1.116572">
        <ele>1250.4</ele>
        <time>2025-06-21T13:40:54.256Z</time>
      </trkpt>
      <trkpt lat="43.048035" lon="-1.116207">
        <ele>1255.3</ele>
        <time>2025-06-21T13:42:10.110Z</time>
      </trkpt>
      <trkpt lat="43.048098" lon="-1.115757">
        <ele>1262.3</ele>
        <time>2025-06-21T13:43:53.651Z</time>
      </trkpt>
      <trkpt lat="43.047957" lon="-1.114620">
        <ele>1279.8</ele>
        <time>2025-06-21T13:48:13.956Z</time>
      </trkpt>
      <trkpt lat="43.047878" lon="-1.113997">
        <ele>1287.9</ele>
        <time>2025-06-21T13:50:22.170Z</time>
      </trkpt>
      <trkpt lat="43.047675" lon="-1.113439">
        <ele>1291.9</ele>
        <time>2025-06-21T13:51:46.248Z</time>
      </trkpt>
      <trkpt lat="43.047283" lon="-1.112645">
        <ele>1292.8</ele>
        <time>2025-06-21T13:53:02.397Z</time>
      </trkpt>
      <trkpt lat="43.046496" lon="-1.111537">
        <ele>1300.4</ele>
        <time>2025-06-21T13:56:10.332Z</time>
      </trkpt>
      <trkpt lat="43.046174" lon="-1.111287">
        <ele>1305.8</ele>
        <time>2025-06-21T13:57:41.176Z</time>
      </trkpt>
      <trkpt lat="43.045840" lon="-1.111251">
        <ele>1310.7</ele>
        <time>2025-06-21T13:59:03.659Z</time>
      </trkpt>
      <trkpt lat="43.045497" lon="-1.111434">
        <ele>1318.1</ele>
        <time>2025-06-21T14:00:54.846Z</time>
      </trkpt>
      <trkpt lat="43.045213" lon="-1.111615">
        <ele>1324.4</ele>
        <time>2025-06-21T14:02:29.624Z</time>
      </trkpt>
      <trkpt lat="43.044700" lon="-1.111770">
        <ele>1335.9</ele>
        <time>2025-06-21T14:05:17.685Z</time>
      </trkpt>
      <trkpt lat="43.044227" lon="-1.111641">
        <ele>1346.7</ele>
        <time>2025-06-21T14:07:54.653Z</time>
      </trkpt>
      <trkpt lat="43.043647" lon="-1.111374">
        <ele>1357.5</ele>
        <time>2025-06-21T14:10:43.960Z</time>
      </trkpt>
      <trkpt lat="43.042762" lon="-1.110675">
        <ele>1370.1</ele>
        <time>2025-06-21T14:14:31.802Z</time>
      </trkpt>
      <trkpt lat="43.042349" lon="-1.110455">
        <ele>1372.6</ele>
        <time>2025-06-21T14:15:39.875Z</time>
      </trkpt>
      <trkpt lat="43.042119" lon="-1.110343">
        <ele>1374.0</ele>
        <time>2025-06-21T14:16:17.408Z</time>
      </trkpt>
      <trkpt lat="43.040118" lon="-1.109590">
        <ele>1377.5</ele>
        <time>2025-06-21T14:20:11.755Z</time>
      </trkpt>
      <trkpt lat="43.039837" lon="-1.109495">
        <ele>1379.7</ele>
        <time>2025-06-21T14:21:02.136Z</time>
      </trkpt>
      <trkpt lat="43.038662" lon="-1.108793">
        <ele>1389.6</ele>
        <time>2025-06-21T14:24:45.434Z</time>
      </trkpt>
      <trkpt lat="43.038091" lon="-1.108503">
        <ele>1394.8</ele>
        <time>2025-06-21T14:26:36.791Z</time>
      </trkpt>
      <trkpt lat="43.037855" lon="-1.108383">
        <ele>1396.7</ele>
        <time>2025-06-21T14:27:20.699Z</time>
      </trkpt>
      <trkpt lat="43.037591" lon="-1.108265">
        <ele>1398.8</ele>
        <time>2025-06-21T14:28:09.091Z</time>
      </trkpt>
      <trkpt lat="43.037131" lon="-1.108048">
        <ele>1405.0</ele>
        <time>2025-06-21T14:29:59.586Z</time>
      </trkpt>
      <trkpt lat="43.036760" lon="-1.107870">
        <ele>1412.0</ele>
        <time>2025-06-21T14:31:48.332Z</time>
      </trkpt>
      <trkpt lat="43.036537" lon="-1.107648">
        <ele>1416.9</ele>
        <time>2025-06-21T14:33:04.836Z</time>
      </trkpt>
      <trkpt lat="43.036315" lon="-1.107240">
        <ele>1419.9</ele>
        <time>2025-06-21T14:34:12.416Z</time>
      </trkpt>
      <trkpt lat="43.036039" lon="-1.106705">
        <ele>1423.2</ele>
        <time>2025-06-21T14:35:32.659Z</time>
      </trkpt>
      <trkpt lat="43.035719" lon="-1.106007">
        <ele>1426.9</ele>
        <time>2025-06-21T14:37:08.685Z</time>
      </trkpt>
      <trkpt lat="43.035631" lon="-1.105715">
        <ele>1425.4</ele>
        <time>2025-06-21T14:37:39.662Z</time>
      </trkpt>
      <trkpt lat="43.035568" lon="-1.105414">
        <ele>1424.0</ele>
        <time>2025-06-21T14:38:10.300Z</time>
      </trkpt>
      <trkpt lat="43.035662" lon="-1.104399">
        <ele>1414.4</ele>
        <time>2025-06-21T14:40:19.027Z</time>
      </trkpt>
      <trkpt lat="43.035831" lon="-1.103818">
        <ele>1409.1</ele>
        <time>2025-06-21T14:41:34.285Z</time>
      </trkpt>
      <trkpt lat="43.035933" lon="-1.103378">
        <ele>1405.3</ele>
        <time>2025-06-21T14:42:29.541Z</time>
      </trkpt>
      <trkpt lat="43.035998" lon="-1.102949">
        <ele>1401.6</ele>
        <time>2025-06-21T14:43:21.930Z</time>
      </trkpt>
      <trkpt lat="43.036062" lon="-1.102554">
        <ele>1398.6</ele>
        <time>2025-06-21T14:44:08.432Z</time>
      </trkpt>
      <trkpt lat="43.036276" lon="-1.102054">
        <ele>1394.2</ele>
        <time>2025-06-21T14:45:15.192Z</time>
      </trkpt>
      <trkpt lat="43.036448" lon="-1.101816">
        <ele>1391.9</ele>
        <time>2025-06-21T14:45:52.313Z</time>
      </trkpt>
      <trkpt lat="43.036605" lon="-1.101328">
        <ele>1387.2</ele>
        <time>2025-06-21T14:46:58.340Z</time>
      </trkpt>
      <trkpt lat="43.036733" lon="-1.100768">
        <ele>1380.9</ele>
        <time>2025-06-21T14:48:16.864Z</time>
      </trkpt>
      <trkpt lat="43.036950" lon="-1.100446">
        <ele>1376.5</ele>
        <time>2025-06-21T14:49:13.996Z</time>
      </trkpt>
      <trkpt lat="43.037236" lon="-1.099839">
        <ele>1364.4</ele>
        <time>2025-06-21T14:51:16.852Z</time>
      </trkpt>
      <trkpt lat="43.037307" lon="-1.099529">
        <ele>1357.8</ele>
        <time>2025-06-21T14:52:18.887Z</time>
      </trkpt>
      <trkpt lat="43.037409" lon="-1.099189">
        <ele>1353.0</ele>
        <time>2025-06-21T14:53:13.488Z</time>
      </trkpt>
      <trkpt lat="43.037626" lon="-1.098454">
        <ele>1342.6</ele>
        <time>2025-06-21T14:55:11.266Z</time>
      </trkpt>
      <trkpt lat="43.037754" lon="-1.098053">
        <ele>1338.2</ele>
        <time>2025-06-21T14:56:08.060Z</time>
      </trkpt>
      <trkpt lat="43.037774" lon="-1.097456">
        <ele>1332.9</ele>
        <time>2025-06-21T14:57:21.546Z</time>
      </trkpt>
      <trkpt lat="43.037703" lon="-1.097019">
        <ele>1329.5</ele>
        <time>2025-06-21T14:58:13.301Z</time>
      </trkpt>
      <trkpt lat="43.037625" lon="-1.096677">
        <ele>1327.9</ele>
        <time>2025-06-21T14:58:48.196Z</time>
      </trkpt>
      <trkpt lat="43.037554" lon="-1.096296">
        <ele>1326.1</ele>
        <time>2025-06-21T14:59:26.443Z</time>
      </trkpt>
      <trkpt lat="43.037478" lon="-1.095996">
        <ele>1324.8</ele>
        <time>2025-06-21T14:59:55.849Z</time>
      </trkpt>
      <trkpt lat="43.037262" lon="-1.095575">
        <ele>1322.9</ele>
        <time>2025-06-21T15:00:43.452Z</time>
      </trkpt>
      <trkpt lat="43.037119" lon="-1.095292">
        <ele>1321.3</ele>
        <time>2025-06-21T15:01:17.191Z</time>
      </trkpt>
      <trkpt lat="43.037064" lon="-1.094952">
        <ele>1319.7</ele>
        <time>2025-06-21T15:01:51.059Z</time>
      </trkpt>
      <trkpt lat="43.036984" lon="-1.094598">
        <ele>1316.7</ele>
        <time>2025-06-21T15:02:34.916Z</time>
      </trkpt>
      <trkpt lat="43.037027" lon="-1.094273">
        <ele>1313.9</ele>
        <time>2025-06-21T15:03:14.807Z</time>
      </trkpt>
      <trkpt lat="43.036977" lon="-1.093839">
        <ele>1311.7</ele>
        <time>2025-06-21T15:03:59.843Z</time>
      </trkpt>
      <trkpt lat="43.036809" lon="-1.093523">
        <ele>1309.7</ele>
        <time>2025-06-21T15:04:39.282Z</time>
      </trkpt>
      <trkpt lat="43.036660" lon="-1.093207">
        <ele>1310.4</ele>
        <time>2025-06-21T15:05:13.434Z</time>
      </trkpt>
      <trkpt lat="43.036336" lon="-1.092962">
        <ele>1310.5</ele>
        <time>2025-06-21T15:05:49.880Z</time>
      </trkpt>
      <trkpt lat="43.035915" lon="-1.092980">
        <ele>1309.1</ele>
        <time>2025-06-21T15:06:38.223Z</time>
      </trkpt>
      <trkpt lat="43.035656" lon="-1.092844">
        <ele>1309.1</ele>
        <time>2025-06-21T15:07:05.286Z</time>
      </trkpt>
      <trkpt lat="43.035118" lon="-1.092388">
        <ele>1309.0</ele>
        <time>2025-06-21T15:08:05.965Z</time>
      </trkpt>
      <trkpt lat="43.034449" lon="-1.091574">
        <ele>1302.0</ele>
        <time>2025-06-21T15:10:13.219Z</time>
      </trkpt>
      <trkpt lat="43.033744" lon="-1.091037">
        <ele>1289.5</ele>
        <time>2025-06-21T15:12:45.602Z</time>
      </trkpt>
      <trkpt lat="43.033270" lon="-1.090299">
        <ele>1283.6</ele>
        <time>2025-06-21T15:14:29.225Z</time>
      </trkpt>
      <trkpt lat="43.033051" lon="-1.089891">
        <ele>1280.7</ele>
        <time>2025-06-21T15:15:21.861Z</time>
      </trkpt>
      <trkpt lat="43.032861" lon="-1.089528">
        <ele>1278.1</ele>
        <time>2025-06-21T15:16:08.325Z</time>
      </trkpt>
      <trkpt lat="43.032676" lon="-1.089285">
        <ele>1273.7</ele>
        <time>2025-06-21T15:16:59.406Z</time>
      </trkpt>
      <trkpt lat="43.032353" lon="-1.088676">
        <ele>1264.2</ele>
        <time>2025-06-21T15:18:48.958Z</time>
      </trkpt>
      <trkpt lat="43.032063" lon="-1.088081">
        <ele>1258.8</ele>
        <time>2025-06-21T15:20:11.382Z</time>
      </trkpt>
      <trkpt lat="43.032151" lon="-1.087611">
        <ele>1253.4</ele>
        <time>2025-06-21T15:21:17.899Z</time>
      </trkpt>
      <trkpt lat="43.032360" lon="-1.087159">
        <ele>1247.7</ele>
        <time>2025-06-21T15:22:29.465Z</time>
      </trkpt>
      <trkpt lat="43.032667" lon="-1.086749">
        <ele>1241.6</ele>
        <time>2025-06-21T15:23:47.003Z</time>
      </trkpt>
      <trkpt lat="43.033377" lon="-1.086256">
        <ele>1230.3</ele>
        <time>2025-06-21T15:26:10.980Z</time>
      </trkpt>
      <trkpt lat="43.033852" lon="-1.085816">
        <ele>1220.0</ele>
        <time>2025-06-21T15:28:07.045Z</time>
      </trkpt>
      <trkpt lat="43.034249" lon="-1.085414">
        <ele>1211.6</ele>
        <time>2025-06-21T15:29:45.021Z</time>
      </trkpt>
      <trkpt lat="43.034538" lon="-1.085154">
        <ele>1207.7</ele>
        <time>2025-06-21T15:30:41.374Z</time>
      </trkpt>
      <trkpt lat="43.035007" lon="-1.084797">
        <ele>1201.6</ele>
        <time>2025-06-21T15:32:08.704Z</time>
      </trkpt>
      <trkpt lat="43.035149" lon="-1.084339">
        <ele>1190.4</ele>
        <time>2025-06-21T15:33:51.303Z</time>
      </trkpt>
      <trkpt lat="43.035371" lon="-1.084031">
        <ele>1182.3</ele>
        <time>2025-06-21T15:35:10.204Z</time>
      </trkpt>
      <trkpt lat="43.035201" lon="-1.083592">
        <ele>1173.2</ele>
        <time>2025-06-21T15:36:42.070Z</time>
      </trkpt>
      <trkpt lat="43.035094" lon="-1.083220">
        <ele>1165.6</ele>
        <time>2025-06-21T15:37:55.281Z</time>
      </trkpt>
      <trkpt lat="43.035054" lon="-1.082890">
        <ele>1159.3</ele>
        <time>2025-06-21T15:38:56.467Z</time>
      </trkpt>
      <trkpt lat="43.034972" lon="-1.082589">
        <ele>1155.9</ele>
        <time>2025-06-21T15:39:39.356Z</time>
      </trkpt>
      <trkpt lat="43.035058" lon="-1.082066">
        <ele>1149.9</ele>
        <time>2025-06-21T15:40:54.683Z</time>
      </trkpt>
      <trkpt lat="43.035348" lon="-1.081560">
        <ele>1144.4</ele>
        <time>2025-06-21T15:42:12.170Z</time>
      </trkpt>
      <trkpt lat="43.035667" lon="-1.081092">
        <ele>1136.6</ele>
        <time>2025-06-21T15:43:44.181Z</time>
      </trkpt>
      <trkpt lat="43.035757" lon="-1.080796">
        <ele>1131.3</ele>
        <time>2025-06-21T15:44:38.253Z</time>
      </trkpt>
      <trkpt lat="43.036086" lon="-1.080720">
        <ele>1123.8</ele>
        <time>2025-06-21T15:45:55.417Z</time>
      </trkpt>
      <trkpt lat="43.036375" lon="-1.080809">
        <ele>1114.9</ele>
        <time>2025-06-21T15:47:16.902Z</time>
      </trkpt>
      <trkpt lat="43.036590" lon="-1.080407">
        <ele>1107.2</ele>
        <time>2025-06-21T15:48:39.013Z</time>
      </trkpt>
      <trkpt lat="43.036258" lon="-1.079656">
        <ele>1098.5</ele>
        <time>2025-06-21T15:50:34.201Z</time>
      </trkpt>
      <trkpt lat="43.035928" lon="-1.079297">
        <ele>1090.9</ele>
        <time>2025-06-21T15:52:00.274Z</time>
      </trkpt>
      <trkpt lat="43.035551" lon="-1.079105">
        <ele>1081.5</ele>
        <time>2025-06-21T15:53:35.053Z</time>
      </trkpt>
      <trkpt lat="43.035760" lon="-1.078768">
        <ele>1072.9</ele>
        <time>2025-06-21T15:54:57.664Z</time>
      </trkpt>
      <trkpt lat="43.035999" lon="-1.078567">
        <ele>1065.0</ele>
        <time>2025-06-21T15:56:12.199Z</time>
      </trkpt>
      <trkpt lat="43.035776" lon="-1.078345">
        <ele>1058.0</ele>
        <time>2025-06-21T15:57:21.523Z</time>
      </trkpt>
      <trkpt lat="43.035553" lon="-1.078221">
        <ele>1053.0</ele>
        <time>2025-06-21T15:58:20.207Z</time>
      </trkpt>
      <trkpt lat="43.035731" lon="-1.077857">
        <ele>1046.6</ele>
        <time>2025-06-21T15:59:28.833Z</time>
      </trkpt>
      <trkpt lat="43.035705" lon="-1.077623">
        <ele>1039.8</ele>
        <time>2025-06-21T16:00:39.234Z</time>
      </trkpt>
      <trkpt lat="43.035396" lon="-1.077644">
        <ele>1034.5</ele>
        <time>2025-06-21T16:01:40.438Z</time>
      </trkpt>
      <trkpt lat="43.035452" lon="-1.077202">
        <ele>1028.2</ele>
        <time>2025-06-21T16:02:53.650Z</time>
      </trkpt>
      <trkpt lat="43.035604" lon="-1.076926">
        <ele>1022.3</ele>
        <time>2025-06-21T16:03:52.857Z</time>
      </trkpt>
      <trkpt lat="43.035625" lon="-1.076470">
        <ele>1014.5</ele>
        <time>2025-06-21T16:05:11.260Z</time>
      </trkpt>
      <trkpt lat="43.036067" lon="-1.075928">
        <ele>1004.4</ele>
        <time>2025-06-21T16:07:09.854Z</time>
      </trkpt>
      <trkpt lat="43.036198" lon="-1.075649">
        <ele>1001.4</ele>
        <time>2025-06-21T16:07:51.072Z</time>
      </trkpt>
      <trkpt lat="43.036411" lon="-1.075502">
        <ele>998.2</ele>
        <time>2025-06-21T16:08:35.110Z</time>
      </trkpt>
      <trkpt lat="43.036863" lon="-1.075510">
        <ele>1000.2</ele>
        <time>2025-06-21T16:09:38.710Z</time>
      </trkpt>
      <trkpt lat="43.037160" lon="-1.075590">
        <ele>1004.5</ele>
        <time>2025-06-21T16:10:52.652Z</time>
      </trkpt>
      <trkpt lat="43.037627" lon="-1.075808">
        <ele>1010.6</ele>
        <time>2025-06-21T16:12:41.510Z</time>
      </trkpt>
      <trkpt lat="43.038043" lon="-1.076010">
        <ele>1015.5</ele>
        <time>2025-06-21T16:14:14.434Z</time>
      </trkpt>
      <trkpt lat="43.038337" lon="-1.076172">
        <ele>1022.0</ele>
        <time>2025-06-21T16:15:51.561Z</time>
      </trkpt>
      <trkpt lat="43.038569" lon="-1.076242">
        <ele>1025.1</ele>
        <time>2025-06-21T16:16:46.587Z</time>
      </trkpt>
      <trkpt lat="43.038908" lon="-1.076056">
        <ele>1021.3</ele>
        <time>2025-06-21T16:17:44.179Z</time>
      </trkpt>
      <trkpt lat="43.039185" lon="-1.075977">
        <ele>1020.0</ele>
        <time>2025-06-21T16:18:19.274Z</time>
      </trkpt>
      <trkpt lat="43.039501" lon="-1.076041">
        <ele>1021.3</ele>
        <time>2025-06-21T16:19:03.075Z</time>
      </trkpt>
      <trkpt lat="43.039761" lon="-1.076124">
        <ele>1021.4</ele>
        <time>2025-06-21T16:19:29.805Z</time>
      </trkpt>
      <trkpt lat="43.040085" lon="-1.075983">
        <ele>1021.1</ele>
        <time>2025-06-21T16:20:04.173Z</time>
      </trkpt>
      <trkpt lat="43.040332" lon="-1.075739">
        <ele>1018.0</ele>
        <time>2025-06-21T16:20:51.610Z</time>
      </trkpt>
      <trkpt lat="43.040521" lon="-1.075294">
        <ele>1014.7</ele>
        <time>2025-06-21T16:21:47.730Z</time>
      </trkpt>
      <trkpt lat="43.040823" lon="-1.075031">
        <ele>1011.8</ele>
        <time>2025-06-21T16:22:39.254Z</time>
      </trkpt>
      <trkpt lat="43.041143" lon="-1.074742">
        <ele>1010.1</ele>
        <time>2025-06-21T16:23:26.546Z</time>
      </trkpt>
      <trkpt lat="43.041441" lon="-1.074514">
        <ele>1009.2</ele>
        <time>2025-06-21T16:24:04.102Z</time>
      </trkpt>
      <trkpt lat="43.041984" lon="-1.074261">
        <ele>1009.1</ele>
        <time>2025-06-21T16:24:59.299Z</time>
      </trkpt>
      <trkpt lat="43.042506" lon="-1.074048">
        <ele>1008.6</ele>
        <time>2025-06-21T16:25:54.467Z</time>
      </trkpt>
      <trkpt lat="43.042845" lon="-1.073828">
        <ele>1006.9</ele>
        <time>2025-06-21T16:26:40.180Z</time>
      </trkpt>
      <trkpt lat="43.043543" lon="-1.073352">
        <ele>1003.5</ele>
        <time>2025-06-21T16:28:15.167Z</time>
      </trkpt>
      <trkpt lat="43.043832" lon="-1.073117">
        <ele>1002.8</ele>
        <time>2025-06-21T16:28:51.416Z</time>
      </trkpt>
      <trkpt lat="43.044207" lon="-1.072785">
        <ele>1002.7</ele>
        <time>2025-06-21T16:29:34.235Z</time>
      </trkpt>
      <trkpt lat="43.044415" lon="-1.072632">
        <ele>1003.2</ele>
        <time>2025-06-21T16:30:01.775Z</time>
      </trkpt>
      <trkpt lat="43.044722" lon="-1.072793">
        <ele>1005.0</ele>
        <time>2025-06-21T16:30:52.329Z</time>
      </trkpt>
      <trkpt lat="43.044964" lon="-1.072984">
        <ele>1005.6</ele>
        <time>2025-06-21T16:31:25.216Z</time>
      </trkpt>
      <trkpt lat="43.045376" lon="-1.073154">
        <ele>1004.4</ele>
        <time>2025-06-21T16:32:13.419Z</time>
      </trkpt>
      <trkpt lat="43.045685" lon="-1.073244">
        <ele>1004.9</ele>
        <time>2025-06-21T16:32:48.533Z</time>
      </trkpt>
      <trkpt lat="43.046014" lon="-1.073313">
        <ele>1005.5</ele>
        <time>2025-06-21T16:33:25.528Z</time>
      </trkpt>
      <trkpt lat="43.046411" lon="-1.073311">
        <ele>1007.5</ele>
        <time>2025-06-21T16:34:24.303Z</time>
      </trkpt>
      <trkpt lat="43.046884" lon="-1.073160">
        <ele>1009.8</ele>
        <time>2025-06-21T16:35:35.975Z</time>
      </trkpt>
      <trkpt lat="43.047351" lon="-1.073028">
        <ele>1011.4</ele>
        <time>2025-06-21T16:36:42.528Z</time>
      </trkpt>
      <trkpt lat="43.047346" lon="-1.072910">
        <ele>1012.2</ele>
        <time>2025-06-21T16:37:21.633Z</time>
      </trkpt>
      <trkpt lat="43.047000" lon="-1.072813">
        <ele>1013.1</ele>
        <time>2025-06-21T16:38:03.995Z</time>
      </trkpt>
      <trkpt lat="43.047196" lon="-1.072622">
        <ele>1015.9</ele>
        <time>2025-06-21T16:39:04.744Z</time>
      </trkpt>
      <trkpt lat="43.047411" lon="-1.072433">
        <ele>1018.4</ele>
        <time>2025-06-21T16:39:55.528Z</time>
      </trkpt>
      <trkpt lat="43.047151" lon="-1.072214">
        <ele>1022.7</ele>
        <time>2025-06-21T16:41:09.206Z</time>
      </trkpt>
      <trkpt lat="43.046957" lon="-1.071955">
        <ele>1026.0</ele>
        <time>2025-06-21T16:42:08.662Z</time>
      </trkpt>
      <trkpt lat="43.047192" lon="-1.071987">
        <ele>1027.7</ele>
        <time>2025-06-21T16:42:50.286Z</time>
      </trkpt>
      <trkpt lat="43.047584" lon="-1.071752">
        <ele>1030.6</ele>
        <time>2025-06-21T16:44:00.587Z</time>
      </trkpt>
      <trkpt lat="43.047218" lon="-1.071160">
        <ele>1049.2</ele>
        <time>2025-06-21T16:48:15.201Z</time>
      </trkpt>
      <trkpt lat="43.046787" lon="-1.070874">
        <ele>1059.1</ele>
        <time>2025-06-21T16:50:42.586Z</time>
      </trkpt>
      <trkpt lat="43.046401" lon="-1.070690">
        <ele>1066.5</ele>
        <time>2025-06-21T16:52:37.817Z</time>
      </trkpt>
      <trkpt lat="43.046170" lon="-1.070466">
        <ele>1071.6</ele>
        <time>2025-06-21T16:53:57.454Z</time>
      </trkpt>
      <trkpt lat="43.045772" lon="-1.070099">
        <ele>1079.9</ele>
        <time>2025-06-21T16:56:08.544Z</time>
      </trkpt>
      <trkpt lat="43.045417" lon="-1.069727">
        <ele>1085.5</ele>
        <time>2025-06-21T16:57:48.557Z</time>
      </trkpt>
      <trkpt lat="43.045299" lon="-1.069429">
        <ele>1088.6</ele>
        <time>2025-06-21T16:58:43.884Z</time>
      </trkpt>
      <trkpt lat="43.045210" lon="-1.068909">
        <ele>1098.8</ele>
        <time>2025-06-21T17:01:06.876Z</time>
      </trkpt>
      <trkpt lat="43.045121" lon="-1.068560">
        <ele>1106.0</ele>
        <time>2025-06-21T17:02:45.791Z</time>
      </trkpt>
      <trkpt lat="43.045006" lon="-1.068291">
        <ele>1108.9</ele>
        <time>2025-06-21T17:03:37.853Z</time>
      </trkpt>
      <trkpt lat="43.044725" lon="-1.067919">
        <ele>1114.0</ele>
        <time>2025-06-21T17:05:07.369Z</time>
      </trkpt>
      <trkpt lat="43.044488" lon="-1.067575">
        <ele>1118.6</ele>
        <time>2025-06-21T17:06:27.502Z</time>
      </trkpt>
      <trkpt lat="43.044364" lon="-1.067256">
        <ele>1122.1</ele>
        <time>2025-06-21T17:07:28.606Z</time>
      </trkpt>
      <trkpt lat="43.044296" lon="-1.066909">
        <ele>1129.7</ele>
        <time>2025-06-21T17:09:11.674Z</time>
      </trkpt>
      <trkpt lat="43.044259" lon="-1.066598">
        <ele>1136.3</ele>
        <time>2025-06-21T17:10:42.537Z</time>
      </trkpt>
      <trkpt lat="43.044140" lon="-1.066109">
        <ele>1144.6</ele>
        <time>2025-06-21T17:12:43.246Z</time>
      </trkpt>
      <trkpt lat="43.043795" lon="-1.065410">
        <ele>1153.2</ele>
        <time>2025-06-21T17:15:11.472Z</time>
      </trkpt>
      <trkpt lat="43.043523" lon="-1.065137">
        <ele>1156.9</ele>
        <time>2025-06-21T17:16:20.987Z</time>
      </trkpt>
      <trkpt lat="43.043361" lon="-1.064893">
        <ele>1162.9</ele>
        <time>2025-06-21T17:17:46.355Z</time>
      </trkpt>
      <trkpt lat="43.043103" lon="-1.064411">
        <ele>1173.9</ele>
        <time>2025-06-21T17:20:20.883Z</time>
      </trkpt>
      <trkpt lat="43.042788" lon="-1.063925">
        <ele>1183.4</ele>
        <time>2025-06-21T17:22:43.627Z</time>
      </trkpt>
      <trkpt lat="43.042566" lon="-1.063427">
        <ele>1193.7</ele>
        <time>2025-06-21T17:25:09.827Z</time>
      </trkpt>
      <trkpt lat="43.042320" lon="-1.062870">
        <ele>1202.1</ele>
        <time>2025-06-21T17:27:21.601Z</time>
      </trkpt>
      <trkpt lat="43.042216" lon="-1.062589">
        <ele>1205.0</ele>
        <time>2025-06-21T17:28:14.157Z</time>
      </trkpt>
      <trkpt lat="43.042180" lon="-1.062285">
        <ele>1205.2</ele>
        <time>2025-06-21T17:28:37.494Z</time>
      </trkpt>
      <trkpt lat="43.042145" lon="-1.061521">
        <ele>1205.7</ele>
        <time>2025-06-21T17:29:35.517Z</time>
      </trkpt>
      <trkpt lat="43.042037" lon="-1.061182">
        <ele>1199.7</ele>
        <time>2025-06-21T17:30:37.434Z</time>
      </trkpt>
      <trkpt lat="43.042034" lon="-1.060813">
        <ele>1193.6</ele>
        <time>2025-06-21T17:31:39.273Z</time>
      </trkpt>
      <trkpt lat="43.041700" lon="-1.060915">
        <ele>1185.5</ele>
        <time>2025-06-21T17:33:05.149Z</time>
      </trkpt>
      <trkpt lat="43.041536" lon="-1.060396">
        <ele>1176.0</ele>
        <time>2025-06-21T17:34:45.953Z</time>
      </trkpt>
      <trkpt lat="43.041617" lon="-1.060058">
        <ele>1170.6</ele>
        <time>2025-06-21T17:35:43.286Z</time>
      </trkpt>
      <trkpt lat="43.041635" lon="-1.059577">
        <ele>1158.3</ele>
        <time>2025-06-21T17:37:30.393Z</time>
      </trkpt>
      <trkpt lat="43.041617" lon="-1.059262">
        <ele>1150.3</ele>
        <time>2025-06-21T17:38:40.684Z</time>
      </trkpt>
      <trkpt lat="43.041604" lon="-1.058870">
        <ele>1142.3</ele>
        <time>2025-06-21T17:39:57.847Z</time>
      </trkpt>
      <trkpt lat="43.041336" lon="-1.058749">
        <ele>1136.3</ele>
        <time>2025-06-21T17:41:01.386Z</time>
      </trkpt>
      <trkpt lat="43.041394" lon="-1.058477">
        <ele>1133.6</ele>
        <time>2025-06-21T17:41:42.183Z</time>
      </trkpt>
      <trkpt lat="43.041466" lon="-1.057760">
        <ele>1127.5</ele>
        <time>2025-06-21T17:43:16.816Z</time>
      </trkpt>
      <trkpt lat="43.041334" lon="-1.057461">
        <ele>1130.4</ele>
        <time>2025-06-21T17:44:12.122Z</time>
      </trkpt>
      <trkpt lat="43.041003" lon="-1.057199">
        <ele>1135.2</ele>
        <time>2025-06-21T17:45:37.777Z</time>
      </trkpt>
      <trkpt lat="43.040739" lon="-1.056870">
        <ele>1140.0</ele>
        <time>2025-06-21T17:47:01.754Z</time>
      </trkpt>
      <trkpt lat="43.040519" lon="-1.056453">
        <ele>1145.8</ele>
        <time>2025-06-21T17:48:37.007Z</time>
      </trkpt>
      <trkpt lat="43.040375" lon="-1.056084">
        <ele>1150.5</ele>
        <time>2025-06-21T17:49:54.507Z</time>
      </trkpt>
      <trkpt lat="43.040104" lon="-1.055211">
        <ele>1160.1</ele>
        <time>2025-06-21T17:52:39.115Z</time>
      </trkpt>
      <trkpt lat="43.040034" lon="-1.054787">
        <ele>1165.8</ele>
        <time>2025-06-21T17:54:08.718Z</time>
      </trkpt>
      <trkpt lat="43.039982" lon="-1.054150">
        <ele>1174.4</ele>
        <time>2025-06-21T17:56:21.139Z</time>
      </trkpt>
      <trkpt lat="43.039795" lon="-1.053690">
        <ele>1179.4</ele>
        <time>2025-06-21T17:57:49.802Z</time>
      </trkpt>
      <trkpt lat="43.039667" lon="-1.053231">
        <ele>1184.1</ele>
        <time>2025-06-21T17:59:12.227Z</time>
      </trkpt>
      <trkpt lat="43.039561" lon="-1.052583">
        <ele>1191.9</ele>
        <time>2025-06-21T18:01:18.701Z</time>
      </trkpt>
      <trkpt lat="43.039448" lon="-1.052199">
        <ele>1193.8</ele>
        <time>2025-06-21T18:02:07.233Z</time>
      </trkpt>
      <trkpt lat="43.039386" lon="-1.052001">
        <ele>1194.8</ele>
        <time>2025-06-21T18:02:32.507Z</time>
      </trkpt>
    </trkseg>
  </trk>
</gpx>
