<?xml version="1.0" encoding="UTF-8"?>
<gpx version="1.1" creator="carnet-trek seed (OpenStreetMap, EU-DEM)" xmlns="http://www.topografix.com/GPX/1/1">
  <metadata>
    <name>GR10 – Lescun → Etsaut</name>
    <copyright author="OpenStreetMap contributors"><license>https://opendatacommons.org/licenses/odbl/</license></copyright>
  </metadata>
  <wpt lat="42.929849" lon="-0.638041">
    <name>Lescun</name>
    <sym>Convenience Store</sym>
  </wpt>
  <wpt lat="42.904363" lon="-0.603965">
    <name>Point culminant (1608 m)</name>
    <sym>Summit</sym>
  </wpt>
  <wpt lat="42.911446" lon="-0.572074">
    <name>Etsaut</name>
    <sym>Convenience Store</sym>
  </wpt>
  <trk>
    <name>GR10 – Lescun → Etsaut</name>
    <type>hike</type>
    <trkseg>
      <trkpt lat="42.929849" lon="-0.638041">
        <ele>822.2</ele>
        <time>2025-06-26T07:30:00.000Z</time>
      </trkpt>
      <trkpt lat="42.929747" lon="-0.638424">
        <ele>823.5</ele>
        <time>2025-06-26T07:30:42.286Z</time>
      </trkpt>
      <trkpt lat="42.929771" lon="-0.639804">
        <ele>828.0</ele>
        <time>2025-06-26T07:33:04.945Z</time>
      </trkpt>
      <trkpt lat="42.929641" lon="-0.640676">
        <ele>828.6</ele>
        <time>2025-06-26T07:34:13.044Z</time>
      </trkpt>
      <trkpt lat="42.929437" lon="-0.640937">
        <ele>829.2</ele>
        <time>2025-06-26T07:34:47.180Z</time>
      </trkpt>
      <trkpt lat="42.929198" lon="-0.641090">
        <ele>829.8</ele>
        <time>2025-06-26T07:35:18.455Z</time>
      </trkpt>
      <trkpt lat="42.928976" lon="-0.641431">
        <ele>834.4</ele>
        <time>2025-06-26T07:36:37.703Z</time>
      </trkpt>
      <trkpt lat="42.928553" lon="-0.641522">
        <ele>840.4</ele>
        <time>2025-06-26T07:38:19.431Z</time>
      </trkpt>
      <trkpt lat="42.928173" lon="-0.641532">
        <ele>848.4</ele>
        <time>2025-06-26T07:40:19.045Z</time>
      </trkpt>
      <trkpt lat="42.927978" lon="-0.641458">
        <ele>851.8</ele>
        <time>2025-06-26T07:41:18.028Z</time>
      </trkpt>
      <trkpt lat="42.927723" lon="-0.641331">
        <ele>854.2</ele>
        <time>2025-06-26T07:42:10.077Z</time>
      </trkpt>
      <trkpt lat="42.927628" lon="-0.640576">
        <ele>853.0</ele>
        <time>2025-06-26T07:43:11.132Z</time>
      </trkpt>
      <trkpt lat="42.927376" lon="-0.640323">
        <ele>853.8</ele>
        <time>2025-06-26T07:43:51.656Z</time>
      </trkpt>
      <trkpt lat="42.926887" lon="-0.640461">
        <ele>854.9</ele>
        <time>2025-06-26T07:44:50.402Z</time>
      </trkpt>
      <trkpt lat="42.926633" lon="-0.640639">
        <ele>858.2</ele>
        <time>2025-06-26T07:45:52.257Z</time>
      </trkpt>
      <trkpt lat="42.926162" lon="-0.640970">
        <ele>864.5</ele>
        <time>2025-06-26T07:47:47.044Z</time>
      </trkpt>
      <trkpt lat="42.925902" lon="-0.641029">
        <ele>867.9</ele>
        <time>2025-06-26T07:48:47.944Z</time>
      </trkpt>
      <trkpt lat="42.925712" lon="-0.640806">
        <ele>871.2</ele>
        <time>2025-06-26T07:49:47.099Z</time>
      </trkpt>
      <trkpt lat="42.925612" lon="-0.640469">
        <ele>873.6</ele>
        <time>2025-06-26T07:50:36.435Z</time>
      </trkpt>
      <trkpt lat="42.925263" lon="-0.640168">
        <ele>877.2</ele>
        <time>2025-06-26T07:51:53.022Z</time>
      </trkpt>
      <trkpt lat="42.924639" lon="-0.640126">
        <ele>881.3</ele>
        <time>2025-06-26T07:53:35.894Z</time>
      </trkpt>
      <trkpt lat="42.924417" lon="-0.640270">
        <ele>884.6</ele>
        <time>2025-06-26T07:54:32.779Z</time>
      </trkpt>
      <trkpt lat="42.923682" lon="-0.640492">
        <ele>894.6</ele>
        <time>2025-06-26T07:57:27.179Z</time>
      </trkpt>
      <trkpt lat="42.923482" lon="-0.640742">
        <ele>896.7</ele>
        <time>2025-06-26T07:58:15.490Z</time>
      </trkpt>
      <trkpt lat="42.923288" lon="-0.641134">
        <ele>899.4</ele>
        <time>2025-06-26T07:59:16.244Z</time>
      </trkpt>
      <trkpt lat="42.923238" lon="-0.640820">
        <ele>899.9</ele>
        <time>2025-06-26T07:59:43.267Z</time>
      </trkpt>
      <trkpt lat="42.923292" lon="-0.640518">
        <ele>900.3</ele>
        <time>2025-06-26T08:00:09.916Z</time>
      </trkpt>
      <trkpt lat="42.923348" lon="-0.640168">
        <ele>901.4</ele>
        <time>2025-06-26T08:00:46.028Z</time>
      </trkpt>
      <trkpt lat="42.923525" lon="-0.639496">
        <ele>903.5</ele>
        <time>2025-06-26T08:01:57.988Z</time>
      </trkpt>
      <trkpt lat="42.923297" lon="-0.639540">
        <ele>909.6</ele>
        <time>2025-06-26T08:03:26.807Z</time>
      </trkpt>
      <trkpt lat="42.922984" lon="-0.639552">
        <ele>917.8</ele>
        <time>2025-06-26T08:05:23.149Z</time>
      </trkpt>
      <trkpt lat="42.922664" lon="-0.639632">
        <ele>929.2</ele>
        <time>2025-06-26T08:07:57.668Z</time>
      </trkpt>
      <trkpt lat="42.922364" lon="-0.639612">
        <ele>938.3</ele>
        <time>2025-06-26T08:09:59.479Z</time>
      </trkpt>
      <trkpt lat="42.921985" lon="-0.640068">
        <ele>953.8</ele>
        <time>2025-06-26T08:13:28.362Z</time>
      </trkpt>
      <trkpt lat="42.921654" lon="-0.640258">
        <ele>964.5</ele>
        <time>2025-06-26T08:15:51.877Z</time>
      </trkpt>
      <trkpt lat="42.921411" lon="-0.640259">
        <ele>971.9</ele>
        <time>2025-06-26T08:17:34.475Z</time>
      </trkpt>
      <trkpt lat="42.920941" lon="-0.640473">
        <ele>983.7</ele>
        <time>2025-06-26T08:20:22.968Z</time>
      </trkpt>
      <trkpt lat="42.920769" lon="-0.640775">
        <ele>987.9</ele>
        <time>2025-06-26T08:21:32.682Z</time>
      </trkpt>
      <trkpt lat="42.920740" lon="-0.640256">
        <ele>993.5</ele>
        <time>2025-06-26T08:23:07.461Z</time>
      </trkpt>
      <trkpt lat="42.921058" lon="-0.639641">
        <ele>992.3</ele>
        <time>2025-06-26T08:24:07.661Z</time>
      </trkpt>
      <trkpt lat="42.921315" lon="-0.638132">
        <ele>1001.7</ele>
        <time>2025-06-26T08:27:33.211Z</time>
      </trkpt>
      <trkpt lat="42.921492" lon="-0.637365">
        <ele>1003.2</ele>
        <time>2025-06-26T08:28:44.893Z</time>
      </trkpt>
      <trkpt lat="42.921827" lon="-0.636488">
        <ele>998.8</ele>
        <time>2025-06-26T08:30:20.158Z</time>
      </trkpt>
      <trkpt lat="42.921990" lon="-0.636244">
        <ele>997.4</ele>
        <time>2025-06-26T08:30:51.814Z</time>
      </trkpt>
      <trkpt lat="42.922128" lon="-0.635809">
        <ele>995.3</ele>
        <time>2025-06-26T08:31:37.501Z</time>
      </trkpt>
      <trkpt lat="42.922226" lon="-0.635127">
        <ele>997.9</ele>
        <time>2025-06-26T08:32:52.255Z</time>
      </trkpt>
      <trkpt lat="42.922407" lon="-0.634471">
        <ele>994.3</ele>
        <time>2025-06-26T08:34:02.352Z</time>
      </trkpt>
      <trkpt lat="42.922623" lon="-0.633823">
        <ele>991.5</ele>
        <time>2025-06-26T08:35:09.155Z</time>
      </trkpt>
      <trkpt lat="42.922830" lon="-0.633491">
        <ele>991.5</ele>
        <time>2025-06-26T08:35:39.714Z</time>
      </trkpt>
      <trkpt lat="42.922931" lon="-0.633097">
        <ele>991.5</ele>
        <time>2025-06-26T08:36:08.985Z</time>
      </trkpt>
      <trkpt lat="42.923083" lon="-0.632688">
        <ele>990.9</ele>
        <time>2025-06-26T08:36:44.461Z</time>
      </trkpt>
      <trkpt lat="42.923460" lon="-0.632127">
        <ele>987.6</ele>
        <time>2025-06-26T08:37:59.545Z</time>
      </trkpt>
      <trkpt lat="42.923816" lon="-0.631948">
        <ele>984.7</ele>
        <time>2025-06-26T08:38:53.040Z</time>
      </trkpt>
      <trkpt lat="42.923923" lon="-0.631291">
        <ele>991.0</ele>
        <time>2025-06-26T08:40:45.401Z</time>
      </trkpt>
      <trkpt lat="42.923863" lon="-0.630796">
        <ele>996.4</ele>
        <time>2025-06-26T08:42:16.408Z</time>
      </trkpt>
      <trkpt lat="42.923643" lon="-0.630614">
        <ele>998.8</ele>
        <time>2025-06-26T08:43:05.515Z</time>
      </trkpt>
      <trkpt lat="42.923564" lon="-0.630255">
        <ele>999.2</ele>
        <time>2025-06-26T08:43:38.232Z</time>
      </trkpt>
      <trkpt lat="42.923235" lon="-0.629976">
        <ele>999.9</ele>
        <time>2025-06-26T08:44:21.487Z</time>
      </trkpt>
      <trkpt lat="42.923187" lon="-0.629569">
        <ele>1005.7</ele>
        <time>2025-06-26T08:45:58.726Z</time>
      </trkpt>
      <trkpt lat="42.923420" lon="-0.629235">
        <ele>1009.9</ele>
        <time>2025-06-26T08:47:14.821Z</time>
      </trkpt>
      <trkpt lat="42.924172" lon="-0.628232">
        <ele>1018.8</ele>
        <time>2025-06-26T08:50:26.971Z</time>
      </trkpt>
      <trkpt lat="42.924389" lon="-0.627539">
        <ele>1033.1</ele>
        <time>2025-06-26T08:53:46.178Z</time>
      </trkpt>
      <trkpt lat="42.924719" lon="-0.626973">
        <ele>1031.6</ele>
        <time>2025-06-26T08:54:45.693Z</time>
      </trkpt>
      <trkpt lat="42.925091" lon="-0.625659">
        <ele>1025.7</ele>
        <time>2025-06-26T08:56:59.662Z</time>
      </trkpt>
      <trkpt lat="42.925379" lon="-0.625329">
        <ele>1010.1</ele>
        <time>2025-06-26T08:59:08.646Z</time>
      </trkpt>
      <trkpt lat="42.925492" lon="-0.624918">
        <ele>996.8</ele>
        <time>2025-06-26T09:00:59.417Z</time>
      </trkpt>
      <trkpt lat="42.925566" lon="-0.624606">
        <ele>997.1</ele>
        <time>2025-06-26T09:01:25.841Z</time>
      </trkpt>
      <trkpt lat="42.925304" lon="-0.624276">
        <ele>997.7</ele>
        <time>2025-06-26T09:02:07.937Z</time>
      </trkpt>
      <trkpt lat="42.925074" lon="-0.624297">
        <ele>1001.2</ele>
        <time>2025-06-26T09:03:05.890Z</time>
      </trkpt>
      <trkpt lat="42.924527" lon="-0.624139">
        <ele>1009.7</ele>
        <time>2025-06-26T09:05:26.417Z</time>
      </trkpt>
      <trkpt lat="42.924098" lon="-0.624760">
        <ele>1025.6</ele>
        <time>2025-06-26T09:09:11.545Z</time>
      </trkpt>
      <trkpt lat="42.923929" lon="-0.625000">
        <ele>1027.0</ele>
        <time>2025-06-26T09:09:49.626Z</time>
      </trkpt>
      <trkpt lat="42.923656" lon="-0.625205">
        <ele>1028.8</ele>
        <time>2025-06-26T09:10:38.288Z</time>
      </trkpt>
      <trkpt lat="42.923156" lon="-0.625252">
        <ele>1020.9</ele>
        <time>2025-06-26T09:12:13.809Z</time>
      </trkpt>
      <trkpt lat="42.922620" lon="-0.625018">
        <ele>1014.5</ele>
        <time>2025-06-26T09:13:45.690Z</time>
      </trkpt>
      <trkpt lat="42.922327" lon="-0.625006">
        <ele>1019.7</ele>
        <time>2025-06-26T09:15:07.023Z</time>
      </trkpt>
      <trkpt lat="42.920875" lon="-0.625767">
        <ele>1047.2</ele>
        <time>2025-06-26T09:22:18.546Z</time>
      </trkpt>
      <trkpt lat="42.920549" lon="-0.625833">
        <ele>1040.8</ele>
        <time>2025-06-26T09:23:28.649Z</time>
      </trkpt>
      <trkpt lat="42.920152" lon="-0.625535">
        <ele>1031.9</ele>
        <time>2025-06-26T09:25:05.014Z</time>
      </trkpt>
      <trkpt lat="42.919615" lon="-0.624531">
        <ele>1015.2</ele>
        <time>2025-06-26T09:28:12.403Z</time>
      </trkpt>
      <trkpt lat="42.918596" lon="-0.622930">
        <ele>1004.3</ele>
        <time>2025-06-26T09:31:46.287Z</time>
      </trkpt>
      <trkpt lat="42.918224" lon="-0.622768">
        <ele>1008.5</ele>
        <time>2025-06-26T09:33:08.032Z</time>
      </trkpt>
      <trkpt lat="42.917795" lon="-0.622723">
        <ele>1013.1</ele>
        <time>2025-06-26T09:34:36.517Z</time>
      </trkpt>
      <trkpt lat="42.917301" lon="-0.622765">
        <ele>1019.0</ele>
        <time>2025-06-26T09:36:23.836Z</time>
      </trkpt>
      <trkpt lat="42.916947" lon="-0.622879">
        <ele>1024.6</ele>
        <time>2025-06-26T09:37:56.668Z</time>
      </trkpt>
      <trkpt lat="42.916689" lon="-0.622901">
        <ele>1028.7</ele>
        <time>2025-06-26T09:39:02.508Z</time>
      </trkpt>
      <trkpt lat="42.916364" lon="-0.622848">
        <ele>1026.5</ele>
        <time>2025-06-26T09:39:46.994Z</time>
      </trkpt>
      <trkpt lat="42.916146" lon="-0.622758">
        <ele>1024.9</ele>
        <time>2025-06-26T09:40:17.832Z</time>
      </trkpt>
      <trkpt lat="42.915842" lon="-0.622837">
        <ele>1026.8</ele>
        <time>2025-06-26T09:41:06.327Z</time>
      </trkpt>
      <trkpt lat="42.915554" lon="-0.622720">
        <ele>1027.2</ele>
        <time>2025-06-26T09:41:39.936Z</time>
      </trkpt>
      <trkpt lat="42.915120" lon="-0.622728">
        <ele>1025.3</ele>
        <time>2025-06-26T09:42:33.233Z</time>
      </trkpt>
      <trkpt lat="42.914722" lon="-0.622716">
        <ele>1024.8</ele>
        <time>2025-06-26T09:43:15.853Z</time>
      </trkpt>
      <trkpt lat="42.914544" lon="-0.622471">
        <ele>1020.8</ele>
        <time>2025-06-26T09:44:04.598Z</time>
      </trkpt>
      <trkpt lat="42.914439" lon="-0.622159">
        <ele>1015.1</ele>
        <time>2025-06-26T09:45:02.590Z</time>
      </trkpt>
      <trkpt lat="42.914311" lon="-0.621896">
        <ele>1009.9</ele>
        <time>2025-06-26T09:45:55.678Z</time>
      </trkpt>
      <trkpt lat="42.914129" lon="-0.621177">
        <ele>1004.5</ele>
        <time>2025-06-26T09:47:21.200Z</time>
      </trkpt>
      <trkpt lat="42.913660" lon="-0.620557">
        <ele>1008.6</ele>
        <time>2025-06-26T09:49:08.422Z</time>
      </trkpt>
      <trkpt lat="42.913395" lon="-0.620134">
        <ele>1004.1</ele>
        <time>2025-06-26T09:50:14.197Z</time>
      </trkpt>
      <trkpt lat="42.913179" lon="-0.619957">
        <ele>1001.9</ele>
        <time>2025-06-26T09:50:51.573Z</time>
      </trkpt>
      <trkpt lat="42.912828" lon="-0.620041">
        <ele>999.4</ele>
        <time>2025-06-26T09:51:41.534Z</time>
      </trkpt>
      <trkpt lat="42.912437" lon="-0.620201">
        <ele>1002.6</ele>
        <time>2025-06-26T09:52:53.693Z</time>
      </trkpt>
      <trkpt lat="42.912158" lon="-0.620145">
        <ele>1001.9</ele>
        <time>2025-06-26T09:53:25.268Z</time>
      </trkpt>
      <trkpt lat="42.911897" lon="-0.619929">
        <ele>998.8</ele>
        <time>2025-06-26T09:54:13.494Z</time>
      </trkpt>
      <trkpt lat="42.911496" lon="-0.618531">
        <ele>1008.0</ele>
        <time>2025-06-26T09:57:32.862Z</time>
      </trkpt>
      <trkpt lat="42.912295" lon="-0.617758">
        <ele>1005.0</ele>
        <time>2025-06-26T09:59:24.090Z</time>
      </trkpt>
      <trkpt lat="42.913376" lon="-0.616965">
        <ele>1008.7</ele>
        <time>2025-06-26T10:01:59.340Z</time>
      </trkpt>
      <trkpt lat="42.913666" lon="-0.616572">
        <ele>1012.5</ele>
        <time>2025-06-26T10:03:18.075Z</time>
      </trkpt>
      <trkpt lat="42.913931" lon="-0.616212">
        <ele>1014.2</ele>
        <time>2025-06-26T10:04:10.535Z</time>
      </trkpt>
      <trkpt lat="42.914177" lon="-0.615976">
        <ele>1014.5</ele>
        <time>2025-06-26T10:04:42.344Z</time>
      </trkpt>
      <trkpt lat="42.914333" lon="-0.615709">
        <ele>1014.5</ele>
        <time>2025-06-26T10:05:11.042Z</time>
      </trkpt>
      <trkpt lat="42.914637" lon="-0.615352">
        <ele>1017.1</ele>
        <time>2025-06-26T10:06:15.262Z</time>
      </trkpt>
      <trkpt lat="42.914401" lon="-0.615178">
        <ele>1020.3</ele>
        <time>2025-06-26T10:07:16.166Z</time>
      </trkpt>
      <trkpt lat="42.914178" lon="-0.615024">
        <ele>1025.9</ele>
        <time>2025-06-26T10:08:38.256Z</time>
      </trkpt>
      <trkpt lat="42.913817" lon="-0.614505">
        <ele>1037.8</ele>
        <time>2025-06-26T10:11:30.487Z</time>
      </trkpt>
      <trkpt lat="42.913680" lon="-0.613994">
        <ele>1054.6</ele>
        <time>2025-06-26T10:15:01.339Z</time>
      </trkpt>
      <trkpt lat="42.913568" lon="-0.613638">
        <ele>1065.4</ele>
        <time>2025-06-26T10:17:20.148Z</time>
      </trkpt>
      <trkpt lat="42.913348" lon="-0.613485">
        <ele>1073.6</ele>
        <time>2025-06-26T10:19:09.019Z</time>
      </trkpt>
      <trkpt lat="42.913327" lon="-0.613146">
        <ele>1083.4</ele>
        <time>2025-06-26T10:21:16.237Z</time>
      </trkpt>
      <trkpt lat="42.913305" lon="-0.612826">
        <ele>1092.1</ele>
        <time>2025-06-26T10:23:08.365Z</time>
      </trkpt>
      <trkpt lat="42.913224" lon="-0.612594">
        <ele>1102.0</ele>
        <time>2025-06-26T10:25:17.181Z</time>
      </trkpt>
      <trkpt lat="42.913279" lon="-0.612224">
        <ele>1111.7</ele>
        <time>2025-06-26T10:27:23.187Z</time>
      </trkpt>
      <trkpt lat="42.913000" lon="-0.612419">
        <ele>1109.8</ele>
        <time>2025-06-26T10:28:11.463Z</time>
      </trkpt>
      <trkpt lat="42.912763" lon="-0.612571">
        <ele>1111.8</ele>
        <time>2025-06-26T10:28:56.874Z</time>
      </trkpt>
      <trkpt lat="42.912549" lon="-0.612703">
        <ele>1114.7</ele>
        <time>2025-06-26T10:29:49.949Z</time>
      </trkpt>
      <trkpt lat="42.912199" lon="-0.612942">
        <ele>1122.0</ele>
        <time>2025-06-26T10:31:42.274Z</time>
      </trkpt>
      <trkpt lat="42.912014" lon="-0.613017">
        <ele>1127.4</ele>
        <time>2025-06-26T10:33:01.448Z</time>
      </trkpt>
      <trkpt lat="42.912067" lon="-0.612567">
        <ele>1133.4</ele>
        <time>2025-06-26T10:34:37.939Z</time>
      </trkpt>
      <trkpt lat="42.912334" lon="-0.612240">
        <ele>1137.8</ele>
        <time>2025-06-26T10:35:57.743Z</time>
      </trkpt>
      <trkpt lat="42.912591" lon="-0.611737">
        <ele>1141.2</ele>
        <time>2025-06-26T10:37:15.564Z</time>
      </trkpt>
      <trkpt lat="42.912752" lon="-0.611449">
        <ele>1150.8</ele>
        <time>2025-06-26T10:39:19.062Z</time>
      </trkpt>
      <trkpt lat="42.912708" lon="-0.611105">
        <ele>1160.5</ele>
        <time>2025-06-26T10:41:25.308Z</time>
      </trkpt>
      <trkpt lat="42.912454" lon="-0.611309">
        <ele>1167.3</ele>
        <time>2025-06-26T10:43:03.990Z</time>
      </trkpt>
      <trkpt lat="42.911540" lon="-0.611949">
        <ele>1190.5</ele>
        <time>2025-06-26T10:48:40.160Z</time>
      </trkpt>
      <trkpt lat="42.911278" lon="-0.612140">
        <ele>1201.0</ele>
        <time>2025-06-26T10:50:56.929Z</time>
      </trkpt>
      <trkpt lat="42.911116" lon="-0.611928">
        <ele>1209.2</ele>
        <time>2025-06-26T10:52:44.162Z</time>
      </trkpt>
      <trkpt lat="42.911535" lon="-0.611432">
        <ele>1208.8</ele>
        <time>2025-06-26T10:53:40.340Z</time>
      </trkpt>
      <trkpt lat="42.911360" lon="-0.611330">
        <ele>1220.7</ele>
        <time>2025-06-26T10:56:30.522Z</time>
      </trkpt>
      <trkpt lat="42.911134" lon="-0.611421">
        <ele>1228.4</ele>
        <time>2025-06-26T10:58:11.555Z</time>
      </trkpt>
      <trkpt lat="42.910856" lon="-0.611431">
        <ele>1237.4</ele>
        <time>2025-06-26T11:00:11.047Z</time>
      </trkpt>
      <trkpt lat="42.910628" lon="-0.611952">
        <ele>1226.4</ele>
        <time>2025-06-26T11:02:02.241Z</time>
      </trkpt>
      <trkpt lat="42.910431" lon="-0.612111">
        <ele>1229.3</ele>
        <time>2025-06-26T11:02:54.797Z</time>
      </trkpt>
      <trkpt lat="42.910492" lon="-0.611904">
        <ele>1233.1</ele>
        <time>2025-06-26T11:04:01.442Z</time>
      </trkpt>
      <trkpt lat="42.910605" lon="-0.611399">
        <ele>1245.8</ele>
        <time>2025-06-26T11:06:50.297Z</time>
      </trkpt>
      <trkpt lat="42.910824" lon="-0.611030">
        <ele>1254.8</ele>
        <time>2025-06-26T11:08:56.059Z</time>
      </trkpt>
      <trkpt lat="42.911030" lon="-0.610515">
        <ele>1263.2</ele>
        <time>2025-06-26T11:11:03.112Z</time>
      </trkpt>
      <trkpt lat="42.911158" lon="-0.610267">
        <ele>1267.3</ele>
        <time>2025-06-26T11:12:07.563Z</time>
      </trkpt>
      <trkpt lat="42.910968" lon="-0.610318">
        <ele>1271.8</ele>
        <time>2025-06-26T11:13:18.532Z</time>
      </trkpt>
      <trkpt lat="42.910795" lon="-0.610565">
        <ele>1270.6</ele>
        <time>2025-06-26T11:13:49.368Z</time>
      </trkpt>
      <trkpt lat="42.910601" lon="-0.610799">
        <ele>1269.4</ele>
        <time>2025-06-26T11:14:21.164Z</time>
      </trkpt>
      <trkpt lat="42.909840" lon="-0.611097">
        <ele>1277.6</ele>
        <time>2025-06-26T11:17:01.074Z</time>
      </trkpt>
      <trkpt lat="42.909574" lon="-0.611014">
        <ele>1284.9</ele>
        <time>2025-06-26T11:18:42.183Z</time>
      </trkpt>
      <trkpt lat="42.909166" lon="-0.611159">
        <ele>1296.0</ele>
        <time>2025-06-26T11:21:17.952Z</time>
      </trkpt>
      <trkpt lat="42.908810" lon="-0.611300">
        <ele>1305.1</ele>
        <time>2025-06-26T11:23:26.808Z</time>
      </trkpt>
      <trkpt lat="42.908590" lon="-0.611470">
        <ele>1311.4</ele>
        <time>2025-06-26T11:24:54.808Z</time>
      </trkpt>
      <trkpt lat="42.908387" lon="-0.611619">
        <ele>1317.3</ele>
        <time>2025-06-26T11:26:20.576Z</time>
      </trkpt>
      <trkpt lat="42.908590" lon="-0.611039">
        <ele>1324.2</ele>
        <time>2025-06-26T11:28:17.113Z</time>
      </trkpt>
      <trkpt lat="42.908829" lon="-0.610781">
        <ele>1326.4</ele>
        <time>2025-06-26T11:29:09.303Z</time>
      </trkpt>
      <trkpt lat="42.909203" lon="-0.610649">
        <ele>1321.4</ele>
        <time>2025-06-26T11:30:16.307Z</time>
      </trkpt>
      <trkpt lat="42.909471" lon="-0.610397">
        <ele>1320.5</ele>
        <time>2025-06-26T11:30:52.664Z</time>
      </trkpt>
      <trkpt lat="42.909775" lon="-0.610163">
        <ele>1325.1</ele>
        <time>2025-06-26T11:32:12.506Z</time>
      </trkpt>
      <trkpt lat="42.910066" lon="-0.609917">
        <ele>1327.9</ele>
        <time>2025-06-26T11:33:14.572Z</time>
      </trkpt>
      <trkpt lat="42.910344" lon="-0.609475">
        <ele>1334.4</ele>
        <time>2025-06-26T11:35:01.798Z</time>
      </trkpt>
      <trkpt lat="42.910341" lon="-0.609186">
        <ele>1339.3</ele>
        <time>2025-06-26T11:36:15.358Z</time>
      </trkpt>
      <trkpt lat="42.910496" lon="-0.608442">
        <ele>1351.5</ele>
        <time>2025-06-26T11:39:15.316Z</time>
      </trkpt>
      <trkpt lat="42.910472" lon="-0.607628">
        <ele>1371.4</ele>
        <time>2025-06-26T11:43:37.129Z</time>
      </trkpt>
      <trkpt lat="42.910169" lon="-0.607414">
        <ele>1386.4</ele>
        <time>2025-06-26T11:46:44.130Z</time>
      </trkpt>
      <trkpt lat="42.909860" lon="-0.607544">
        <ele>1400.7</ele>
        <time>2025-06-26T11:49:41.100Z</time>
      </trkpt>
      <trkpt lat="42.909625" lon="-0.607582">
        <ele>1409.2</ele>
        <time>2025-06-26T11:51:53.401Z</time>
      </trkpt>
      <trkpt lat="42.909638" lon="-0.607172">
        <ele>1419.7</ele>
        <time>2025-06-26T11:54:09.887Z</time>
      </trkpt>
      <trkpt lat="42.909357" lon="-0.607255">
        <ele>1429.7</ele>
        <time>2025-06-26T11:56:20.085Z</time>
      </trkpt>
      <trkpt lat="42.909222" lon="-0.607514">
        <ele>1432.7</ele>
        <time>2025-06-26T11:57:13.068Z</time>
      </trkpt>
      <trkpt lat="42.909216" lon="-0.607235">
        <ele>1435.6</ele>
        <time>2025-06-26T11:58:04.344Z</time>
      </trkpt>
      <trkpt lat="42.908887" lon="-0.607036">
        <ele>1451.4</ele>
        <time>2025-06-26T12:01:22.548Z</time>
      </trkpt>
      <trkpt lat="42.908624" lon="-0.607124">
        <ele>1459.7</ele>
        <time>2025-06-26T12:03:14.580Z</time>
      </trkpt>
      <trkpt lat="42.908146" lon="-0.607482">
        <ele>1465.9</ele>
        <time>2025-06-26T12:05:10.758Z</time>
      </trkpt>
      <trkpt lat="42.907808" lon="-0.607527">
        <ele>1473.2</ele>
        <time>2025-06-26T12:06:57.807Z</time>
      </trkpt>
      <trkpt lat="42.907574" lon="-0.607489">
        <ele>1477.3</ele>
        <time>2025-06-26T12:08:04.147Z</time>
      </trkpt>
      <trkpt lat="42.907008" lon="-0.607707">
        <ele>1484.7</ele>
        <time>2025-06-26T12:10:15.908Z</time>
      </trkpt>
      <trkpt lat="42.906796" lon="-0.607816">
        <ele>1487.6</ele>
        <time>2025-06-26T12:11:07.778Z</time>
      </trkpt>
      <trkpt lat="42.906616" lon="-0.607793">
        <ele>1490.7</ele>
        <time>2025-06-26T12:12:02.373Z</time>
      </trkpt>
      <trkpt lat="42.906699" lon="-0.607419">
        <ele>1498.9</ele>
        <time>2025-06-26T12:13:56.117Z</time>
      </trkpt>
      <trkpt lat="42.906531" lon="-0.607074">
        <ele>1507.1</ele>
        <time>2025-06-26T12:15:49.409Z</time>
      </trkpt>
      <trkpt lat="42.906284" lon="-0.606880">
        <ele>1514.7</ele>
        <time>2025-06-26T12:17:34.529Z</time>
      </trkpt>
      <trkpt lat="42.906208" lon="-0.606446">
        <ele>1521.7</ele>
        <time>2025-06-26T12:19:18.234Z</time>
      </trkpt>
      <trkpt lat="42.905789" lon="-0.606152">
        <ele>1531.1</ele>
        <time>2025-06-26T12:21:39.689Z</time>
      </trkpt>
      <trkpt lat="42.905396" lon="-0.605771">
        <ele>1541.4</ele>
        <time>2025-06-26T12:24:11.514Z</time>
      </trkpt>
      <trkpt lat="42.905064" lon="-0.605598">
        <ele>1552.6</ele>
        <time>2025-06-26T12:26:40.400Z</time>
      </trkpt>
      <trkpt lat="42.904885" lon="-0.605381">
        <ele>1560.1</ele>
        <time>2025-06-26T12:28:19.964Z</time>
      </trkpt>
      <trkpt lat="42.904698" lon="-0.605092">
        <ele>1573.9</ele>
        <time>2025-06-26T12:31:12.675Z</time>
      </trkpt>
      <trkpt lat="42.904595" lon="-0.604727">
        <ele>1586.1</ele>
        <time>2025-06-26T12:33:46.483Z</time>
      </trkpt>
      <trkpt lat="42.904369" lon="-0.604734">
        <ele>1594.7</ele>
        <time>2025-06-26T12:35:36.873Z</time>
      </trkpt>
      <trkpt lat="42.904262" lon="-0.604629">
        <ele>1600.5</ele>
        <time>2025-06-26T12:36:57.753Z</time>
      </trkpt>
      <trkpt lat="42.904379" lon="-0.604315">
        <ele>1604.7</ele>
        <time>2025-06-26T12:38:06.263Z</time>
      </trkpt>
      <trkpt lat="42.904363" lon="-0.603965">
        <ele>1607.6</ele>
        <time>2025-06-26T12:39:01.717Z</time>
      </trkpt>
      <trkpt lat="42.904102" lon="-0.603763">
        <ele>1604.3</ele>
        <time>2025-06-26T12:39:51.556Z</time>
      </trkpt>
      <trkpt lat="42.903866" lon="-0.603519">
        <ele>1597.4</ele>
        <time>2025-06-26T12:41:01.795Z</time>
      </trkpt>
      <trkpt lat="42.903779" lon="-0.603140">
        <ele>1584.7</ele>
        <time>2025-06-26T12:42:45.366Z</time>
      </trkpt>
      <trkpt lat="42.903480" lon="-0.602932">
        <ele>1573.7</ele>
        <time>2025-06-26T12:44:25.869Z</time>
      </trkpt>
      <trkpt lat="42.903285" lon="-0.602554">
        <ele>1566.6</ele>
        <time>2025-06-26T12:45:40.865Z</time>
      </trkpt>
      <trkpt lat="42.903233" lon="-0.602156">
        <ele>1560.7</ele>
        <time>2025-06-26T12:46:48.194Z</time>
      </trkpt>
      <trkpt lat="42.903186" lon="-0.601812">
        <ele>1556.0</ele>
        <time>2025-06-26T12:47:40.537Z</time>
      </trkpt>
      <trkpt lat="42.903072" lon="-0.601468">
        <ele>1549.4</ele>
        <time>2025-06-26T12:48:46.639Z</time>
      </trkpt>
      <trkpt lat="42.903067" lon="-0.601083">
        <ele>1542.6</ele>
        <time>2025-06-26T12:49:54.120Z</time>
      </trkpt>
      <trkpt lat="42.902982" lon="-0.600782">
        <ele>1537.7</ele>
        <time>2025-06-26T12:50:46.261Z</time>
      </trkpt>
      <trkpt lat="42.902880" lon="-0.600291">
        <ele>1529.7</ele>
        <time>2025-06-26T12:52:10.939Z</time>
      </trkpt>
      <trkpt lat="42.902983" lon="-0.599861">
        <ele>1522.6</ele>
        <time>2025-06-26T12:53:25.358Z</time>
      </trkpt>
      <trkpt lat="42.902985" lon="-0.599036">
        <ele>1509.6</ele>
        <time>2025-06-26T12:55:40.848Z</time>
      </trkpt>
      <trkpt lat="42.902705" lon="-0.598497">
        <ele>1505.8</ele>
        <time>2025-06-26T12:56:49.543Z</time>
      </trkpt>
      <trkpt lat="42.901917" lon="-0.597903">
        <ele>1494.5</ele>
        <time>2025-06-26T12:59:23.790Z</time>
      </trkpt>
      <trkpt lat="42.901363" lon="-0.597324">
        <ele>1483.2</ele>
        <time>2025-06-26T13:01:37.800Z</time>
      </trkpt>
      <trkpt lat="42.901318" lon="-0.596951">
        <ele>1479.6</ele>
        <time>2025-06-26T13:02:25.774Z</time>
      </trkpt>
      <trkpt lat="42.901177" lon="-0.596422">
        <ele>1474.3</ele>
        <time>2025-06-26T13:03:37.181Z</time>
      </trkpt>
      <trkpt lat="42.900746" lon="-0.595641">
        <ele>1461.4</ele>
        <time>2025-06-26T13:06:02.740Z</time>
      </trkpt>
      <trkpt lat="42.900242" lon="-0.595338">
        <ele>1454.0</ele>
        <time>2025-06-26T13:07:39.600Z</time>
      </trkpt>
      <trkpt lat="42.900028" lon="-0.594907">
        <ele>1451.7</ele>
        <time>2025-06-26T13:08:32.889Z</time>
      </trkpt>
      <trkpt lat="42.900059" lon="-0.594348">
        <ele>1449.3</ele>
        <time>2025-06-26T13:09:26.097Z</time>
      </trkpt>
      <trkpt lat="42.900207" lon="-0.594103">
        <ele>1447.0</ele>
        <time>2025-06-26T13:10:02.053Z</time>
      </trkpt>
      <trkpt lat="42.900300" lon="-0.593412">
        <ele>1441.9</ele>
        <time>2025-06-26T13:11:21.967Z</time>
      </trkpt>
      <trkpt lat="42.900294" lon="-0.592907">
        <ele>1434.3</ele>
        <time>2025-06-26T13:12:42.730Z</time>
      </trkpt>
      <trkpt lat="42.900790" lon="-0.592376">
        <ele>1422.9</ele>
        <time>2025-06-26T13:14:54.640Z</time>
      </trkpt>
      <trkpt lat="42.900826" lon="-0.591928">
        <ele>1413.6</ele>
        <time>2025-06-26T13:16:31.599Z</time>
      </trkpt>
      <trkpt lat="42.901297" lon="-0.591728">
        <ele>1409.1</ele>
        <time>2025-06-26T13:17:49.086Z</time>
      </trkpt>
      <trkpt lat="42.901787" lon="-0.592413">
        <ele>1406.3</ele>
        <time>2025-06-26T13:19:12.418Z</time>
      </trkpt>
      <trkpt lat="42.902017" lon="-0.592835">
        <ele>1405.9</ele>
        <time>2025-06-26T13:19:51.617Z</time>
      </trkpt>
      <trkpt lat="42.902758" lon="-0.593489">
        <ele>1394.4</ele>
        <time>2025-06-26T13:22:28.896Z</time>
      </trkpt>
      <trkpt lat="42.903440" lon="-0.593518">
        <ele>1378.0</ele>
        <time>2025-06-26T13:25:13.980Z</time>
      </trkpt>
      <trkpt lat="42.903666" lon="-0.593566">
        <ele>1375.5</ele>
        <time>2025-06-26T13:25:50.993Z</time>
      </trkpt>
      <trkpt lat="42.903922" lon="-0.594105">
        <ele>1370.2</ele>
        <time>2025-06-26T13:27:07.450Z</time>
      </trkpt>
      <trkpt lat="42.904168" lon="-0.594382">
        <ele>1366.2</ele>
        <time>2025-06-26T13:28:02.191Z</time>
      </trkpt>
      <trkpt lat="42.904060" lon="-0.594054">
        <ele>1362.8</ele>
        <time>2025-06-26T13:28:47.370Z</time>
      </trkpt>
      <trkpt lat="42.904393" lon="-0.594026">
        <ele>1350.8</ele>
        <time>2025-06-26T13:30:31.395Z</time>
      </trkpt>
      <trkpt lat="42.904643" lon="-0.593830">
        <ele>1340.3</ele>
        <time>2025-06-26T13:32:05.018Z</time>
      </trkpt>
      <trkpt lat="42.904624" lon="-0.593542">
        <ele>1332.9</ele>
        <time>2025-06-26T13:33:13.071Z</time>
      </trkpt>
      <trkpt lat="42.904923" lon="-0.593349">
        <ele>1323.4</ele>
        <time>2025-06-26T13:34:41.916Z</time>
      </trkpt>
      <trkpt lat="42.905037" lon="-0.593018">
        <ele>1310.1</ele>
        <time>2025-06-26T13:36:38.193Z</time>
      </trkpt>
      <trkpt lat="42.904961" lon="-0.592622">
        <ele>1299.0</ele>
        <time>2025-06-26T13:38:13.947Z</time>
      </trkpt>
      <trkpt lat="42.905053" lon="-0.592262">
        <ele>1287.8</ele>
        <time>2025-06-26T13:39:47.612Z</time>
      </trkpt>
      <trkpt lat="42.905590" lon="-0.592092">
        <ele>1272.9</ele>
        <time>2025-06-26T13:42:12.833Z</time>
      </trkpt>
      <trkpt lat="42.905724" lon="-0.592517">
        <ele>1264.6</ele>
        <time>2025-06-26T13:43:37.265Z</time>
      </trkpt>
      <trkpt lat="42.906160" lon="-0.592566">
        <ele>1252.1</ele>
        <time>2025-06-26T13:45:34.565Z</time>
      </trkpt>
      <trkpt lat="42.906585" lon="-0.592491">
        <ele>1238.8</ele>
        <time>2025-06-26T13:47:36.101Z</time>
      </trkpt>
      <trkpt lat="42.906926" lon="-0.592567">
        <ele>1231.1</ele>
        <time>2025-06-26T13:48:55.880Z</time>
      </trkpt>
      <trkpt lat="42.907269" lon="-0.592411">
        <ele>1224.7</ele>
        <time>2025-06-26T13:50:09.132Z</time>
      </trkpt>
      <trkpt lat="42.907475" lon="-0.592264">
        <ele>1221.1</ele>
        <time>2025-06-26T13:50:55.556Z</time>
      </trkpt>
      <trkpt lat="42.907645" lon="-0.592007">
        <ele>1217.0</ele>
        <time>2025-06-26T13:51:44.944Z</time>
      </trkpt>
      <trkpt lat="42.907862" lon="-0.591729">
        <ele>1209.9</ele>
        <time>2025-06-26T13:52:57.677Z</time>
      </trkpt>
      <trkpt lat="42.907660" lon="-0.591733">
        <ele>1201.1</ele>
        <time>2025-06-26T13:54:17.996Z</time>
      </trkpt>
      <trkpt lat="42.907643" lon="-0.591519">
        <ele>1191.0</ele>
        <time>2025-06-26T13:55:47.786Z</time>
      </trkpt>
      <trkpt lat="42.907886" lon="-0.590837">
        <ele>1180.1</ele>
        <time>2025-06-26T13:57:47.421Z</time>
      </trkpt>
      <trkpt lat="42.907654" lon="-0.590895">
        <ele>1170.2</ele>
        <time>2025-06-26T13:59:21.600Z</time>
      </trkpt>
      <trkpt lat="42.907403" lon="-0.590969">
        <ele>1164.1</ele>
        <time>2025-06-26T14:00:22.798Z</time>
      </trkpt>
      <trkpt lat="42.907541" lon="-0.590598">
        <ele>1157.4</ele>
        <time>2025-06-26T14:01:32.507Z</time>
      </trkpt>
      <trkpt lat="42.907623" lon="-0.590262">
        <ele>1152.6</ele>
        <time>2025-06-26T14:02:26.468Z</time>
      </trkpt>
      <trkpt lat="42.907569" lon="-0.590049">
        <ele>1147.8</ele>
        <time>2025-06-26T14:03:20.671Z</time>
      </trkpt>
      <trkpt lat="42.907447" lon="-0.589915">
        <ele>1138.9</ele>
        <time>2025-06-26T14:04:47.663Z</time>
      </trkpt>
      <trkpt lat="42.907547" lon="-0.589221">
        <ele>1118.1</ele>
        <time>2025-06-26T14:07:42.029Z</time>
      </trkpt>
      <trkpt lat="42.907570" lon="-0.588761">
        <ele>1101.8</ele>
        <time>2025-06-26T14:09:51.721Z</time>
      </trkpt>
      <trkpt lat="42.907682" lon="-0.588270">
        <ele>1092.6</ele>
        <time>2025-06-26T14:11:23.128Z</time>
      </trkpt>
      <trkpt lat="42.907796" lon="-0.587963">
        <ele>1087.8</ele>
        <time>2025-06-26T14:12:16.424Z</time>
      </trkpt>
      <trkpt lat="42.907962" lon="-0.587733">
        <ele>1084.6</ele>
        <time>2025-06-26T14:12:58.199Z</time>
      </trkpt>
      <trkpt lat="42.908076" lon="-0.587375">
        <ele>1080.7</ele>
        <time>2025-06-26T14:13:48.590Z</time>
      </trkpt>
      <trkpt lat="42.908328" lon="-0.586253">
        <ele>1058.4</ele>
        <time>2025-06-26T14:17:25.467Z</time>
      </trkpt>
      <trkpt lat="42.908490" lon="-0.585647">
        <ele>1049.9</ele>
        <time>2025-06-26T14:19:01.415Z</time>
      </trkpt>
      <trkpt lat="42.908437" lon="-0.585403">
        <ele>1046.9</ele>
        <time>2025-06-26T14:19:46.998Z</time>
      </trkpt>
      <trkpt lat="42.908287" lon="-0.585732">
        <ele>1042.8</ele>
        <time>2025-06-26T14:20:48.870Z</time>
      </trkpt>
      <trkpt lat="42.908090" lon="-0.586029">
        <ele>1041.6</ele>
        <time>2025-06-26T14:21:23.892Z</time>
      </trkpt>
      <trkpt lat="42.907880" lon="-0.586282">
        <ele>1039.9</ele>
        <time>2025-06-26T14:22:01.231Z</time>
      </trkpt>
      <trkpt lat="42.907448" lon="-0.586603">
        <ele>1034.5</ele>
        <time>2025-06-26T14:23:21.760Z</time>
      </trkpt>
      <trkpt lat="42.907302" lon="-0.586483">
        <ele>1033.0</ele>
        <time>2025-06-26T14:24:08.837Z</time>
      </trkpt>
      <trkpt lat="42.907049" lon="-0.586580">
        <ele>1032.1</ele>
        <time>2025-06-26T14:24:39.883Z</time>
      </trkpt>
      <trkpt lat="42.907062" lon="-0.586223">
        <ele>1025.4</ele>
        <time>2025-06-26T14:25:44.653Z</time>
      </trkpt>
      <trkpt lat="42.907166" lon="-0.585601">
        <ele>1014.1</ele>
        <time>2025-06-26T14:27:39.018Z</time>
      </trkpt>
      <trkpt lat="42.907114" lon="-0.585266">
        <ele>1008.6</ele>
        <time>2025-06-26T14:28:36.284Z</time>
      </trkpt>
      <trkpt lat="42.907062" lon="-0.584373">
        <ele>1000.7</ele>
        <time>2025-06-26T14:30:26.841Z</time>
      </trkpt>
      <trkpt lat="42.906906" lon="-0.583596">
        <ele>973.0</ele>
        <time>2025-06-26T14:34:08.993Z</time>
      </trkpt>
      <trkpt lat="42.906808" lon="-0.583152">
        <ele>948.6</ele>
        <time>2025-06-26T14:37:08.316Z</time>
      </trkpt>
      <trkpt lat="42.906748" lon="-0.582850">
        <ele>937.5</ele>
        <time>2025-06-26T14:38:38.654Z</time>
      </trkpt>
      <trkpt lat="42.906557" lon="-0.582611">
        <ele>930.7</ele>
        <time>2025-06-26T14:39:47.554Z</time>
      </trkpt>
      <trkpt lat="42.906386" lon="-0.582346">
        <ele>923.4</ele>
        <time>2025-06-26T14:40:56.272Z</time>
      </trkpt>
      <trkpt lat="42.906679" lon="-0.582103">
        <ele>913.2</ele>
        <time>2025-06-26T14:42:29.790Z</time>
      </trkpt>
      <trkpt lat="42.907003" lon="-0.581906">
        <ele>903.6</ele>
        <time>2025-06-26T14:44:02.656Z</time>
      </trkpt>
      <trkpt lat="42.907113" lon="-0.581656">
        <ele>898.0</ele>
        <time>2025-06-26T14:45:04.764Z</time>
      </trkpt>
      <trkpt lat="42.907348" lon="-0.582035">
        <ele>896.0</ele>
        <time>2025-06-26T14:45:52.566Z</time>
      </trkpt>
      <trkpt lat="42.907427" lon="-0.581845">
        <ele>890.0</ele>
        <time>2025-06-26T14:46:51.852Z</time>
      </trkpt>
      <trkpt lat="42.907516" lon="-0.581346">
        <ele>876.7</ele>
        <time>2025-06-26T14:48:55.749Z</time>
      </trkpt>
      <trkpt lat="42.907536" lon="-0.580789">
        <ele>863.4</ele>
        <time>2025-06-26T14:50:54.709Z</time>
      </trkpt>
      <trkpt lat="42.907176" lon="-0.580037">
        <ele>859.6</ele>
        <time>2025-06-26T14:52:21.439Z</time>
      </trkpt>
      <trkpt lat="42.907355" lon="-0.579753">
        <ele>855.1</ele>
        <time>2025-06-26T14:53:17.571Z</time>
      </trkpt>
      <trkpt lat="42.907425" lon="-0.580059">
        <ele>851.4</ele>
        <time>2025-06-26T14:54:03.658Z</time>
      </trkpt>
      <trkpt lat="42.907588" lon="-0.580248">
        <ele>847.4</ele>
        <time>2025-06-26T14:54:50.931Z</time>
      </trkpt>
      <trkpt lat="42.907862" lon="-0.579934">
        <ele>841.4</ele>
        <time>2025-06-26T14:56:00.923Z</time>
      </trkpt>
      <trkpt lat="42.908089" lon="-0.579641">
        <ele>840.0</ele>
        <time>2025-06-26T14:56:39.010Z</time>
      </trkpt>
      <trkpt lat="42.908522" lon="-0.579569">
        <ele>838.8</ele>
        <time>2025-06-26T14:57:28.696Z</time>
      </trkpt>
      <trkpt lat="42.908752" lon="-0.579501">
        <ele>838.3</ele>
        <time>2025-06-26T14:57:53.938Z</time>
      </trkpt>
      <trkpt lat="42.909010" lon="-0.579524">
        <ele>836.3</ele>
        <time>2025-06-26T14:58:30.729Z</time>
      </trkpt>
      <trkpt lat="42.908873" lon="-0.579344">
        <ele>834.0</ele>
        <time>2025-06-26T14:59:12.429Z</time>
      </trkpt>
      <trkpt lat="42.908596" lon="-0.579354">
        <ele>831.2</ele>
        <time>2025-06-26T14:59:55.687Z</time>
      </trkpt>
      <trkpt lat="42.908235" lon="-0.579313">
        <ele>827.5</ele>
        <time>2025-06-26T15:00:52.088Z</time>
      </trkpt>
      <trkpt lat="42.907886" lon="-0.579462">
        <ele>827.5</ele>
        <time>2025-06-26T15:01:27.600Z</time>
      </trkpt>
      <trkpt lat="42.907626" lon="-0.579184">
        <ele>820.2</ele>
        <time>2025-06-26T15:02:49.026Z</time>
      </trkpt>
      <trkpt lat="42.907843" lon="-0.579030">
        <ele>813.6</ele>
        <time>2025-06-26T15:03:51.900Z</time>
      </trkpt>
      <trkpt lat="42.907967" lon="-0.578747">
        <ele>804.5</ele>
        <time>2025-06-26T15:05:10.037Z</time>
      </trkpt>
      <trkpt lat="42.908054" lon="-0.578390">
        <ele>787.2</ele>
        <time>2025-06-26T15:07:36.865Z</time>
      </trkpt>
      <trkpt lat="42.907963" lon="-0.578092">
        <ele>789.0</ele>
        <time>2025-06-26T15:08:26.587Z</time>
      </trkpt>
      <trkpt lat="42.907889" lon="-0.577859">
        <ele>788.0</ele>
        <time>2025-06-26T15:08:55.005Z</time>
      </trkpt>
      <trkpt lat="42.908012" lon="-0.577897">
        <ele>782.1</ele>
        <time>2025-06-26T15:09:52.073Z</time>
      </trkpt>
      <trkpt lat="42.907947" lon="-0.577573">
        <ele>773.6</ele>
        <time>2025-06-26T15:11:09.371Z</time>
      </trkpt>
      <trkpt lat="42.908068" lon="-0.577209">
        <ele>762.3</ele>
        <time>2025-06-26T15:12:47.508Z</time>
      </trkpt>
      <trkpt lat="42.908003" lon="-0.576710">
        <ele>751.5</ele>
        <time>2025-06-26T15:14:28.845Z</time>
      </trkpt>
      <trkpt lat="42.907902" lon="-0.576226">
        <ele>742.7</ele>
        <time>2025-06-26T15:15:57.450Z</time>
      </trkpt>
      <trkpt lat="42.907785" lon="-0.575836">
        <ele>732.0</ele>
        <time>2025-06-26T15:17:31.415Z</time>
      </trkpt>
      <trkpt lat="42.907885" lon="-0.575543">
        <ele>724.0</ele>
        <time>2025-06-26T15:18:43.910Z</time>
      </trkpt>
      <trkpt lat="42.908009" lon="-0.575369">
        <ele>718.0</ele>
        <time>2025-06-26T15:19:42.557Z</time>
      </trkpt>
      <trkpt lat="42.908300" lon="-0.575264">
        <ele>709.9</ele>
        <time>2025-06-26T15:21:01.110Z</time>
      </trkpt>
      <trkpt lat="42.908539" lon="-0.575272">
        <ele>702.6</ele>
        <time>2025-06-26T15:22:08.581Z</time>
      </trkpt>
      <trkpt lat="42.908726" lon="-0.575182">
        <ele>694.7</ele>
        <time>2025-06-26T15:23:21.980Z</time>
      </trkpt>
      <trkpt lat="42.908748" lon="-0.574875">
        <ele>689.0</ele>
        <time>2025-06-26T15:24:21.109Z</time>
      </trkpt>
      <trkpt lat="42.908838" lon="-0.574533">
        <ele>683.1</ele>
        <time>2025-06-26T15:25:22.891Z</time>
      </trkpt>
      <trkpt lat="42.908538" lon="-0.574213">
        <ele>678.2</ele>
        <time>2025-06-26T15:26:28.813Z</time>
      </trkpt>
      <trkpt lat="42.908326" lon="-0.573880">
        <ele>674.0</ele>
        <time>2025-06-26T15:27:24.830Z</time>
      </trkpt>
      <trkpt lat="42.908306" lon="-0.573578">
        <ele>667.8</ele>
        <time>2025-06-26T15:28:25.137Z</time>
      </trkpt>
      <trkpt lat="42.908343" lon="-0.573096">
        <ele>658.5</ele>
        <time>2025-06-26T15:29:55.425Z</time>
      </trkpt>
      <trkpt lat="42.908299" lon="-0.572751">
        <ele>653.7</ele>
        <time>2025-06-26T15:30:48.647Z</time>
      </trkpt>
      <trkpt lat="42.908373" lon="-0.572435">
        <ele>648.9</ele>
        <time>2025-06-26T15:31:41.431Z</time>
      </trkpt>
      <trkpt lat="42.908744" lon="-0.572579">
        <ele>648.1</ele>
        <time>2025-06-26T15:32:22.958Z</time>
      </trkpt>
      <trkpt lat="42.909373" lon="-0.572890">
        <ele>650.5</ele>
        <time>2025-06-26T15:33:51.303Z</time>
      </trkpt>
      <trkpt lat="42.909604" lon="-0.573043">
        <ele>649.4</ele>
        <time>2025-06-26T15:34:22.371Z</time>
      </trkpt>
      <trkpt lat="42.909864" lon="-0.573136">
        <ele>648.7</ele>
        <time>2025-06-26T15:34:52.609Z</time>
      </trkpt>
      <trkpt lat="42.909955" lon="-0.573500">
        <ele>649.2</ele>
        <time>2025-06-26T15:35:28.144Z</time>
      </trkpt>
      <trkpt lat="42.910052" lon="-0.573739">
        <ele>649.5</ele>
        <time>2025-06-26T15:35:58.812Z</time>
      </trkpt>
      <trkpt lat="42.910357" lon="-0.573679">
        <ele>649.9</ele>
        <time>2025-06-26T15:36:32.095Z</time>
      </trkpt>
      <trkpt lat="42.910122" lon="-0.573611">
        <ele>642.8</ele>
        <time>2025-06-26T15:37:37.804Z</time>
      </trkpt>
      <trkpt lat="42.910198" lon="-0.573319">
        <ele>635.6</ele>
        <time>2025-06-26T15:38:44.259Z</time>
      </trkpt>
      <trkpt lat="42.910376" lon="-0.573014">
        <ele>623.3</ele>
        <time>2025-06-26T15:40:25.263Z</time>
      </trkpt>
      <trkpt lat="42.910434" lon="-0.572706">
        <ele>613.4</ele>
        <time>2025-06-26T15:41:47.098Z</time>
      </trkpt>
      <trkpt lat="42.910603" lon="-0.572448">
        <ele>611.4</ele>
        <time>2025-06-26T15:42:24.747Z</time>
      </trkpt>
      <trkpt lat="42.910862" lon="-0.572382">
        <ele>609.3</ele>
        <time>2025-06-26T15:43:02.702Z</time>
      </trkpt>
      <trkpt lat="42.911186" lon="-0.572337">
        <ele>605.4</ele>
        <time>2025-06-26T15:43:57.535Z</time>
      </trkpt>
      <trkpt lat="42.911446" lon="-0.572074">
        <ele>600.0</ele>
        <time>2025-06-26T15:45:06.651Z</time>
      </trkpt>
    </trkseg>
  </trk>
</gpx>
