<?xml version="1.0" encoding="UTF-8"?>
<gpx version="1.1" creator="carnet-trek seed (OpenStreetMap, EU-DEM)" xmlns="http://www.topografix.com/GPX/1/1">
  <metadata>
    <name>GR10 – Luz-Saint-Sauveur → Barèges</name>
    <copyright author="OpenStreetMap contributors"><license>https://opendatacommons.org/licenses/odbl/</license></copyright>
  </metadata>
  <wpt lat="42.872108" lon="-0.003459">
    <name>Luz-Saint-Sauveur</name>
    <sym>Convenience Store</sym>
  </wpt>
  <wpt lat="42.891050" lon="0.043419">
    <name>Point culminant (1273 m)</name>
    <sym>Summit</sym>
  </wpt>
  <wpt lat="42.876811" lon="0.013702">
    <name>Auberge de Viella</name>
    <sym>Lodging</sym>
  </wpt>
  <wpt lat="42.890127" lon="0.042662">
    <name>Gîte de Saint-Justin</name>
    <sym>Lodging</sym>
  </wpt>
  <wpt lat="42.897120" lon="0.062747">
    <name>Barèges</name>
    <sym>Convenience Store</sym>
  </wpt>
  <trk>
    <name>GR10 – Luz-Saint-Sauveur → Barèges</name>
    <type>hike</type>
    <trkseg>
      <trkpt lat="42.872108" lon="-0.003459">
        <ele>717.1</ele>
        <time>2025-07-05T07:30:00.000Z</time>
      </trkpt>
      <trkpt lat="42.872400" lon="-0.003326">
        <ele>716.3</ele>
        <time>2025-07-05T07:30:34.691Z</time>
      </trkpt>
      <trkpt lat="42.872647" lon="-0.003116">
        <ele>715.7</ele>
        <time>2025-07-05T07:31:06.964Z</time>
      </trkpt>
      <trkpt lat="42.872972" lon="-0.002966">
        <ele>714.5</ele>
        <time>2025-07-05T07:31:47.506Z</time>
      </trkpt>
      <trkpt lat="42.873137" lon="-0.003205">
        <ele>713.4</ele>
        <time>2025-07-05T07:32:17.112Z</time>
      </trkpt>
      <trkpt lat="42.873378" lon="-0.003267">
        <ele>712.4</ele>
        <time>2025-07-05T07:32:47.661Z</time>
      </trkpt>
      <trkpt lat="42.873648" lon="-0.003234">
        <ele>711.2</ele>
        <time>2025-07-05T07:33:20.230Z</time>
      </trkpt>
      <trkpt lat="42.874255" lon="-0.003154">
        <ele>710.1</ele>
        <time>2025-07-05T07:34:25.334Z</time>
      </trkpt>
      <trkpt lat="42.874462" lon="-0.003146">
        <ele>710.2</ele>
        <time>2025-07-05T07:34:50.768Z</time>
      </trkpt>
      <trkpt lat="42.874845" lon="-0.002831">
        <ele>710.5</ele>
        <time>2025-07-05T07:35:36.139Z</time>
      </trkpt>
      <trkpt lat="42.875106" lon="-0.002599">
        <ele>710.7</ele>
        <time>2025-07-05T07:36:08.918Z</time>
      </trkpt>
      <trkpt lat="42.875394" lon="-0.002415">
        <ele>710.7</ele>
        <time>2025-07-05T07:36:39.465Z</time>
      </trkpt>
      <trkpt lat="42.875646" lon="-0.002272">
        <ele>710.6</ele>
        <time>2025-07-05T07:37:06.071Z</time>
      </trkpt>
      <trkpt lat="42.875821" lon="-0.002153">
        <ele>711.2</ele>
        <time>2025-07-05T07:37:34.939Z</time>
      </trkpt>
      <trkpt lat="42.875787" lon="-0.001826">
        <ele>712.4</ele>
        <time>2025-07-05T07:38:10.089Z</time>
      </trkpt>
      <trkpt lat="42.875617" lon="-0.001627">
        <ele>713.9</ele>
        <time>2025-07-05T07:38:47.154Z</time>
      </trkpt>
      <trkpt lat="42.875327" lon="-0.001494">
        <ele>716.6</ele>
        <time>2025-07-05T07:39:44.856Z</time>
      </trkpt>
      <trkpt lat="42.875142" lon="-0.001270">
        <ele>718.9</ele>
        <time>2025-07-05T07:40:31.615Z</time>
      </trkpt>
      <trkpt lat="42.874859" lon="-0.000977">
        <ele>722.1</ele>
        <time>2025-07-05T07:41:38.337Z</time>
      </trkpt>
      <trkpt lat="42.874777" lon="-0.000487">
        <ele>726.7</ele>
        <time>2025-07-05T07:43:03.145Z</time>
      </trkpt>
      <trkpt lat="42.874997" lon="-0.000439">
        <ele>728.8</ele>
        <time>2025-07-05T07:43:49.941Z</time>
      </trkpt>
      <trkpt lat="42.875036" lon="-0.000279">
        <ele>730.4</ele>
        <time>2025-07-05T07:44:28.978Z</time>
      </trkpt>
      <trkpt lat="42.875292" lon="-0.000250">
        <ele>733.3</ele>
        <time>2025-07-05T07:45:22.948Z</time>
      </trkpt>
      <trkpt lat="42.875352" lon="-0.000061">
        <ele>736.0</ele>
        <time>2025-07-05T07:46:12.467Z</time>
      </trkpt>
      <trkpt lat="42.875586" lon="0.000053">
        <ele>740.8</ele>
        <time>2025-07-05T07:47:28.551Z</time>
      </trkpt>
      <trkpt lat="42.875894" lon="0.000353">
        <ele>747.5</ele>
        <time>2025-07-05T07:49:14.260Z</time>
      </trkpt>
      <trkpt lat="42.876128" lon="0.000633">
        <ele>754.2</ele>
        <time>2025-07-05T07:50:52.584Z</time>
      </trkpt>
      <trkpt lat="42.876137" lon="0.000996">
        <ele>759.6</ele>
        <time>2025-07-05T07:52:14.030Z</time>
      </trkpt>
      <trkpt lat="42.876241" lon="0.001390">
        <ele>764.9</ele>
        <time>2025-07-05T07:53:39.602Z</time>
      </trkpt>
      <trkpt lat="42.876364" lon="0.001761">
        <ele>769.9</ele>
        <time>2025-07-05T07:54:58.883Z</time>
      </trkpt>
      <trkpt lat="42.876482" lon="0.002244">
        <ele>777.6</ele>
        <time>2025-07-05T07:56:54.439Z</time>
      </trkpt>
      <trkpt lat="42.876579" lon="0.002573">
        <ele>782.2</ele>
        <time>2025-07-05T07:58:06.600Z</time>
      </trkpt>
      <trkpt lat="42.876666" lon="0.002879">
        <ele>784.8</ele>
        <time>2025-07-05T07:58:56.872Z</time>
      </trkpt>
      <trkpt lat="42.876647" lon="0.003191">
        <ele>787.1</ele>
        <time>2025-07-05T07:59:42.845Z</time>
      </trkpt>
      <trkpt lat="42.876638" lon="0.004023">
        <ele>787.2</ele>
        <time>2025-07-05T08:00:41.584Z</time>
      </trkpt>
      <trkpt lat="42.876677" lon="0.004417">
        <ele>791.1</ele>
        <time>2025-07-05T08:01:49.309Z</time>
      </trkpt>
      <trkpt lat="42.876745" lon="0.004751">
        <ele>794.5</ele>
        <time>2025-07-05T08:02:48.500Z</time>
      </trkpt>
      <trkpt lat="42.876751" lon="0.005301">
        <ele>797.4</ele>
        <time>2025-07-05T08:03:56.890Z</time>
      </trkpt>
      <trkpt lat="42.876820" lon="0.005597">
        <ele>799.0</ele>
        <time>2025-07-05T08:04:35.369Z</time>
      </trkpt>
      <trkpt lat="42.876863" lon="0.005991">
        <ele>795.1</ele>
        <time>2025-07-05T08:05:26.781Z</time>
      </trkpt>
      <trkpt lat="42.876783" lon="0.006403">
        <ele>790.8</ele>
        <time>2025-07-05T08:06:22.312Z</time>
      </trkpt>
      <trkpt lat="42.876788" lon="0.007007">
        <ele>786.5</ele>
        <time>2025-07-05T08:07:31.101Z</time>
      </trkpt>
      <trkpt lat="42.876675" lon="0.006659">
        <ele>783.7</ele>
        <time>2025-07-05T08:08:14.076Z</time>
      </trkpt>
      <trkpt lat="42.876624" lon="0.006085">
        <ele>786.0</ele>
        <time>2025-07-05T08:09:17.605Z</time>
      </trkpt>
      <trkpt lat="42.876274" lon="0.005832">
        <ele>774.1</ele>
        <time>2025-07-05T08:11:11.293Z</time>
      </trkpt>
      <trkpt lat="42.875969" lon="0.005766">
        <ele>765.7</ele>
        <time>2025-07-05T08:12:31.154Z</time>
      </trkpt>
      <trkpt lat="42.875701" lon="0.005941">
        <ele>759.1</ele>
        <time>2025-07-05T08:13:42.120Z</time>
      </trkpt>
      <trkpt lat="42.875257" lon="0.006239">
        <ele>756.9</ele>
        <time>2025-07-05T08:14:43.078Z</time>
      </trkpt>
      <trkpt lat="42.875048" lon="0.006369">
        <ele>757.8</ele>
        <time>2025-07-05T08:15:14.857Z</time>
      </trkpt>
      <trkpt lat="42.875185" lon="0.006666">
        <ele>759.1</ele>
        <time>2025-07-05T08:15:56.041Z</time>
      </trkpt>
      <trkpt lat="42.875593" lon="0.007262">
        <ele>765.8</ele>
        <time>2025-07-05T08:18:02.152Z</time>
      </trkpt>
      <trkpt lat="42.876047" lon="0.007926">
        <ele>773.0</ele>
        <time>2025-07-05T08:20:19.882Z</time>
      </trkpt>
      <trkpt lat="42.876187" lon="0.008422">
        <ele>779.1</ele>
        <time>2025-07-05T08:22:04.023Z</time>
      </trkpt>
      <trkpt lat="42.876310" lon="0.008981">
        <ele>784.8</ele>
        <time>2025-07-05T08:23:42.727Z</time>
      </trkpt>
      <trkpt lat="42.876467" lon="0.009553">
        <ele>790.4</ele>
        <time>2025-07-05T08:25:24.552Z</time>
      </trkpt>
      <trkpt lat="42.876440" lon="0.010028">
        <ele>796.0</ele>
        <time>2025-07-05T08:26:55.194Z</time>
      </trkpt>
      <trkpt lat="42.876450" lon="0.010377">
        <ele>800.0</ele>
        <time>2025-07-05T08:28:01.234Z</time>
      </trkpt>
      <trkpt lat="42.876547" lon="0.010914">
        <ele>805.2</ele>
        <time>2025-07-05T08:29:32.712Z</time>
      </trkpt>
      <trkpt lat="42.876721" lon="0.011530">
        <ele>812.5</ele>
        <time>2025-07-05T08:31:34.178Z</time>
      </trkpt>
      <trkpt lat="42.876755" lon="0.011924">
        <ele>817.4</ele>
        <time>2025-07-05T08:32:52.317Z</time>
      </trkpt>
      <trkpt lat="42.876770" lon="0.012233">
        <ele>822.4</ele>
        <time>2025-07-05T08:34:06.375Z</time>
      </trkpt>
      <trkpt lat="42.876802" lon="0.012672">
        <ele>829.9</ele>
        <time>2025-07-05T08:35:58.095Z</time>
      </trkpt>
      <trkpt lat="42.876976" lon="0.012989">
        <ele>830.4</ele>
        <time>2025-07-05T08:36:32.052Z</time>
      </trkpt>
      <trkpt lat="42.877059" lon="0.013280">
        <ele>831.8</ele>
        <time>2025-07-05T08:37:10.258Z</time>
      </trkpt>
      <trkpt lat="42.876846" lon="0.013482">
        <ele>837.2</ele>
        <time>2025-07-05T08:38:30.215Z</time>
      </trkpt>
      <trkpt lat="42.876883" lon="0.013639">
        <ele>841.0</ele>
        <time>2025-07-05T08:39:32.857Z</time>
      </trkpt>
      <trkpt lat="42.877205" lon="0.014174">
        <ele>835.5</ele>
        <time>2025-07-05T08:40:54.554Z</time>
      </trkpt>
      <trkpt lat="42.877262" lon="0.014553">
        <ele>840.8</ele>
        <time>2025-07-05T08:42:17.162Z</time>
      </trkpt>
      <trkpt lat="42.877035" lon="0.014811">
        <ele>846.7</ele>
        <time>2025-07-05T08:43:47.604Z</time>
      </trkpt>
      <trkpt lat="42.876952" lon="0.015073">
        <ele>845.9</ele>
        <time>2025-07-05T08:44:15.545Z</time>
      </trkpt>
      <trkpt lat="42.877186" lon="0.015226">
        <ele>845.1</ele>
        <time>2025-07-05T08:44:45.543Z</time>
      </trkpt>
      <trkpt lat="42.877428" lon="0.015401">
        <ele>841.7</ele>
        <time>2025-07-05T08:45:32.539Z</time>
      </trkpt>
      <trkpt lat="42.877592" lon="0.015883">
        <ele>836.8</ele>
        <time>2025-07-05T08:46:39.298Z</time>
      </trkpt>
      <trkpt lat="42.877653" lon="0.016282">
        <ele>836.7</ele>
        <time>2025-07-05T08:47:08.449Z</time>
      </trkpt>
      <trkpt lat="42.877707" lon="0.016696">
        <ele>836.5</ele>
        <time>2025-07-05T08:47:38.499Z</time>
      </trkpt>
      <trkpt lat="42.877766" lon="0.017076">
        <ele>835.8</ele>
        <time>2025-07-05T08:48:10.044Z</time>
      </trkpt>
      <trkpt lat="42.877943" lon="0.017890">
        <ele>834.2</ele>
        <time>2025-07-05T08:49:18.816Z</time>
      </trkpt>
      <trkpt lat="42.878126" lon="0.018707">
        <ele>834.3</ele>
        <time>2025-07-05T08:50:19.640Z</time>
      </trkpt>
      <trkpt lat="42.878214" lon="0.019235">
        <ele>835.6</ele>
        <time>2025-07-05T08:51:10.132Z</time>
      </trkpt>
      <trkpt lat="42.878321" lon="0.019526">
        <ele>836.9</ele>
        <time>2025-07-05T08:51:46.591Z</time>
      </trkpt>
      <trkpt lat="42.878480" lon="0.020583">
        <ele>842.7</ele>
        <time>2025-07-05T08:54:07.938Z</time>
      </trkpt>
      <trkpt lat="42.878513" lon="0.021492">
        <ele>850.6</ele>
        <time>2025-07-05T08:56:31.994Z</time>
      </trkpt>
      <trkpt lat="42.878535" lon="0.022026">
        <ele>854.7</ele>
        <time>2025-07-05T08:57:52.217Z</time>
      </trkpt>
      <trkpt lat="42.878667" lon="0.022242">
        <ele>855.2</ele>
        <time>2025-07-05T08:58:24.450Z</time>
      </trkpt>
      <trkpt lat="42.878933" lon="0.022271">
        <ele>852.4</ele>
        <time>2025-07-05T08:59:06.577Z</time>
      </trkpt>
      <trkpt lat="42.879405" lon="0.022335">
        <ele>854.6</ele>
        <time>2025-07-05T09:00:14.518Z</time>
      </trkpt>
      <trkpt lat="42.879740" lon="0.022321">
        <ele>857.0</ele>
        <time>2025-07-05T09:01:11.103Z</time>
      </trkpt>
      <trkpt lat="42.879890" lon="0.022076">
        <ele>861.7</ele>
        <time>2025-07-05T09:02:21.933Z</time>
      </trkpt>
      <trkpt lat="42.880080" lon="0.022468">
        <ele>868.8</ele>
        <time>2025-07-05T09:04:11.494Z</time>
      </trkpt>
      <trkpt lat="42.880107" lon="0.022856">
        <ele>870.1</ele>
        <time>2025-07-05T09:04:51.480Z</time>
      </trkpt>
      <trkpt lat="42.880050" lon="0.023188">
        <ele>871.1</ele>
        <time>2025-07-05T09:05:26.260Z</time>
      </trkpt>
      <trkpt lat="42.880100" lon="0.023499">
        <ele>876.8</ele>
        <time>2025-07-05T09:06:48.135Z</time>
      </trkpt>
      <trkpt lat="42.880298" lon="0.023299">
        <ele>882.9</ele>
        <time>2025-07-05T09:08:15.428Z</time>
      </trkpt>
      <trkpt lat="42.880410" lon="0.023637">
        <ele>887.6</ele>
        <time>2025-07-05T09:09:32.147Z</time>
      </trkpt>
      <trkpt lat="42.880462" lon="0.023969">
        <ele>893.1</ele>
        <time>2025-07-05T09:10:52.136Z</time>
      </trkpt>
      <trkpt lat="42.880634" lon="0.023775">
        <ele>904.2</ele>
        <time>2025-07-05T09:13:08.724Z</time>
      </trkpt>
      <trkpt lat="42.880877" lon="0.023475">
        <ele>919.2</ele>
        <time>2025-07-05T09:16:15.944Z</time>
      </trkpt>
      <trkpt lat="42.881025" lon="0.023596">
        <ele>929.6</ele>
        <time>2025-07-05T09:18:30.388Z</time>
      </trkpt>
      <trkpt lat="42.881243" lon="0.023761">
        <ele>941.3</ele>
        <time>2025-07-05T09:20:56.017Z</time>
      </trkpt>
      <trkpt lat="42.881536" lon="0.023803">
        <ele>955.4</ele>
        <time>2025-07-05T09:23:50.424Z</time>
      </trkpt>
      <trkpt lat="42.881751" lon="0.023735">
        <ele>964.2</ele>
        <time>2025-07-05T09:25:43.495Z</time>
      </trkpt>
      <trkpt lat="42.881949" lon="0.023790">
        <ele>972.6</ele>
        <time>2025-07-05T09:27:32.372Z</time>
      </trkpt>
      <trkpt lat="42.882182" lon="0.023741">
        <ele>981.2</ele>
        <time>2025-07-05T09:29:24.644Z</time>
      </trkpt>
      <trkpt lat="42.882513" lon="0.023905">
        <ele>989.6</ele>
        <time>2025-07-05T09:31:25.408Z</time>
      </trkpt>
      <trkpt lat="42.882539" lon="0.024241">
        <ele>992.1</ele>
        <time>2025-07-05T09:32:16.774Z</time>
      </trkpt>
      <trkpt lat="42.882407" lon="0.024730">
        <ele>987.8</ele>
        <time>2025-07-05T09:33:18.988Z</time>
      </trkpt>
      <trkpt lat="42.882370" lon="0.025281">
        <ele>984.2</ele>
        <time>2025-07-05T09:34:19.567Z</time>
      </trkpt>
      <trkpt lat="42.882375" lon="0.025721">
        <ele>983.3</ele>
        <time>2025-07-05T09:34:55.715Z</time>
      </trkpt>
      <trkpt lat="42.882451" lon="0.026097">
        <ele>988.1</ele>
        <time>2025-07-05T09:36:12.700Z</time>
      </trkpt>
      <trkpt lat="42.882688" lon="0.026509">
        <ele>994.3</ele>
        <time>2025-07-05T09:37:52.912Z</time>
      </trkpt>
      <trkpt lat="42.882791" lon="0.026787">
        <ele>994.4</ele>
        <time>2025-07-05T09:38:15.844Z</time>
      </trkpt>
      <trkpt lat="42.882842" lon="0.027198">
        <ele>994.5</ele>
        <time>2025-07-05T09:38:47.020Z</time>
      </trkpt>
      <trkpt lat="42.882981" lon="0.027493">
        <ele>997.6</ele>
        <time>2025-07-05T09:39:43.141Z</time>
      </trkpt>
      <trkpt lat="42.883234" lon="0.027800">
        <ele>1000.3</ele>
        <time>2025-07-05T09:40:43.754Z</time>
      </trkpt>
      <trkpt lat="42.883369" lon="0.028173">
        <ele>1001.1</ele>
        <time>2025-07-05T09:41:21.323Z</time>
      </trkpt>
      <trkpt lat="42.883433" lon="0.028543">
        <ele>1001.9</ele>
        <time>2025-07-05T09:41:55.930Z</time>
      </trkpt>
      <trkpt lat="42.883573" lon="0.028768">
        <ele>1002.5</ele>
        <time>2025-07-05T09:42:24.759Z</time>
      </trkpt>
      <trkpt lat="42.883713" lon="0.028755">
        <ele>1006.2</ele>
        <time>2025-07-05T09:43:25.098Z</time>
      </trkpt>
      <trkpt lat="42.883864" lon="0.028828">
        <ele>1012.9</ele>
        <time>2025-07-05T09:45:00.495Z</time>
      </trkpt>
      <trkpt lat="42.883899" lon="0.028666">
        <ele>1019.0</ele>
        <time>2025-07-05T09:46:31.416Z</time>
      </trkpt>
      <trkpt lat="42.884098" lon="0.028956">
        <ele>1025.6</ele>
        <time>2025-07-05T09:48:12.272Z</time>
      </trkpt>
      <trkpt lat="42.884312" lon="0.029229">
        <ele>1031.3</ele>
        <time>2025-07-05T09:49:39.228Z</time>
      </trkpt>
      <trkpt lat="42.884500" lon="0.029458">
        <ele>1036.3</ele>
        <time>2025-07-05T09:50:54.201Z</time>
      </trkpt>
      <trkpt lat="42.884785" lon="0.029898">
        <ele>1043.0</ele>
        <time>2025-07-05T09:52:43.976Z</time>
      </trkpt>
      <trkpt lat="42.885071" lon="0.030047">
        <ele>1050.9</ele>
        <time>2025-07-05T09:54:35.219Z</time>
      </trkpt>
      <trkpt lat="42.885353" lon="0.030365">
        <ele>1062.9</ele>
        <time>2025-07-05T09:57:14.285Z</time>
      </trkpt>
      <trkpt lat="42.885520" lon="0.030618">
        <ele>1066.6</ele>
        <time>2025-07-05T09:58:16.019Z</time>
      </trkpt>
      <trkpt lat="42.885905" lon="0.031135">
        <ele>1074.6</ele>
        <time>2025-07-05T10:00:29.686Z</time>
      </trkpt>
      <trkpt lat="42.886156" lon="0.031359">
        <ele>1084.6</ele>
        <time>2025-07-05T10:02:41.033Z</time>
      </trkpt>
      <trkpt lat="42.886190" lon="0.031623">
        <ele>1085.7</ele>
        <time>2025-07-05T10:03:20.736Z</time>
      </trkpt>
      <trkpt lat="42.886112" lon="0.031982">
        <ele>1076.6</ele>
        <time>2025-07-05T10:04:44.527Z</time>
      </trkpt>
      <trkpt lat="42.886114" lon="0.032382">
        <ele>1075.3</ele>
        <time>2025-07-05T10:05:19.866Z</time>
      </trkpt>
      <trkpt lat="42.886252" lon="0.032780">
        <ele>1079.5</ele>
        <time>2025-07-05T10:06:33.538Z</time>
      </trkpt>
      <trkpt lat="42.886161" lon="0.033060">
        <ele>1076.3</ele>
        <time>2025-07-05T10:07:15.684Z</time>
      </trkpt>
      <trkpt lat="42.886117" lon="0.033397">
        <ele>1072.9</ele>
        <time>2025-07-05T10:08:00.021Z</time>
      </trkpt>
      <trkpt lat="42.886152" lon="0.033703">
        <ele>1078.8</ele>
        <time>2025-07-05T10:09:22.349Z</time>
      </trkpt>
      <trkpt lat="42.886401" lon="0.033874">
        <ele>1086.3</ele>
        <time>2025-07-05T10:11:07.505Z</time>
      </trkpt>
      <trkpt lat="42.886614" lon="0.034148">
        <ele>1094.3</ele>
        <time>2025-07-05T10:12:57.151Z</time>
      </trkpt>
      <trkpt lat="42.886715" lon="0.034507">
        <ele>1101.8</ele>
        <time>2025-07-05T10:14:42.102Z</time>
      </trkpt>
      <trkpt lat="42.886712" lon="0.034852">
        <ele>1100.1</ele>
        <time>2025-07-05T10:15:16.948Z</time>
      </trkpt>
      <trkpt lat="42.886576" lon="0.035324">
        <ele>1097.4</ele>
        <time>2025-07-05T10:16:08.366Z</time>
      </trkpt>
      <trkpt lat="42.886540" lon="0.035820">
        <ele>1105.5</ele>
        <time>2025-07-05T10:18:10.337Z</time>
      </trkpt>
      <trkpt lat="42.886632" lon="0.036155">
        <ele>1110.8</ele>
        <time>2025-07-05T10:19:29.795Z</time>
      </trkpt>
      <trkpt lat="42.886695" lon="0.036478">
        <ele>1115.6</ele>
        <time>2025-07-05T10:20:42.054Z</time>
      </trkpt>
      <trkpt lat="42.886666" lon="0.036929">
        <ele>1122.0</ele>
        <time>2025-07-05T10:22:19.467Z</time>
      </trkpt>
      <trkpt lat="42.886651" lon="0.037265">
        <ele>1125.8</ele>
        <time>2025-07-05T10:23:22.849Z</time>
      </trkpt>
      <trkpt lat="42.886783" lon="0.037628">
        <ele>1130.4</ele>
        <time>2025-07-05T10:24:38.545Z</time>
      </trkpt>
      <trkpt lat="42.886972" lon="0.037806">
        <ele>1133.8</ele>
        <time>2025-07-05T10:25:41.606Z</time>
      </trkpt>
      <trkpt lat="42.887035" lon="0.038111">
        <ele>1136.5</ele>
        <time>2025-07-05T10:26:33.533Z</time>
      </trkpt>
      <trkpt lat="42.887327" lon="0.038534">
        <ele>1140.2</ele>
        <time>2025-07-05T10:27:53.334Z</time>
      </trkpt>
      <trkpt lat="42.887676" lon="0.038972">
        <ele>1139.2</ele>
        <time>2025-07-05T10:28:44.965Z</time>
      </trkpt>
      <trkpt lat="42.888056" lon="0.039153">
        <ele>1144.3</ele>
        <time>2025-07-05T10:30:15.765Z</time>
      </trkpt>
      <trkpt lat="42.888386" lon="0.039070">
        <ele>1153.9</ele>
        <time>2025-07-05T10:32:27.858Z</time>
      </trkpt>
      <trkpt lat="42.888708" lon="0.038994">
        <ele>1164.7</ele>
        <time>2025-07-05T10:34:50.676Z</time>
      </trkpt>
      <trkpt lat="42.888936" lon="0.039030">
        <ele>1163.3</ele>
        <time>2025-07-05T10:35:21.150Z</time>
      </trkpt>
      <trkpt lat="42.889321" lon="0.039421">
        <ele>1160.3</ele>
        <time>2025-07-05T10:36:25.284Z</time>
      </trkpt>
      <trkpt lat="42.889564" lon="0.039494">
        <ele>1161.9</ele>
        <time>2025-07-05T10:37:07.401Z</time>
      </trkpt>
      <trkpt lat="42.889803" lon="0.039378">
        <ele>1163.4</ele>
        <time>2025-07-05T10:37:47.331Z</time>
      </trkpt>
      <trkpt lat="42.890121" lon="0.039301">
        <ele>1167.0</ele>
        <time>2025-07-05T10:38:55.385Z</time>
      </trkpt>
      <trkpt lat="42.890390" lon="0.039331">
        <ele>1170.0</ele>
        <time>2025-07-05T10:39:51.603Z</time>
      </trkpt>
      <trkpt lat="42.890670" lon="0.039349">
        <ele>1177.5</ele>
        <time>2025-07-05T10:41:35.431Z</time>
      </trkpt>
      <trkpt lat="42.891003" lon="0.039299">
        <ele>1184.8</ele>
        <time>2025-07-05T10:43:22.351Z</time>
      </trkpt>
      <trkpt lat="42.891251" lon="0.039318">
        <ele>1188.8</ele>
        <time>2025-07-05T10:44:27.274Z</time>
      </trkpt>
      <trkpt lat="42.891542" lon="0.039249">
        <ele>1193.2</ele>
        <time>2025-07-05T10:45:45.135Z</time>
      </trkpt>
      <trkpt lat="42.891654" lon="0.039458">
        <ele>1196.6</ele>
        <time>2025-07-05T10:46:46.391Z</time>
      </trkpt>
      <trkpt lat="42.891474" lon="0.039654">
        <ele>1199.1</ele>
        <time>2025-07-05T10:47:34.393Z</time>
      </trkpt>
      <trkpt lat="42.891232" lon="0.040057">
        <ele>1199.1</ele>
        <time>2025-07-05T10:48:11.363Z</time>
      </trkpt>
      <trkpt lat="42.891024" lon="0.040189">
        <ele>1196.9</ele>
        <time>2025-07-05T10:48:45.941Z</time>
      </trkpt>
      <trkpt lat="42.890802" lon="0.040398">
        <ele>1197.6</ele>
        <time>2025-07-05T10:49:19.764Z</time>
      </trkpt>
      <trkpt lat="42.890620" lon="0.040642">
        <ele>1202.3</ele>
        <time>2025-07-05T10:50:32.617Z</time>
      </trkpt>
      <trkpt lat="42.890390" lon="0.041028">
        <ele>1211.6</ele>
        <time>2025-07-05T10:52:42.508Z</time>
      </trkpt>
      <trkpt lat="42.890357" lon="0.041193">
        <ele>1219.8</ele>
        <time>2025-07-05T10:54:31.607Z</time>
      </trkpt>
      <trkpt lat="42.890176" lon="0.041399">
        <ele>1227.6</ele>
        <time>2025-07-05T10:56:13.659Z</time>
      </trkpt>
      <trkpt lat="42.890288" lon="0.041502">
        <ele>1230.2</ele>
        <time>2025-07-05T10:57:04.305Z</time>
      </trkpt>
      <trkpt lat="42.889972" lon="0.041658">
        <ele>1233.8</ele>
        <time>2025-07-05T10:58:13.467Z</time>
      </trkpt>
      <trkpt lat="42.889701" lon="0.041869">
        <ele>1236.4</ele>
        <time>2025-07-05T10:59:09.865Z</time>
      </trkpt>
      <trkpt lat="42.889611" lon="0.042114">
        <ele>1241.3</ele>
        <time>2025-07-05T11:00:25.718Z</time>
      </trkpt>
      <trkpt lat="42.889813" lon="0.042257">
        <ele>1250.4</ele>
        <time>2025-07-05T11:02:21.704Z</time>
      </trkpt>
      <trkpt lat="42.890015" lon="0.042598">
        <ele>1257.5</ele>
        <time>2025-07-05T11:04:05.531Z</time>
      </trkpt>
      <trkpt lat="42.890156" lon="0.042864">
        <ele>1260.3</ele>
        <time>2025-07-05T11:04:57.708Z</time>
      </trkpt>
      <trkpt lat="42.890342" lon="0.043084">
        <ele>1264.0</ele>
        <time>2025-07-05T11:05:59.046Z</time>
      </trkpt>
      <trkpt lat="42.890589" lon="0.043206">
        <ele>1268.6</ele>
        <time>2025-07-05T11:07:12.343Z</time>
      </trkpt>
      <trkpt lat="42.890849" lon="0.043257">
        <ele>1271.8</ele>
        <time>2025-07-05T11:08:10.481Z</time>
      </trkpt>
      <trkpt lat="42.891050" lon="0.043419">
        <ele>1272.7</ele>
        <time>2025-07-05T11:08:41.886Z</time>
      </trkpt>
      <trkpt lat="42.891173" lon="0.043688">
        <ele>1272.2</ele>
        <time>2025-07-05T11:09:07.471Z</time>
      </trkpt>
      <trkpt lat="42.891353" lon="0.044054">
        <ele>1264.9</ele>
        <time>2025-07-05T11:10:22.070Z</time>
      </trkpt>
      <trkpt lat="42.891506" lon="0.044316">
        <ele>1259.4</ele>
        <time>2025-07-05T11:11:18.557Z</time>
      </trkpt>
      <trkpt lat="42.891758" lon="0.044635">
        <ele>1259.3</ele>
        <time>2025-07-05T11:11:51.713Z</time>
      </trkpt>
      <trkpt lat="42.892191" lon="0.044990">
        <ele>1262.2</ele>
        <time>2025-07-05T11:13:09.434Z</time>
      </trkpt>
      <trkpt lat="42.892577" lon="0.045548">
        <ele>1261.8</ele>
        <time>2025-07-05T11:14:05.390Z</time>
      </trkpt>
      <trkpt lat="42.892894" lon="0.046092">
        <ele>1258.4</ele>
        <time>2025-07-05T11:15:14.097Z</time>
      </trkpt>
      <trkpt lat="42.893025" lon="0.046349">
        <ele>1256.3</ele>
        <time>2025-07-05T11:15:48.609Z</time>
      </trkpt>
      <trkpt lat="42.893172" lon="0.046652">
        <ele>1253.9</ele>
        <time>2025-07-05T11:16:28.845Z</time>
      </trkpt>
      <trkpt lat="42.893307" lon="0.046891">
        <ele>1251.3</ele>
        <time>2025-07-05T11:17:06.302Z</time>
      </trkpt>
      <trkpt lat="42.893418" lon="0.047205">
        <ele>1248.3</ele>
        <time>2025-07-05T11:17:48.711Z</time>
      </trkpt>
      <trkpt lat="42.893517" lon="0.047531">
        <ele>1245.1</ele>
        <time>2025-07-05T11:18:32.894Z</time>
      </trkpt>
      <trkpt lat="42.893659" lon="0.047868">
        <ele>1241.6</ele>
        <time>2025-07-05T11:19:21.327Z</time>
      </trkpt>
      <trkpt lat="42.893791" lon="0.048128">
        <ele>1241.5</ele>
        <time>2025-07-05T11:19:43.999Z</time>
      </trkpt>
      <trkpt lat="42.894098" lon="0.048817">
        <ele>1241.3</ele>
        <time>2025-07-05T11:20:41.742Z</time>
      </trkpt>
      <trkpt lat="42.894221" lon="0.049074">
        <ele>1236.7</ele>
        <time>2025-07-05T11:21:30.852Z</time>
      </trkpt>
      <trkpt lat="42.894148" lon="0.049459">
        <ele>1230.7</ele>
        <time>2025-07-05T11:22:34.659Z</time>
      </trkpt>
      <trkpt lat="42.894342" lon="0.049570">
        <ele>1242.3</ele>
        <time>2025-07-05T11:24:56.743Z</time>
      </trkpt>
      <trkpt lat="42.894613" lon="0.049640">
        <ele>1255.2</ele>
        <time>2025-07-05T11:27:36.422Z</time>
      </trkpt>
      <trkpt lat="42.894783" lon="0.049992">
        <ele>1251.9</ele>
        <time>2025-07-05T11:28:26.982Z</time>
      </trkpt>
      <trkpt lat="42.894715" lon="0.050324">
        <ele>1249.4</ele>
        <time>2025-07-05T11:29:06.124Z</time>
      </trkpt>
      <trkpt lat="42.894768" lon="0.050673">
        <ele>1250.8</ele>
        <time>2025-07-05T11:29:48.371Z</time>
      </trkpt>
      <trkpt lat="42.894933" lon="0.051091">
        <ele>1247.9</ele>
        <time>2025-07-05T11:30:39.465Z</time>
      </trkpt>
      <trkpt lat="42.894926" lon="0.051521">
        <ele>1241.5</ele>
        <time>2025-07-05T11:31:47.994Z</time>
      </trkpt>
      <trkpt lat="42.895028" lon="0.051994">
        <ele>1234.7</ele>
        <time>2025-07-05T11:33:03.315Z</time>
      </trkpt>
      <trkpt lat="42.895281" lon="0.052391">
        <ele>1232.7</ele>
        <time>2025-07-05T11:33:52.877Z</time>
      </trkpt>
      <trkpt lat="42.895458" lon="0.052733">
        <ele>1235.9</ele>
        <time>2025-07-05T11:34:54.848Z</time>
      </trkpt>
      <trkpt lat="42.895532" lon="0.053002">
        <ele>1233.7</ele>
        <time>2025-07-05T11:35:30.696Z</time>
      </trkpt>
      <trkpt lat="42.895694" lon="0.053372">
        <ele>1230.7</ele>
        <time>2025-07-05T11:36:19.125Z</time>
      </trkpt>
      <trkpt lat="42.895899" lon="0.053490">
        <ele>1239.7</ele>
        <time>2025-07-05T11:38:13.841Z</time>
      </trkpt>
      <trkpt lat="42.896164" lon="0.053421">
        <ele>1250.1</ele>
        <time>2025-07-05T11:40:27.188Z</time>
      </trkpt>
      <trkpt lat="42.896491" lon="0.053596">
        <ele>1254.2</ele>
        <time>2025-07-05T11:41:42.145Z</time>
      </trkpt>
      <trkpt lat="42.896455" lon="0.053935">
        <ele>1247.6</ele>
        <time>2025-07-05T11:42:50.641Z</time>
      </trkpt>
      <trkpt lat="42.896303" lon="0.054172">
        <ele>1234.2</ele>
        <time>2025-07-05T11:44:33.441Z</time>
      </trkpt>
      <trkpt lat="42.896198" lon="0.054443">
        <ele>1230.0</ele>
        <time>2025-07-05T11:45:20.772Z</time>
      </trkpt>
      <trkpt lat="42.896247" lon="0.054727">
        <ele>1229.9</ele>
        <time>2025-07-05T11:45:46.846Z</time>
      </trkpt>
      <trkpt lat="42.896530" lon="0.054847">
        <ele>1232.4</ele>
        <time>2025-07-05T11:46:40.680Z</time>
      </trkpt>
      <trkpt lat="42.896740" lon="0.055112">
        <ele>1241.5</ele>
        <time>2025-07-05T11:48:42.163Z</time>
      </trkpt>
      <trkpt lat="42.896570" lon="0.055704">
        <ele>1233.7</ele>
        <time>2025-07-05T11:50:17.678Z</time>
      </trkpt>
      <trkpt lat="42.896356" lon="0.055937">
        <ele>1230.7</ele>
        <time>2025-07-05T11:51:01.948Z</time>
      </trkpt>
      <trkpt lat="42.896566" lon="0.056281">
        <ele>1239.0</ele>
        <time>2025-07-05T11:53:00.136Z</time>
      </trkpt>
      <trkpt lat="42.896566" lon="0.056613">
        <ele>1238.3</ele>
        <time>2025-07-05T11:53:27.343Z</time>
      </trkpt>
      <trkpt lat="42.896649" lon="0.056982">
        <ele>1241.7</ele>
        <time>2025-07-05T11:54:34.432Z</time>
      </trkpt>
      <trkpt lat="42.896790" lon="0.057372">
        <ele>1253.5</ele>
        <time>2025-07-05T11:57:05.749Z</time>
      </trkpt>
      <trkpt lat="42.896952" lon="0.057681">
        <ele>1255.3</ele>
        <time>2025-07-05T11:57:52.613Z</time>
      </trkpt>
      <trkpt lat="42.896867" lon="0.058241">
        <ele>1246.5</ele>
        <time>2025-07-05T11:59:25.822Z</time>
      </trkpt>
      <trkpt lat="42.896773" lon="0.058576">
        <ele>1237.3</ele>
        <time>2025-07-05T12:00:45.997Z</time>
      </trkpt>
      <trkpt lat="42.896789" lon="0.058904">
        <ele>1228.7</ele>
        <time>2025-07-05T12:02:00.801Z</time>
      </trkpt>
      <trkpt lat="42.896946" lon="0.059161">
        <ele>1240.9</ele>
        <time>2025-07-05T12:04:30.945Z</time>
      </trkpt>
      <trkpt lat="42.897139" lon="0.059391">
        <ele>1248.8</ele>
        <time>2025-07-05T12:06:17.654Z</time>
      </trkpt>
      <trkpt lat="42.897173" lon="0.059759">
        <ele>1243.6</ele>
        <time>2025-07-05T12:07:16.055Z</time>
      </trkpt>
      <trkpt lat="42.897225" lon="0.060086">
        <ele>1239.7</ele>
        <time>2025-07-05T12:08:03.981Z</time>
      </trkpt>
      <trkpt lat="42.897284" lon="0.060939">
        <ele>1234.7</ele>
        <time>2025-07-05T12:09:35.095Z</time>
      </trkpt>
      <trkpt lat="42.897244" lon="0.061476">
        <ele>1231.4</ele>
        <time>2025-07-05T12:10:32.205Z</time>
      </trkpt>
      <trkpt lat="42.897223" lon="0.061828">
        <ele>1229.3</ele>
        <time>2025-07-05T12:11:09.653Z</time>
      </trkpt>
      <trkpt lat="42.897235" lon="0.062169">
        <ele>1230.2</ele>
        <time>2025-07-05T12:11:43.205Z</time>
      </trkpt>
      <trkpt lat="42.897237" lon="0.062518">
        <ele>1231.1</ele>
        <time>2025-07-05T12:12:17.120Z</time>
      </trkpt>
      <trkpt lat="42.897120" lon="0.062747">
        <ele>1230.9</ele>
        <time>2025-07-05T12:12:37.961Z</time>
      </trkpt>
    </trkseg>
  </trk>
</gpx>
