<?xml version='1.0' encoding='UTF-8'?>
<gpx version="1.1" creator="https://www.komoot.de" xmlns="http://www.topografix.com/GPX/1/1" xmlns:xsi="http://www.w3.org/2001/XMLSchema-instance" xsi:schemaLocation="http://www.topografix.com/GPX/1/1 http://www.topografix.com/GPX/1/1/gpx.xsd">
  <metadata>
    <name>Étape 3 - Laugavegur et Fimmvörðuháls</name>
    <author>
      <link href="https://www.komoot.de">
        <text>komoot</text>
        <type>text/html</type>
      </link>
    </author>
  </metadata>
  <wpt lat="63.857774" lon="-19.227349">
    <name>Álftavatn</name>
    <sym>Fishing Hot Spot Facility</sym>
  </wpt>
  <wpt lat="63.831864" lon="-19.204741">
    <name>Hvanngil</name>
    <sym>Fishing Hot Spot Facility</sym>
  </wpt>
  <wpt lat="63.806089" lon="-19.276586">
    <name>Innri Emstruá</name>
    <sym>Flag, Blue</sym>
  </wpt>
  <wpt lat="63.795696" lon="-19.305897">
    <name>Plaine surréaliste</name>
    <sym>Flag, Blue</sym>
  </wpt>
  <wpt lat="63.776719" lon="-19.364671">
    <name>Vue sur Hattafell</name>
    <sym>Flag, Blue</sym>
  </wpt>
  <wpt lat="63.765644" lon="-19.373734">
    <name>Botnar</name>
    <sym>Fishing Hot Spot Facility</sym>
  </wpt>
  <trk>
    <name>Étape 3 - Laugavegur et Fimmvörðuháls</name>
    <type>hike</type>
    <trkseg>
      <trkpt lat="63.857728" lon="-19.227238">
        <ele>536.462072</ele>
        <time>2024-06-07T12:58:38.352Z</time>
      </trkpt>
      <trkpt lat="63.857806" lon="-19.227074">
        <ele>536.462072</ele>
        <time>2024-06-07T12:58:49.150Z</time>
      </trkpt>
      <trkpt lat="63.857544" lon="-19.226908">
        <ele>536.462072</ele>
        <time>2024-06-07T12:59:26.626Z</time>
      </trkpt>
      <trkpt lat="63.857254" lon="-19.224673">
        <ele>538.013545</ele>
        <time>2024-06-07T13:01:48.784Z</time>
      </trkpt>
      <trkpt lat="63.856977" lon="-19.223247">
        <ele>540.120657</ele>
        <time>2024-06-07T13:03:31.019Z</time>
      </trkpt>
      <trkpt lat="63.856973" lon="-19.222372">
        <ele>541.303790</ele>
        <time>2024-06-07T13:04:31.204Z</time>
      </trkpt>
      <trkpt lat="63.856917" lon="-19.222023">
        <ele>541.805983</ele>
        <time>2024-06-07T13:04:58.008Z</time>
      </trkpt>
      <trkpt lat="63.857031" lon="-19.221961">
        <ele>542.399673</ele>
        <time>2024-06-07T13:05:11.520Z</time>
      </trkpt>
      <trkpt lat="63.857102" lon="-19.221809">
        <ele>543.079464</ele>
        <time>2024-06-07T13:05:23.028Z</time>
      </trkpt>
      <trkpt lat="63.857102" lon="-19.221661">
        <ele>543.533645</ele>
        <time>2024-06-07T13:05:31.263Z</time>
      </trkpt>
      <trkpt lat="63.857077" lon="-19.221371">
        <ele>544.440468</ele>
        <time>2024-06-07T13:05:47.071Z</time>
      </trkpt>
      <trkpt lat="63.857257" lon="-19.220213">
        <ele>548.208773</ele>
        <time>2024-06-07T13:07:16.529Z</time>
      </trkpt>
      <trkpt lat="63.857247" lon="-19.219861">
        <ele>549.291224</ele>
        <time>2024-06-07T13:07:43.316Z</time>
      </trkpt>
      <trkpt lat="63.857157" lon="-19.219566">
        <ele>550.392347</ele>
        <time>2024-06-07T13:08:09.854Z</time>
      </trkpt>
      <trkpt lat="63.857013" lon="-19.219399">
        <ele>551.518637</ele>
        <time>2024-06-07T13:08:38.711Z</time>
      </trkpt>
      <trkpt lat="63.855960" lon="-19.218783">
        <ele>557.172369</ele>
        <time>2024-06-07T13:11:44.724Z</time>
      </trkpt>
      <trkpt lat="63.855700" lon="-19.218500">
        <ele>558.339477</ele>
        <time>2024-06-07T13:12:29.952Z</time>
      </trkpt>
      <trkpt lat="63.855400" lon="-19.218011">
        <ele>559.834445</ele>
        <time>2024-06-07T13:13:24.696Z</time>
      </trkpt>
      <trkpt lat="63.855090" lon="-19.217274">
        <ele>561.651580</ele>
        <time>2024-06-07T13:14:27.172Z</time>
      </trkpt>
      <trkpt lat="63.854995" lon="-19.217131">
        <ele>561.515846</ele>
        <time>2024-06-07T13:14:42.667Z</time>
      </trkpt>
      <trkpt lat="63.854404" lon="-19.217228">
        <ele>559.499038</ele>
        <time>2024-06-07T13:16:06.125Z</time>
      </trkpt>
      <trkpt lat="63.854194" lon="-19.217353">
        <ele>558.760095</ele>
        <time>2024-06-07T13:16:37.886Z</time>
      </trkpt>
      <trkpt lat="63.853859" lon="-19.217421">
        <ele>557.615321</ele>
        <time>2024-06-07T13:17:27.944Z</time>
      </trkpt>
      <trkpt lat="63.853109" lon="-19.217921">
        <ele>554.962026</ele>
        <time>2024-06-07T13:19:25.546Z</time>
      </trkpt>
      <trkpt lat="63.852918" lon="-19.217887">
        <ele>554.316634</ele>
        <time>2024-06-07T13:19:53.836Z</time>
      </trkpt>
      <trkpt lat="63.852183" lon="-19.218613">
        <ele>551.616265</ele>
        <time>2024-06-07T13:21:49.529Z</time>
      </trkpt>
      <trkpt lat="63.851728" lon="-19.219283">
        <ele>549.789076</ele>
        <time>2024-06-07T13:23:05.689Z</time>
      </trkpt>
      <trkpt lat="63.851333" lon="-19.219669">
        <ele>548.232916</ele>
        <time>2024-06-07T13:24:06.030Z</time>
      </trkpt>
      <trkpt lat="63.851017" lon="-19.219735">
        <ele>547.073335</ele>
        <time>2024-06-07T13:24:50.727Z</time>
      </trkpt>
      <trkpt lat="63.850957" lon="-19.219707">
        <ele>546.849500</ele>
        <time>2024-06-07T13:24:59.434Z</time>
      </trkpt>
      <trkpt lat="63.850884" lon="-19.219559">
        <ele>546.491783</ele>
        <time>2024-06-07T13:25:13.245Z</time>
      </trkpt>
      <trkpt lat="63.850510" lon="-19.219037">
        <ele>544.887300</ele>
        <time>2024-06-07T13:26:16.300Z</time>
      </trkpt>
      <trkpt lat="63.849690" lon="-19.216658">
        <ele>539.201458</ele>
        <time>2024-06-07T13:29:39.718Z</time>
      </trkpt>
      <trkpt lat="63.849280" lon="-19.215871">
        <ele>536.703444</ele>
        <time>2024-06-07T13:31:00.788Z</time>
      </trkpt>
      <trkpt lat="63.849069" lon="-19.215757">
        <ele>535.694541</ele>
        <time>2024-06-07T13:31:31.927Z</time>
      </trkpt>
      <trkpt lat="63.848979" lon="-19.215607">
        <ele>535.175101</ele>
        <time>2024-06-07T13:31:47.722Z</time>
      </trkpt>
      <trkpt lat="63.848777" lon="-19.215560">
        <ele>535.046250</ele>
        <time>2024-06-07T13:32:15.693Z</time>
      </trkpt>
      <trkpt lat="63.848600" lon="-19.215281">
        <ele>535.909503</ele>
        <time>2024-06-07T13:32:44.860Z</time>
      </trkpt>
      <trkpt lat="63.847916" lon="-19.214656">
        <ele>538.863029</ele>
        <time>2024-06-07T13:34:35.989Z</time>
      </trkpt>
      <trkpt lat="63.847839" lon="-19.214629">
        <ele>539.175106</ele>
        <time>2024-06-07T13:34:48.712Z</time>
      </trkpt>
      <trkpt lat="63.847821" lon="-19.214568">
        <ele>539.304702</ele>
        <time>2024-06-07T13:34:54.041Z</time>
      </trkpt>
      <trkpt lat="63.847823" lon="-19.214391">
        <ele>539.617281</ele>
        <time>2024-06-07T13:35:07.046Z</time>
      </trkpt>
      <trkpt lat="63.847764" lon="-19.214270">
        <ele>539.935837</ele>
        <time>2024-06-07T13:35:20.240Z</time>
      </trkpt>
      <trkpt lat="63.847112" lon="-19.214678">
        <ele>543.118472</ele>
        <time>2024-06-07T13:37:17.122Z</time>
      </trkpt>
      <trkpt lat="63.846994" lon="-19.214874">
        <ele>544.063712</ele>
        <time>2024-06-07T13:37:42.472Z</time>
      </trkpt>
      <trkpt lat="63.846877" lon="-19.215282">
        <ele>545.450409</ele>
        <time>2024-06-07T13:38:19.651Z</time>
      </trkpt>
      <trkpt lat="63.846762" lon="-19.215444">
        <ele>546.325333</ele>
        <time>2024-06-07T13:38:42.631Z</time>
      </trkpt>
      <trkpt lat="63.846648" lon="-19.215894">
        <ele>547.804008</ele>
        <time>2024-06-07T13:39:21.483Z</time>
      </trkpt>
      <trkpt lat="63.846520" lon="-19.216201">
        <ele>549.007928</ele>
        <time>2024-06-07T13:39:52.415Z</time>
      </trkpt>
      <trkpt lat="63.846392" lon="-19.216356">
        <ele>549.945722</ele>
        <time>2024-06-07T13:40:16.292Z</time>
      </trkpt>
      <trkpt lat="63.845571" lon="-19.218082">
        <ele>555.710379</ele>
        <time>2024-06-07T13:43:09.424Z</time>
      </trkpt>
      <trkpt lat="63.845341" lon="-19.218345">
        <ele>556.710486</ele>
        <time>2024-06-07T13:43:48.281Z</time>
      </trkpt>
      <trkpt lat="63.845172" lon="-19.218350">
        <ele>557.366757</ele>
        <time>2024-06-07T13:44:13.816Z</time>
      </trkpt>
      <trkpt lat="63.844973" lon="-19.218481">
        <ele>558.171335</ele>
        <time>2024-06-07T13:44:45.548Z</time>
      </trkpt>
      <trkpt lat="63.844733" lon="-19.218813">
        <ele>559.262829</ele>
        <time>2024-06-07T13:45:28.153Z</time>
      </trkpt>
      <trkpt lat="63.844506" lon="-19.218685">
        <ele>560.171076</ele>
        <time>2024-06-07T13:46:04.246Z</time>
      </trkpt>
      <trkpt lat="63.844379" lon="-19.218704">
        <ele>560.725029</ele>
        <time>2024-06-07T13:46:23.599Z</time>
      </trkpt>
      <trkpt lat="63.844335" lon="-19.218649">
        <ele>560.983889</ele>
        <time>2024-06-07T13:46:31.534Z</time>
      </trkpt>
      <trkpt lat="63.844106" lon="-19.218644">
        <ele>562.163915</ele>
        <time>2024-06-07T13:47:06.808Z</time>
      </trkpt>
      <trkpt lat="63.843770" lon="-19.218387">
        <ele>563.990991</ele>
        <time>2024-06-07T13:48:01.730Z</time>
      </trkpt>
      <trkpt lat="63.843568" lon="-19.218162">
        <ele>565.150542</ele>
        <time>2024-06-07T13:48:36.779Z</time>
      </trkpt>
      <trkpt lat="63.843401" lon="-19.217504">
        <ele>566.875165</ele>
        <time>2024-06-07T13:49:29.373Z</time>
      </trkpt>
      <trkpt lat="63.843387" lon="-19.216893">
        <ele>568.264895</ele>
        <time>2024-06-07T13:50:13.293Z</time>
      </trkpt>
      <trkpt lat="63.843359" lon="-19.216808">
        <ele>568.505920</ele>
        <time>2024-06-07T13:50:20.950Z</time>
      </trkpt>
      <trkpt lat="63.843302" lon="-19.216756">
        <ele>568.822486</ele>
        <time>2024-06-07T13:50:31.033Z</time>
      </trkpt>
      <trkpt lat="63.843196" lon="-19.216893">
        <ele>569.451104</ele>
        <time>2024-06-07T13:50:51.279Z</time>
      </trkpt>
      <trkpt lat="63.843069" lon="-19.217330">
        <ele>571.273051</ele>
        <time>2024-06-07T13:51:30.215Z</time>
      </trkpt>
      <trkpt lat="63.842948" lon="-19.217338">
        <ele>572.340649</ele>
        <time>2024-06-07T13:51:50.829Z</time>
      </trkpt>
      <trkpt lat="63.842649" lon="-19.217171">
        <ele>575.056399</ele>
        <time>2024-06-07T13:52:44.620Z</time>
      </trkpt>
      <trkpt lat="63.842519" lon="-19.217291">
        <ele>576.294210</ele>
        <time>2024-06-07T13:53:09.456Z</time>
      </trkpt>
      <trkpt lat="63.842409" lon="-19.217296">
        <ele>577.264536</ele>
        <time>2024-06-07T13:53:29.000Z</time>
      </trkpt>
      <trkpt lat="63.842082" lon="-19.217226">
        <ele>580.161286</ele>
        <time>2024-06-07T13:54:28.135Z</time>
      </trkpt>
      <trkpt lat="63.841195" lon="-19.216399">
        <ele>587.684862</ele>
        <time>2024-06-07T13:57:19.567Z</time>
      </trkpt>
      <trkpt lat="63.841035" lon="-19.216388">
        <ele>588.657805</ele>
        <time>2024-06-07T13:57:47.502Z</time>
      </trkpt>
      <trkpt lat="63.840794" lon="-19.216496">
        <ele>590.150942</ele>
        <time>2024-06-07T13:58:29.702Z</time>
      </trkpt>
      <trkpt lat="63.840688" lon="-19.216413">
        <ele>590.832530</ele>
        <time>2024-06-07T13:58:48.544Z</time>
      </trkpt>
      <trkpt lat="63.840364" lon="-19.216333">
        <ele>592.813469</ele>
        <time>2024-06-07T13:59:41.824Z</time>
      </trkpt>
      <trkpt lat="63.839900" lon="-19.216177">
        <ele>595.664522</ele>
        <time>2024-06-07T14:00:53.574Z</time>
      </trkpt>
      <trkpt lat="63.839570" lon="-19.215898">
        <ele>596.415610</ele>
        <time>2024-06-07T14:01:43.935Z</time>
      </trkpt>
      <trkpt lat="63.839219" lon="-19.215689">
        <ele>596.187744</ele>
        <time>2024-06-07T14:02:33.008Z</time>
      </trkpt>
      <trkpt lat="63.839136" lon="-19.215633">
        <ele>596.133370</ele>
        <time>2024-06-07T14:02:45.086Z</time>
      </trkpt>
      <trkpt lat="63.838930" lon="-19.215366">
        <ele>595.984389</ele>
        <time>2024-06-07T14:03:18.038Z</time>
      </trkpt>
      <trkpt lat="63.838387" lon="-19.214452">
        <ele>595.559795</ele>
        <time>2024-06-07T14:04:53.036Z</time>
      </trkpt>
      <trkpt lat="63.838147" lon="-19.213918">
        <ele>595.208591</ele>
        <time>2024-06-07T14:05:40.204Z</time>
      </trkpt>
      <trkpt lat="63.838120" lon="-19.213713">
        <ele>595.026665</ele>
        <time>2024-06-07T14:05:53.368Z</time>
      </trkpt>
      <trkpt lat="63.837684" lon="-19.213607">
        <ele>594.180997</ele>
        <time>2024-06-07T14:06:54.165Z</time>
      </trkpt>
      <trkpt lat="63.837075" lon="-19.212885">
        <ele>592.855721</ele>
        <time>2024-06-07T14:08:29.236Z</time>
      </trkpt>
      <trkpt lat="63.836905" lon="-19.212765">
        <ele>592.512354</ele>
        <time>2024-06-07T14:08:54.061Z</time>
      </trkpt>
      <trkpt lat="63.836657" lon="-19.212692">
        <ele>592.030060</ele>
        <time>2024-06-07T14:09:29.535Z</time>
      </trkpt>
      <trkpt lat="63.836484" lon="-19.212492">
        <ele>590.798337</ele>
        <time>2024-06-07T14:09:57.737Z</time>
      </trkpt>
      <trkpt lat="63.836032" lon="-19.212373">
        <ele>587.344166</ele>
        <time>2024-06-07T14:11:05.770Z</time>
      </trkpt>
      <trkpt lat="63.835895" lon="-19.212390">
        <ele>586.302645</ele>
        <time>2024-06-07T14:11:26.820Z</time>
      </trkpt>
      <trkpt lat="63.835730" lon="-19.212540">
        <ele>584.953246</ele>
        <time>2024-06-07T14:11:54.572Z</time>
      </trkpt>
      <trkpt lat="63.835549" lon="-19.212517">
        <ele>583.577121</ele>
        <time>2024-06-07T14:12:23.346Z</time>
      </trkpt>
      <trkpt lat="63.835407" lon="-19.212415">
        <ele>582.446422</ele>
        <time>2024-06-07T14:12:47.064Z</time>
      </trkpt>
      <trkpt lat="63.835363" lon="-19.212303">
        <ele>581.944323</ele>
        <time>2024-06-07T14:12:57.698Z</time>
      </trkpt>
      <trkpt lat="63.835122" lon="-19.211193">
        <ele>577.679262</ele>
        <time>2024-06-07T14:14:27.389Z</time>
      </trkpt>
      <trkpt lat="63.834742" lon="-19.210444">
        <ele>572.895575</ele>
        <time>2024-06-07T14:15:50.412Z</time>
      </trkpt>
      <trkpt lat="63.834237" lon="-19.209639">
        <ele>567.030553</ele>
        <time>2024-06-07T14:17:31.427Z</time>
      </trkpt>
      <trkpt lat="63.834142" lon="-19.209291">
        <ele>565.315707</ele>
        <time>2024-06-07T14:18:00.316Z</time>
      </trkpt>
      <trkpt lat="63.834202" lon="-19.208852">
        <ele>563.390046</ele>
        <time>2024-06-07T14:18:32.210Z</time>
      </trkpt>
      <trkpt lat="63.834124" lon="-19.208517">
        <ele>561.802807</ele>
        <time>2024-06-07T14:18:51.356Z</time>
      </trkpt>
      <trkpt lat="63.834057" lon="-19.208270">
        <ele>561.064474</ele>
        <time>2024-06-07T14:19:05.753Z</time>
      </trkpt>
      <trkpt lat="63.833984" lon="-19.208295">
        <ele>560.905280</ele>
        <time>2024-06-07T14:19:13.978Z</time>
      </trkpt>
      <trkpt lat="63.833951" lon="-19.208075">
        <ele>560.684317</ele>
        <time>2024-06-07T14:19:25.249Z</time>
      </trkpt>
      <trkpt lat="63.833861" lon="-19.207897">
        <ele>560.426812</ele>
        <time>2024-06-07T14:19:38.287Z</time>
      </trkpt>
      <trkpt lat="63.833793" lon="-19.207866">
        <ele>560.277250</ele>
        <time>2024-06-07T14:19:45.765Z</time>
      </trkpt>
      <trkpt lat="63.833565" lon="-19.207956">
        <ele>559.778222</ele>
        <time>2024-06-07T14:20:10.490Z</time>
      </trkpt>
      <trkpt lat="63.833199" lon="-19.208004">
        <ele>558.987700</ele>
        <time>2024-06-07T14:20:48.313Z</time>
      </trkpt>
      <trkpt lat="63.833126" lon="-19.207960">
        <ele>558.824825</ele>
        <time>2024-06-07T14:20:55.806Z</time>
      </trkpt>
      <trkpt lat="63.833079" lon="-19.207424">
        <ele>558.305165</ele>
        <time>2024-06-07T14:21:20.327Z</time>
      </trkpt>
      <trkpt lat="63.833042" lon="-19.207335">
        <ele>558.188857</ele>
        <time>2024-06-07T14:21:25.786Z</time>
      </trkpt>
      <trkpt lat="63.833013" lon="-19.207229">
        <ele>558.070240</ele>
        <time>2024-06-07T14:21:31.257Z</time>
      </trkpt>
      <trkpt lat="63.832930" lon="-19.207070">
        <ele>557.835953</ele>
        <time>2024-06-07T14:21:42.294Z</time>
      </trkpt>
      <trkpt lat="63.832500" lon="-19.206850">
        <ele>557.520189</ele>
        <time>2024-06-07T14:22:27.298Z</time>
      </trkpt>
      <trkpt lat="63.832366" lon="-19.206610">
        <ele>557.682473</ele>
        <time>2024-06-07T14:22:44.651Z</time>
      </trkpt>
      <trkpt lat="63.832085" lon="-19.206378">
        <ele>557.966680</ele>
        <time>2024-06-07T14:23:26.589Z</time>
      </trkpt>
      <trkpt lat="63.831989" lon="-19.206234">
        <ele>558.076072</ele>
        <time>2024-06-07T14:23:42.662Z</time>
      </trkpt>
      <trkpt lat="63.831889" lon="-19.205923">
        <ele>558.237387</ele>
        <time>2024-06-07T14:24:06.861Z</time>
      </trkpt>
      <trkpt lat="63.831941" lon="-19.205274">
        <ele>558.513850</ele>
        <time>2024-06-07T14:24:37.020Z</time>
      </trkpt>
      <trkpt lat="63.831926" lon="-19.204944">
        <ele>558.652893</ele>
        <time>2024-06-07T14:24:52.176Z</time>
      </trkpt>
      <trkpt lat="63.831949" lon="-19.204821">
        <ele>558.708888</ele>
        <time>2024-06-07T14:24:58.183Z</time>
      </trkpt>
      <trkpt lat="63.831926" lon="-19.204944">
        <ele>558.764883</ele>
        <time>2024-06-07T14:25:04.358Z</time>
      </trkpt>
      <trkpt lat="63.831840" lon="-19.205113">
        <ele>558.873037</ele>
        <time>2024-06-07T14:25:16.281Z</time>
      </trkpt>
      <trkpt lat="63.831770" lon="-19.205174">
        <ele>558.944307</ele>
        <time>2024-06-07T14:25:24.106Z</time>
      </trkpt>
      <trkpt lat="63.831712" lon="-19.205354">
        <ele>559.039059</ele>
        <time>2024-06-07T14:25:34.278Z</time>
      </trkpt>
      <trkpt lat="63.831667" lon="-19.205608">
        <ele>559.218347</ele>
        <time>2024-06-07T14:25:46.961Z</time>
      </trkpt>
      <trkpt lat="63.831554" lon="-19.205624">
        <ele>559.386499</ele>
        <time>2024-06-07T14:26:03.096Z</time>
      </trkpt>
      <trkpt lat="63.831338" lon="-19.205824">
        <ele>559.733014</ele>
        <time>2024-06-07T14:26:35.940Z</time>
      </trkpt>
      <trkpt lat="63.831202" lon="-19.206135">
        <ele>560.019881</ele>
        <time>2024-06-07T14:27:03.080Z</time>
      </trkpt>
      <trkpt lat="63.831076" lon="-19.206113">
        <ele>560.207568</ele>
        <time>2024-06-07T14:27:20.831Z</time>
      </trkpt>
      <trkpt lat="63.830860" lon="-19.206226">
        <ele>560.536795</ele>
        <time>2024-06-07T14:27:52.022Z</time>
      </trkpt>
      <trkpt lat="63.830626" lon="-19.206394">
        <ele>560.901334</ele>
        <time>2024-06-07T14:28:27.115Z</time>
      </trkpt>
      <trkpt lat="63.830433" lon="-19.206653">
        <ele>561.234414</ele>
        <time>2024-06-07T14:28:59.431Z</time>
      </trkpt>
      <trkpt lat="63.830154" lon="-19.206743">
        <ele>561.652953</ele>
        <time>2024-06-07T14:29:40.139Z</time>
      </trkpt>
      <trkpt lat="63.829845" lon="-19.206744">
        <ele>562.064794</ele>
        <time>2024-06-07T14:30:24.943Z</time>
      </trkpt>
      <trkpt lat="63.829607" lon="-19.206809">
        <ele>562.379451</ele>
        <time>2024-06-07T14:30:59.549Z</time>
      </trkpt>
      <trkpt lat="63.829459" lon="-19.206900">
        <ele>562.580733</ele>
        <time>2024-06-07T14:31:21.503Z</time>
      </trkpt>
      <trkpt lat="63.829366" lon="-19.207025">
        <ele>562.722642</ele>
        <time>2024-06-07T14:31:37.018Z</time>
      </trkpt>
      <trkpt lat="63.829273" lon="-19.207009">
        <ele>562.845064</ele>
        <time>2024-06-07T14:31:50.297Z</time>
      </trkpt>
      <trkpt lat="63.829094" lon="-19.207101">
        <ele>563.085981</ele>
        <time>2024-06-07T14:32:16.417Z</time>
      </trkpt>
      <trkpt lat="63.828925" lon="-19.207284">
        <ele>563.331811</ele>
        <time>2024-06-07T14:32:42.877Z</time>
      </trkpt>
      <trkpt lat="63.828634" lon="-19.207411">
        <ele>563.720789</ele>
        <time>2024-06-07T14:33:24.261Z</time>
      </trkpt>
      <trkpt lat="63.828481" lon="-19.207742">
        <ele>563.998373</ele>
        <time>2024-06-07T14:33:45.828Z</time>
      </trkpt>
      <trkpt lat="63.828412" lon="-19.207960">
        <ele>564.012629</ele>
        <time>2024-06-07T14:33:57.825Z</time>
      </trkpt>
      <trkpt lat="63.828286" lon="-19.208663">
        <ele>563.732064</ele>
        <time>2024-06-07T14:34:31.440Z</time>
      </trkpt>
      <trkpt lat="63.828221" lon="-19.208902">
        <ele>563.628248</ele>
        <time>2024-06-07T14:34:43.891Z</time>
      </trkpt>
      <trkpt lat="63.828087" lon="-19.209147">
        <ele>563.483943</ele>
        <time>2024-06-07T14:35:01.269Z</time>
      </trkpt>
      <trkpt lat="63.827904" lon="-19.209305">
        <ele>563.319790</ele>
        <time>2024-06-07T14:35:21.174Z</time>
      </trkpt>
      <trkpt lat="63.827804" lon="-19.209445">
        <ele>563.221267</ele>
        <time>2024-06-07T14:35:33.111Z</time>
      </trkpt>
      <trkpt lat="63.827652" lon="-19.210117">
        <ele>562.942032</ele>
        <time>2024-06-07T14:36:07.492Z</time>
      </trkpt>
      <trkpt lat="63.827530" lon="-19.210390">
        <ele>562.798337</ele>
        <time>2024-06-07T14:36:25.340Z</time>
      </trkpt>
      <trkpt lat="63.827206" lon="-19.210964">
        <ele>562.345795</ele>
        <time>2024-06-07T14:37:08.246Z</time>
      </trkpt>
      <trkpt lat="63.827017" lon="-19.211502">
        <ele>561.833214</ele>
        <time>2024-06-07T14:37:39.813Z</time>
      </trkpt>
      <trkpt lat="63.826791" lon="-19.212026">
        <ele>561.287026</ele>
        <time>2024-06-07T14:38:13.291Z</time>
      </trkpt>
      <trkpt lat="63.826378" lon="-19.212577">
        <ele>560.477348</ele>
        <time>2024-06-07T14:39:20.268Z</time>
      </trkpt>
      <trkpt lat="63.825822" lon="-19.213221">
        <ele>559.451324</ele>
        <time>2024-06-07T14:40:47.420Z</time>
      </trkpt>
      <trkpt lat="63.825566" lon="-19.213631">
        <ele>559.077375</ele>
        <time>2024-06-07T14:41:30.998Z</time>
      </trkpt>
      <trkpt lat="63.825483" lon="-19.213733">
        <ele>558.964737</ele>
        <time>2024-06-07T14:41:44.067Z</time>
      </trkpt>
      <trkpt lat="63.825360" lon="-19.213908">
        <ele>558.791486</ele>
        <time>2024-06-07T14:42:04.202Z</time>
      </trkpt>
      <trkpt lat="63.825172" lon="-19.214391">
        <ele>558.452488</ele>
        <time>2024-06-07T14:42:43.612Z</time>
      </trkpt>
      <trkpt lat="63.825018" lon="-19.214924">
        <ele>558.117168</ele>
        <time>2024-06-07T14:43:22.481Z</time>
      </trkpt>
      <trkpt lat="63.824931" lon="-19.215082">
        <ele>557.984173</ele>
        <time>2024-06-07T14:43:33.853Z</time>
      </trkpt>
      <trkpt lat="63.824785" lon="-19.215254">
        <ele>557.787870</ele>
        <time>2024-06-07T14:43:50.626Z</time>
      </trkpt>
      <trkpt lat="63.824489" lon="-19.215748">
        <ele>557.361363</ele>
        <time>2024-06-07T14:44:28.080Z</time>
      </trkpt>
      <trkpt lat="63.824120" lon="-19.216155">
        <ele>557.101826</ele>
        <time>2024-06-07T14:45:09.913Z</time>
      </trkpt>
      <trkpt lat="63.823896" lon="-19.216547">
        <ele>556.922850</ele>
        <time>2024-06-07T14:45:38.710Z</time>
      </trkpt>
      <trkpt lat="63.823680" lon="-19.216767">
        <ele>556.773083</ele>
        <time>2024-06-07T14:46:02.700Z</time>
      </trkpt>
      <trkpt lat="63.823295" lon="-19.217057">
        <ele>556.516493</ele>
        <time>2024-06-07T14:46:43.791Z</time>
      </trkpt>
      <trkpt lat="63.822686" lon="-19.217405">
        <ele>556.209051</ele>
        <time>2024-06-07T14:47:47.118Z</time>
      </trkpt>
      <trkpt lat="63.822462" lon="-19.217840">
        <ele>556.164350</ele>
        <time>2024-06-07T14:48:16.857Z</time>
      </trkpt>
      <trkpt lat="63.822472" lon="-19.218068">
        <ele>556.149031</ele>
        <time>2024-06-07T14:48:27.082Z</time>
      </trkpt>
      <trkpt lat="63.822371" lon="-19.218109">
        <ele>556.133481</ele>
        <time>2024-06-07T14:48:40.998Z</time>
      </trkpt>
      <trkpt lat="63.822223" lon="-19.218317">
        <ele>556.107091</ele>
        <time>2024-06-07T14:49:04.692Z</time>
      </trkpt>
      <trkpt lat="63.822196" lon="-19.218525">
        <ele>556.092595</ele>
        <time>2024-06-07T14:49:17.601Z</time>
      </trkpt>
      <trkpt lat="63.822248" lon="-19.218748">
        <ele>556.075731</ele>
        <time>2024-06-07T14:49:32.624Z</time>
      </trkpt>
      <trkpt lat="63.822255" lon="-19.218908">
        <ele>556.064981</ele>
        <time>2024-06-07T14:49:42.218Z</time>
      </trkpt>
      <trkpt lat="63.822347" lon="-19.219306">
        <ele>556.034941</ele>
        <time>2024-06-07T14:50:09.081Z</time>
      </trkpt>
      <trkpt lat="63.821576" lon="-19.221315">
        <ele>556.107646</ele>
        <time>2024-06-07T14:52:48.064Z</time>
      </trkpt>
      <trkpt lat="63.820227" lon="-19.225634">
        <ele>556.756803</ele>
        <time>2024-06-07T14:58:07.076Z</time>
      </trkpt>
      <trkpt lat="63.819838" lon="-19.227104">
        <ele>556.952144</ele>
        <time>2024-06-07T14:59:50.722Z</time>
      </trkpt>
      <trkpt lat="63.819750" lon="-19.227291">
        <ele>556.955101</ele>
        <time>2024-06-07T15:00:07.303Z</time>
      </trkpt>
      <trkpt lat="63.819620" lon="-19.227451">
        <ele>556.958728</ele>
        <time>2024-06-07T15:00:27.482Z</time>
      </trkpt>
      <trkpt lat="63.819589" lon="-19.227708">
        <ele>556.961609</ele>
        <time>2024-06-07T15:00:43.505Z</time>
      </trkpt>
      <trkpt lat="63.819589" lon="-19.228016">
        <ele>556.964941</ele>
        <time>2024-06-07T15:01:02.041Z</time>
      </trkpt>
      <trkpt lat="63.818558" lon="-19.232039">
        <ele>556.598082</ele>
        <time>2024-06-07T15:05:40.528Z</time>
      </trkpt>
      <trkpt lat="63.817649" lon="-19.237255">
        <ele>555.230952</ele>
        <time>2024-06-07T15:11:19.272Z</time>
      </trkpt>
      <trkpt lat="63.816622" lon="-19.241294">
        <ele>553.955025</ele>
        <time>2024-06-07T15:16:00.279Z</time>
      </trkpt>
      <trkpt lat="63.816557" lon="-19.242016">
        <ele>553.555777</ele>
        <time>2024-06-07T15:16:44.964Z</time>
      </trkpt>
      <trkpt lat="63.815241" lon="-19.247005">
        <ele>549.969058</ele>
        <time>2024-06-07T15:22:41.969Z</time>
      </trkpt>
      <trkpt lat="63.815147" lon="-19.247473">
        <ele>549.608289</ele>
        <time>2024-06-07T15:23:13.922Z</time>
      </trkpt>
      <trkpt lat="63.815070" lon="-19.248543">
        <ele>548.891850</ele>
        <time>2024-06-07T15:24:20.990Z</time>
      </trkpt>
      <trkpt lat="63.814999" lon="-19.248851">
        <ele>548.707186</ele>
        <time>2024-06-07T15:24:42.453Z</time>
      </trkpt>
      <trkpt lat="63.814415" lon="-19.249987">
        <ele>547.780317</ele>
        <time>2024-06-07T15:26:29.925Z</time>
      </trkpt>
      <trkpt lat="63.813441" lon="-19.253211">
        <ele>546.701891</ele>
        <time>2024-06-07T15:30:25.537Z</time>
      </trkpt>
      <trkpt lat="63.813128" lon="-19.254949">
        <ele>546.562641</ele>
        <time>2024-06-07T15:32:18.634Z</time>
      </trkpt>
      <trkpt lat="63.812568" lon="-19.257166">
        <ele>546.618850</ele>
        <time>2024-06-07T15:34:52.203Z</time>
      </trkpt>
      <trkpt lat="63.812066" lon="-19.259550">
        <ele>546.387915</ele>
        <time>2024-06-07T15:37:30.414Z</time>
      </trkpt>
      <trkpt lat="63.810850" lon="-19.263099">
        <ele>545.122159</ele>
        <time>2024-06-07T15:42:02.156Z</time>
      </trkpt>
      <trkpt lat="63.810702" lon="-19.263883">
        <ele>544.813572</ele>
        <time>2024-06-07T15:42:53.895Z</time>
      </trkpt>
      <trkpt lat="63.810607" lon="-19.264753">
        <ele>544.489232</ele>
        <time>2024-06-07T15:43:48.503Z</time>
      </trkpt>
      <trkpt lat="63.810522" lon="-19.265092">
        <ele>544.348134</ele>
        <time>2024-06-07T15:44:12.328Z</time>
      </trkpt>
      <trkpt lat="63.810391" lon="-19.265212">
        <ele>544.232269</ele>
        <time>2024-06-07T15:44:31.690Z</time>
      </trkpt>
      <trkpt lat="63.809666" lon="-19.266278">
        <ele>543.770475</ele>
        <time>2024-06-07T15:46:29.889Z</time>
      </trkpt>
      <trkpt lat="63.809378" lon="-19.266556">
        <ele>543.607767</ele>
        <time>2024-06-07T15:47:12.262Z</time>
      </trkpt>
      <trkpt lat="63.809149" lon="-19.267050">
        <ele>543.443423</ele>
        <time>2024-06-07T15:47:55.125Z</time>
      </trkpt>
      <trkpt lat="63.808548" lon="-19.267817">
        <ele>542.825133</ele>
        <time>2024-06-07T15:49:29.502Z</time>
      </trkpt>
      <trkpt lat="63.808224" lon="-19.268354">
        <ele>542.312236</ele>
        <time>2024-06-07T15:50:24.932Z</time>
      </trkpt>
      <trkpt lat="63.808060" lon="-19.269109">
        <ele>541.837707</ele>
        <time>2024-06-07T15:51:16.355Z</time>
      </trkpt>
      <trkpt lat="63.807818" lon="-19.269987">
        <ele>541.253967</ele>
        <time>2024-06-07T15:52:20.056Z</time>
      </trkpt>
      <trkpt lat="63.807530" lon="-19.270814">
        <ele>540.394951</ele>
        <time>2024-06-07T15:53:25.638Z</time>
      </trkpt>
      <trkpt lat="63.807316" lon="-19.271590">
        <ele>539.430837</ele>
        <time>2024-06-07T15:54:23.283Z</time>
      </trkpt>
      <trkpt lat="63.806428" lon="-19.275100">
        <ele>535.866209</ele>
        <time>2024-06-07T15:58:36.860Z</time>
      </trkpt>
      <trkpt lat="63.806303" lon="-19.275438">
        <ele>535.617370</ele>
        <time>2024-06-07T15:59:03.909Z</time>
      </trkpt>
      <trkpt lat="63.806109" lon="-19.276603">
        <ele>534.914699</ele>
        <time>2024-06-07T16:00:19.644Z</time>
      </trkpt>
      <trkpt lat="63.805917" lon="-19.277755">
        <ele>534.517199</ele>
        <time>2024-06-07T16:01:33.461Z</time>
      </trkpt>
      <trkpt lat="63.805885" lon="-19.277866">
        <ele>534.588702</ele>
        <time>2024-06-07T16:01:39.332Z</time>
      </trkpt>
      <trkpt lat="63.805658" lon="-19.278180">
        <ele>534.913670</ele>
        <time>2024-06-07T16:02:06.474Z</time>
      </trkpt>
      <trkpt lat="63.805528" lon="-19.278346">
        <ele>535.096001</ele>
        <time>2024-06-07T16:02:21.808Z</time>
      </trkpt>
      <trkpt lat="63.804628" lon="-19.279531">
        <ele>536.367884</ele>
        <time>2024-06-07T16:04:12.268Z</time>
      </trkpt>
      <trkpt lat="63.804256" lon="-19.280186">
        <ele>536.952172</ele>
        <time>2024-06-07T16:05:03.037Z</time>
      </trkpt>
      <trkpt lat="63.804092" lon="-19.280676">
        <ele>537.291477</ele>
        <time>2024-06-07T16:05:32.023Z</time>
      </trkpt>
      <trkpt lat="63.803787" lon="-19.281078">
        <ele>537.732558</ele>
        <time>2024-06-07T16:06:09.256Z</time>
      </trkpt>
      <trkpt lat="63.803513" lon="-19.281631">
        <ele>538.191270</ele>
        <time>2024-06-07T16:06:47.371Z</time>
      </trkpt>
      <trkpt lat="63.803422" lon="-19.281912">
        <ele>538.383576</ele>
        <time>2024-06-07T16:07:03.120Z</time>
      </trkpt>
      <trkpt lat="63.803402" lon="-19.282143">
        <ele>538.513472</ele>
        <time>2024-06-07T16:07:13.872Z</time>
      </trkpt>
      <trkpt lat="63.803373" lon="-19.283900">
        <ele>539.070546</ele>
        <time>2024-06-07T16:08:32.486Z</time>
      </trkpt>
      <trkpt lat="63.803311" lon="-19.285034">
        <ele>539.309902</ele>
        <time>2024-06-07T16:09:22.966Z</time>
      </trkpt>
      <trkpt lat="63.803296" lon="-19.286647">
        <ele>539.647856</ele>
        <time>2024-06-07T16:10:35.210Z</time>
      </trkpt>
      <trkpt lat="63.803201" lon="-19.288135">
        <ele>540.718060</ele>
        <time>2024-06-07T16:11:44.953Z</time>
      </trkpt>
      <trkpt lat="63.803229" lon="-19.289154">
        <ele>541.485909</ele>
        <time>2024-06-07T16:12:33.279Z</time>
      </trkpt>
      <trkpt lat="63.803202" lon="-19.289738">
        <ele>541.927523</ele>
        <time>2024-06-07T16:13:01.249Z</time>
      </trkpt>
      <trkpt lat="63.803173" lon="-19.289977">
        <ele>542.113936</ele>
        <time>2024-06-07T16:13:13.065Z</time>
      </trkpt>
      <trkpt lat="63.803122" lon="-19.290166">
        <ele>542.280530</ele>
        <time>2024-06-07T16:13:23.690Z</time>
      </trkpt>
      <trkpt lat="63.802855" lon="-19.290626">
        <ele>542.828590</ele>
        <time>2024-06-07T16:13:59.963Z</time>
      </trkpt>
      <trkpt lat="63.802776" lon="-19.290836">
        <ele>542.994399</ele>
        <time>2024-06-07T16:14:13.051Z</time>
      </trkpt>
      <trkpt lat="63.802725" lon="-19.291071">
        <ele>543.151769</ele>
        <time>2024-06-07T16:14:25.444Z</time>
      </trkpt>
      <trkpt lat="63.800485" lon="-19.295333">
        <ele>546.512227</ele>
        <time>2024-06-07T16:21:16.514Z</time>
      </trkpt>
      <trkpt lat="63.800131" lon="-19.296160">
        <ele>546.902740</ele>
        <time>2024-06-07T16:22:26.016Z</time>
      </trkpt>
      <trkpt lat="63.799408" lon="-19.298103">
        <ele>547.305140</ele>
        <time>2024-06-07T16:24:58.575Z</time>
      </trkpt>
      <trkpt lat="63.797948" lon="-19.301431">
        <ele>548.667715</ele>
        <time>2024-06-07T16:29:44.083Z</time>
      </trkpt>
      <trkpt lat="63.797053" lon="-19.303611">
        <ele>550.615544</ele>
        <time>2024-06-07T16:32:51.854Z</time>
      </trkpt>
      <trkpt lat="63.796233" lon="-19.305380">
        <ele>552.443723</ele>
        <time>2024-06-07T16:35:35.030Z</time>
      </trkpt>
      <trkpt lat="63.795817" lon="-19.306208">
        <ele>553.288098</ele>
        <time>2024-06-07T16:36:54.012Z</time>
      </trkpt>
      <trkpt lat="63.795514" lon="-19.306810">
        <ele>553.902632</ele>
        <time>2024-06-07T16:37:50.900Z</time>
      </trkpt>
      <trkpt lat="63.794962" lon="-19.307719">
        <ele>555.159204</ele>
        <time>2024-06-07T16:39:27.093Z</time>
      </trkpt>
      <trkpt lat="63.794200" lon="-19.308728">
        <ele>557.343061</ele>
        <time>2024-06-07T16:41:33.931Z</time>
      </trkpt>
      <trkpt lat="63.793654" lon="-19.309616">
        <ele>559.006183</ele>
        <time>2024-06-07T16:43:14.260Z</time>
      </trkpt>
      <trkpt lat="63.792720" lon="-19.311649">
        <ele>566.660189</ele>
        <time>2024-06-07T16:46:42.668Z</time>
      </trkpt>
      <trkpt lat="63.792443" lon="-19.312368">
        <ele>569.167953</ele>
        <time>2024-06-07T16:47:54.787Z</time>
      </trkpt>
      <trkpt lat="63.792118" lon="-19.313334">
        <ele>572.856001</ele>
        <time>2024-06-07T16:49:27.269Z</time>
      </trkpt>
      <trkpt lat="63.791972" lon="-19.314026">
        <ele>575.255127</ele>
        <time>2024-06-07T16:50:25.542Z</time>
      </trkpt>
      <trkpt lat="63.791902" lon="-19.314773">
        <ele>577.643995</ele>
        <time>2024-06-07T16:51:23.339Z</time>
      </trkpt>
      <trkpt lat="63.791876" lon="-19.315504">
        <ele>579.938191</ele>
        <time>2024-06-07T16:52:17.877Z</time>
      </trkpt>
      <trkpt lat="63.791816" lon="-19.315939">
        <ele>581.363832</ele>
        <time>2024-06-07T16:52:51.068Z</time>
      </trkpt>
      <trkpt lat="63.791684" lon="-19.316445">
        <ele>582.436973</ele>
        <time>2024-06-07T16:53:32.630Z</time>
      </trkpt>
      <trkpt lat="63.791584" lon="-19.316714">
        <ele>582.352609</ele>
        <time>2024-06-07T16:53:56.915Z</time>
      </trkpt>
      <trkpt lat="63.791209" lon="-19.317458">
        <ele>582.081734</ele>
        <time>2024-06-07T16:55:09.944Z</time>
      </trkpt>
      <trkpt lat="63.790853" lon="-19.318453">
        <ele>581.774482</ele>
        <time>2024-06-07T16:56:28.065Z</time>
      </trkpt>
      <trkpt lat="63.790478" lon="-19.319378">
        <ele>580.802562</ele>
        <time>2024-06-07T16:57:50.969Z</time>
      </trkpt>
      <trkpt lat="63.790427" lon="-19.319615">
        <ele>579.707324</ele>
        <time>2024-06-07T16:58:09.047Z</time>
      </trkpt>
      <trkpt lat="63.790353" lon="-19.320257">
        <ele>576.950875</ele>
        <time>2024-06-07T16:58:55.738Z</time>
      </trkpt>
      <trkpt lat="63.790215" lon="-19.320525">
        <ele>575.240723</ele>
        <time>2024-06-07T16:59:25.123Z</time>
      </trkpt>
      <trkpt lat="63.790106" lon="-19.320561">
        <ele>574.204578</ele>
        <time>2024-06-07T16:59:43.262Z</time>
      </trkpt>
      <trkpt lat="63.789959" lon="-19.320610">
        <ele>572.806938</ele>
        <time>2024-06-07T17:00:07.784Z</time>
      </trkpt>
      <trkpt lat="63.789826" lon="-19.320724">
        <ele>571.469244</ele>
        <time>2024-06-07T17:00:31.451Z</time>
      </trkpt>
      <trkpt lat="63.789283" lon="-19.322264">
        <ele>563.854787</ele>
        <time>2024-06-07T17:02:54.487Z</time>
      </trkpt>
      <trkpt lat="63.788790" lon="-19.323370">
        <ele>560.171513</ele>
        <time>2024-06-07T17:04:42.429Z</time>
      </trkpt>
      <trkpt lat="63.788548" lon="-19.324435">
        <ele>557.364102</ele>
        <time>2024-06-07T17:05:59.879Z</time>
      </trkpt>
      <trkpt lat="63.788376" lon="-19.325836">
        <ele>554.898782</ele>
        <time>2024-06-07T17:07:28.212Z</time>
      </trkpt>
      <trkpt lat="63.788370" lon="-19.326942">
        <ele>554.540427</ele>
        <time>2024-06-07T17:08:36.064Z</time>
      </trkpt>
      <trkpt lat="63.788340" lon="-19.327205">
        <ele>554.452424</ele>
        <time>2024-06-07T17:08:52.850Z</time>
      </trkpt>
      <trkpt lat="63.788260" lon="-19.327634">
        <ele>554.301554</ele>
        <time>2024-06-07T17:09:21.079Z</time>
      </trkpt>
      <trkpt lat="63.788137" lon="-19.328120">
        <ele>554.120079</ele>
        <time>2024-06-07T17:09:54.545Z</time>
      </trkpt>
      <trkpt lat="63.788080" lon="-19.328580">
        <ele>553.965291</ele>
        <time>2024-06-07T17:10:23.704Z</time>
      </trkpt>
      <trkpt lat="63.788050" lon="-19.329025">
        <ele>553.819447</ele>
        <time>2024-06-07T17:10:51.482Z</time>
      </trkpt>
      <trkpt lat="63.788084" lon="-19.330141">
        <ele>552.439719</ele>
        <time>2024-06-07T17:12:02.279Z</time>
      </trkpt>
      <trkpt lat="63.788027" lon="-19.331221">
        <ele>550.777560</ele>
        <time>2024-06-07T17:13:12.170Z</time>
      </trkpt>
      <trkpt lat="63.787972" lon="-19.331619">
        <ele>550.140276</ele>
        <time>2024-06-07T17:13:39.127Z</time>
      </trkpt>
      <trkpt lat="63.787733" lon="-19.332542">
        <ele>548.505260</ele>
        <time>2024-06-07T17:14:48.510Z</time>
      </trkpt>
      <trkpt lat="63.787377" lon="-19.333609">
        <ele>546.713570</ele>
        <time>2024-06-07T17:16:14.504Z</time>
      </trkpt>
      <trkpt lat="63.787078" lon="-19.334653">
        <ele>545.269819</ele>
        <time>2024-06-07T17:17:33.303Z</time>
      </trkpt>
      <trkpt lat="63.786789" lon="-19.335465">
        <ele>544.059813</ele>
        <time>2024-06-07T17:18:38.415Z</time>
      </trkpt>
      <trkpt lat="63.786590" lon="-19.336313">
        <ele>542.945582</ele>
        <time>2024-06-07T17:19:37.851Z</time>
      </trkpt>
      <trkpt lat="63.785424" lon="-19.340533">
        <ele>540.097183</ele>
        <time>2024-06-07T17:24:43.836Z</time>
      </trkpt>
      <trkpt lat="63.785318" lon="-19.340723">
        <ele>540.067983</ele>
        <time>2024-06-07T17:25:02.324Z</time>
      </trkpt>
      <trkpt lat="63.785259" lon="-19.341173">
        <ele>540.023202</ele>
        <time>2024-06-07T17:25:30.684Z</time>
      </trkpt>
      <trkpt lat="63.785017" lon="-19.341704">
        <ele>539.950416</ele>
        <time>2024-06-07T17:26:16.406Z</time>
      </trkpt>
      <trkpt lat="63.784629" lon="-19.343016">
        <ele>539.799789</ele>
        <time>2024-06-07T17:27:51.480Z</time>
      </trkpt>
      <trkpt lat="63.783451" lon="-19.346499">
        <ele>542.230973</ele>
        <time>2024-06-07T17:32:24.719Z</time>
      </trkpt>
      <trkpt lat="63.783008" lon="-19.348236">
        <ele>545.032822</ele>
        <time>2024-06-07T17:34:34.431Z</time>
      </trkpt>
      <trkpt lat="63.782300" lon="-19.350458">
        <ele>549.641478</ele>
        <time>2024-06-07T17:37:42.034Z</time>
      </trkpt>
      <trkpt lat="63.781948" lon="-19.351264">
        <ele>552.331899</ele>
        <time>2024-06-07T17:39:03.038Z</time>
      </trkpt>
      <trkpt lat="63.781259" lon="-19.353528">
        <ele>558.491560</ele>
        <time>2024-06-07T17:42:20.071Z</time>
      </trkpt>
      <trkpt lat="63.781017" lon="-19.354080">
        <ele>559.871163</ele>
        <time>2024-06-07T17:43:15.011Z</time>
      </trkpt>
      <trkpt lat="63.779669" lon="-19.358084">
        <ele>566.954361</ele>
        <time>2024-06-07T17:48:48.821Z</time>
      </trkpt>
      <trkpt lat="63.779532" lon="-19.358567">
        <ele>567.521710</ele>
        <time>2024-06-07T17:49:24.821Z</time>
      </trkpt>
      <trkpt lat="63.779427" lon="-19.359099">
        <ele>568.097663</ele>
        <time>2024-06-07T17:50:00.986Z</time>
      </trkpt>
      <trkpt lat="63.779300" lon="-19.359430">
        <ele>568.531000</ele>
        <time>2024-06-07T17:50:28.161Z</time>
      </trkpt>
      <trkpt lat="63.778564" lon="-19.360991">
        <ele>568.860214</ele>
        <time>2024-06-07T17:52:46.388Z</time>
      </trkpt>
      <trkpt lat="63.778287" lon="-19.361739">
        <ele>568.953526</ele>
        <time>2024-06-07T17:53:44.809Z</time>
      </trkpt>
      <trkpt lat="63.777857" lon="-19.362693">
        <ele>568.884510</ele>
        <time>2024-06-07T17:55:06.139Z</time>
      </trkpt>
      <trkpt lat="63.776719" lon="-19.364671">
        <ele>567.677699</ele>
        <time>2024-06-07T17:58:24.468Z</time>
      </trkpt>
      <trkpt lat="63.776719" lon="-19.364671">
        <ele>567.677699</ele>
        <time>2024-06-07T17:58:24.491Z</time>
      </trkpt>
      <trkpt lat="63.776398" lon="-19.365617">
        <ele>567.232374</ele>
        <time>2024-06-07T17:59:36.981Z</time>
      </trkpt>
      <trkpt lat="63.776301" lon="-19.365943">
        <ele>567.085297</ele>
        <time>2024-06-07T18:00:00.656Z</time>
      </trkpt>
      <trkpt lat="63.775949" lon="-19.366558">
        <ele>566.708686</ele>
        <time>2024-06-07T18:01:01.417Z</time>
      </trkpt>
      <trkpt lat="63.775461" lon="-19.367116">
        <ele>566.245642</ele>
        <time>2024-06-07T18:02:16.834Z</time>
      </trkpt>
      <trkpt lat="63.774675" lon="-19.368290">
        <ele>564.756883</ele>
        <time>2024-06-07T18:04:26.546Z</time>
      </trkpt>
      <trkpt lat="63.774092" lon="-19.369337">
        <ele>563.347145</ele>
        <time>2024-06-07T18:06:11.513Z</time>
      </trkpt>
      <trkpt lat="63.773979" lon="-19.369541">
        <ele>563.073346</ele>
        <time>2024-06-07T18:06:32.237Z</time>
      </trkpt>
      <trkpt lat="63.773333" lon="-19.370994">
        <ele>561.137323</ele>
        <time>2024-06-07T18:08:42.850Z</time>
      </trkpt>
      <trkpt lat="63.773207" lon="-19.371347">
        <ele>560.693551</ele>
        <time>2024-06-07T18:09:03.862Z</time>
      </trkpt>
      <trkpt lat="63.772770" lon="-19.372143">
        <ele>559.452066</ele>
        <time>2024-06-07T18:10:02.540Z</time>
      </trkpt>
      <trkpt lat="63.771938" lon="-19.374251">
        <ele>557.150362</ele>
        <time>2024-06-07T18:12:55.376Z</time>
      </trkpt>
      <trkpt lat="63.771553" lon="-19.375236">
        <ele>556.172135</ele>
        <time>2024-06-07T18:14:15.467Z</time>
      </trkpt>
      <trkpt lat="63.771511" lon="-19.375321">
        <ele>556.077284</ele>
        <time>2024-06-07T18:14:23.379Z</time>
      </trkpt>
      <trkpt lat="63.770827" lon="-19.376678">
        <ele>551.477457</ele>
        <time>2024-06-07T18:16:34.860Z</time>
      </trkpt>
      <trkpt lat="63.770190" lon="-19.378053">
        <ele>545.648945</ele>
        <time>2024-06-07T18:18:50.441Z</time>
      </trkpt>
      <trkpt lat="63.770029" lon="-19.378145">
        <ele>544.549589</ele>
        <time>2024-06-07T18:19:17.058Z</time>
      </trkpt>
      <trkpt lat="63.769875" lon="-19.378042">
        <ele>543.239007</ele>
        <time>2024-06-07T18:19:43.493Z</time>
      </trkpt>
      <trkpt lat="63.769487" lon="-19.378042">
        <ele>537.460494</ele>
        <time>2024-06-07T18:20:48.542Z</time>
      </trkpt>
      <trkpt lat="63.769203" lon="-19.377901">
        <ele>533.130225</ele>
        <time>2024-06-07T18:21:38.631Z</time>
      </trkpt>
      <trkpt lat="63.769059" lon="-19.377830">
        <ele>530.935288</ele>
        <time>2024-06-07T18:22:04.191Z</time>
      </trkpt>
      <trkpt lat="63.768576" lon="-19.377633">
        <ele>523.625979</ele>
        <time>2024-06-07T18:23:31.048Z</time>
      </trkpt>
      <trkpt lat="63.768266" lon="-19.377706">
        <ele>518.984186</ele>
        <time>2024-06-07T18:24:27.150Z</time>
      </trkpt>
      <trkpt lat="63.767632" lon="-19.377619">
        <ele>508.302886</ele>
        <time>2024-06-07T18:26:25.401Z</time>
      </trkpt>
      <trkpt lat="63.767450" lon="-19.377494">
        <ele>505.000773</ele>
        <time>2024-06-07T18:27:02.239Z</time>
      </trkpt>
      <trkpt lat="63.767314" lon="-19.377301">
        <ele>502.213592</ele>
        <time>2024-06-07T18:27:32.285Z</time>
      </trkpt>
      <trkpt lat="63.767097" lon="-19.376616">
        <ele>495.746341</ele>
        <time>2024-06-07T18:28:40.852Z</time>
      </trkpt>
      <trkpt lat="63.766555" lon="-19.374984">
        <ele>485.670699</ele>
        <time>2024-06-07T18:30:39.384Z</time>
      </trkpt>
      <trkpt lat="63.766313" lon="-19.374095">
        <ele>485.670699</ele>
        <time>2024-06-07T18:31:36.547Z</time>
      </trkpt>
      <trkpt lat="63.766211" lon="-19.373892">
        <ele>485.670699</ele>
        <time>2024-06-07T18:31:52.791Z</time>
      </trkpt>
      <trkpt lat="63.766151" lon="-19.373813">
        <ele>485.670699</ele>
        <time>2024-06-07T18:32:01.245Z</time>
      </trkpt>
      <trkpt lat="63.766066" lon="-19.373837">
        <ele>485.670699</ele>
        <time>2024-06-07T18:32:11.534Z</time>
      </trkpt>
      <trkpt lat="63.765955" lon="-19.373816">
        <ele>485.670699</ele>
        <time>2024-06-07T18:32:24.593Z</time>
      </trkpt>
      <trkpt lat="63.765925" lon="-19.373795">
        <ele>485.670699</ele>
        <time>2024-06-07T18:32:28.354Z</time>
      </trkpt>
    </trkseg>
  </trk>
</gpx>