<?xml version="1.0" encoding="UTF-8"?>
<gpx version="1.1" creator="carnet-trek seed (OpenStreetMap, EU-DEM)" xmlns="http://www.topografix.com/GPX/1/1">
  <metadata>
    <name>GR10 – Aulus-les-Bains → Marc</name>
    <copyright author="OpenStreetMap contributors"><license>https://opendatacommons.org/licenses/odbl/</license></copyright>
  </metadata>
  <wpt lat="42.787414" lon="1.347092">
    <name>Aulus-les-Bains</name>
    <sym>Convenience Store</sym>
  </wpt>
  <wpt lat="42.772727" lon="1.411496">
    <name>Point culminant (1929 m)</name>
    <sym>Summit</sym>
  </wpt>
  <wpt lat="42.717842" lon="1.443167">
    <name>Gîte d’étape de la Tuto</name>
    <sym>Lodging</sym>
  </wpt>
  <wpt lat="42.765311" lon="1.413491">
    <name>Refuge de Bassiès</name>
    <sym>Lodging</sym>
  </wpt>
  <wpt lat="42.716969" lon="1.448609">
    <name>Marc</name>
    <sym>Convenience Store</sym>
  </wpt>
  <trk>
    <name>GR10 – Aulus-les-Bains → Marc</name>
    <type>hike</type>
    <trkseg>
      <trkpt lat="42.787414" lon="1.347092">
        <ele>786.3</ele>
        <time>2025-07-18T07:30:00.000Z</time>
      </trkpt>
      <trkpt lat="42.787252" lon="1.347802">
        <ele>792.9</ele>
        <time>2025-07-18T07:32:00.631Z</time>
      </trkpt>
      <trkpt lat="42.787135" lon="1.348077">
        <ele>797.9</ele>
        <time>2025-07-18T07:33:14.023Z</time>
      </trkpt>
      <trkpt lat="42.787255" lon="1.348388">
        <ele>803.5</ele>
        <time>2025-07-18T07:34:37.100Z</time>
      </trkpt>
      <trkpt lat="42.787308" lon="1.348759">
        <ele>812.7</ele>
        <time>2025-07-18T07:36:38.276Z</time>
      </trkpt>
      <trkpt lat="42.787499" lon="1.349185">
        <ele>824.8</ele>
        <time>2025-07-18T07:39:19.864Z</time>
      </trkpt>
      <trkpt lat="42.787655" lon="1.349499">
        <ele>831.9</ele>
        <time>2025-07-18T07:40:59.736Z</time>
      </trkpt>
      <trkpt lat="42.787896" lon="1.349575">
        <ele>838.3</ele>
        <time>2025-07-18T07:42:29.701Z</time>
      </trkpt>
      <trkpt lat="42.788052" lon="1.349840">
        <ele>845.1</ele>
        <time>2025-07-18T07:44:03.921Z</time>
      </trkpt>
      <trkpt lat="42.788233" lon="1.350162">
        <ele>854.3</ele>
        <time>2025-07-18T07:46:08.117Z</time>
      </trkpt>
      <trkpt lat="42.788503" lon="1.350469">
        <ele>865.3</ele>
        <time>2025-07-18T07:48:34.912Z</time>
      </trkpt>
      <trkpt lat="42.788707" lon="1.350581">
        <ele>872.4</ele>
        <time>2025-07-18T07:50:10.866Z</time>
      </trkpt>
      <trkpt lat="42.788882" lon="1.350971">
        <ele>883.1</ele>
        <time>2025-07-18T07:52:35.947Z</time>
      </trkpt>
      <trkpt lat="42.788784" lon="1.351670">
        <ele>895.9</ele>
        <time>2025-07-18T07:55:36.754Z</time>
      </trkpt>
      <trkpt lat="42.788350" lon="1.352638">
        <ele>907.6</ele>
        <time>2025-07-18T07:58:56.380Z</time>
      </trkpt>
      <trkpt lat="42.787953" lon="1.353915">
        <ele>930.3</ele>
        <time>2025-07-18T08:04:27.454Z</time>
      </trkpt>
      <trkpt lat="42.787756" lon="1.354798">
        <ele>942.8</ele>
        <time>2025-07-18T08:07:40.803Z</time>
      </trkpt>
      <trkpt lat="42.786790" lon="1.356406">
        <ele>948.3</ele>
        <time>2025-07-18T08:11:02.525Z</time>
      </trkpt>
      <trkpt lat="42.786854" lon="1.356884">
        <ele>957.7</ele>
        <time>2025-07-18T08:13:15.647Z</time>
      </trkpt>
      <trkpt lat="42.786653" lon="1.357156">
        <ele>961.1</ele>
        <time>2025-07-18T08:14:19.102Z</time>
      </trkpt>
      <trkpt lat="42.786511" lon="1.357549">
        <ele>962.7</ele>
        <time>2025-07-18T08:15:11.283Z</time>
      </trkpt>
      <trkpt lat="42.786327" lon="1.357748">
        <ele>966.3</ele>
        <time>2025-07-18T08:16:13.233Z</time>
      </trkpt>
      <trkpt lat="42.786473" lon="1.357981">
        <ele>969.7</ele>
        <time>2025-07-18T08:17:11.111Z</time>
      </trkpt>
      <trkpt lat="42.786565" lon="1.358283">
        <ele>971.5</ele>
        <time>2025-07-18T08:17:53.143Z</time>
      </trkpt>
      <trkpt lat="42.786031" lon="1.359306">
        <ele>978.6</ele>
        <time>2025-07-18T08:20:34.261Z</time>
      </trkpt>
      <trkpt lat="42.786031" lon="1.359714">
        <ele>982.6</ele>
        <time>2025-07-18T08:21:43.024Z</time>
      </trkpt>
      <trkpt lat="42.785866" lon="1.360121">
        <ele>987.0</ele>
        <time>2025-07-18T08:23:01.595Z</time>
      </trkpt>
      <trkpt lat="42.786051" lon="1.360588">
        <ele>993.4</ele>
        <time>2025-07-18T08:24:44.598Z</time>
      </trkpt>
      <trkpt lat="42.785729" lon="1.361422">
        <ele>1004.8</ele>
        <time>2025-07-18T08:27:47.575Z</time>
      </trkpt>
      <trkpt lat="42.785858" lon="1.362299">
        <ele>1028.4</ele>
        <time>2025-07-18T08:32:52.626Z</time>
      </trkpt>
      <trkpt lat="42.786083" lon="1.363190">
        <ele>1059.0</ele>
        <time>2025-07-18T08:39:13.105Z</time>
      </trkpt>
      <trkpt lat="42.786159" lon="1.364230">
        <ele>1085.6</ele>
        <time>2025-07-18T08:45:00.416Z</time>
      </trkpt>
      <trkpt lat="42.785883" lon="1.365581">
        <ele>1093.1</ele>
        <time>2025-07-18T08:47:55.294Z</time>
      </trkpt>
      <trkpt lat="42.785870" lon="1.366371">
        <ele>1109.0</ele>
        <time>2025-07-18T08:51:33.788Z</time>
      </trkpt>
      <trkpt lat="42.785641" lon="1.367309">
        <ele>1112.2</ele>
        <time>2025-07-18T08:53:15.809Z</time>
      </trkpt>
      <trkpt lat="42.785862" lon="1.367583">
        <ele>1118.8</ele>
        <time>2025-07-18T08:54:52.388Z</time>
      </trkpt>
      <trkpt lat="42.785858" lon="1.369005">
        <ele>1141.9</ele>
        <time>2025-07-18T09:00:29.319Z</time>
      </trkpt>
      <trkpt lat="42.785185" lon="1.371921">
        <ele>1150.3</ele>
        <time>2025-07-18T09:05:29.479Z</time>
      </trkpt>
      <trkpt lat="42.785429" lon="1.372432">
        <ele>1165.7</ele>
        <time>2025-07-18T09:08:50.922Z</time>
      </trkpt>
      <trkpt lat="42.785651" lon="1.372646">
        <ele>1175.1</ele>
        <time>2025-07-18T09:10:53.555Z</time>
      </trkpt>
      <trkpt lat="42.785564" lon="1.373049">
        <ele>1178.0</ele>
        <time>2025-07-18T09:11:55.423Z</time>
      </trkpt>
      <trkpt lat="42.785743" lon="1.373267">
        <ele>1180.2</ele>
        <time>2025-07-18T09:12:41.944Z</time>
      </trkpt>
      <trkpt lat="42.785835" lon="1.373695">
        <ele>1190.1</ele>
        <time>2025-07-18T09:14:55.102Z</time>
      </trkpt>
      <trkpt lat="42.785955" lon="1.373930">
        <ele>1197.1</ele>
        <time>2025-07-18T09:16:28.719Z</time>
      </trkpt>
      <trkpt lat="42.786164" lon="1.374215">
        <ele>1208.0</ele>
        <time>2025-07-18T09:18:49.499Z</time>
      </trkpt>
      <trkpt lat="42.786256" lon="1.374536">
        <ele>1209.8</ele>
        <time>2025-07-18T09:19:35.102Z</time>
      </trkpt>
      <trkpt lat="42.785483" lon="1.374798">
        <ele>1194.9</ele>
        <time>2025-07-18T09:22:20.542Z</time>
      </trkpt>
      <trkpt lat="42.786324" lon="1.376072">
        <ele>1239.8</ele>
        <time>2025-07-18T09:32:02.422Z</time>
      </trkpt>
      <trkpt lat="42.786465" lon="1.377822">
        <ele>1275.9</ele>
        <time>2025-07-18T09:40:16.870Z</time>
      </trkpt>
      <trkpt lat="42.786220" lon="1.379719">
        <ele>1300.6</ele>
        <time>2025-07-18T09:46:44.788Z</time>
      </trkpt>
      <trkpt lat="42.786329" lon="1.380626">
        <ele>1315.3</ele>
        <time>2025-07-18T09:50:20.797Z</time>
      </trkpt>
      <trkpt lat="42.786365" lon="1.380931">
        <ele>1319.9</ele>
        <time>2025-07-18T09:51:29.218Z</time>
      </trkpt>
      <trkpt lat="42.786046" lon="1.382103">
        <ele>1338.3</ele>
        <time>2025-07-18T09:56:06.359Z</time>
      </trkpt>
      <trkpt lat="42.785591" lon="1.382432">
        <ele>1347.8</ele>
        <time>2025-07-18T09:58:32.760Z</time>
      </trkpt>
      <trkpt lat="42.784910" lon="1.383521">
        <ele>1379.5</ele>
        <time>2025-07-18T10:05:39.720Z</time>
      </trkpt>
      <trkpt lat="42.784231" lon="1.384815">
        <ele>1391.5</ele>
        <time>2025-07-18T10:09:33.521Z</time>
      </trkpt>
      <trkpt lat="42.783582" lon="1.385668">
        <ele>1392.8</ele>
        <time>2025-07-18T10:11:13.315Z</time>
      </trkpt>
      <trkpt lat="42.783413" lon="1.386118">
        <ele>1395.0</ele>
        <time>2025-07-18T10:12:11.260Z</time>
      </trkpt>
      <trkpt lat="42.783210" lon="1.386351">
        <ele>1396.6</ele>
        <time>2025-07-18T10:12:52.611Z</time>
      </trkpt>
      <trkpt lat="42.783107" lon="1.386788">
        <ele>1398.2</ele>
        <time>2025-07-18T10:13:41.303Z</time>
      </trkpt>
      <trkpt lat="42.783077" lon="1.387131">
        <ele>1399.9</ele>
        <time>2025-07-18T10:14:23.792Z</time>
      </trkpt>
      <trkpt lat="42.783006" lon="1.387606">
        <ele>1403.3</ele>
        <time>2025-07-18T10:15:31.914Z</time>
      </trkpt>
      <trkpt lat="42.782859" lon="1.388125">
        <ele>1408.8</ele>
        <time>2025-07-18T10:17:07.923Z</time>
      </trkpt>
      <trkpt lat="42.782664" lon="1.388288">
        <ele>1411.6</ele>
        <time>2025-07-18T10:17:59.333Z</time>
      </trkpt>
      <trkpt lat="42.782410" lon="1.388361">
        <ele>1414.6</ele>
        <time>2025-07-18T10:18:54.121Z</time>
      </trkpt>
      <trkpt lat="42.782185" lon="1.388446">
        <ele>1417.4</ele>
        <time>2025-07-18T10:19:45.818Z</time>
      </trkpt>
      <trkpt lat="42.782051" lon="1.388722">
        <ele>1420.8</ele>
        <time>2025-07-18T10:20:44.274Z</time>
      </trkpt>
      <trkpt lat="42.781792" lon="1.389103">
        <ele>1426.0</ele>
        <time>2025-07-18T10:22:14.812Z</time>
      </trkpt>
      <trkpt lat="42.781541" lon="1.389349">
        <ele>1430.1</ele>
        <time>2025-07-18T10:23:27.389Z</time>
      </trkpt>
      <trkpt lat="42.781277" lon="1.389601">
        <ele>1435.6</ele>
        <time>2025-07-18T10:24:53.832Z</time>
      </trkpt>
      <trkpt lat="42.781009" lon="1.389851">
        <ele>1441.0</ele>
        <time>2025-07-18T10:26:20.820Z</time>
      </trkpt>
      <trkpt lat="42.780965" lon="1.390183">
        <ele>1444.4</ele>
        <time>2025-07-18T10:27:19.536Z</time>
      </trkpt>
      <trkpt lat="42.781111" lon="1.390688">
        <ele>1449.9</ele>
        <time>2025-07-18T10:28:54.443Z</time>
      </trkpt>
      <trkpt lat="42.781220" lon="1.391048">
        <ele>1451.2</ele>
        <time>2025-07-18T10:29:36.030Z</time>
      </trkpt>
      <trkpt lat="42.781350" lon="1.391363">
        <ele>1452.9</ele>
        <time>2025-07-18T10:30:18.422Z</time>
      </trkpt>
      <trkpt lat="42.781360" lon="1.391971">
        <ele>1458.7</ele>
        <time>2025-07-18T10:32:01.053Z</time>
      </trkpt>
      <trkpt lat="42.781445" lon="1.392252">
        <ele>1460.0</ele>
        <time>2025-07-18T10:32:35.766Z</time>
      </trkpt>
      <trkpt lat="42.781639" lon="1.392509">
        <ele>1461.5</ele>
        <time>2025-07-18T10:33:17.694Z</time>
      </trkpt>
      <trkpt lat="42.781616" lon="1.392663">
        <ele>1464.5</ele>
        <time>2025-07-18T10:34:09.973Z</time>
      </trkpt>
      <trkpt lat="42.781327" lon="1.392683">
        <ele>1468.1</ele>
        <time>2025-07-18T10:35:15.793Z</time>
      </trkpt>
      <trkpt lat="42.781031" lon="1.392755">
        <ele>1472.1</ele>
        <time>2025-07-18T10:36:25.430Z</time>
      </trkpt>
      <trkpt lat="42.780827" lon="1.392912">
        <ele>1475.4</ele>
        <time>2025-07-18T10:37:21.415Z</time>
      </trkpt>
      <trkpt lat="42.780822" lon="1.394775">
        <ele>1496.5</ele>
        <time>2025-07-18T10:43:09.672Z</time>
      </trkpt>
      <trkpt lat="42.781107" lon="1.395325">
        <ele>1502.6</ele>
        <time>2025-07-18T10:45:01.121Z</time>
      </trkpt>
      <trkpt lat="42.781336" lon="1.395389">
        <ele>1502.1</ele>
        <time>2025-07-18T10:45:26.976Z</time>
      </trkpt>
      <trkpt lat="42.781543" lon="1.395255">
        <ele>1501.6</ele>
        <time>2025-07-18T10:45:54.798Z</time>
      </trkpt>
      <trkpt lat="42.781761" lon="1.395163">
        <ele>1503.3</ele>
        <time>2025-07-18T10:46:34.494Z</time>
      </trkpt>
      <trkpt lat="42.781996" lon="1.395097">
        <ele>1505.0</ele>
        <time>2025-07-18T10:47:15.521Z</time>
      </trkpt>
      <trkpt lat="42.782236" lon="1.395298">
        <ele>1509.2</ele>
        <time>2025-07-18T10:48:25.732Z</time>
      </trkpt>
      <trkpt lat="42.782446" lon="1.395257">
        <ele>1512.5</ele>
        <time>2025-07-18T10:49:22.078Z</time>
      </trkpt>
      <trkpt lat="42.782723" lon="1.395358">
        <ele>1516.9</ele>
        <time>2025-07-18T10:50:38.907Z</time>
      </trkpt>
      <trkpt lat="42.782941" lon="1.395549">
        <ele>1524.4</ele>
        <time>2025-07-18T10:52:22.031Z</time>
      </trkpt>
      <trkpt lat="42.783094" lon="1.395806">
        <ele>1533.2</ele>
        <time>2025-07-18T10:54:17.151Z</time>
      </trkpt>
      <trkpt lat="42.782870" lon="1.395951">
        <ele>1536.0</ele>
        <time>2025-07-18T10:55:10.686Z</time>
      </trkpt>
      <trkpt lat="42.782547" lon="1.396032">
        <ele>1535.3</ele>
        <time>2025-07-18T10:55:47.322Z</time>
      </trkpt>
      <trkpt lat="42.782274" lon="1.396096">
        <ele>1536.5</ele>
        <time>2025-07-18T10:56:26.446Z</time>
      </trkpt>
      <trkpt lat="42.781948" lon="1.396176">
        <ele>1539.9</ele>
        <time>2025-07-18T10:57:33.570Z</time>
      </trkpt>
      <trkpt lat="42.781945" lon="1.396390">
        <ele>1546.7</ele>
        <time>2025-07-18T10:59:18.453Z</time>
      </trkpt>
      <trkpt lat="42.782155" lon="1.396627">
        <ele>1554.9</ele>
        <time>2025-07-18T11:01:08.637Z</time>
      </trkpt>
      <trkpt lat="42.782475" lon="1.396890">
        <ele>1566.0</ele>
        <time>2025-07-18T11:03:39.433Z</time>
      </trkpt>
      <trkpt lat="42.782754" lon="1.397055">
        <ele>1572.2</ele>
        <time>2025-07-18T11:05:11.660Z</time>
      </trkpt>
      <trkpt lat="42.783019" lon="1.397014">
        <ele>1577.5</ele>
        <time>2025-07-18T11:06:32.099Z</time>
      </trkpt>
      <trkpt lat="42.783311" lon="1.396925">
        <ele>1584.0</ele>
        <time>2025-07-18T11:08:07.169Z</time>
      </trkpt>
      <trkpt lat="42.783530" lon="1.396902">
        <ele>1588.9</ele>
        <time>2025-07-18T11:09:19.103Z</time>
      </trkpt>
      <trkpt lat="42.783754" lon="1.396654">
        <ele>1586.6</ele>
        <time>2025-07-18T11:10:00.502Z</time>
      </trkpt>
      <trkpt lat="42.783906" lon="1.396260">
        <ele>1584.1</ele>
        <time>2025-07-18T11:10:46.740Z</time>
      </trkpt>
      <trkpt lat="42.784195" lon="1.395934">
        <ele>1590.5</ele>
        <time>2025-07-18T11:12:27.930Z</time>
      </trkpt>
      <trkpt lat="42.784444" lon="1.395690">
        <ele>1597.0</ele>
        <time>2025-07-18T11:14:04.852Z</time>
      </trkpt>
      <trkpt lat="42.784670" lon="1.395568">
        <ele>1603.3</ele>
        <time>2025-07-18T11:15:34.736Z</time>
      </trkpt>
      <trkpt lat="42.784849" lon="1.395450">
        <ele>1605.2</ele>
        <time>2025-07-18T11:16:15.265Z</time>
      </trkpt>
      <trkpt lat="42.784667" lon="1.395732">
        <ele>1607.6</ele>
        <time>2025-07-18T11:17:07.422Z</time>
      </trkpt>
      <trkpt lat="42.784457" lon="1.396045">
        <ele>1609.2</ele>
        <time>2025-07-18T11:17:54.635Z</time>
      </trkpt>
      <trkpt lat="42.784341" lon="1.396404">
        <ele>1610.8</ele>
        <time>2025-07-18T11:18:38.124Z</time>
      </trkpt>
      <trkpt lat="42.784258" lon="1.396673">
        <ele>1614.6</ele>
        <time>2025-07-18T11:19:39.085Z</time>
      </trkpt>
      <trkpt lat="42.784129" lon="1.396950">
        <ele>1618.7</ele>
        <time>2025-07-18T11:20:44.340Z</time>
      </trkpt>
      <trkpt lat="42.784172" lon="1.397319">
        <ele>1631.8</ele>
        <time>2025-07-18T11:23:24.729Z</time>
      </trkpt>
      <trkpt lat="42.784040" lon="1.397625">
        <ele>1641.1</ele>
        <time>2025-07-18T11:25:28.560Z</time>
      </trkpt>
      <trkpt lat="42.783833" lon="1.397855">
        <ele>1638.5</ele>
        <time>2025-07-18T11:26:09.802Z</time>
      </trkpt>
      <trkpt lat="42.783675" lon="1.398097">
        <ele>1636.4</ele>
        <time>2025-07-18T11:26:46.197Z</time>
      </trkpt>
      <trkpt lat="42.783416" lon="1.398243">
        <ele>1633.9</ele>
        <time>2025-07-18T11:27:31.048Z</time>
      </trkpt>
      <trkpt lat="42.783071" lon="1.398398">
        <ele>1634.6</ele>
        <time>2025-07-18T11:28:12.997Z</time>
      </trkpt>
      <trkpt lat="42.782848" lon="1.398504">
        <ele>1637.1</ele>
        <time>2025-07-18T11:29:01.181Z</time>
      </trkpt>
      <trkpt lat="42.782666" lon="1.398711">
        <ele>1643.0</ele>
        <time>2025-07-18T11:30:25.344Z</time>
      </trkpt>
      <trkpt lat="42.782513" lon="1.398998">
        <ele>1651.8</ele>
        <time>2025-07-18T11:32:20.167Z</time>
      </trkpt>
      <trkpt lat="42.782430" lon="1.399298">
        <ele>1657.0</ele>
        <time>2025-07-18T11:33:36.721Z</time>
      </trkpt>
      <trkpt lat="42.782146" lon="1.399539">
        <ele>1663.8</ele>
        <time>2025-07-18T11:35:19.314Z</time>
      </trkpt>
      <trkpt lat="42.781864" lon="1.399881">
        <ele>1672.4</ele>
        <time>2025-07-18T11:37:23.712Z</time>
      </trkpt>
      <trkpt lat="42.781986" lon="1.399892">
        <ele>1675.1</ele>
        <time>2025-07-18T11:38:16.478Z</time>
      </trkpt>
      <trkpt lat="42.782215" lon="1.399793">
        <ele>1676.0</ele>
        <time>2025-07-18T11:38:49.585Z</time>
      </trkpt>
      <trkpt lat="42.782446" lon="1.399821">
        <ele>1677.7</ele>
        <time>2025-07-18T11:39:29.666Z</time>
      </trkpt>
      <trkpt lat="42.782659" lon="1.399653">
        <ele>1680.0</ele>
        <time>2025-07-18T11:40:18.640Z</time>
      </trkpt>
      <trkpt lat="42.782818" lon="1.399392">
        <ele>1680.8</ele>
        <time>2025-07-18T11:40:51.875Z</time>
      </trkpt>
      <trkpt lat="42.783019" lon="1.399225">
        <ele>1680.6</ele>
        <time>2025-07-18T11:41:16.556Z</time>
      </trkpt>
      <trkpt lat="42.783313" lon="1.399055">
        <ele>1686.9</ele>
        <time>2025-07-18T11:42:51.802Z</time>
      </trkpt>
      <trkpt lat="42.783597" lon="1.399146">
        <ele>1694.8</ele>
        <time>2025-07-18T11:44:41.511Z</time>
      </trkpt>
      <trkpt lat="42.783948" lon="1.399050">
        <ele>1704.7</ele>
        <time>2025-07-18T11:46:57.732Z</time>
      </trkpt>
      <trkpt lat="42.784026" lon="1.399143">
        <ele>1707.5</ele>
        <time>2025-07-18T11:47:53.427Z</time>
      </trkpt>
      <trkpt lat="42.783750" lon="1.399306">
        <ele>1707.6</ele>
        <time>2025-07-18T11:48:24.565Z</time>
      </trkpt>
      <trkpt lat="42.783496" lon="1.399321">
        <ele>1705.4</ele>
        <time>2025-07-18T11:49:03.003Z</time>
      </trkpt>
      <trkpt lat="42.783277" lon="1.399529">
        <ele>1703.2</ele>
        <time>2025-07-18T11:49:42.292Z</time>
      </trkpt>
      <trkpt lat="42.783118" lon="1.399942">
        <ele>1715.4</ele>
        <time>2025-07-18T11:52:21.354Z</time>
      </trkpt>
      <trkpt lat="42.783036" lon="1.400276">
        <ele>1723.3</ele>
        <time>2025-07-18T11:54:06.789Z</time>
      </trkpt>
      <trkpt lat="42.782980" lon="1.400555">
        <ele>1728.8</ele>
        <time>2025-07-18T11:55:25.894Z</time>
      </trkpt>
      <trkpt lat="42.782826" lon="1.400818">
        <ele>1730.6</ele>
        <time>2025-07-18T11:56:08.977Z</time>
      </trkpt>
      <trkpt lat="42.782463" lon="1.401049">
        <ele>1726.2</ele>
        <time>2025-07-18T11:57:14.046Z</time>
      </trkpt>
      <trkpt lat="42.782340" lon="1.401348">
        <ele>1730.8</ele>
        <time>2025-07-18T11:58:25.895Z</time>
      </trkpt>
      <trkpt lat="42.782145" lon="1.401600">
        <ele>1735.8</ele>
        <time>2025-07-18T11:59:43.781Z</time>
      </trkpt>
      <trkpt lat="42.781967" lon="1.401862">
        <ele>1741.2</ele>
        <time>2025-07-18T12:01:04.441Z</time>
      </trkpt>
      <trkpt lat="42.781798" lon="1.402114">
        <ele>1746.3</ele>
        <time>2025-07-18T12:02:20.956Z</time>
      </trkpt>
      <trkpt lat="42.781909" lon="1.402174">
        <ele>1748.8</ele>
        <time>2025-07-18T12:03:12.301Z</time>
      </trkpt>
      <trkpt lat="42.782167" lon="1.402025">
        <ele>1751.8</ele>
        <time>2025-07-18T12:04:10.141Z</time>
      </trkpt>
      <trkpt lat="42.782402" lon="1.402000">
        <ele>1755.4</ele>
        <time>2025-07-18T12:05:09.521Z</time>
      </trkpt>
      <trkpt lat="42.782654" lon="1.401912">
        <ele>1759.2</ele>
        <time>2025-07-18T12:06:13.455Z</time>
      </trkpt>
      <trkpt lat="42.782885" lon="1.401951">
        <ele>1762.3</ele>
        <time>2025-07-18T12:07:07.684Z</time>
      </trkpt>
      <trkpt lat="42.782687" lon="1.402105">
        <ele>1765.7</ele>
        <time>2025-07-18T12:08:07.053Z</time>
      </trkpt>
      <trkpt lat="42.782452" lon="1.402340">
        <ele>1769.9</ele>
        <time>2025-07-18T12:09:17.624Z</time>
      </trkpt>
      <trkpt lat="42.782325" lon="1.402619">
        <ele>1773.3</ele>
        <time>2025-07-18T12:10:16.557Z</time>
      </trkpt>
      <trkpt lat="42.782276" lon="1.403002">
        <ele>1780.7</ele>
        <time>2025-07-18T12:11:59.401Z</time>
      </trkpt>
      <trkpt lat="42.782195" lon="1.403309">
        <ele>1785.7</ele>
        <time>2025-07-18T12:13:13.889Z</time>
      </trkpt>
      <trkpt lat="42.781888" lon="1.403716">
        <ele>1785.1</ele>
        <time>2025-07-18T12:14:00.890Z</time>
      </trkpt>
      <trkpt lat="42.781650" lon="1.403925">
        <ele>1782.7</ele>
        <time>2025-07-18T12:14:42.612Z</time>
      </trkpt>
      <trkpt lat="42.781334" lon="1.404179">
        <ele>1779.5</ele>
        <time>2025-07-18T12:15:36.359Z</time>
      </trkpt>
      <trkpt lat="42.781140" lon="1.404245">
        <ele>1783.2</ele>
        <time>2025-07-18T12:16:35.659Z</time>
      </trkpt>
      <trkpt lat="42.780919" lon="1.404252">
        <ele>1787.3</ele>
        <time>2025-07-18T12:17:41.440Z</time>
      </trkpt>
      <trkpt lat="42.780788" lon="1.404088">
        <ele>1794.8</ele>
        <time>2025-07-18T12:19:20.585Z</time>
      </trkpt>
      <trkpt lat="42.780611" lon="1.404193">
        <ele>1802.6</ele>
        <time>2025-07-18T12:21:04.481Z</time>
      </trkpt>
      <trkpt lat="42.780436" lon="1.404084">
        <ele>1812.0</ele>
        <time>2025-07-18T12:23:05.401Z</time>
      </trkpt>
      <trkpt lat="42.780312" lon="1.403984">
        <ele>1820.8</ele>
        <time>2025-07-18T12:24:57.524Z</time>
      </trkpt>
      <trkpt lat="42.780173" lon="1.404080">
        <ele>1829.5</ele>
        <time>2025-07-18T12:26:49.558Z</time>
      </trkpt>
      <trkpt lat="42.779969" lon="1.403906">
        <ele>1839.9</ele>
        <time>2025-07-18T12:29:08.006Z</time>
      </trkpt>
      <trkpt lat="42.779818" lon="1.404070">
        <ele>1845.6</ele>
        <time>2025-07-18T12:30:30.731Z</time>
      </trkpt>
      <trkpt lat="42.779736" lon="1.403937">
        <ele>1850.4</ele>
        <time>2025-07-18T12:31:46.472Z</time>
      </trkpt>
      <trkpt lat="42.779603" lon="1.404025">
        <ele>1853.2</ele>
        <time>2025-07-18T12:32:36.824Z</time>
      </trkpt>
      <trkpt lat="42.779468" lon="1.404165">
        <ele>1855.9</ele>
        <time>2025-07-18T12:33:29.776Z</time>
      </trkpt>
      <trkpt lat="42.779357" lon="1.404251">
        <ele>1858.2</ele>
        <time>2025-07-18T12:34:17.808Z</time>
      </trkpt>
      <trkpt lat="42.779156" lon="1.404266">
        <ele>1861.9</ele>
        <time>2025-07-18T12:35:18.779Z</time>
      </trkpt>
      <trkpt lat="42.778923" lon="1.404331">
        <ele>1866.3</ele>
        <time>2025-07-18T12:36:27.709Z</time>
      </trkpt>
      <trkpt lat="42.778625" lon="1.404376">
        <ele>1872.0</ele>
        <time>2025-07-18T12:37:56.293Z</time>
      </trkpt>
      <trkpt lat="42.778307" lon="1.404494">
        <ele>1878.6</ele>
        <time>2025-07-18T12:39:37.388Z</time>
      </trkpt>
      <trkpt lat="42.778039" lon="1.404740">
        <ele>1879.6</ele>
        <time>2025-07-18T12:40:19.089Z</time>
      </trkpt>
      <trkpt lat="42.777864" lon="1.404942">
        <ele>1879.7</ele>
        <time>2025-07-18T12:40:41.560Z</time>
      </trkpt>
      <trkpt lat="42.777702" lon="1.405215">
        <ele>1878.6</ele>
        <time>2025-07-18T12:41:12.701Z</time>
      </trkpt>
      <trkpt lat="42.777533" lon="1.405368">
        <ele>1877.3</ele>
        <time>2025-07-18T12:41:42.128Z</time>
      </trkpt>
      <trkpt lat="42.777397" lon="1.405637">
        <ele>1875.1</ele>
        <time>2025-07-18T12:42:19.283Z</time>
      </trkpt>
      <trkpt lat="42.777337" lon="1.405960">
        <ele>1873.1</ele>
        <time>2025-07-18T12:42:55.913Z</time>
      </trkpt>
      <trkpt lat="42.777256" lon="1.406237">
        <ele>1871.9</ele>
        <time>2025-07-18T12:43:29.128Z</time>
      </trkpt>
      <trkpt lat="42.777089" lon="1.406430">
        <ele>1872.2</ele>
        <time>2025-07-18T12:43:55.594Z</time>
      </trkpt>
      <trkpt lat="42.776834" lon="1.406650">
        <ele>1875.0</ele>
        <time>2025-07-18T12:44:53.459Z</time>
      </trkpt>
      <trkpt lat="42.776652" lon="1.406928">
        <ele>1877.3</ele>
        <time>2025-07-18T12:45:44.309Z</time>
      </trkpt>
      <trkpt lat="42.776439" lon="1.407120">
        <ele>1879.7</ele>
        <time>2025-07-18T12:46:36.786Z</time>
      </trkpt>
      <trkpt lat="42.776326" lon="1.407525">
        <ele>1881.5</ele>
        <time>2025-07-18T12:47:26.967Z</time>
      </trkpt>
      <trkpt lat="42.776152" lon="1.407787">
        <ele>1881.2</ele>
        <time>2025-07-18T12:47:53.473Z</time>
      </trkpt>
      <trkpt lat="42.776049" lon="1.408193">
        <ele>1879.0</ele>
        <time>2025-07-18T12:48:36.423Z</time>
      </trkpt>
      <trkpt lat="42.776025" lon="1.408503">
        <ele>1875.9</ele>
        <time>2025-07-18T12:49:18.107Z</time>
      </trkpt>
      <trkpt lat="42.775864" lon="1.408829">
        <ele>1871.8</ele>
        <time>2025-07-18T12:50:11.041Z</time>
      </trkpt>
      <trkpt lat="42.775791" lon="1.409116">
        <ele>1871.0</ele>
        <time>2025-07-18T12:50:37.348Z</time>
      </trkpt>
      <trkpt lat="42.775635" lon="1.409410">
        <ele>1870.2</ele>
        <time>2025-07-18T12:51:08.472Z</time>
      </trkpt>
      <trkpt lat="42.775471" lon="1.409638">
        <ele>1872.8</ele>
        <time>2025-07-18T12:52:00.436Z</time>
      </trkpt>
      <trkpt lat="42.775317" lon="1.409884">
        <ele>1875.4</ele>
        <time>2025-07-18T12:52:50.692Z</time>
      </trkpt>
      <trkpt lat="42.775088" lon="1.410170">
        <ele>1878.7</ele>
        <time>2025-07-18T12:53:54.990Z</time>
      </trkpt>
      <trkpt lat="42.774849" lon="1.410239">
        <ele>1884.1</ele>
        <time>2025-07-18T12:55:19.613Z</time>
      </trkpt>
      <trkpt lat="42.774585" lon="1.410273">
        <ele>1892.0</ele>
        <time>2025-07-18T12:57:05.383Z</time>
      </trkpt>
      <trkpt lat="42.774302" lon="1.410426">
        <ele>1901.1</ele>
        <time>2025-07-18T12:59:09.988Z</time>
      </trkpt>
      <trkpt lat="42.774078" lon="1.410460">
        <ele>1907.6</ele>
        <time>2025-07-18T13:00:37.839Z</time>
      </trkpt>
      <trkpt lat="42.773895" lon="1.410567">
        <ele>1911.1</ele>
        <time>2025-07-18T13:01:35.466Z</time>
      </trkpt>
      <trkpt lat="42.773695" lon="1.410841">
        <ele>1912.8</ele>
        <time>2025-07-18T13:02:20.710Z</time>
      </trkpt>
      <trkpt lat="42.773367" lon="1.411148">
        <ele>1918.4</ele>
        <time>2025-07-18T13:03:56.674Z</time>
      </trkpt>
      <trkpt lat="42.773146" lon="1.411279">
        <ele>1922.5</ele>
        <time>2025-07-18T13:05:01.905Z</time>
      </trkpt>
      <trkpt lat="42.772962" lon="1.411452">
        <ele>1925.4</ele>
        <time>2025-07-18T13:05:53.672Z</time>
      </trkpt>
      <trkpt lat="42.772727" lon="1.411496">
        <ele>1928.5</ele>
        <time>2025-07-18T13:06:48.644Z</time>
      </trkpt>
      <trkpt lat="42.772549" lon="1.411720">
        <ele>1928.3</ele>
        <time>2025-07-18T13:07:14.928Z</time>
      </trkpt>
      <trkpt lat="42.772306" lon="1.411750">
        <ele>1927.6</ele>
        <time>2025-07-18T13:07:42.351Z</time>
      </trkpt>
      <trkpt lat="42.772091" lon="1.411847">
        <ele>1924.6</ele>
        <time>2025-07-18T13:08:22.967Z</time>
      </trkpt>
      <trkpt lat="42.771918" lon="1.411855">
        <ele>1921.4</ele>
        <time>2025-07-18T13:09:03.679Z</time>
      </trkpt>
      <trkpt lat="42.771785" lon="1.412039">
        <ele>1915.7</ele>
        <time>2025-07-18T13:10:06.439Z</time>
      </trkpt>
      <trkpt lat="42.771568" lon="1.412221">
        <ele>1909.4</ele>
        <time>2025-07-18T13:11:11.668Z</time>
      </trkpt>
      <trkpt lat="42.771326" lon="1.412104">
        <ele>1902.5</ele>
        <time>2025-07-18T13:12:18.217Z</time>
      </trkpt>
      <trkpt lat="42.771124" lon="1.412087">
        <ele>1896.0</ele>
        <time>2025-07-18T13:13:19.739Z</time>
      </trkpt>
      <trkpt lat="42.770913" lon="1.412207">
        <ele>1889.3</ele>
        <time>2025-07-18T13:14:22.348Z</time>
      </trkpt>
      <trkpt lat="42.770794" lon="1.412414">
        <ele>1883.6</ele>
        <time>2025-07-18T13:15:20.622Z</time>
      </trkpt>
      <trkpt lat="42.770704" lon="1.412675">
        <ele>1879.1</ele>
        <time>2025-07-18T13:16:09.561Z</time>
      </trkpt>
      <trkpt lat="42.770549" lon="1.412645">
        <ele>1875.1</ele>
        <time>2025-07-18T13:16:57.232Z</time>
      </trkpt>
      <trkpt lat="42.770452" lon="1.412425">
        <ele>1872.0</ele>
        <time>2025-07-18T13:17:37.907Z</time>
      </trkpt>
      <trkpt lat="42.770260" lon="1.412256">
        <ele>1867.5</ele>
        <time>2025-07-18T13:18:28.337Z</time>
      </trkpt>
      <trkpt lat="42.770159" lon="1.412235">
        <ele>1862.4</ele>
        <time>2025-07-18T13:19:21.606Z</time>
      </trkpt>
      <trkpt lat="42.769998" lon="1.412109">
        <ele>1854.4</ele>
        <time>2025-07-18T13:20:32.728Z</time>
      </trkpt>
      <trkpt lat="42.769867" lon="1.412261">
        <ele>1845.4</ele>
        <time>2025-07-18T13:21:51.166Z</time>
      </trkpt>
      <trkpt lat="42.769715" lon="1.412514">
        <ele>1834.1</ele>
        <time>2025-07-18T13:23:22.342Z</time>
      </trkpt>
      <trkpt lat="42.769587" lon="1.412810">
        <ele>1821.6</ele>
        <time>2025-07-18T13:25:02.721Z</time>
      </trkpt>
      <trkpt lat="42.769510" lon="1.413107">
        <ele>1813.9</ele>
        <time>2025-07-18T13:26:10.902Z</time>
      </trkpt>
      <trkpt lat="42.769444" lon="1.413412">
        <ele>1805.7</ele>
        <time>2025-07-18T13:27:23.378Z</time>
      </trkpt>
      <trkpt lat="42.769324" lon="1.413623">
        <ele>1797.3</ele>
        <time>2025-07-18T13:28:38.194Z</time>
      </trkpt>
      <trkpt lat="42.769260" lon="1.413897">
        <ele>1789.4</ele>
        <time>2025-07-18T13:29:48.073Z</time>
      </trkpt>
      <trkpt lat="42.769193" lon="1.413984">
        <ele>1781.8</ele>
        <time>2025-07-18T13:30:55.396Z</time>
      </trkpt>
      <trkpt lat="42.769013" lon="1.414014">
        <ele>1770.8</ele>
        <time>2025-07-18T13:32:32.853Z</time>
      </trkpt>
      <trkpt lat="42.768871" lon="1.414004">
        <ele>1759.6</ele>
        <time>2025-07-18T13:34:01.519Z</time>
      </trkpt>
      <trkpt lat="42.768671" lon="1.413868">
        <ele>1747.9</ele>
        <time>2025-07-18T13:35:34.966Z</time>
      </trkpt>
      <trkpt lat="42.768481" lon="1.414092">
        <ele>1733.2</ele>
        <time>2025-07-18T13:37:27.247Z</time>
      </trkpt>
      <trkpt lat="42.768251" lon="1.414261">
        <ele>1716.3</ele>
        <time>2025-07-18T13:39:39.958Z</time>
      </trkpt>
      <trkpt lat="42.768058" lon="1.414490">
        <ele>1704.8</ele>
        <time>2025-07-18T13:41:14.391Z</time>
      </trkpt>
      <trkpt lat="42.767939" lon="1.414605">
        <ele>1696.7</ele>
        <time>2025-07-18T13:42:25.768Z</time>
      </trkpt>
      <trkpt lat="42.767768" lon="1.414559">
        <ele>1689.6</ele>
        <time>2025-07-18T13:43:32.292Z</time>
      </trkpt>
      <trkpt lat="42.767616" lon="1.414619">
        <ele>1682.1</ele>
        <time>2025-07-18T13:44:45.806Z</time>
      </trkpt>
      <trkpt lat="42.767415" lon="1.414530">
        <ele>1676.5</ele>
        <time>2025-07-18T13:45:41.138Z</time>
      </trkpt>
      <trkpt lat="42.767230" lon="1.414558">
        <ele>1672.0</ele>
        <time>2025-07-18T13:46:31.199Z</time>
      </trkpt>
      <trkpt lat="42.767039" lon="1.414468">
        <ele>1667.9</ele>
        <time>2025-07-18T13:47:17.623Z</time>
      </trkpt>
      <trkpt lat="42.766814" lon="1.414539">
        <ele>1664.6</ele>
        <time>2025-07-18T13:48:00.838Z</time>
      </trkpt>
      <trkpt lat="42.766628" lon="1.414701">
        <ele>1662.3</ele>
        <time>2025-07-18T13:48:37.614Z</time>
      </trkpt>
      <trkpt lat="42.766393" lon="1.414830">
        <ele>1661.9</ele>
        <time>2025-07-18T13:49:06.768Z</time>
      </trkpt>
      <trkpt lat="42.766447" lon="1.415233">
        <ele>1661.6</ele>
        <time>2025-07-18T13:49:41.570Z</time>
      </trkpt>
      <trkpt lat="42.766323" lon="1.415645">
        <ele>1661.7</ele>
        <time>2025-07-18T13:50:12.993Z</time>
      </trkpt>
      <trkpt lat="42.766295" lon="1.416096">
        <ele>1661.1</ele>
        <time>2025-07-18T13:50:48.906Z</time>
      </trkpt>
      <trkpt lat="42.766088" lon="1.416521">
        <ele>1660.2</ele>
        <time>2025-07-18T13:51:29.805Z</time>
      </trkpt>
      <trkpt lat="42.765910" lon="1.416724">
        <ele>1659.6</ele>
        <time>2025-07-18T13:51:56.208Z</time>
      </trkpt>
      <trkpt lat="42.765947" lon="1.417075">
        <ele>1659.8</ele>
        <time>2025-07-18T13:52:23.823Z</time>
      </trkpt>
      <trkpt lat="42.766089" lon="1.417297">
        <ele>1660.9</ele>
        <time>2025-07-18T13:52:56.353Z</time>
      </trkpt>
      <trkpt lat="42.766256" lon="1.417597">
        <ele>1661.1</ele>
        <time>2025-07-18T13:53:24.801Z</time>
      </trkpt>
      <trkpt lat="42.766162" lon="1.417962">
        <ele>1660.3</ele>
        <time>2025-07-18T13:53:57.861Z</time>
      </trkpt>
      <trkpt lat="42.766017" lon="1.418289">
        <ele>1657.9</ele>
        <time>2025-07-18T13:54:39.207Z</time>
      </trkpt>
      <trkpt lat="42.765878" lon="1.418527">
        <ele>1655.9</ele>
        <time>2025-07-18T13:55:13.596Z</time>
      </trkpt>
      <trkpt lat="42.765720" lon="1.418740">
        <ele>1653.5</ele>
        <time>2025-07-18T13:55:50.074Z</time>
      </trkpt>
      <trkpt lat="42.765538" lon="1.419003">
        <ele>1650.2</ele>
        <time>2025-07-18T13:56:39.134Z</time>
      </trkpt>
      <trkpt lat="42.765386" lon="1.419235">
        <ele>1648.6</ele>
        <time>2025-07-18T13:57:11.272Z</time>
      </trkpt>
      <trkpt lat="42.765277" lon="1.419534">
        <ele>1646.8</ele>
        <time>2025-07-18T13:57:44.912Z</time>
      </trkpt>
      <trkpt lat="42.765125" lon="1.419831">
        <ele>1647.2</ele>
        <time>2025-07-18T13:58:14.711Z</time>
      </trkpt>
      <trkpt lat="42.765091" lon="1.420141">
        <ele>1647.5</ele>
        <time>2025-07-18T13:58:40.499Z</time>
      </trkpt>
      <trkpt lat="42.764960" lon="1.420459">
        <ele>1648.3</ele>
        <time>2025-07-18T13:59:13.429Z</time>
      </trkpt>
      <trkpt lat="42.764784" lon="1.420778">
        <ele>1649.0</ele>
        <time>2025-07-18T13:59:49.382Z</time>
      </trkpt>
      <trkpt lat="42.764646" lon="1.421022">
        <ele>1651.5</ele>
        <time>2025-07-18T14:00:36.073Z</time>
      </trkpt>
      <trkpt lat="42.764493" lon="1.421308">
        <ele>1654.2</ele>
        <time>2025-07-18T14:01:29.498Z</time>
      </trkpt>
      <trkpt lat="42.764470" lon="1.421634">
        <ele>1655.3</ele>
        <time>2025-07-18T14:02:03.958Z</time>
      </trkpt>
      <trkpt lat="42.764390" lon="1.421943">
        <ele>1656.6</ele>
        <time>2025-07-18T14:02:44.185Z</time>
      </trkpt>
      <trkpt lat="42.764456" lon="1.422253">
        <ele>1658.5</ele>
        <time>2025-07-18T14:03:27.079Z</time>
      </trkpt>
      <trkpt lat="42.764310" lon="1.422449">
        <ele>1660.2</ele>
        <time>2025-07-18T14:04:05.807Z</time>
      </trkpt>
      <trkpt lat="42.764147" lon="1.422678">
        <ele>1661.9</ele>
        <time>2025-07-18T14:04:46.161Z</time>
      </trkpt>
      <trkpt lat="42.764032" lon="1.423115">
        <ele>1665.3</ele>
        <time>2025-07-18T14:05:53.604Z</time>
      </trkpt>
      <trkpt lat="42.764087" lon="1.423479">
        <ele>1669.0</ele>
        <time>2025-07-18T14:06:58.458Z</time>
      </trkpt>
      <trkpt lat="42.764130" lon="1.423801">
        <ele>1670.8</ele>
        <time>2025-07-18T14:07:40.421Z</time>
      </trkpt>
      <trkpt lat="42.764152" lon="1.424140">
        <ele>1672.3</ele>
        <time>2025-07-18T14:08:20.611Z</time>
      </trkpt>
      <trkpt lat="42.764156" lon="1.424446">
        <ele>1672.6</ele>
        <time>2025-07-18T14:08:45.418Z</time>
      </trkpt>
      <trkpt lat="42.764129" lon="1.424782">
        <ele>1673.0</ele>
        <time>2025-07-18T14:09:12.820Z</time>
      </trkpt>
      <trkpt lat="42.764033" lon="1.425075">
        <ele>1671.1</ele>
        <time>2025-07-18T14:09:47.368Z</time>
      </trkpt>
      <trkpt lat="42.763855" lon="1.425311">
        <ele>1669.1</ele>
        <time>2025-07-18T14:10:23.684Z</time>
      </trkpt>
      <trkpt lat="42.763674" lon="1.425577">
        <ele>1666.6</ele>
        <time>2025-07-18T14:11:05.084Z</time>
      </trkpt>
      <trkpt lat="42.763605" lon="1.425922">
        <ele>1663.7</ele>
        <time>2025-07-18T14:11:49.270Z</time>
      </trkpt>
      <trkpt lat="42.763442" lon="1.426313">
        <ele>1659.4</ele>
        <time>2025-07-18T14:12:47.022Z</time>
      </trkpt>
      <trkpt lat="42.763283" lon="1.426568">
        <ele>1654.3</ele>
        <time>2025-07-18T14:13:40.973Z</time>
      </trkpt>
      <trkpt lat="42.763176" lon="1.426723">
        <ele>1648.3</ele>
        <time>2025-07-18T14:14:39.175Z</time>
      </trkpt>
      <trkpt lat="42.763024" lon="1.426895">
        <ele>1642.8</ele>
        <time>2025-07-18T14:15:34.090Z</time>
      </trkpt>
      <trkpt lat="42.762878" lon="1.427181">
        <ele>1637.7</ele>
        <time>2025-07-18T14:16:29.499Z</time>
      </trkpt>
      <trkpt lat="42.762695" lon="1.427383">
        <ele>1633.1</ele>
        <time>2025-07-18T14:17:20.558Z</time>
      </trkpt>
      <trkpt lat="42.762577" lon="1.427649">
        <ele>1635.7</ele>
        <time>2025-07-18T14:18:08.441Z</time>
      </trkpt>
      <trkpt lat="42.762407" lon="1.427775">
        <ele>1638.3</ele>
        <time>2025-07-18T14:18:58.174Z</time>
      </trkpt>
      <trkpt lat="42.762271" lon="1.428200">
        <ele>1639.1</ele>
        <time>2025-07-18T14:19:39.793Z</time>
      </trkpt>
      <trkpt lat="42.762144" lon="1.428388">
        <ele>1640.3</ele>
        <time>2025-07-18T14:20:14.317Z</time>
      </trkpt>
      <trkpt lat="42.762159" lon="1.428821">
        <ele>1642.8</ele>
        <time>2025-07-18T14:21:11.135Z</time>
      </trkpt>
      <trkpt lat="42.762066" lon="1.429174">
        <ele>1643.3</ele>
        <time>2025-07-18T14:21:43.062Z</time>
      </trkpt>
      <trkpt lat="42.761940" lon="1.429585">
        <ele>1643.0</ele>
        <time>2025-07-18T14:22:16.275Z</time>
      </trkpt>
      <trkpt lat="42.761846" lon="1.429917">
        <ele>1642.1</ele>
        <time>2025-07-18T14:22:47.010Z</time>
      </trkpt>
      <trkpt lat="42.761691" lon="1.430148">
        <ele>1641.2</ele>
        <time>2025-07-18T14:23:15.481Z</time>
      </trkpt>
      <trkpt lat="42.761531" lon="1.430526">
        <ele>1639.8</ele>
        <time>2025-07-18T14:23:54.778Z</time>
      </trkpt>
      <trkpt lat="42.761304" lon="1.430987">
        <ele>1636.4</ele>
        <time>2025-07-18T14:24:54.962Z</time>
      </trkpt>
      <trkpt lat="42.761022" lon="1.431127">
        <ele>1632.3</ele>
        <time>2025-07-18T14:25:50.007Z</time>
      </trkpt>
      <trkpt lat="42.760919" lon="1.431562">
        <ele>1632.8</ele>
        <time>2025-07-18T14:26:29.372Z</time>
      </trkpt>
      <trkpt lat="42.760764" lon="1.431938">
        <ele>1631.5</ele>
        <time>2025-07-18T14:27:10.882Z</time>
      </trkpt>
      <trkpt lat="42.760434" lon="1.432167">
        <ele>1629.3</ele>
        <time>2025-07-18T14:27:59.201Z</time>
      </trkpt>
      <trkpt lat="42.760177" lon="1.432366">
        <ele>1628.2</ele>
        <time>2025-07-18T14:28:34.361Z</time>
      </trkpt>
      <trkpt lat="42.759932" lon="1.432615">
        <ele>1627.2</ele>
        <time>2025-07-18T14:29:09.443Z</time>
      </trkpt>
      <trkpt lat="42.759737" lon="1.432812">
        <ele>1626.7</ele>
        <time>2025-07-18T14:29:35.609Z</time>
      </trkpt>
      <trkpt lat="42.759698" lon="1.433190">
        <ele>1626.3</ele>
        <time>2025-07-18T14:30:05.217Z</time>
      </trkpt>
      <trkpt lat="42.759596" lon="1.433463">
        <ele>1625.9</ele>
        <time>2025-07-18T14:30:30.362Z</time>
      </trkpt>
      <trkpt lat="42.759512" lon="1.433838">
        <ele>1624.7</ele>
        <time>2025-07-18T14:31:05.874Z</time>
      </trkpt>
      <trkpt lat="42.759453" lon="1.434136">
        <ele>1623.4</ele>
        <time>2025-07-18T14:31:38.025Z</time>
      </trkpt>
      <trkpt lat="42.759399" lon="1.434439">
        <ele>1621.2</ele>
        <time>2025-07-18T14:32:13.862Z</time>
      </trkpt>
      <trkpt lat="42.759311" lon="1.434858">
        <ele>1618.1</ele>
        <time>2025-07-18T14:33:02.584Z</time>
      </trkpt>
      <trkpt lat="42.759232" lon="1.435206">
        <ele>1615.9</ele>
        <time>2025-07-18T14:33:41.580Z</time>
      </trkpt>
      <trkpt lat="42.759123" lon="1.435473">
        <ele>1614.0</ele>
        <time>2025-07-18T14:34:15.113Z</time>
      </trkpt>
      <trkpt lat="42.759030" lon="1.435750">
        <ele>1613.2</ele>
        <time>2025-07-18T14:34:42.616Z</time>
      </trkpt>
      <trkpt lat="42.758891" lon="1.436024">
        <ele>1612.4</ele>
        <time>2025-07-18T14:35:11.872Z</time>
      </trkpt>
      <trkpt lat="42.758795" lon="1.436461">
        <ele>1614.5</ele>
        <time>2025-07-18T14:36:05.240Z</time>
      </trkpt>
      <trkpt lat="42.758625" lon="1.436757">
        <ele>1615.5</ele>
        <time>2025-07-18T14:36:42.773Z</time>
      </trkpt>
      <trkpt lat="42.758396" lon="1.436989">
        <ele>1615.6</ele>
        <time>2025-07-18T14:37:11.385Z</time>
      </trkpt>
      <trkpt lat="42.758180" lon="1.437233">
        <ele>1616.1</ele>
        <time>2025-07-18T14:37:43.416Z</time>
      </trkpt>
      <trkpt lat="42.758055" lon="1.437488">
        <ele>1616.5</ele>
        <time>2025-07-18T14:38:10.670Z</time>
      </trkpt>
      <trkpt lat="42.757852" lon="1.437784">
        <ele>1613.6</ele>
        <time>2025-07-18T14:38:59.031Z</time>
      </trkpt>
      <trkpt lat="42.757568" lon="1.438107">
        <ele>1608.8</ele>
        <time>2025-07-18T14:40:03.537Z</time>
      </trkpt>
      <trkpt lat="42.757442" lon="1.438365">
        <ele>1606.4</ele>
        <time>2025-07-18T14:40:39.869Z</time>
      </trkpt>
      <trkpt lat="42.757228" lon="1.438517">
        <ele>1603.6</ele>
        <time>2025-07-18T14:41:21.289Z</time>
      </trkpt>
      <trkpt lat="42.757101" lon="1.438878">
        <ele>1603.1</ele>
        <time>2025-07-18T14:41:54.021Z</time>
      </trkpt>
      <trkpt lat="42.756932" lon="1.439202">
        <ele>1603.1</ele>
        <time>2025-07-18T14:42:22.237Z</time>
      </trkpt>
      <trkpt lat="42.756833" lon="1.439479">
        <ele>1603.6</ele>
        <time>2025-07-18T14:42:48.564Z</time>
      </trkpt>
      <trkpt lat="42.756620" lon="1.439729">
        <ele>1603.3</ele>
        <time>2025-07-18T14:43:17.325Z</time>
      </trkpt>
      <trkpt lat="42.756427" lon="1.440027">
        <ele>1602.5</ele>
        <time>2025-07-18T14:43:51.172Z</time>
      </trkpt>
      <trkpt lat="42.756216" lon="1.440328">
        <ele>1603.5</ele>
        <time>2025-07-18T14:44:31.753Z</time>
      </trkpt>
      <trkpt lat="42.756078" lon="1.440638">
        <ele>1603.7</ele>
        <time>2025-07-18T14:45:01.437Z</time>
      </trkpt>
      <trkpt lat="42.755914" lon="1.440849">
        <ele>1602.3</ele>
        <time>2025-07-18T14:45:31.109Z</time>
      </trkpt>
      <trkpt lat="42.755749" lon="1.441300">
        <ele>1600.8</ele>
        <time>2025-07-18T14:46:16.391Z</time>
      </trkpt>
      <trkpt lat="42.755631" lon="1.441579">
        <ele>1600.3</ele>
        <time>2025-07-18T14:46:42.239Z</time>
      </trkpt>
      <trkpt lat="42.755525" lon="1.441923">
        <ele>1600.3</ele>
        <time>2025-07-18T14:47:09.035Z</time>
      </trkpt>
      <trkpt lat="42.755391" lon="1.442271">
        <ele>1600.6</ele>
        <time>2025-07-18T14:47:40.272Z</time>
      </trkpt>
      <trkpt lat="42.755358" lon="1.442633">
        <ele>1604.2</ele>
        <time>2025-07-18T14:48:43.708Z</time>
      </trkpt>
      <trkpt lat="42.755136" lon="1.442929">
        <ele>1606.1</ele>
        <time>2025-07-18T14:49:32.607Z</time>
      </trkpt>
      <trkpt lat="42.754877" lon="1.443164">
        <ele>1603.6</ele>
        <time>2025-07-18T14:50:18.380Z</time>
      </trkpt>
      <trkpt lat="42.754683" lon="1.443811">
        <ele>1600.5</ele>
        <time>2025-07-18T14:51:25.876Z</time>
      </trkpt>
      <trkpt lat="42.754548" lon="1.444216">
        <ele>1598.0</ele>
        <time>2025-07-18T14:52:12.789Z</time>
      </trkpt>
      <trkpt lat="42.754429" lon="1.444553">
        <ele>1594.3</ele>
        <time>2025-07-18T14:53:01.224Z</time>
      </trkpt>
      <trkpt lat="42.754219" lon="1.444617">
        <ele>1587.4</ele>
        <time>2025-07-18T14:54:04.201Z</time>
      </trkpt>
      <trkpt lat="42.753964" lon="1.444649">
        <ele>1577.0</ele>
        <time>2025-07-18T14:55:32.203Z</time>
      </trkpt>
      <trkpt lat="42.753803" lon="1.444895">
        <ele>1573.8</ele>
        <time>2025-07-18T14:56:17.167Z</time>
      </trkpt>
      <trkpt lat="42.753695" lon="1.445162">
        <ele>1571.7</ele>
        <time>2025-07-18T14:56:51.376Z</time>
      </trkpt>
      <trkpt lat="42.753618" lon="1.445373">
        <ele>1572.0</ele>
        <time>2025-07-18T14:57:17.209Z</time>
      </trkpt>
      <trkpt lat="42.753462" lon="1.445075">
        <ele>1572.4</ele>
        <time>2025-07-18T14:57:49.682Z</time>
      </trkpt>
      <trkpt lat="42.753435" lon="1.444776">
        <ele>1577.6</ele>
        <time>2025-07-18T14:59:05.686Z</time>
      </trkpt>
      <trkpt lat="42.753394" lon="1.444362">
        <ele>1582.2</ele>
        <time>2025-07-18T15:00:23.922Z</time>
      </trkpt>
      <trkpt lat="42.753148" lon="1.444096">
        <ele>1581.5</ele>
        <time>2025-07-18T15:00:58.851Z</time>
      </trkpt>
      <trkpt lat="42.752998" lon="1.443870">
        <ele>1578.4</ele>
        <time>2025-07-18T15:01:38.838Z</time>
      </trkpt>
      <trkpt lat="42.752905" lon="1.443970">
        <ele>1573.8</ele>
        <time>2025-07-18T15:02:29.668Z</time>
      </trkpt>
      <trkpt lat="42.752758" lon="1.443958">
        <ele>1565.9</ele>
        <time>2025-07-18T15:03:39.874Z</time>
      </trkpt>
      <trkpt lat="42.752554" lon="1.444064">
        <ele>1556.0</ele>
        <time>2025-07-18T15:05:02.416Z</time>
      </trkpt>
      <trkpt lat="42.752377" lon="1.444161">
        <ele>1549.0</ele>
        <time>2025-07-18T15:06:05.951Z</time>
      </trkpt>
      <trkpt lat="42.752153" lon="1.444189">
        <ele>1542.8</ele>
        <time>2025-07-18T15:07:06.021Z</time>
      </trkpt>
      <trkpt lat="42.751893" lon="1.444258">
        <ele>1537.3</ele>
        <time>2025-07-18T15:08:06.503Z</time>
      </trkpt>
      <trkpt lat="42.751670" lon="1.444470">
        <ele>1532.4</ele>
        <time>2025-07-18T15:09:02.906Z</time>
      </trkpt>
      <trkpt lat="42.751492" lon="1.444643">
        <ele>1524.8</ele>
        <time>2025-07-18T15:10:09.693Z</time>
      </trkpt>
      <trkpt lat="42.751312" lon="1.444803">
        <ele>1515.4</ele>
        <time>2025-07-18T15:11:32.820Z</time>
      </trkpt>
      <trkpt lat="42.751055" lon="1.444870">
        <ele>1515.3</ele>
        <time>2025-07-18T15:11:58.966Z</time>
      </trkpt>
      <trkpt lat="42.750823" lon="1.444735">
        <ele>1514.7</ele>
        <time>2025-07-18T15:12:28.750Z</time>
      </trkpt>
      <trkpt lat="42.750578" lon="1.444749">
        <ele>1512.2</ele>
        <time>2025-07-18T15:13:08.404Z</time>
      </trkpt>
      <trkpt lat="42.750225" lon="1.444851">
        <ele>1510.0</ele>
        <time>2025-07-18T15:14:00.718Z</time>
      </trkpt>
      <trkpt lat="42.750027" lon="1.444964">
        <ele>1509.4</ele>
        <time>2025-07-18T15:14:26.160Z</time>
      </trkpt>
      <trkpt lat="42.749874" lon="1.445062">
        <ele>1520.2</ele>
        <time>2025-07-18T15:16:42.296Z</time>
      </trkpt>
      <trkpt lat="42.749654" lon="1.445258">
        <ele>1531.2</ele>
        <time>2025-07-18T15:19:00.104Z</time>
      </trkpt>
      <trkpt lat="42.749471" lon="1.445479">
        <ele>1530.2</ele>
        <time>2025-07-18T15:19:29.323Z</time>
      </trkpt>
      <trkpt lat="42.749220" lon="1.445680">
        <ele>1529.2</ele>
        <time>2025-07-18T15:20:03.538Z</time>
      </trkpt>
      <trkpt lat="42.749012" lon="1.445844">
        <ele>1526.5</ele>
        <time>2025-07-18T15:20:42.586Z</time>
      </trkpt>
      <trkpt lat="42.748798" lon="1.446078">
        <ele>1522.4</ele>
        <time>2025-07-18T15:21:35.063Z</time>
      </trkpt>
      <trkpt lat="42.748656" lon="1.446257">
        <ele>1516.9</ele>
        <time>2025-07-18T15:22:31.216Z</time>
      </trkpt>
      <trkpt lat="42.748518" lon="1.446402">
        <ele>1512.0</ele>
        <time>2025-07-18T15:23:21.952Z</time>
      </trkpt>
      <trkpt lat="42.748332" lon="1.446605">
        <ele>1507.9</ele>
        <time>2025-07-18T15:24:11.310Z</time>
      </trkpt>
      <trkpt lat="42.748121" lon="1.446796">
        <ele>1501.0</ele>
        <time>2025-07-18T15:25:21.825Z</time>
      </trkpt>
      <trkpt lat="42.747994" lon="1.446946">
        <ele>1493.6</ele>
        <time>2025-07-18T15:26:29.542Z</time>
      </trkpt>
      <trkpt lat="42.747837" lon="1.447060">
        <ele>1489.8</ele>
        <time>2025-07-18T15:27:14.901Z</time>
      </trkpt>
      <trkpt lat="42.747738" lon="1.447237">
        <ele>1487.4</ele>
        <time>2025-07-18T15:27:53.275Z</time>
      </trkpt>
      <trkpt lat="42.747494" lon="1.447484">
        <ele>1483.2</ele>
        <time>2025-07-18T15:28:47.639Z</time>
      </trkpt>
      <trkpt lat="42.747257" lon="1.447729">
        <ele>1478.7</ele>
        <time>2025-07-18T15:29:44.908Z</time>
      </trkpt>
      <trkpt lat="42.747093" lon="1.448031">
        <ele>1472.7</ele>
        <time>2025-07-18T15:30:49.258Z</time>
      </trkpt>
      <trkpt lat="42.746819" lon="1.448245">
        <ele>1469.0</ele>
        <time>2025-07-18T15:31:43.227Z</time>
      </trkpt>
      <trkpt lat="42.746588" lon="1.448405">
        <ele>1468.8</ele>
        <time>2025-07-18T15:32:09.615Z</time>
      </trkpt>
      <trkpt lat="42.746293" lon="1.448619">
        <ele>1460.5</ele>
        <time>2025-07-18T15:33:31.541Z</time>
      </trkpt>
      <trkpt lat="42.746046" lon="1.448929">
        <ele>1448.3</ele>
        <time>2025-07-18T15:35:16.610Z</time>
      </trkpt>
      <trkpt lat="42.745474" lon="1.449908">
        <ele>1415.0</ele>
        <time>2025-07-18T15:40:04.380Z</time>
      </trkpt>
      <trkpt lat="42.745266" lon="1.450037">
        <ele>1418.4</ele>
        <time>2025-07-18T15:41:02.027Z</time>
      </trkpt>
      <trkpt lat="42.745147" lon="1.450471">
        <ele>1423.8</ele>
        <time>2025-07-18T15:42:30.678Z</time>
      </trkpt>
      <trkpt lat="42.744985" lon="1.450691">
        <ele>1431.7</ele>
        <time>2025-07-18T15:44:14.258Z</time>
      </trkpt>
      <trkpt lat="42.744753" lon="1.451089">
        <ele>1444.7</ele>
        <time>2025-07-18T15:47:04.782Z</time>
      </trkpt>
      <trkpt lat="42.744518" lon="1.451374">
        <ele>1446.1</ele>
        <time>2025-07-18T15:47:49.445Z</time>
      </trkpt>
      <trkpt lat="42.744242" lon="1.451434">
        <ele>1447.3</ele>
        <time>2025-07-18T15:48:28.569Z</time>
      </trkpt>
      <trkpt lat="42.744414" lon="1.452077">
        <ele>1405.3</ele>
        <time>2025-07-18T15:53:38.762Z</time>
      </trkpt>
      <trkpt lat="42.744148" lon="1.451903">
        <ele>1401.5</ele>
        <time>2025-07-18T15:54:31.910Z</time>
      </trkpt>
      <trkpt lat="42.744142" lon="1.452241">
        <ele>1397.9</ele>
        <time>2025-07-18T15:55:22.082Z</time>
      </trkpt>
      <trkpt lat="42.744031" lon="1.452404">
        <ele>1384.8</ele>
        <time>2025-07-18T15:57:04.104Z</time>
      </trkpt>
      <trkpt lat="42.744008" lon="1.452636">
        <ele>1370.6</ele>
        <time>2025-07-18T15:58:53.632Z</time>
      </trkpt>
      <trkpt lat="42.743907" lon="1.452745">
        <ele>1368.7</ele>
        <time>2025-07-18T15:59:30.788Z</time>
      </trkpt>
      <trkpt lat="42.743782" lon="1.452898">
        <ele>1364.2</ele>
        <time>2025-07-18T16:00:26.800Z</time>
      </trkpt>
      <trkpt lat="42.743645" lon="1.452939">
        <ele>1356.6</ele>
        <time>2025-07-18T16:01:35.824Z</time>
      </trkpt>
      <trkpt lat="42.743524" lon="1.453071">
        <ele>1347.3</ele>
        <time>2025-07-18T16:02:55.057Z</time>
      </trkpt>
      <trkpt lat="42.743448" lon="1.453374">
        <ele>1332.8</ele>
        <time>2025-07-18T16:04:45.734Z</time>
      </trkpt>
      <trkpt lat="42.743323" lon="1.453604">
        <ele>1316.7</ele>
        <time>2025-07-18T16:06:53.768Z</time>
      </trkpt>
      <trkpt lat="42.743285" lon="1.453799">
        <ele>1308.5</ele>
        <time>2025-07-18T16:08:08.362Z</time>
      </trkpt>
      <trkpt lat="42.743158" lon="1.453978">
        <ele>1298.5</ele>
        <time>2025-07-18T16:09:52.322Z</time>
      </trkpt>
      <trkpt lat="42.742999" lon="1.453975">
        <ele>1291.3</ele>
        <time>2025-07-18T16:10:58.799Z</time>
      </trkpt>
      <trkpt lat="42.743020" lon="1.454295">
        <ele>1281.0</ele>
        <time>2025-07-18T16:12:23.205Z</time>
      </trkpt>
      <trkpt lat="42.743038" lon="1.454585">
        <ele>1271.9</ele>
        <time>2025-07-18T16:13:40.419Z</time>
      </trkpt>
      <trkpt lat="42.742761" lon="1.454343">
        <ele>1267.1</ele>
        <time>2025-07-18T16:14:42.853Z</time>
      </trkpt>
      <trkpt lat="42.742586" lon="1.454406">
        <ele>1255.1</ele>
        <time>2025-07-18T16:16:22.962Z</time>
      </trkpt>
      <trkpt lat="42.742593" lon="1.454737">
        <ele>1240.8</ele>
        <time>2025-07-18T16:18:12.302Z</time>
      </trkpt>
      <trkpt lat="42.742476" lon="1.454806">
        <ele>1232.4</ele>
        <time>2025-07-18T16:19:27.433Z</time>
      </trkpt>
      <trkpt lat="42.742334" lon="1.454672">
        <ele>1228.4</ele>
        <time>2025-07-18T16:20:17.459Z</time>
      </trkpt>
      <trkpt lat="42.742156" lon="1.454531">
        <ele>1223.3</ele>
        <time>2025-07-18T16:21:26.135Z</time>
      </trkpt>
      <trkpt lat="42.742088" lon="1.454656">
        <ele>1214.4</ele>
        <time>2025-07-18T16:22:55.837Z</time>
      </trkpt>
      <trkpt lat="42.742038" lon="1.454969">
        <ele>1206.4</ele>
        <time>2025-07-18T16:24:07.406Z</time>
      </trkpt>
      <trkpt lat="42.741880" lon="1.454743">
        <ele>1199.8</ele>
        <time>2025-07-18T16:25:09.482Z</time>
      </trkpt>
      <trkpt lat="42.741672" lon="1.454583">
        <ele>1192.8</ele>
        <time>2025-07-18T16:26:14.608Z</time>
      </trkpt>
      <trkpt lat="42.741652" lon="1.454865">
        <ele>1183.4</ele>
        <time>2025-07-18T16:27:38.243Z</time>
      </trkpt>
      <trkpt lat="42.741546" lon="1.454798">
        <ele>1179.9</ele>
        <time>2025-07-18T16:28:33.870Z</time>
      </trkpt>
      <trkpt lat="42.741497" lon="1.454508">
        <ele>1184.6</ele>
        <time>2025-07-18T16:29:44.393Z</time>
      </trkpt>
      <trkpt lat="42.741432" lon="1.454038">
        <ele>1181.2</ele>
        <time>2025-07-18T16:30:41.218Z</time>
      </trkpt>
      <trkpt lat="42.741147" lon="1.453972">
        <ele>1178.5</ele>
        <time>2025-07-18T16:31:25.745Z</time>
      </trkpt>
      <trkpt lat="42.741045" lon="1.453612">
        <ele>1180.6</ele>
        <time>2025-07-18T16:32:14.017Z</time>
      </trkpt>
      <trkpt lat="42.740825" lon="1.453499">
        <ele>1177.4</ele>
        <time>2025-07-18T16:32:58.683Z</time>
      </trkpt>
      <trkpt lat="42.740370" lon="1.453574">
        <ele>1164.3</ele>
        <time>2025-07-18T16:35:00.807Z</time>
      </trkpt>
      <trkpt lat="42.740004" lon="1.453727">
        <ele>1172.7</ele>
        <time>2025-07-18T16:37:03.783Z</time>
      </trkpt>
      <trkpt lat="42.739623" lon="1.453416">
        <ele>1186.9</ele>
        <time>2025-07-18T16:40:12.029Z</time>
      </trkpt>
      <trkpt lat="42.739341" lon="1.453272">
        <ele>1199.1</ele>
        <time>2025-07-18T16:42:46.212Z</time>
      </trkpt>
      <trkpt lat="42.739040" lon="1.453170">
        <ele>1194.9</ele>
        <time>2025-07-18T16:43:41.143Z</time>
      </trkpt>
      <trkpt lat="42.738746" lon="1.453033">
        <ele>1190.6</ele>
        <time>2025-07-18T16:44:36.755Z</time>
      </trkpt>
      <trkpt lat="42.738535" lon="1.452888">
        <ele>1188.3</ele>
        <time>2025-07-18T16:45:12.937Z</time>
      </trkpt>
      <trkpt lat="42.738220" lon="1.452457">
        <ele>1184.0</ele>
        <time>2025-07-18T16:46:21.194Z</time>
      </trkpt>
      <trkpt lat="42.738028" lon="1.452104">
        <ele>1178.3</ele>
        <time>2025-07-18T16:47:26.297Z</time>
      </trkpt>
      <trkpt lat="42.738020" lon="1.451726">
        <ele>1175.4</ele>
        <time>2025-07-18T16:48:12.745Z</time>
      </trkpt>
      <trkpt lat="42.737970" lon="1.451527">
        <ele>1178.3</ele>
        <time>2025-07-18T16:49:05.744Z</time>
      </trkpt>
      <trkpt lat="42.737645" lon="1.451736">
        <ele>1176.3</ele>
        <time>2025-07-18T16:49:53.848Z</time>
      </trkpt>
      <trkpt lat="42.737404" lon="1.451853">
        <ele>1170.1</ele>
        <time>2025-07-18T16:50:55.750Z</time>
      </trkpt>
      <trkpt lat="42.737148" lon="1.452108">
        <ele>1166.0</ele>
        <time>2025-07-18T16:51:53.401Z</time>
      </trkpt>
      <trkpt lat="42.736928" lon="1.452193">
        <ele>1164.9</ele>
        <time>2025-07-18T16:52:22.286Z</time>
      </trkpt>
      <trkpt lat="42.736712" lon="1.452074">
        <ele>1171.5</ele>
        <time>2025-07-18T16:53:52.746Z</time>
      </trkpt>
      <trkpt lat="42.736566" lon="1.451832">
        <ele>1178.1</ele>
        <time>2025-07-18T16:55:23.669Z</time>
      </trkpt>
      <trkpt lat="42.736272" lon="1.452002">
        <ele>1171.0</ele>
        <time>2025-07-18T16:56:36.582Z</time>
      </trkpt>
      <trkpt lat="42.736076" lon="1.452168">
        <ele>1165.9</ele>
        <time>2025-07-18T16:57:30.471Z</time>
      </trkpt>
      <trkpt lat="42.735807" lon="1.452160">
        <ele>1169.3</ele>
        <time>2025-07-18T16:58:32.274Z</time>
      </trkpt>
      <trkpt lat="42.735553" lon="1.452234">
        <ele>1172.7</ele>
        <time>2025-07-18T16:59:31.957Z</time>
      </trkpt>
      <trkpt lat="42.735229" lon="1.452301">
        <ele>1175.2</ele>
        <time>2025-07-18T17:00:29.180Z</time>
      </trkpt>
      <trkpt lat="42.734909" lon="1.452463">
        <ele>1173.6</ele>
        <time>2025-07-18T17:01:11.523Z</time>
      </trkpt>
      <trkpt lat="42.734661" lon="1.452570">
        <ele>1169.8</ele>
        <time>2025-07-18T17:01:59.617Z</time>
      </trkpt>
      <trkpt lat="42.734442" lon="1.452394">
        <ele>1182.5</ele>
        <time>2025-07-18T17:04:34.599Z</time>
      </trkpt>
      <trkpt lat="42.734184" lon="1.452273">
        <ele>1191.6</ele>
        <time>2025-07-18T17:06:34.068Z</time>
      </trkpt>
      <trkpt lat="42.733961" lon="1.452223">
        <ele>1190.3</ele>
        <time>2025-07-18T17:07:03.292Z</time>
      </trkpt>
      <trkpt lat="42.733598" lon="1.452057">
        <ele>1195.6</ele>
        <time>2025-07-18T17:08:34.975Z</time>
      </trkpt>
      <trkpt lat="42.733284" lon="1.451654">
        <ele>1211.9</ele>
        <time>2025-07-18T17:12:03.863Z</time>
      </trkpt>
      <trkpt lat="42.733308" lon="1.452264">
        <ele>1188.0</ele>
        <time>2025-07-18T17:15:10.395Z</time>
      </trkpt>
      <trkpt lat="42.733259" lon="1.452577">
        <ele>1175.5</ele>
        <time>2025-07-18T17:16:47.823Z</time>
      </trkpt>
      <trkpt lat="42.733006" lon="1.453533">
        <ele>1157.3</ele>
        <time>2025-07-18T17:19:47.731Z</time>
      </trkpt>
      <trkpt lat="42.732644" lon="1.453887">
        <ele>1161.7</ele>
        <time>2025-07-18T17:21:14.858Z</time>
      </trkpt>
      <trkpt lat="42.732139" lon="1.453769">
        <ele>1166.7</ele>
        <time>2025-07-18T17:22:54.773Z</time>
      </trkpt>
      <trkpt lat="42.729696" lon="1.451054">
        <ele>1201.0</ele>
        <time>2025-07-18T17:33:48.398Z</time>
      </trkpt>
      <trkpt lat="42.729119" lon="1.450794">
        <ele>1189.8</ele>
        <time>2025-07-18T17:35:53.236Z</time>
      </trkpt>
      <trkpt lat="42.728798" lon="1.450679">
        <ele>1182.1</ele>
        <time>2025-07-18T17:37:11.493Z</time>
      </trkpt>
      <trkpt lat="42.728442" lon="1.450524">
        <ele>1173.3</ele>
        <time>2025-07-18T17:38:39.412Z</time>
      </trkpt>
      <trkpt lat="42.728167" lon="1.450044">
        <ele>1176.7</ele>
        <time>2025-07-18T17:39:56.177Z</time>
      </trkpt>
      <trkpt lat="42.727891" lon="1.449144">
        <ele>1182.0</ele>
        <time>2025-07-18T17:41:59.189Z</time>
      </trkpt>
      <trkpt lat="42.727842" lon="1.448538">
        <ele>1184.7</ele>
        <time>2025-07-18T17:43:09.511Z</time>
      </trkpt>
      <trkpt lat="42.727703" lon="1.447912">
        <ele>1187.6</ele>
        <time>2025-07-18T17:44:25.024Z</time>
      </trkpt>
      <trkpt lat="42.727885" lon="1.446960">
        <ele>1203.0</ele>
        <time>2025-07-18T17:48:12.803Z</time>
      </trkpt>
      <trkpt lat="42.727962" lon="1.446677">
        <ele>1202.6</ele>
        <time>2025-07-18T17:48:40.826Z</time>
      </trkpt>
      <trkpt lat="42.727492" lon="1.447025">
        <ele>1201.7</ele>
        <time>2025-07-18T17:49:37.004Z</time>
      </trkpt>
      <trkpt lat="42.727132" lon="1.447171">
        <ele>1202.5</ele>
        <time>2025-07-18T17:50:20.604Z</time>
      </trkpt>
      <trkpt lat="42.726705" lon="1.447550">
        <ele>1203.5</ele>
        <time>2025-07-18T17:51:19.735Z</time>
      </trkpt>
      <trkpt lat="42.726399" lon="1.448265">
        <ele>1168.8</ele>
        <time>2025-07-18T17:55:46.039Z</time>
      </trkpt>
      <trkpt lat="42.725954" lon="1.448578">
        <ele>1160.7</ele>
        <time>2025-07-18T17:57:22.060Z</time>
      </trkpt>
      <trkpt lat="42.725415" lon="1.448289">
        <ele>1177.6</ele>
        <time>2025-07-18T18:01:11.398Z</time>
      </trkpt>
      <trkpt lat="42.724658" lon="1.448110">
        <ele>1175.7</ele>
        <time>2025-07-18T18:02:39.044Z</time>
      </trkpt>
      <trkpt lat="42.723729" lon="1.447676">
        <ele>1186.5</ele>
        <time>2025-07-18T18:06:03.902Z</time>
      </trkpt>
      <trkpt lat="42.723535" lon="1.447488">
        <ele>1186.3</ele>
        <time>2025-07-18T18:06:27.564Z</time>
      </trkpt>
      <trkpt lat="42.723194" lon="1.447423">
        <ele>1186.1</ele>
        <time>2025-07-18T18:07:01.807Z</time>
      </trkpt>
      <trkpt lat="42.722995" lon="1.447278">
        <ele>1188.0</ele>
        <time>2025-07-18T18:07:42.599Z</time>
      </trkpt>
      <trkpt lat="42.722625" lon="1.447000">
        <ele>1191.5</ele>
        <time>2025-07-18T18:09:00.045Z</time>
      </trkpt>
      <trkpt lat="42.722243" lon="1.446895">
        <ele>1185.2</ele>
        <time>2025-07-18T18:10:15.444Z</time>
      </trkpt>
      <trkpt lat="42.722040" lon="1.446665">
        <ele>1183.3</ele>
        <time>2025-07-18T18:10:52.220Z</time>
      </trkpt>
      <trkpt lat="42.721775" lon="1.446552">
        <ele>1184.0</ele>
        <time>2025-07-18T18:11:27.377Z</time>
      </trkpt>
      <trkpt lat="42.721329" lon="1.446392">
        <ele>1187.1</ele>
        <time>2025-07-18T18:12:42.951Z</time>
      </trkpt>
      <trkpt lat="42.720864" lon="1.446258">
        <ele>1185.0</ele>
        <time>2025-07-18T18:13:41.659Z</time>
      </trkpt>
      <trkpt lat="42.720595" lon="1.446201">
        <ele>1177.2</ele>
        <time>2025-07-18T18:14:55.457Z</time>
      </trkpt>
      <trkpt lat="42.720377" lon="1.446439">
        <ele>1165.1</ele>
        <time>2025-07-18T18:16:34.922Z</time>
      </trkpt>
      <trkpt lat="42.720187" lon="1.446637">
        <ele>1154.7</ele>
        <time>2025-07-18T18:18:00.195Z</time>
      </trkpt>
      <trkpt lat="42.719958" lon="1.446721">
        <ele>1154.8</ele>
        <time>2025-07-18T18:18:24.573Z</time>
      </trkpt>
      <trkpt lat="42.719643" lon="1.446773">
        <ele>1153.5</ele>
        <time>2025-07-18T18:19:03.035Z</time>
      </trkpt>
      <trkpt lat="42.719395" lon="1.446963">
        <ele>1149.3</ele>
        <time>2025-07-18T18:19:55.585Z</time>
      </trkpt>
      <trkpt lat="42.719167" lon="1.446733">
        <ele>1154.2</ele>
        <time>2025-07-18T18:21:15.397Z</time>
      </trkpt>
      <trkpt lat="42.719220" lon="1.446263">
        <ele>1165.2</ele>
        <time>2025-07-18T18:23:41.806Z</time>
      </trkpt>
      <trkpt lat="42.719223" lon="1.445928">
        <ele>1170.6</ele>
        <time>2025-07-18T18:25:00.906Z</time>
      </trkpt>
      <trkpt lat="42.719192" lon="1.445608">
        <ele>1175.8</ele>
        <time>2025-07-18T18:26:17.019Z</time>
      </trkpt>
      <trkpt lat="42.719082" lon="1.445309">
        <ele>1174.1</ele>
        <time>2025-07-18T18:26:50.374Z</time>
      </trkpt>
      <trkpt lat="42.718944" lon="1.445011">
        <ele>1172.4</ele>
        <time>2025-07-18T18:27:25.573Z</time>
      </trkpt>
      <trkpt lat="42.718851" lon="1.444725">
        <ele>1172.3</ele>
        <time>2025-07-18T18:27:48.107Z</time>
      </trkpt>
      <trkpt lat="42.718821" lon="1.444421">
        <ele>1172.3</ele>
        <time>2025-07-18T18:28:10.785Z</time>
      </trkpt>
      <trkpt lat="42.718685" lon="1.444070">
        <ele>1165.2</ele>
        <time>2025-07-18T18:29:21.424Z</time>
      </trkpt>
      <trkpt lat="42.718542" lon="1.444327">
        <ele>1158.7</ele>
        <time>2025-07-18T18:30:26.302Z</time>
      </trkpt>
      <trkpt lat="42.718244" lon="1.444177">
        <ele>1146.8</ele>
        <time>2025-07-18T18:32:12.593Z</time>
      </trkpt>
      <trkpt lat="42.718094" lon="1.445057">
        <ele>1132.5</ele>
        <time>2025-07-18T18:34:43.544Z</time>
      </trkpt>
      <trkpt lat="42.718184" lon="1.445816">
        <ele>1128.8</ele>
        <time>2025-07-18T18:35:59.842Z</time>
      </trkpt>
      <trkpt lat="42.718261" lon="1.446139">
        <ele>1121.0</ele>
        <time>2025-07-18T18:37:10.606Z</time>
      </trkpt>
      <trkpt lat="42.717976" lon="1.446698">
        <ele>1105.3</ele>
        <time>2025-07-18T18:39:32.374Z</time>
      </trkpt>
      <trkpt lat="42.717999" lon="1.447140">
        <ele>1096.3</ele>
        <time>2025-07-18T18:40:57.567Z</time>
      </trkpt>
      <trkpt lat="42.717982" lon="1.447500">
        <ele>1089.1</ele>
        <time>2025-07-18T18:42:06.352Z</time>
      </trkpt>
      <trkpt lat="42.717862" lon="1.447855">
        <ele>1077.8</ele>
        <time>2025-07-18T18:43:41.633Z</time>
      </trkpt>
      <trkpt lat="42.717710" lon="1.448295">
        <ele>1061.8</ele>
        <time>2025-07-18T18:45:56.146Z</time>
      </trkpt>
      <trkpt lat="42.717470" lon="1.448024">
        <ele>1059.2</ele>
        <time>2025-07-18T18:46:43.897Z</time>
      </trkpt>
      <trkpt lat="42.717182" lon="1.447982">
        <ele>1054.5</ele>
        <time>2025-07-18T18:47:49.344Z</time>
      </trkpt>
      <trkpt lat="42.717071" lon="1.448087">
        <ele>1049.1</ele>
        <time>2025-07-18T18:48:49.023Z</time>
      </trkpt>
      <trkpt lat="42.717191" lon="1.448427">
        <ele>1046.1</ele>
        <time>2025-07-18T18:49:33.228Z</time>
      </trkpt>
      <trkpt lat="42.717302" lon="1.448802">
        <ele>1043.0</ele>
        <time>2025-07-18T18:50:20.358Z</time>
      </trkpt>
      <trkpt lat="42.717098" lon="1.448883">
        <ele>1039.9</ele>
        <time>2025-07-18T18:51:06.740Z</time>
      </trkpt>
      <trkpt lat="42.716969" lon="1.448609">
        <ele>1039.1</ele>
        <time>2025-07-18T18:51:34.970Z</time>
      </trkpt>
    </trkseg>
  </trk>
</gpx>
