<?xml version="1.0" encoding="UTF-8"?>
<gpx version="1.1" creator="carnet-trek seed" xmlns="http://www.topografix.com/GPX/1/1">
  <metadata>
    <name>Alta Via 1 – Lago di Braies → Pederü</name>
  </metadata>
  <wpt lat="46.694500" lon="12.085500">
    <ele>1494</ele>
    <name>Lago di Braies</name>
    <sym>Restaurant</sym>
  </wpt>
  <wpt lat="46.669000" lon="12.079000">
    <ele>2327</ele>
    <name>Rifugio Biella</name>
    <sym>Lodging</sym>
  </wpt>
  <wpt lat="46.644000" lon="12.059000">
    <ele>2116</ele>
    <name>Rifugio Sennes</name>
    <sym>Lodging</sym>
  </wpt>
  <wpt lat="46.628000" lon="12.044000">
    <ele>1966</ele>
    <name>Rifugio Fodara Vedla</name>
    <sym>Lodging</sym>
  </wpt>
  <wpt lat="46.619000" lon="12.006000">
    <ele>1548</ele>
    <name>Pederü</name>
    <sym>Restaurant</sym>
  </wpt>
  <trk>
    <name>Alta Via 1 – Lago di Braies → Pederü</name>
    <type>hike</type>
    <trkseg>
      <trkpt lat="46.694500" lon="12.085500">
        <ele>1494.5</ele>
        <time>2025-08-18T07:30:00.000Z</time>
      </trkpt>
      <trkpt lat="46.694236" lon="12.085409">
        <ele>1502.5</ele>
        <time>2025-08-18T07:31:47.805Z</time>
      </trkpt>
      <trkpt lat="46.693976" lon="12.085295">
        <ele>1510.2</ele>
        <time>2025-08-18T07:33:33.387Z</time>
      </trkpt>
      <trkpt lat="46.693716" lon="12.085169">
        <ele>1518.4</ele>
        <time>2025-08-18T07:35:23.608Z</time>
      </trkpt>
      <trkpt lat="46.693454" lon="12.085064">
        <ele>1527.8</ele>
        <time>2025-08-18T07:37:26.452Z</time>
      </trkpt>
      <trkpt lat="46.693191" lon="12.084969">
        <ele>1534.7</ele>
        <time>2025-08-18T07:39:02.321Z</time>
      </trkpt>
      <trkpt lat="46.692920" lon="12.084930">
        <ele>1543.7</ele>
        <time>2025-08-18T07:41:01.538Z</time>
      </trkpt>
      <trkpt lat="46.692643" lon="12.084944">
        <ele>1551.3</ele>
        <time>2025-08-18T07:42:46.164Z</time>
      </trkpt>
      <trkpt lat="46.692364" lon="12.084971">
        <ele>1560.0</ele>
        <time>2025-08-18T07:44:41.822Z</time>
      </trkpt>
      <trkpt lat="46.692079" lon="12.085035">
        <ele>1567.0</ele>
        <time>2025-08-18T07:46:21.001Z</time>
      </trkpt>
      <trkpt lat="46.691801" lon="12.085055">
        <ele>1576.0</ele>
        <time>2025-08-18T07:48:20.606Z</time>
      </trkpt>
      <trkpt lat="46.691527" lon="12.085041">
        <ele>1584.6</ele>
        <time>2025-08-18T07:50:14.818Z</time>
      </trkpt>
      <trkpt lat="46.691261" lon="12.084967">
        <ele>1593.1</ele>
        <time>2025-08-18T07:52:08.325Z</time>
      </trkpt>
      <trkpt lat="46.691003" lon="12.084834">
        <ele>1601.0</ele>
        <time>2025-08-18T07:53:56.315Z</time>
      </trkpt>
      <trkpt lat="46.690756" lon="12.084611">
        <ele>1610.1</ele>
        <time>2025-08-18T07:55:57.218Z</time>
      </trkpt>
      <trkpt lat="46.690513" lon="12.084362">
        <ele>1618.5</ele>
        <time>2025-08-18T07:57:51.865Z</time>
      </trkpt>
      <trkpt lat="46.690276" lon="12.084069">
        <ele>1627.2</ele>
        <time>2025-08-18T07:59:51.039Z</time>
      </trkpt>
      <trkpt lat="46.690032" lon="12.083827">
        <ele>1636.4</ele>
        <time>2025-08-18T08:01:53.502Z</time>
      </trkpt>
      <trkpt lat="46.689777" lon="12.083669">
        <ele>1646.6</ele>
        <time>2025-08-18T08:04:04.688Z</time>
      </trkpt>
      <trkpt lat="46.689512" lon="12.083587">
        <ele>1655.5</ele>
        <time>2025-08-18T08:06:02.137Z</time>
      </trkpt>
      <trkpt lat="46.689240" lon="12.083562">
        <ele>1665.1</ele>
        <time>2025-08-18T08:08:07.242Z</time>
      </trkpt>
      <trkpt lat="46.688954" lon="12.083640">
        <ele>1675.1</ele>
        <time>2025-08-18T08:10:17.311Z</time>
      </trkpt>
      <trkpt lat="46.688657" lon="12.083804">
        <ele>1684.6</ele>
        <time>2025-08-18T08:12:25.545Z</time>
      </trkpt>
      <trkpt lat="46.688365" lon="12.083926">
        <ele>1694.8</ele>
        <time>2025-08-18T08:14:39.554Z</time>
      </trkpt>
      <trkpt lat="46.688074" lon="12.084039">
        <ele>1704.2</ele>
        <time>2025-08-18T08:16:44.508Z</time>
      </trkpt>
      <trkpt lat="46.687784" lon="12.084145">
        <ele>1714.9</ele>
        <time>2025-08-18T08:19:03.837Z</time>
      </trkpt>
      <trkpt lat="46.687516" lon="12.084089">
        <ele>1723.7</ele>
        <time>2025-08-18T08:20:59.741Z</time>
      </trkpt>
      <trkpt lat="46.687254" lon="12.083981">
        <ele>1731.8</ele>
        <time>2025-08-18T08:22:49.025Z</time>
      </trkpt>
      <trkpt lat="46.687007" lon="12.083764">
        <ele>1742.5</ele>
        <time>2025-08-18T08:25:06.391Z</time>
      </trkpt>
      <trkpt lat="46.686764" lon="12.083514">
        <ele>1749.9</ele>
        <time>2025-08-18T08:26:50.734Z</time>
      </trkpt>
      <trkpt lat="46.686529" lon="12.083205">
        <ele>1760.0</ele>
        <time>2025-08-18T08:29:04.721Z</time>
      </trkpt>
      <trkpt lat="46.686285" lon="12.082966">
        <ele>1767.7</ele>
        <time>2025-08-18T08:30:52.050Z</time>
      </trkpt>
      <trkpt lat="46.686037" lon="12.082752">
        <ele>1776.8</ele>
        <time>2025-08-18T08:32:53.802Z</time>
      </trkpt>
      <trkpt lat="46.685781" lon="12.082606">
        <ele>1785.2</ele>
        <time>2025-08-18T08:34:45.976Z</time>
      </trkpt>
      <trkpt lat="46.685509" lon="12.082577">
        <ele>1792.6</ele>
        <time>2025-08-18T08:36:28.427Z</time>
      </trkpt>
      <trkpt lat="46.685234" lon="12.082568">
        <ele>1800.7</ele>
        <time>2025-08-18T08:38:17.893Z</time>
      </trkpt>
      <trkpt lat="46.684951" lon="12.082627">
        <ele>1808.4</ele>
        <time>2025-08-18T08:40:04.596Z</time>
      </trkpt>
      <trkpt lat="46.684665" lon="12.082702">
        <ele>1816.6</ele>
        <time>2025-08-18T08:41:56.557Z</time>
      </trkpt>
      <trkpt lat="46.684380" lon="12.082773">
        <ele>1824.1</ele>
        <time>2025-08-18T08:43:40.521Z</time>
      </trkpt>
      <trkpt lat="46.684104" lon="12.082776">
        <ele>1832.8</ele>
        <time>2025-08-18T08:45:36.625Z</time>
      </trkpt>
      <trkpt lat="46.683831" lon="12.082754">
        <ele>1839.6</ele>
        <time>2025-08-18T08:47:12.593Z</time>
      </trkpt>
      <trkpt lat="46.683569" lon="12.082654">
        <ele>1848.9</ele>
        <time>2025-08-18T08:49:13.911Z</time>
      </trkpt>
      <trkpt lat="46.683308" lon="12.082540">
        <ele>1856.3</ele>
        <time>2025-08-18T08:50:56.249Z</time>
      </trkpt>
      <trkpt lat="46.683052" lon="12.082390">
        <ele>1866.1</ele>
        <time>2025-08-18T08:53:02.977Z</time>
      </trkpt>
      <trkpt lat="46.682793" lon="12.082258">
        <ele>1872.9</ele>
        <time>2025-08-18T08:54:39.751Z</time>
      </trkpt>
      <trkpt lat="46.682533" lon="12.082140">
        <ele>1882.9</ele>
        <time>2025-08-18T08:56:48.508Z</time>
      </trkpt>
      <trkpt lat="46.682268" lon="12.082058">
        <ele>1890.7</ele>
        <time>2025-08-18T08:58:34.613Z</time>
      </trkpt>
      <trkpt lat="46.682000" lon="12.082000">
        <ele>1899.6</ele>
        <time>2025-08-18T09:00:31.704Z</time>
      </trkpt>
      <trkpt lat="46.681738" lon="12.081905">
        <ele>1909.0</ele>
        <time>2025-08-18T09:02:34.325Z</time>
      </trkpt>
      <trkpt lat="46.681477" lon="12.081807">
        <ele>1916.0</ele>
        <time>2025-08-18T09:04:12.018Z</time>
      </trkpt>
      <trkpt lat="46.681215" lon="12.081714">
        <ele>1925.5</ele>
        <time>2025-08-18T09:06:15.447Z</time>
      </trkpt>
      <trkpt lat="46.680949" lon="12.081657">
        <ele>1933.4</ele>
        <time>2025-08-18T09:08:02.118Z</time>
      </trkpt>
      <trkpt lat="46.680679" lon="12.081640">
        <ele>1941.1</ele>
        <time>2025-08-18T09:09:46.987Z</time>
      </trkpt>
      <trkpt lat="46.680406" lon="12.081655">
        <ele>1949.9</ele>
        <time>2025-08-18T09:11:43.628Z</time>
      </trkpt>
      <trkpt lat="46.680130" lon="12.081685">
        <ele>1957.3</ele>
        <time>2025-08-18T09:13:25.899Z</time>
      </trkpt>
      <trkpt lat="46.679854" lon="12.081730">
        <ele>1965.6</ele>
        <time>2025-08-18T09:15:17.833Z</time>
      </trkpt>
      <trkpt lat="46.679579" lon="12.081758">
        <ele>1973.9</ele>
        <time>2025-08-18T09:17:09.244Z</time>
      </trkpt>
      <trkpt lat="46.679309" lon="12.081733">
        <ele>1984.5</ele>
        <time>2025-08-18T09:19:24.051Z</time>
      </trkpt>
      <trkpt lat="46.679048" lon="12.081638">
        <ele>1991.4</ele>
        <time>2025-08-18T09:21:01.139Z</time>
      </trkpt>
      <trkpt lat="46.678794" lon="12.081475">
        <ele>2002.3</ele>
        <time>2025-08-18T09:23:19.130Z</time>
      </trkpt>
      <trkpt lat="46.678545" lon="12.081260">
        <ele>2010.8</ele>
        <time>2025-08-18T09:25:14.379Z</time>
      </trkpt>
      <trkpt lat="46.678301" lon="12.081004">
        <ele>2019.5</ele>
        <time>2025-08-18T09:27:12.422Z</time>
      </trkpt>
      <trkpt lat="46.678053" lon="12.080783">
        <ele>2029.1</ele>
        <time>2025-08-18T09:29:19.477Z</time>
      </trkpt>
      <trkpt lat="46.677801" lon="12.080597">
        <ele>2039.2</ele>
        <time>2025-08-18T09:31:29.473Z</time>
      </trkpt>
      <trkpt lat="46.677545" lon="12.080453">
        <ele>2047.3</ele>
        <time>2025-08-18T09:33:19.183Z</time>
      </trkpt>
      <trkpt lat="46.677277" lon="12.080415">
        <ele>2057.1</ele>
        <time>2025-08-18T09:35:25.729Z</time>
      </trkpt>
      <trkpt lat="46.677000" lon="12.080461">
        <ele>2066.9</ele>
        <time>2025-08-18T09:37:33.186Z</time>
      </trkpt>
      <trkpt lat="46.676712" lon="12.080608">
        <ele>2078.1</ele>
        <time>2025-08-18T09:39:57.905Z</time>
      </trkpt>
      <trkpt lat="46.676425" lon="12.080751">
        <ele>2087.4</ele>
        <time>2025-08-18T09:42:02.019Z</time>
      </trkpt>
      <trkpt lat="46.676137" lon="12.080899">
        <ele>2095.9</ele>
        <time>2025-08-18T09:43:58.206Z</time>
      </trkpt>
      <trkpt lat="46.675848" lon="12.081054">
        <ele>2106.5</ele>
        <time>2025-08-18T09:46:16.902Z</time>
      </trkpt>
      <trkpt lat="46.675572" lon="12.081087">
        <ele>2114.4</ele>
        <time>2025-08-18T09:48:04.221Z</time>
      </trkpt>
      <trkpt lat="46.675309" lon="12.081009">
        <ele>2124.2</ele>
        <time>2025-08-18T09:50:10.912Z</time>
      </trkpt>
      <trkpt lat="46.675048" lon="12.080908">
        <ele>2132.8</ele>
        <time>2025-08-18T09:52:05.328Z</time>
      </trkpt>
      <trkpt lat="46.674805" lon="12.080641">
        <ele>2143.1</ele>
        <time>2025-08-18T09:54:19.813Z</time>
      </trkpt>
      <trkpt lat="46.674561" lon="12.080386">
        <ele>2150.1</ele>
        <time>2025-08-18T09:56:01.224Z</time>
      </trkpt>
      <trkpt lat="46.674324" lon="12.080063">
        <ele>2160.3</ele>
        <time>2025-08-18T09:58:16.100Z</time>
      </trkpt>
      <trkpt lat="46.674078" lon="12.079819">
        <ele>2167.7</ele>
        <time>2025-08-18T10:00:00.970Z</time>
      </trkpt>
      <trkpt lat="46.673823" lon="12.079662">
        <ele>2176.1</ele>
        <time>2025-08-18T10:01:54.262Z</time>
      </trkpt>
      <trkpt lat="46.673564" lon="12.079542">
        <ele>2185.1</ele>
        <time>2025-08-18T10:03:52.071Z</time>
      </trkpt>
      <trkpt lat="46.673297" lon="12.079503">
        <ele>2191.8</ele>
        <time>2025-08-18T10:05:26.594Z</time>
      </trkpt>
      <trkpt lat="46.673014" lon="12.079599">
        <ele>2199.6</ele>
        <time>2025-08-18T10:07:14.295Z</time>
      </trkpt>
      <trkpt lat="46.672731" lon="12.079701">
        <ele>2207.7</ele>
        <time>2025-08-18T10:09:06.017Z</time>
      </trkpt>
      <trkpt lat="46.672448" lon="12.079803">
        <ele>2215.2</ele>
        <time>2025-08-18T10:10:50.532Z</time>
      </trkpt>
      <trkpt lat="46.672167" lon="12.079889">
        <ele>2223.8</ele>
        <time>2025-08-18T10:12:46.266Z</time>
      </trkpt>
      <trkpt lat="46.671887" lon="12.079964">
        <ele>2232.5</ele>
        <time>2025-08-18T10:14:42.679Z</time>
      </trkpt>
      <trkpt lat="46.671617" lon="12.079949">
        <ele>2239.4</ele>
        <time>2025-08-18T10:16:19.461Z</time>
      </trkpt>
      <trkpt lat="46.671355" lon="12.079849">
        <ele>2247.8</ele>
        <time>2025-08-18T10:18:11.939Z</time>
      </trkpt>
      <trkpt lat="46.671098" lon="12.079717">
        <ele>2255.7</ele>
        <time>2025-08-18T10:19:59.568Z</time>
      </trkpt>
      <trkpt lat="46.670843" lon="12.079560">
        <ele>2265.3</ele>
        <time>2025-08-18T10:22:03.950Z</time>
      </trkpt>
      <trkpt lat="46.670587" lon="12.079415">
        <ele>2272.9</ele>
        <time>2025-08-18T10:23:49.100Z</time>
      </trkpt>
      <trkpt lat="46.670331" lon="12.079268">
        <ele>2281.3</ele>
        <time>2025-08-18T10:25:41.466Z</time>
      </trkpt>
      <trkpt lat="46.670071" lon="12.079159">
        <ele>2290.9</ele>
        <time>2025-08-18T10:27:45.921Z</time>
      </trkpt>
      <trkpt lat="46.669806" lon="12.079089">
        <ele>2300.6</ele>
        <time>2025-08-18T10:29:51.261Z</time>
      </trkpt>
      <trkpt lat="46.669539" lon="12.079049">
        <ele>2308.8</ele>
        <time>2025-08-18T10:31:41.057Z</time>
      </trkpt>
      <trkpt lat="46.669269" lon="12.079026">
        <ele>2318.7</ele>
        <time>2025-08-18T10:33:48.634Z</time>
      </trkpt>
      <trkpt lat="46.669000" lon="12.079000">
        <ele>2327.3</ele>
        <time>2025-08-18T10:35:42.723Z</time>
      </trkpt>
      <trkpt lat="46.668769" lon="12.078799">
        <ele>2325.1</ele>
        <time>2025-08-18T10:36:21.438Z</time>
      </trkpt>
      <trkpt lat="46.668541" lon="12.078590">
        <ele>2322.7</ele>
        <time>2025-08-18T10:37:01.543Z</time>
      </trkpt>
      <trkpt lat="46.668316" lon="12.078373">
        <ele>2320.0</ele>
        <time>2025-08-18T10:37:43.326Z</time>
      </trkpt>
      <trkpt lat="46.668094" lon="12.078147">
        <ele>2317.4</ele>
        <time>2025-08-18T10:38:24.864Z</time>
      </trkpt>
      <trkpt lat="46.667872" lon="12.077920">
        <ele>2316.1</ele>
        <time>2025-08-18T10:38:58.111Z</time>
      </trkpt>
      <trkpt lat="46.667650" lon="12.077696">
        <ele>2313.9</ele>
        <time>2025-08-18T10:39:37.655Z</time>
      </trkpt>
      <trkpt lat="46.667429" lon="12.077467">
        <ele>2311.2</ele>
        <time>2025-08-18T10:40:19.149Z</time>
      </trkpt>
      <trkpt lat="46.667206" lon="12.077245">
        <ele>2308.8</ele>
        <time>2025-08-18T10:40:59.660Z</time>
      </trkpt>
      <trkpt lat="46.666976" lon="12.077039">
        <ele>2305.5</ele>
        <time>2025-08-18T10:41:44.791Z</time>
      </trkpt>
      <trkpt lat="46.666747" lon="12.076832">
        <ele>2303.1</ele>
        <time>2025-08-18T10:42:24.830Z</time>
      </trkpt>
      <trkpt lat="46.666510" lon="12.076649">
        <ele>2301.2</ele>
        <time>2025-08-18T10:43:02.380Z</time>
      </trkpt>
      <trkpt lat="46.666273" lon="12.076461">
        <ele>2298.0</ele>
        <time>2025-08-18T10:43:46.989Z</time>
      </trkpt>
      <trkpt lat="46.666027" lon="12.076299">
        <ele>2295.9</ele>
        <time>2025-08-18T10:44:25.552Z</time>
      </trkpt>
      <trkpt lat="46.665772" lon="12.076162">
        <ele>2292.9</ele>
        <time>2025-08-18T10:45:09.186Z</time>
      </trkpt>
      <trkpt lat="46.665519" lon="12.076020">
        <ele>2290.7</ele>
        <time>2025-08-18T10:45:48.228Z</time>
      </trkpt>
      <trkpt lat="46.665252" lon="12.075912">
        <ele>2287.3</ele>
        <time>2025-08-18T10:46:35.347Z</time>
      </trkpt>
      <trkpt lat="46.664987" lon="12.075801">
        <ele>2286.1</ele>
        <time>2025-08-18T10:47:08.795Z</time>
      </trkpt>
      <trkpt lat="46.664719" lon="12.075698">
        <ele>2283.2</ele>
        <time>2025-08-18T10:47:52.120Z</time>
      </trkpt>
      <trkpt lat="46.664451" lon="12.075597">
        <ele>2279.8</ele>
        <time>2025-08-18T10:48:39.460Z</time>
      </trkpt>
      <trkpt lat="46.664174" lon="12.075516">
        <ele>2277.5</ele>
        <time>2025-08-18T10:49:19.926Z</time>
      </trkpt>
      <trkpt lat="46.663906" lon="12.075413">
        <ele>2275.0</ele>
        <time>2025-08-18T10:50:01.288Z</time>
      </trkpt>
      <trkpt lat="46.663630" lon="12.075331">
        <ele>2272.9</ele>
        <time>2025-08-18T10:50:40.813Z</time>
      </trkpt>
      <trkpt lat="46.663360" lon="12.075233">
        <ele>2271.7</ele>
        <time>2025-08-18T10:51:14.399Z</time>
      </trkpt>
      <trkpt lat="46.663106" lon="12.075091">
        <ele>2270.0</ele>
        <time>2025-08-18T10:51:50.842Z</time>
      </trkpt>
      <trkpt lat="46.662841" lon="12.074980">
        <ele>2266.7</ele>
        <time>2025-08-18T10:52:36.637Z</time>
      </trkpt>
      <trkpt lat="46.662592" lon="12.074826">
        <ele>2265.5</ele>
        <time>2025-08-18T10:53:09.776Z</time>
      </trkpt>
      <trkpt lat="46.662351" lon="12.074651">
        <ele>2263.1</ele>
        <time>2025-08-18T10:53:49.707Z</time>
      </trkpt>
      <trkpt lat="46.662125" lon="12.074436">
        <ele>2261.2</ele>
        <time>2025-08-18T10:54:26.967Z</time>
      </trkpt>
      <trkpt lat="46.661902" lon="12.074214">
        <ele>2259.9</ele>
        <time>2025-08-18T10:55:00.322Z</time>
      </trkpt>
      <trkpt lat="46.661687" lon="12.073969">
        <ele>2257.1</ele>
        <time>2025-08-18T10:55:43.110Z</time>
      </trkpt>
      <trkpt lat="46.661481" lon="12.073703">
        <ele>2255.4</ele>
        <time>2025-08-18T10:56:19.476Z</time>
      </trkpt>
      <trkpt lat="46.661276" lon="12.073431">
        <ele>2255.0</ele>
        <time>2025-08-18T10:56:48.525Z</time>
      </trkpt>
      <trkpt lat="46.661094" lon="12.073099">
        <ele>2253.6</ele>
        <time>2025-08-18T10:57:24.502Z</time>
      </trkpt>
      <trkpt lat="46.660903" lon="12.072791">
        <ele>2251.4</ele>
        <time>2025-08-18T10:58:04.705Z</time>
      </trkpt>
      <trkpt lat="46.660720" lon="12.072463">
        <ele>2249.0</ele>
        <time>2025-08-18T10:58:47.229Z</time>
      </trkpt>
      <trkpt lat="46.660554" lon="12.072089">
        <ele>2248.5</ele>
        <time>2025-08-18T10:59:19.140Z</time>
      </trkpt>
      <trkpt lat="46.660366" lon="12.071773">
        <ele>2247.0</ele>
        <time>2025-08-18T10:59:55.326Z</time>
      </trkpt>
      <trkpt lat="46.660197" lon="12.071409">
        <ele>2246.3</ele>
        <time>2025-08-18T11:00:28.708Z</time>
      </trkpt>
      <trkpt lat="46.660012" lon="12.071085">
        <ele>2245.8</ele>
        <time>2025-08-18T11:00:59.258Z</time>
      </trkpt>
      <trkpt lat="46.659820" lon="12.070777">
        <ele>2243.6</ele>
        <time>2025-08-18T11:01:39.355Z</time>
      </trkpt>
      <trkpt lat="46.659628" lon="12.070474">
        <ele>2242.4</ele>
        <time>2025-08-18T11:02:13.926Z</time>
      </trkpt>
      <trkpt lat="46.659432" lon="12.070178">
        <ele>2241.4</ele>
        <time>2025-08-18T11:02:46.834Z</time>
      </trkpt>
      <trkpt lat="46.659216" lon="12.069938">
        <ele>2240.0</ele>
        <time>2025-08-18T11:03:20.994Z</time>
      </trkpt>
      <trkpt lat="46.659004" lon="12.069685">
        <ele>2239.0</ele>
        <time>2025-08-18T11:03:52.874Z</time>
      </trkpt>
      <trkpt lat="46.658762" lon="12.069513">
        <ele>2239.5</ele>
        <time>2025-08-18T11:04:23.795Z</time>
      </trkpt>
      <trkpt lat="46.658522" lon="12.069335">
        <ele>2237.6</ele>
        <time>2025-08-18T11:05:01.303Z</time>
      </trkpt>
      <trkpt lat="46.658268" lon="12.069196">
        <ele>2237.6</ele>
        <time>2025-08-18T11:05:27.445Z</time>
      </trkpt>
      <trkpt lat="46.657994" lon="12.069109">
        <ele>2236.6</ele>
        <time>2025-08-18T11:05:59.881Z</time>
      </trkpt>
      <trkpt lat="46.657720" lon="12.069021">
        <ele>2235.4</ele>
        <time>2025-08-18T11:06:33.786Z</time>
      </trkpt>
      <trkpt lat="46.657436" lon="12.068960">
        <ele>2232.8</ele>
        <time>2025-08-18T11:07:17.211Z</time>
      </trkpt>
      <trkpt lat="46.657137" lon="12.068939">
        <ele>2232.4</ele>
        <time>2025-08-18T11:07:47.919Z</time>
      </trkpt>
      <trkpt lat="46.656857" lon="12.068868">
        <ele>2231.3</ele>
        <time>2025-08-18T11:08:21.254Z</time>
      </trkpt>
      <trkpt lat="46.656545" lon="12.068882">
        <ele>2230.1</ele>
        <time>2025-08-18T11:08:58.361Z</time>
      </trkpt>
      <trkpt lat="46.656240" lon="12.068874">
        <ele>2228.7</ele>
        <time>2025-08-18T11:09:35.748Z</time>
      </trkpt>
      <trkpt lat="46.655936" lon="12.068868">
        <ele>2229.0</ele>
        <time>2025-08-18T11:10:07.190Z</time>
      </trkpt>
      <trkpt lat="46.655639" lon="12.068842">
        <ele>2226.4</ele>
        <time>2025-08-18T11:10:50.792Z</time>
      </trkpt>
      <trkpt lat="46.655354" lon="12.068782">
        <ele>2225.3</ele>
        <time>2025-08-18T11:11:24.780Z</time>
      </trkpt>
      <trkpt lat="46.655057" lon="12.068756">
        <ele>2223.3</ele>
        <time>2025-08-18T11:12:05.058Z</time>
      </trkpt>
      <trkpt lat="46.654783" lon="12.068670">
        <ele>2223.6</ele>
        <time>2025-08-18T11:12:35.047Z</time>
      </trkpt>
      <trkpt lat="46.654522" lon="12.068548">
        <ele>2221.9</ele>
        <time>2025-08-18T11:13:11.541Z</time>
      </trkpt>
      <trkpt lat="46.654252" lon="12.068449">
        <ele>2218.6</ele>
        <time>2025-08-18T11:13:57.949Z</time>
      </trkpt>
      <trkpt lat="46.654007" lon="12.068285">
        <ele>2217.2</ele>
        <time>2025-08-18T11:14:31.900Z</time>
      </trkpt>
      <trkpt lat="46.653764" lon="12.068116">
        <ele>2216.7</ele>
        <time>2025-08-18T11:15:00.742Z</time>
      </trkpt>
      <trkpt lat="46.653544" lon="12.067885">
        <ele>2213.8</ele>
        <time>2025-08-18T11:15:44.176Z</time>
      </trkpt>
      <trkpt lat="46.653325" lon="12.067650">
        <ele>2212.4</ele>
        <time>2025-08-18T11:16:18.493Z</time>
      </trkpt>
      <trkpt lat="46.653115" lon="12.067393">
        <ele>2210.9</ele>
        <time>2025-08-18T11:16:53.469Z</time>
      </trkpt>
      <trkpt lat="46.652932" lon="12.067064">
        <ele>2208.0</ele>
        <time>2025-08-18T11:17:38.387Z</time>
      </trkpt>
      <trkpt lat="46.652731" lon="12.066785">
        <ele>2205.3</ele>
        <time>2025-08-18T11:18:21.187Z</time>
      </trkpt>
      <trkpt lat="46.652555" lon="12.066435">
        <ele>2203.1</ele>
        <time>2025-08-18T11:19:02.603Z</time>
      </trkpt>
      <trkpt lat="46.652373" lon="12.066106">
        <ele>2201.4</ele>
        <time>2025-08-18T11:19:40.378Z</time>
      </trkpt>
      <trkpt lat="46.652199" lon="12.065753">
        <ele>2198.2</ele>
        <time>2025-08-18T11:20:28.524Z</time>
      </trkpt>
      <trkpt lat="46.652015" lon="12.065427">
        <ele>2197.1</ele>
        <time>2025-08-18T11:21:02.440Z</time>
      </trkpt>
      <trkpt lat="46.651836" lon="12.065085">
        <ele>2194.6</ele>
        <time>2025-08-18T11:21:45.578Z</time>
      </trkpt>
      <trkpt lat="46.651643" lon="12.064784">
        <ele>2190.6</ele>
        <time>2025-08-18T11:22:36.726Z</time>
      </trkpt>
      <trkpt lat="46.651457" lon="12.064462">
        <ele>2189.9</ele>
        <time>2025-08-18T11:23:08.585Z</time>
      </trkpt>
      <trkpt lat="46.651259" lon="12.064173">
        <ele>2186.0</ele>
        <time>2025-08-18T11:23:58.371Z</time>
      </trkpt>
      <trkpt lat="46.651053" lon="12.063906">
        <ele>2183.1</ele>
        <time>2025-08-18T11:24:42.218Z</time>
      </trkpt>
      <trkpt lat="46.650843" lon="12.063647">
        <ele>2180.9</ele>
        <time>2025-08-18T11:25:21.424Z</time>
      </trkpt>
      <trkpt lat="46.650627" lon="12.063407">
        <ele>2178.1</ele>
        <time>2025-08-18T11:26:04.022Z</time>
      </trkpt>
      <trkpt lat="46.650401" lon="12.063191">
        <ele>2175.4</ele>
        <time>2025-08-18T11:26:46.111Z</time>
      </trkpt>
      <trkpt lat="46.650162" lon="12.063012">
        <ele>2172.5</ele>
        <time>2025-08-18T11:27:29.151Z</time>
      </trkpt>
      <trkpt lat="46.649909" lon="12.062869">
        <ele>2170.5</ele>
        <time>2025-08-18T11:28:07.230Z</time>
      </trkpt>
      <trkpt lat="46.649656" lon="12.062724">
        <ele>2168.0</ele>
        <time>2025-08-18T11:28:47.833Z</time>
      </trkpt>
      <trkpt lat="46.649399" lon="12.062592">
        <ele>2163.6</ele>
        <time>2025-08-18T11:29:40.229Z</time>
      </trkpt>
      <trkpt lat="46.649139" lon="12.062469">
        <ele>2162.3</ele>
        <time>2025-08-18T11:30:14.139Z</time>
      </trkpt>
      <trkpt lat="46.648865" lon="12.062381">
        <ele>2158.3</ele>
        <time>2025-08-18T11:31:05.171Z</time>
      </trkpt>
      <trkpt lat="46.648600" lon="12.062268">
        <ele>2155.9</ele>
        <time>2025-08-18T11:31:45.724Z</time>
      </trkpt>
      <trkpt lat="46.648330" lon="12.062173">
        <ele>2153.9</ele>
        <time>2025-08-18T11:32:24.309Z</time>
      </trkpt>
      <trkpt lat="46.648058" lon="12.062078">
        <ele>2151.4</ele>
        <time>2025-08-18T11:33:06.025Z</time>
      </trkpt>
      <trkpt lat="46.647784" lon="12.061990">
        <ele>2148.0</ele>
        <time>2025-08-18T11:33:53.055Z</time>
      </trkpt>
      <trkpt lat="46.647519" lon="12.061879">
        <ele>2146.2</ele>
        <time>2025-08-18T11:34:30.088Z</time>
      </trkpt>
      <trkpt lat="46.647264" lon="12.061741">
        <ele>2143.7</ele>
        <time>2025-08-18T11:35:10.679Z</time>
      </trkpt>
      <trkpt lat="46.647005" lon="12.061614">
        <ele>2141.3</ele>
        <time>2025-08-18T11:35:51.132Z</time>
      </trkpt>
      <trkpt lat="46.646754" lon="12.061467">
        <ele>2139.1</ele>
        <time>2025-08-18T11:36:30.100Z</time>
      </trkpt>
      <trkpt lat="46.646509" lon="12.061301">
        <ele>2137.7</ele>
        <time>2025-08-18T11:37:04.565Z</time>
      </trkpt>
      <trkpt lat="46.646265" lon="12.061135">
        <ele>2133.5</ele>
        <time>2025-08-18T11:37:55.201Z</time>
      </trkpt>
      <trkpt lat="46.646032" lon="12.060938">
        <ele>2132.2</ele>
        <time>2025-08-18T11:38:28.820Z</time>
      </trkpt>
      <trkpt lat="46.645797" lon="12.060747">
        <ele>2131.2</ele>
        <time>2025-08-18T11:39:00.617Z</time>
      </trkpt>
      <trkpt lat="46.645570" lon="12.060536">
        <ele>2127.4</ele>
        <time>2025-08-18T11:39:49.002Z</time>
      </trkpt>
      <trkpt lat="46.645345" lon="12.060317">
        <ele>2126.2</ele>
        <time>2025-08-18T11:40:21.869Z</time>
      </trkpt>
      <trkpt lat="46.645123" lon="12.060094">
        <ele>2124.8</ele>
        <time>2025-08-18T11:40:56.356Z</time>
      </trkpt>
      <trkpt lat="46.644900" lon="12.059869">
        <ele>2122.8</ele>
        <time>2025-08-18T11:41:33.699Z</time>
      </trkpt>
      <trkpt lat="46.644679" lon="12.059642">
        <ele>2120.8</ele>
        <time>2025-08-18T11:42:11.496Z</time>
      </trkpt>
      <trkpt lat="46.644455" lon="12.059422">
        <ele>2119.8</ele>
        <time>2025-08-18T11:42:43.266Z</time>
      </trkpt>
      <trkpt lat="46.644229" lon="12.059208">
        <ele>2117.0</ele>
        <time>2025-08-18T11:43:25.704Z</time>
      </trkpt>
      <trkpt lat="46.644000" lon="12.059000">
        <ele>2117.0</ele>
        <time>2025-08-18T11:43:51.864Z</time>
      </trkpt>
      <trkpt lat="46.643783" lon="12.058769">
        <ele>2113.7</ele>
        <time>2025-08-18T11:44:37.132Z</time>
      </trkpt>
      <trkpt lat="46.643572" lon="12.058527">
        <ele>2111.8</ele>
        <time>2025-08-18T11:45:14.188Z</time>
      </trkpt>
      <trkpt lat="46.643367" lon="12.058268">
        <ele>2108.7</ele>
        <time>2025-08-18T11:45:58.260Z</time>
      </trkpt>
      <trkpt lat="46.643163" lon="12.058010">
        <ele>2106.7</ele>
        <time>2025-08-18T11:46:36.175Z</time>
      </trkpt>
      <trkpt lat="46.642960" lon="12.057747">
        <ele>2103.1</ele>
        <time>2025-08-18T11:47:23.589Z</time>
      </trkpt>
      <trkpt lat="46.642757" lon="12.057485">
        <ele>2101.4</ele>
        <time>2025-08-18T11:47:59.683Z</time>
      </trkpt>
      <trkpt lat="46.642558" lon="12.057214">
        <ele>2099.1</ele>
        <time>2025-08-18T11:48:39.304Z</time>
      </trkpt>
      <trkpt lat="46.642351" lon="12.056961">
        <ele>2096.0</ele>
        <time>2025-08-18T11:49:23.892Z</time>
      </trkpt>
      <trkpt lat="46.642133" lon="12.056733">
        <ele>2092.6</ele>
        <time>2025-08-18T11:50:10.113Z</time>
      </trkpt>
      <trkpt lat="46.641915" lon="12.056506">
        <ele>2091.4</ele>
        <time>2025-08-18T11:50:42.508Z</time>
      </trkpt>
      <trkpt lat="46.641690" lon="12.056293">
        <ele>2087.8</ele>
        <time>2025-08-18T11:51:29.927Z</time>
      </trkpt>
      <trkpt lat="46.641450" lon="12.056115">
        <ele>2084.8</ele>
        <time>2025-08-18T11:52:13.642Z</time>
      </trkpt>
      <trkpt lat="46.641205" lon="12.055949">
        <ele>2083.4</ele>
        <time>2025-08-18T11:52:47.538Z</time>
      </trkpt>
      <trkpt lat="46.640956" lon="12.055791">
        <ele>2080.3</ele>
        <time>2025-08-18T11:53:32.336Z</time>
      </trkpt>
      <trkpt lat="46.640690" lon="12.055671">
        <ele>2077.1</ele>
        <time>2025-08-18T11:54:17.933Z</time>
      </trkpt>
      <trkpt lat="46.640426" lon="12.055549">
        <ele>2076.1</ele>
        <time>2025-08-18T11:54:50.467Z</time>
      </trkpt>
      <trkpt lat="46.640148" lon="12.055456">
        <ele>2073.2</ele>
        <time>2025-08-18T11:55:35.112Z</time>
      </trkpt>
      <trkpt lat="46.639871" lon="12.055363">
        <ele>2071.8</ele>
        <time>2025-08-18T11:56:10.281Z</time>
      </trkpt>
      <trkpt lat="46.639585" lon="12.055287">
        <ele>2070.0</ele>
        <time>2025-08-18T11:56:48.713Z</time>
      </trkpt>
      <trkpt lat="46.639308" lon="12.055193">
        <ele>2068.2</ele>
        <time>2025-08-18T11:57:26.891Z</time>
      </trkpt>
      <trkpt lat="46.639031" lon="12.055098">
        <ele>2065.9</ele>
        <time>2025-08-18T11:58:07.414Z</time>
      </trkpt>
      <trkpt lat="46.638754" lon="12.055006">
        <ele>2064.2</ele>
        <time>2025-08-18T11:58:44.838Z</time>
      </trkpt>
      <trkpt lat="46.638490" lon="12.054881">
        <ele>2063.4</ele>
        <time>2025-08-18T11:59:16.188Z</time>
      </trkpt>
      <trkpt lat="46.638232" lon="12.054743">
        <ele>2061.8</ele>
        <time>2025-08-18T11:59:52.261Z</time>
      </trkpt>
      <trkpt lat="46.637979" lon="12.054596">
        <ele>2059.6</ele>
        <time>2025-08-18T12:00:31.514Z</time>
      </trkpt>
      <trkpt lat="46.637747" lon="12.054399">
        <ele>2059.0</ele>
        <time>2025-08-18T12:01:00.377Z</time>
      </trkpt>
      <trkpt lat="46.637514" lon="12.054204">
        <ele>2057.2</ele>
        <time>2025-08-18T12:01:36.846Z</time>
      </trkpt>
      <trkpt lat="46.637310" lon="12.053946">
        <ele>2055.2</ele>
        <time>2025-08-18T12:02:14.597Z</time>
      </trkpt>
      <trkpt lat="46.637102" lon="12.053694">
        <ele>2055.6</ele>
        <time>2025-08-18T12:02:44.770Z</time>
      </trkpt>
      <trkpt lat="46.636912" lon="12.053402">
        <ele>2054.6</ele>
        <time>2025-08-18T12:03:17.043Z</time>
      </trkpt>
      <trkpt lat="46.636735" lon="12.053081">
        <ele>2052.5</ele>
        <time>2025-08-18T12:03:56.901Z</time>
      </trkpt>
      <trkpt lat="46.636572" lon="12.052731">
        <ele>2051.6</ele>
        <time>2025-08-18T12:04:30.166Z</time>
      </trkpt>
      <trkpt lat="46.636419" lon="12.052356">
        <ele>2051.4</ele>
        <time>2025-08-18T12:04:59.771Z</time>
      </trkpt>
      <trkpt lat="46.636248" lon="12.052021">
        <ele>2048.4</ele>
        <time>2025-08-18T12:05:44.745Z</time>
      </trkpt>
      <trkpt lat="46.636107" lon="12.051618">
        <ele>2047.9</ele>
        <time>2025-08-18T12:06:17.636Z</time>
      </trkpt>
      <trkpt lat="46.635948" lon="12.051257">
        <ele>2045.9</ele>
        <time>2025-08-18T12:06:57.454Z</time>
      </trkpt>
      <trkpt lat="46.635806" lon="12.050858">
        <ele>2046.3</ele>
        <time>2025-08-18T12:07:30.980Z</time>
      </trkpt>
      <trkpt lat="46.635651" lon="12.050486">
        <ele>2043.1</ele>
        <time>2025-08-18T12:08:18.523Z</time>
      </trkpt>
      <trkpt lat="46.635482" lon="12.050149">
        <ele>2042.6</ele>
        <time>2025-08-18T12:08:49.063Z</time>
      </trkpt>
      <trkpt lat="46.635297" lon="12.049844">
        <ele>2041.0</ele>
        <time>2025-08-18T12:09:25.558Z</time>
      </trkpt>
      <trkpt lat="46.635124" lon="12.049515">
        <ele>2039.5</ele>
        <time>2025-08-18T12:10:01.659Z</time>
      </trkpt>
      <trkpt lat="46.634922" lon="12.049251">
        <ele>2037.3</ele>
        <time>2025-08-18T12:10:40.710Z</time>
      </trkpt>
      <trkpt lat="46.634708" lon="12.049014">
        <ele>2034.4</ele>
        <time>2025-08-18T12:11:23.695Z</time>
      </trkpt>
      <trkpt lat="46.634498" lon="12.048768">
        <ele>2033.1</ele>
        <time>2025-08-18T12:11:57.049Z</time>
      </trkpt>
      <trkpt lat="46.634253" lon="12.048601">
        <ele>2030.7</ele>
        <time>2025-08-18T12:12:37.484Z</time>
      </trkpt>
      <trkpt lat="46.634011" lon="12.048427">
        <ele>2028.6</ele>
        <time>2025-08-18T12:13:15.424Z</time>
      </trkpt>
      <trkpt lat="46.633757" lon="12.048281">
        <ele>2024.8</ele>
        <time>2025-08-18T12:14:04.523Z</time>
      </trkpt>
      <trkpt lat="46.633493" lon="12.048157">
        <ele>2023.2</ele>
        <time>2025-08-18T12:14:40.395Z</time>
      </trkpt>
      <trkpt lat="46.633208" lon="12.048082">
        <ele>2020.5</ele>
        <time>2025-08-18T12:15:24.244Z</time>
      </trkpt>
      <trkpt lat="46.632939" lon="12.047968">
        <ele>2016.9</ele>
        <time>2025-08-18T12:16:12.404Z</time>
      </trkpt>
      <trkpt lat="46.632657" lon="12.047887">
        <ele>2014.1</ele>
        <time>2025-08-18T12:16:56.573Z</time>
      </trkpt>
      <trkpt lat="46.632366" lon="12.047823">
        <ele>2011.5</ele>
        <time>2025-08-18T12:17:40.047Z</time>
      </trkpt>
      <trkpt lat="46.632085" lon="12.047738">
        <ele>2009.6</ele>
        <time>2025-08-18T12:18:18.951Z</time>
      </trkpt>
      <trkpt lat="46.631814" lon="12.047630">
        <ele>2005.8</ele>
        <time>2025-08-18T12:19:08.593Z</time>
      </trkpt>
      <trkpt lat="46.631534" lon="12.047542">
        <ele>2002.6</ele>
        <time>2025-08-18T12:19:55.231Z</time>
      </trkpt>
      <trkpt lat="46.631276" lon="12.047406">
        <ele>2001.2</ele>
        <time>2025-08-18T12:20:29.702Z</time>
      </trkpt>
      <trkpt lat="46.631011" lon="12.047284">
        <ele>1998.3</ele>
        <time>2025-08-18T12:21:13.630Z</time>
      </trkpt>
      <trkpt lat="46.630762" lon="12.047125">
        <ele>1994.3</ele>
        <time>2025-08-18T12:22:03.411Z</time>
      </trkpt>
      <trkpt lat="46.630526" lon="12.046938">
        <ele>1991.5</ele>
        <time>2025-08-18T12:22:45.715Z</time>
      </trkpt>
      <trkpt lat="46.630301" lon="12.046726">
        <ele>1988.8</ele>
        <time>2025-08-18T12:23:27.585Z</time>
      </trkpt>
      <trkpt lat="46.630077" lon="12.046512">
        <ele>1987.3</ele>
        <time>2025-08-18T12:24:02.064Z</time>
      </trkpt>
      <trkpt lat="46.629858" lon="12.046286">
        <ele>1984.4</ele>
        <time>2025-08-18T12:24:45.039Z</time>
      </trkpt>
      <trkpt lat="46.629652" lon="12.046030">
        <ele>1982.3</ele>
        <time>2025-08-18T12:25:23.863Z</time>
      </trkpt>
      <trkpt lat="46.629447" lon="12.045773">
        <ele>1980.3</ele>
        <time>2025-08-18T12:26:01.517Z</time>
      </trkpt>
      <trkpt lat="46.629247" lon="12.045505">
        <ele>1976.6</ele>
        <time>2025-08-18T12:26:49.621Z</time>
      </trkpt>
      <trkpt lat="46.629043" lon="12.045246">
        <ele>1975.2</ele>
        <time>2025-08-18T12:27:23.676Z</time>
      </trkpt>
      <trkpt lat="46.628843" lon="12.044978">
        <ele>1974.1</ele>
        <time>2025-08-18T12:27:56.086Z</time>
      </trkpt>
      <trkpt lat="46.628641" lon="12.044714">
        <ele>1971.3</ele>
        <time>2025-08-18T12:28:39.125Z</time>
      </trkpt>
      <trkpt lat="46.628432" lon="12.044465">
        <ele>1970.0</ele>
        <time>2025-08-18T12:29:12.201Z</time>
      </trkpt>
      <trkpt lat="46.628218" lon="12.044227">
        <ele>1968.3</ele>
        <time>2025-08-18T12:29:48.493Z</time>
      </trkpt>
      <trkpt lat="46.628000" lon="12.044000">
        <ele>1965.5</ele>
        <time>2025-08-18T12:30:30.583Z</time>
      </trkpt>
      <trkpt lat="46.627907" lon="12.043630">
        <ele>1961.0</ele>
        <time>2025-08-18T12:31:23.709Z</time>
      </trkpt>
      <trkpt lat="46.627807" lon="12.043263">
        <ele>1958.1</ele>
        <time>2025-08-18T12:32:06.939Z</time>
      </trkpt>
      <trkpt lat="46.627701" lon="12.042900">
        <ele>1953.1</ele>
        <time>2025-08-18T12:33:02.404Z</time>
      </trkpt>
      <trkpt lat="46.627601" lon="12.042533">
        <ele>1949.8</ele>
        <time>2025-08-18T12:33:48.113Z</time>
      </trkpt>
      <trkpt lat="46.627508" lon="12.042163">
        <ele>1945.9</ele>
        <time>2025-08-18T12:34:37.461Z</time>
      </trkpt>
      <trkpt lat="46.627432" lon="12.041784">
        <ele>1942.9</ele>
        <time>2025-08-18T12:35:21.255Z</time>
      </trkpt>
      <trkpt lat="46.627366" lon="12.041400">
        <ele>1939.7</ele>
        <time>2025-08-18T12:36:06.497Z</time>
      </trkpt>
      <trkpt lat="46.627318" lon="12.041008">
        <ele>1935.7</ele>
        <time>2025-08-18T12:36:56.614Z</time>
      </trkpt>
      <trkpt lat="46.627272" lon="12.040614">
        <ele>1931.6</ele>
        <time>2025-08-18T12:37:47.148Z</time>
      </trkpt>
      <trkpt lat="46.627220" lon="12.040223">
        <ele>1927.4</ele>
        <time>2025-08-18T12:38:38.573Z</time>
      </trkpt>
      <trkpt lat="46.627160" lon="12.039836">
        <ele>1924.3</ele>
        <time>2025-08-18T12:39:22.965Z</time>
      </trkpt>
      <trkpt lat="46.627077" lon="12.039461">
        <ele>1921.1</ele>
        <time>2025-08-18T12:40:07.973Z</time>
      </trkpt>
      <trkpt lat="46.626964" lon="12.039101">
        <ele>1918.0</ele>
        <time>2025-08-18T12:40:52.540Z</time>
      </trkpt>
      <trkpt lat="46.626829" lon="12.038752">
        <ele>1914.0</ele>
        <time>2025-08-18T12:41:42.356Z</time>
      </trkpt>
      <trkpt lat="46.626675" lon="12.038412">
        <ele>1909.5</ele>
        <time>2025-08-18T12:42:36.273Z</time>
      </trkpt>
      <trkpt lat="46.626513" lon="12.038077">
        <ele>1907.4</ele>
        <time>2025-08-18T12:43:15.520Z</time>
      </trkpt>
      <trkpt lat="46.626350" lon="12.037742">
        <ele>1902.5</ele>
        <time>2025-08-18T12:44:12.045Z</time>
      </trkpt>
      <trkpt lat="46.626214" lon="12.037393">
        <ele>1900.9</ele>
        <time>2025-08-18T12:44:48.099Z</time>
      </trkpt>
      <trkpt lat="46.626121" lon="12.037023">
        <ele>1896.6</ele>
        <time>2025-08-18T12:45:39.372Z</time>
      </trkpt>
      <trkpt lat="46.626038" lon="12.036648">
        <ele>1893.0</ele>
        <time>2025-08-18T12:46:26.956Z</time>
      </trkpt>
      <trkpt lat="46.626011" lon="12.036245">
        <ele>1889.5</ele>
        <time>2025-08-18T12:47:14.489Z</time>
      </trkpt>
      <trkpt lat="46.626017" lon="12.035825">
        <ele>1885.0</ele>
        <time>2025-08-18T12:48:08.882Z</time>
      </trkpt>
      <trkpt lat="46.626038" lon="12.035398">
        <ele>1882.1</ele>
        <time>2025-08-18T12:48:54.061Z</time>
      </trkpt>
      <trkpt lat="46.626046" lon="12.034976">
        <ele>1878.5</ele>
        <time>2025-08-18T12:49:43.405Z</time>
      </trkpt>
      <trkpt lat="46.626035" lon="12.034565">
        <ele>1874.5</ele>
        <time>2025-08-18T12:50:34.612Z</time>
      </trkpt>
      <trkpt lat="46.625982" lon="12.034175">
        <ele>1869.7</ele>
        <time>2025-08-18T12:51:29.242Z</time>
      </trkpt>
      <trkpt lat="46.625886" lon="12.033806">
        <ele>1865.9</ele>
        <time>2025-08-18T12:52:17.972Z</time>
      </trkpt>
      <trkpt lat="46.625734" lon="12.033466">
        <ele>1862.8</ele>
        <time>2025-08-18T12:53:03.268Z</time>
      </trkpt>
      <trkpt lat="46.625540" lon="12.033146">
        <ele>1858.0</ele>
        <time>2025-08-18T12:53:59.585Z</time>
      </trkpt>
      <trkpt lat="46.625339" lon="12.032831">
        <ele>1854.4</ele>
        <time>2025-08-18T12:54:49.670Z</time>
      </trkpt>
      <trkpt lat="46.625125" lon="12.032521">
        <ele>1849.4</ele>
        <time>2025-08-18T12:55:48.181Z</time>
      </trkpt>
      <trkpt lat="46.624921" lon="12.032207">
        <ele>1844.7</ele>
        <time>2025-08-18T12:56:44.848Z</time>
      </trkpt>
      <trkpt lat="46.624771" lon="12.031865">
        <ele>1839.9</ele>
        <time>2025-08-18T12:57:40.351Z</time>
      </trkpt>
      <trkpt lat="46.624668" lon="12.031500">
        <ele>1836.5</ele>
        <time>2025-08-18T12:58:26.125Z</time>
      </trkpt>
      <trkpt lat="46.624634" lon="12.031101">
        <ele>1830.7</ele>
        <time>2025-08-18T12:59:27.403Z</time>
      </trkpt>
      <trkpt lat="46.624625" lon="12.030688">
        <ele>1827.2</ele>
        <time>2025-08-18T13:00:15.675Z</time>
      </trkpt>
      <trkpt lat="46.624675" lon="12.030246">
        <ele>1821.8</ele>
        <time>2025-08-18T13:01:17.538Z</time>
      </trkpt>
      <trkpt lat="46.624747" lon="12.029793">
        <ele>1817.7</ele>
        <time>2025-08-18T13:02:12.452Z</time>
      </trkpt>
      <trkpt lat="46.624785" lon="12.029357">
        <ele>1812.9</ele>
        <time>2025-08-18T13:03:10.166Z</time>
      </trkpt>
      <trkpt lat="46.624791" lon="12.028937">
        <ele>1807.9</ele>
        <time>2025-08-18T13:04:07.311Z</time>
      </trkpt>
      <trkpt lat="46.624762" lon="12.028535">
        <ele>1802.9</ele>
        <time>2025-08-18T13:05:03.604Z</time>
      </trkpt>
      <trkpt lat="46.624653" lon="12.028173">
        <ele>1798.5</ele>
        <time>2025-08-18T13:05:55.896Z</time>
      </trkpt>
      <trkpt lat="46.624453" lon="12.027857">
        <ele>1791.8</ele>
        <time>2025-08-18T13:07:04.751Z</time>
      </trkpt>
      <trkpt lat="46.624242" lon="12.027545">
        <ele>1788.4</ele>
        <time>2025-08-18T13:07:53.347Z</time>
      </trkpt>
      <trkpt lat="46.623995" lon="12.027253">
        <ele>1781.8</ele>
        <time>2025-08-18T13:09:03.306Z</time>
      </trkpt>
      <trkpt lat="46.623757" lon="12.026955">
        <ele>1776.4</ele>
        <time>2025-08-18T13:10:05.689Z</time>
      </trkpt>
      <trkpt lat="46.623548" lon="12.026643">
        <ele>1771.9</ele>
        <time>2025-08-18T13:11:01.484Z</time>
      </trkpt>
      <trkpt lat="46.623394" lon="12.026304">
        <ele>1766.8</ele>
        <time>2025-08-18T13:11:58.433Z</time>
      </trkpt>
      <trkpt lat="46.623304" lon="12.025932">
        <ele>1762.8</ele>
        <time>2025-08-18T13:12:47.990Z</time>
      </trkpt>
      <trkpt lat="46.623272" lon="12.025531">
        <ele>1755.8</ele>
        <time>2025-08-18T13:13:56.487Z</time>
      </trkpt>
      <trkpt lat="46.623297" lon="12.025102">
        <ele>1751.6</ele>
        <time>2025-08-18T13:14:49.887Z</time>
      </trkpt>
      <trkpt lat="46.623343" lon="12.024662">
        <ele>1746.4</ele>
        <time>2025-08-18T13:15:50.198Z</time>
      </trkpt>
      <trkpt lat="46.623442" lon="12.024196">
        <ele>1740.6</ele>
        <time>2025-08-18T13:16:56.957Z</time>
      </trkpt>
      <trkpt lat="46.623481" lon="12.023759">
        <ele>1736.8</ele>
        <time>2025-08-18T13:17:48.933Z</time>
      </trkpt>
      <trkpt lat="46.623498" lon="12.023333">
        <ele>1730.8</ele>
        <time>2025-08-18T13:18:52.781Z</time>
      </trkpt>
      <trkpt lat="46.623452" lon="12.022940">
        <ele>1725.8</ele>
        <time>2025-08-18T13:19:48.825Z</time>
      </trkpt>
      <trkpt lat="46.623316" lon="12.022591">
        <ele>1722.0</ele>
        <time>2025-08-18T13:20:37.940Z</time>
      </trkpt>
      <trkpt lat="46.623134" lon="12.022266">
        <ele>1717.0</ele>
        <time>2025-08-18T13:21:35.529Z</time>
      </trkpt>
      <trkpt lat="46.622920" lon="12.021957">
        <ele>1712.4</ele>
        <time>2025-08-18T13:22:31.976Z</time>
      </trkpt>
      <trkpt lat="46.622663" lon="12.021669">
        <ele>1707.9</ele>
        <time>2025-08-18T13:23:29.878Z</time>
      </trkpt>
      <trkpt lat="46.622459" lon="12.021354">
        <ele>1704.2</ele>
        <time>2025-08-18T13:24:20.226Z</time>
      </trkpt>
      <trkpt lat="46.622237" lon="12.021049">
        <ele>1698.2</ele>
        <time>2025-08-18T13:25:25.450Z</time>
      </trkpt>
      <trkpt lat="46.622096" lon="12.020703">
        <ele>1694.0</ele>
        <time>2025-08-18T13:26:16.713Z</time>
      </trkpt>
      <trkpt lat="46.621998" lon="12.020335">
        <ele>1690.5</ele>
        <time>2025-08-18T13:27:03.467Z</time>
      </trkpt>
      <trkpt lat="46.621976" lon="12.019929">
        <ele>1687.0</ele>
        <time>2025-08-18T13:27:51.326Z</time>
      </trkpt>
      <trkpt lat="46.622005" lon="12.019498">
        <ele>1682.4</ele>
        <time>2025-08-18T13:28:47.253Z</time>
      </trkpt>
      <trkpt lat="46.622042" lon="12.019062">
        <ele>1677.3</ele>
        <time>2025-08-18T13:29:46.415Z</time>
      </trkpt>
      <trkpt lat="46.622097" lon="12.018618">
        <ele>1674.8</ele>
        <time>2025-08-18T13:30:30.896Z</time>
      </trkpt>
      <trkpt lat="46.622112" lon="12.018193">
        <ele>1670.7</ele>
        <time>2025-08-18T13:31:23.652Z</time>
      </trkpt>
      <trkpt lat="46.622099" lon="12.017783">
        <ele>1665.8</ele>
        <time>2025-08-18T13:32:19.576Z</time>
      </trkpt>
      <trkpt lat="46.622061" lon="12.017386">
        <ele>1662.4</ele>
        <time>2025-08-18T13:33:06.373Z</time>
      </trkpt>
      <trkpt lat="46.621931" lon="12.017034">
        <ele>1659.9</ele>
        <time>2025-08-18T13:33:47.604Z</time>
      </trkpt>
      <trkpt lat="46.621754" lon="12.016706">
        <ele>1654.5</ele>
        <time>2025-08-18T13:34:47.573Z</time>
      </trkpt>
      <trkpt lat="46.621567" lon="12.016383">
        <ele>1651.2</ele>
        <time>2025-08-18T13:35:34.835Z</time>
      </trkpt>
      <trkpt lat="46.621347" lon="12.016076">
        <ele>1649.3</ele>
        <time>2025-08-18T13:36:15.292Z</time>
      </trkpt>
      <trkpt lat="46.621169" lon="12.015749">
        <ele>1644.2</ele>
        <time>2025-08-18T13:37:13.054Z</time>
      </trkpt>
      <trkpt lat="46.620989" lon="12.015423">
        <ele>1642.0</ele>
        <time>2025-08-18T13:37:53.657Z</time>
      </trkpt>
      <trkpt lat="46.620873" lon="12.015064">
        <ele>1638.0</ele>
        <time>2025-08-18T13:38:43.639Z</time>
      </trkpt>
      <trkpt lat="46.620777" lon="12.014695">
        <ele>1635.3</ele>
        <time>2025-08-18T13:39:25.594Z</time>
      </trkpt>
      <trkpt lat="46.620743" lon="12.014296">
        <ele>1630.7</ele>
        <time>2025-08-18T13:40:19.689Z</time>
      </trkpt>
      <trkpt lat="46.620744" lon="12.013878">
        <ele>1628.6</ele>
        <time>2025-08-18T13:40:59.713Z</time>
      </trkpt>
      <trkpt lat="46.620737" lon="12.013465">
        <ele>1625.3</ele>
        <time>2025-08-18T13:41:46.463Z</time>
      </trkpt>
      <trkpt lat="46.620734" lon="12.013050">
        <ele>1620.2</ele>
        <time>2025-08-18T13:42:43.951Z</time>
      </trkpt>
      <trkpt lat="46.620723" lon="12.012638">
        <ele>1617.8</ele>
        <time>2025-08-18T13:43:25.324Z</time>
      </trkpt>
      <trkpt lat="46.620671" lon="12.012247">
        <ele>1614.5</ele>
        <time>2025-08-18T13:44:11.216Z</time>
      </trkpt>
      <trkpt lat="46.620592" lon="12.011870">
        <ele>1610.7</ele>
        <time>2025-08-18T13:44:59.777Z</time>
      </trkpt>
      <trkpt lat="46.620482" lon="12.011509">
        <ele>1608.2</ele>
        <time>2025-08-18T13:45:40.751Z</time>
      </trkpt>
      <trkpt lat="46.620342" lon="12.011162">
        <ele>1603.2</ele>
        <time>2025-08-18T13:46:37.412Z</time>
      </trkpt>
      <trkpt lat="46.620195" lon="12.010819">
        <ele>1600.7</ele>
        <time>2025-08-18T13:47:18.723Z</time>
      </trkpt>
      <trkpt lat="46.620037" lon="12.010481">
        <ele>1597.4</ele>
        <time>2025-08-18T13:48:05.218Z</time>
      </trkpt>
      <trkpt lat="46.619904" lon="12.010131">
        <ele>1592.9</ele>
        <time>2025-08-18T13:48:58.161Z</time>
      </trkpt>
      <trkpt lat="46.619793" lon="12.009771">
        <ele>1588.2</ele>
        <time>2025-08-18T13:49:52.582Z</time>
      </trkpt>
      <trkpt lat="46.619688" lon="12.009406">
        <ele>1584.6</ele>
        <time>2025-08-18T13:50:40.093Z</time>
      </trkpt>
      <trkpt lat="46.619618" lon="12.009025">
        <ele>1582.2</ele>
        <time>2025-08-18T13:51:20.289Z</time>
      </trkpt>
      <trkpt lat="46.619553" lon="12.008640">
        <ele>1577.5</ele>
        <time>2025-08-18T13:52:14.188Z</time>
      </trkpt>
      <trkpt lat="46.619495" lon="12.008252">
        <ele>1573.8</ele>
        <time>2025-08-18T13:53:02.413Z</time>
      </trkpt>
      <trkpt lat="46.619436" lon="12.007865">
        <ele>1568.7</ele>
        <time>2025-08-18T13:53:59.020Z</time>
      </trkpt>
      <trkpt lat="46.619369" lon="12.007482">
        <ele>1565.0</ele>
        <time>2025-08-18T13:54:47.042Z</time>
      </trkpt>
      <trkpt lat="46.619288" lon="12.007106">
        <ele>1561.7</ele>
        <time>2025-08-18T13:55:32.683Z</time>
      </trkpt>
      <trkpt lat="46.619198" lon="12.006734">
        <ele>1557.0</ele>
        <time>2025-08-18T13:56:26.696Z</time>
      </trkpt>
      <trkpt lat="46.619100" lon="12.006367">
        <ele>1553.1</ele>
        <time>2025-08-18T13:57:15.832Z</time>
      </trkpt>
      <trkpt lat="46.619000" lon="12.006000">
        <ele>1547.2</ele>
        <time>2025-08-18T13:58:17.236Z</time>
      </trkpt>
    </trkseg>
  </trk>
</gpx>
