<?xml version="1.0" encoding="UTF-8"?>
<gpx version="1.1" creator="carnet-trek seed (OpenStreetMap, EU-DEM)" xmlns="http://www.topografix.com/GPX/1/1">
  <metadata>
    <name>GR10 – Arrens-Marsous → Cauterets</name>
    <copyright author="OpenStreetMap contributors"><license>https://opendatacommons.org/licenses/odbl/</license></copyright>
  </metadata>
  <wpt lat="42.951461" lon="-0.207162">
    <name>Arrens-Marsous</name>
    <sym>Convenience Store</sym>
  </wpt>
  <wpt lat="42.877678" lon="-0.185275">
    <name>Point culminant (2255 m)</name>
    <sym>Summit</sym>
  </wpt>
  <wpt lat="42.921837" lon="-0.182204">
    <name>Gîte d&apos;Étape les Viellettes</name>
    <sym>Lodging</sym>
  </wpt>
  <wpt lat="42.866205" lon="-0.173492">
    <name>Refuge d&apos;Ilhéou</name>
    <sym>Lodging</sym>
  </wpt>
  <wpt lat="42.888527" lon="-0.114639">
    <name>Cauterets</name>
    <sym>Convenience Store</sym>
  </wpt>
  <trk>
    <name>GR10 – Arrens-Marsous → Cauterets</name>
    <type>hike</type>
    <trkseg>
      <trkpt lat="42.951461" lon="-0.207162">
        <ele>1004.6</ele>
        <time>2025-07-01T07:30:00.000Z</time>
      </trkpt>
      <trkpt lat="42.951200" lon="-0.207068">
        <ele>1014.7</ele>
        <time>2025-07-01T07:32:10.473Z</time>
      </trkpt>
      <trkpt lat="42.951008" lon="-0.206939">
        <ele>1026.4</ele>
        <time>2025-07-01T07:34:39.188Z</time>
      </trkpt>
      <trkpt lat="42.950912" lon="-0.206856">
        <ele>1039.7</ele>
        <time>2025-07-01T07:37:26.587Z</time>
      </trkpt>
      <trkpt lat="42.950526" lon="-0.207276">
        <ele>1049.7</ele>
        <time>2025-07-01T07:39:56.850Z</time>
      </trkpt>
      <trkpt lat="42.950345" lon="-0.207492">
        <ele>1052.1</ele>
        <time>2025-07-01T07:40:44.668Z</time>
      </trkpt>
      <trkpt lat="42.950194" lon="-0.207714">
        <ele>1054.5</ele>
        <time>2025-07-01T07:41:31.342Z</time>
      </trkpt>
      <trkpt lat="42.950305" lon="-0.207318">
        <ele>1055.2</ele>
        <time>2025-07-01T07:42:09.010Z</time>
      </trkpt>
      <trkpt lat="42.950663" lon="-0.206761">
        <ele>1056.5</ele>
        <time>2025-07-01T07:43:14.129Z</time>
      </trkpt>
      <trkpt lat="42.950827" lon="-0.206482">
        <ele>1056.3</ele>
        <time>2025-07-01T07:43:40.563Z</time>
      </trkpt>
      <trkpt lat="42.950936" lon="-0.206188">
        <ele>1056.1</ele>
        <time>2025-07-01T07:44:04.887Z</time>
      </trkpt>
      <trkpt lat="42.951109" lon="-0.205419">
        <ele>1068.9</ele>
        <time>2025-07-01T07:47:13.122Z</time>
      </trkpt>
      <trkpt lat="42.951225" lon="-0.205137">
        <ele>1072.6</ele>
        <time>2025-07-01T07:48:13.841Z</time>
      </trkpt>
      <trkpt lat="42.951258" lon="-0.204622">
        <ele>1078.6</ele>
        <time>2025-07-01T07:49:51.384Z</time>
      </trkpt>
      <trkpt lat="42.951284" lon="-0.204211">
        <ele>1080.5</ele>
        <time>2025-07-01T07:50:40.427Z</time>
      </trkpt>
      <trkpt lat="42.951428" lon="-0.203928">
        <ele>1082.2</ele>
        <time>2025-07-01T07:51:21.962Z</time>
      </trkpt>
      <trkpt lat="42.951736" lon="-0.203636">
        <ele>1080.3</ele>
        <time>2025-07-01T07:52:09.194Z</time>
      </trkpt>
      <trkpt lat="42.951979" lon="-0.203386">
        <ele>1078.8</ele>
        <time>2025-07-01T07:52:47.463Z</time>
      </trkpt>
      <trkpt lat="42.952038" lon="-0.203083">
        <ele>1084.9</ele>
        <time>2025-07-01T07:54:13.240Z</time>
      </trkpt>
      <trkpt lat="42.951931" lon="-0.202806">
        <ele>1090.8</ele>
        <time>2025-07-01T07:55:36.049Z</time>
      </trkpt>
      <trkpt lat="42.951813" lon="-0.202555">
        <ele>1096.8</ele>
        <time>2025-07-01T07:57:00.204Z</time>
      </trkpt>
      <trkpt lat="42.951878" lon="-0.202147">
        <ele>1104.9</ele>
        <time>2025-07-01T07:58:55.102Z</time>
      </trkpt>
      <trkpt lat="42.952235" lon="-0.201915">
        <ele>1111.7</ele>
        <time>2025-07-01T08:00:42.920Z</time>
      </trkpt>
      <trkpt lat="42.952521" lon="-0.201634">
        <ele>1117.8</ele>
        <time>2025-07-01T08:02:18.971Z</time>
      </trkpt>
      <trkpt lat="42.952649" lon="-0.201198">
        <ele>1128.1</ele>
        <time>2025-07-01T08:04:37.682Z</time>
      </trkpt>
      <trkpt lat="42.952654" lon="-0.200865">
        <ele>1134.1</ele>
        <time>2025-07-01T08:06:02.951Z</time>
      </trkpt>
      <trkpt lat="42.952657" lon="-0.200219">
        <ele>1143.4</ele>
        <time>2025-07-01T08:08:23.830Z</time>
      </trkpt>
      <trkpt lat="42.952740" lon="-0.199665">
        <ele>1145.3</ele>
        <time>2025-07-01T08:09:23.011Z</time>
      </trkpt>
      <trkpt lat="42.952790" lon="-0.199310">
        <ele>1146.5</ele>
        <time>2025-07-01T08:10:00.793Z</time>
      </trkpt>
      <trkpt lat="42.952768" lon="-0.198821">
        <ele>1147.6</ele>
        <time>2025-07-01T08:10:46.637Z</time>
      </trkpt>
      <trkpt lat="42.952774" lon="-0.198513">
        <ele>1148.4</ele>
        <time>2025-07-01T08:11:15.457Z</time>
      </trkpt>
      <trkpt lat="42.952785" lon="-0.197999">
        <ele>1149.7</ele>
        <time>2025-07-01T08:12:04.918Z</time>
      </trkpt>
      <trkpt lat="42.952695" lon="-0.197591">
        <ele>1151.3</ele>
        <time>2025-07-01T08:12:51.386Z</time>
      </trkpt>
      <trkpt lat="42.952459" lon="-0.197095">
        <ele>1154.4</ele>
        <time>2025-07-01T08:14:04.579Z</time>
      </trkpt>
      <trkpt lat="42.952178" lon="-0.196519">
        <ele>1157.7</ele>
        <time>2025-07-01T08:15:26.827Z</time>
      </trkpt>
      <trkpt lat="42.951892" lon="-0.196006">
        <ele>1160.4</ele>
        <time>2025-07-01T08:16:39.672Z</time>
      </trkpt>
      <trkpt lat="42.951731" lon="-0.195780">
        <ele>1161.7</ele>
        <time>2025-07-01T08:17:15.025Z</time>
      </trkpt>
      <trkpt lat="42.951168" lon="-0.195030">
        <ele>1166.1</ele>
        <time>2025-07-01T08:19:15.503Z</time>
      </trkpt>
      <trkpt lat="42.951109" lon="-0.194733">
        <ele>1169.1</ele>
        <time>2025-07-01T08:20:07.670Z</time>
      </trkpt>
      <trkpt lat="42.951024" lon="-0.194427">
        <ele>1172.4</ele>
        <time>2025-07-01T08:21:05.310Z</time>
      </trkpt>
      <trkpt lat="42.950984" lon="-0.194089">
        <ele>1175.8</ele>
        <time>2025-07-01T08:22:04.236Z</time>
      </trkpt>
      <trkpt lat="42.950806" lon="-0.193592">
        <ele>1181.3</ele>
        <time>2025-07-01T08:23:39.014Z</time>
      </trkpt>
      <trkpt lat="42.950612" lon="-0.193112">
        <ele>1181.7</ele>
        <time>2025-07-01T08:24:21.717Z</time>
      </trkpt>
      <trkpt lat="42.950295" lon="-0.192674">
        <ele>1180.6</ele>
        <time>2025-07-01T08:25:11.032Z</time>
      </trkpt>
      <trkpt lat="42.949889" lon="-0.192202">
        <ele>1178.0</ele>
        <time>2025-07-01T08:26:17.464Z</time>
      </trkpt>
      <trkpt lat="42.949520" lon="-0.191817">
        <ele>1175.0</ele>
        <time>2025-07-01T08:27:20.000Z</time>
      </trkpt>
      <trkpt lat="42.949258" lon="-0.191443">
        <ele>1172.1</ele>
        <time>2025-07-01T08:28:13.520Z</time>
      </trkpt>
      <trkpt lat="42.949023" lon="-0.190748">
        <ele>1175.4</ele>
        <time>2025-07-01T08:29:41.141Z</time>
      </trkpt>
      <trkpt lat="42.948819" lon="-0.190429">
        <ele>1175.0</ele>
        <time>2025-07-01T08:30:13.426Z</time>
      </trkpt>
      <trkpt lat="42.948613" lon="-0.189934">
        <ele>1174.4</ele>
        <time>2025-07-01T08:30:56.979Z</time>
      </trkpt>
      <trkpt lat="42.948458" lon="-0.189641">
        <ele>1174.0</ele>
        <time>2025-07-01T08:31:24.805Z</time>
      </trkpt>
      <trkpt lat="42.948278" lon="-0.189259">
        <ele>1170.5</ele>
        <time>2025-07-01T08:32:18.207Z</time>
      </trkpt>
      <trkpt lat="42.947909" lon="-0.188856">
        <ele>1165.8</ele>
        <time>2025-07-01T08:33:31.926Z</time>
      </trkpt>
      <trkpt lat="42.947668" lon="-0.188846">
        <ele>1161.9</ele>
        <time>2025-07-01T08:34:19.330Z</time>
      </trkpt>
      <trkpt lat="42.947372" lon="-0.188985">
        <ele>1157.0</ele>
        <time>2025-07-01T08:35:18.235Z</time>
      </trkpt>
      <trkpt lat="42.947117" lon="-0.189165">
        <ele>1154.5</ele>
        <time>2025-07-01T08:36:00.782Z</time>
      </trkpt>
      <trkpt lat="42.946704" lon="-0.189355">
        <ele>1149.3</ele>
        <time>2025-07-01T08:37:13.840Z</time>
      </trkpt>
      <trkpt lat="42.946451" lon="-0.189131">
        <ele>1145.1</ele>
        <time>2025-07-01T08:38:07.994Z</time>
      </trkpt>
      <trkpt lat="42.946341" lon="-0.188719">
        <ele>1143.0</ele>
        <time>2025-07-01T08:38:51.810Z</time>
      </trkpt>
      <trkpt lat="42.946227" lon="-0.188344">
        <ele>1139.3</ele>
        <time>2025-07-01T08:39:42.675Z</time>
      </trkpt>
      <trkpt lat="42.946062" lon="-0.188109">
        <ele>1134.9</ele>
        <time>2025-07-01T08:40:32.411Z</time>
      </trkpt>
      <trkpt lat="42.945982" lon="-0.187815">
        <ele>1130.7</ele>
        <time>2025-07-01T08:41:19.119Z</time>
      </trkpt>
      <trkpt lat="42.945800" lon="-0.187164">
        <ele>1121.3</ele>
        <time>2025-07-01T08:43:05.199Z</time>
      </trkpt>
      <trkpt lat="42.945602" lon="-0.186768">
        <ele>1116.6</ele>
        <time>2025-07-01T08:44:07.029Z</time>
      </trkpt>
      <trkpt lat="42.945504" lon="-0.186408">
        <ele>1112.8</ele>
        <time>2025-07-01T08:44:56.502Z</time>
      </trkpt>
      <trkpt lat="42.945503" lon="-0.185922">
        <ele>1109.3</ele>
        <time>2025-07-01T08:45:52.007Z</time>
      </trkpt>
      <trkpt lat="42.945241" lon="-0.185488">
        <ele>1103.9</ele>
        <time>2025-07-01T08:47:03.613Z</time>
      </trkpt>
      <trkpt lat="42.945031" lon="-0.185034">
        <ele>1097.3</ele>
        <time>2025-07-01T08:48:20.660Z</time>
      </trkpt>
      <trkpt lat="42.944840" lon="-0.184794">
        <ele>1091.4</ele>
        <time>2025-07-01T08:49:21.112Z</time>
      </trkpt>
      <trkpt lat="42.944634" lon="-0.184319">
        <ele>1082.3</ele>
        <time>2025-07-01T08:50:54.251Z</time>
      </trkpt>
      <trkpt lat="42.944325" lon="-0.183925">
        <ele>1083.9</ele>
        <time>2025-07-01T08:51:51.441Z</time>
      </trkpt>
      <trkpt lat="42.944034" lon="-0.183752">
        <ele>1085.1</ele>
        <time>2025-07-01T08:52:33.670Z</time>
      </trkpt>
      <trkpt lat="42.943821" lon="-0.183390">
        <ele>1081.3</ele>
        <time>2025-07-01T08:53:29.304Z</time>
      </trkpt>
      <trkpt lat="42.943829" lon="-0.183055">
        <ele>1078.3</ele>
        <time>2025-07-01T08:54:12.852Z</time>
      </trkpt>
      <trkpt lat="42.943629" lon="-0.182808">
        <ele>1075.4</ele>
        <time>2025-07-01T08:54:56.176Z</time>
      </trkpt>
      <trkpt lat="42.943925" lon="-0.182682">
        <ele>1073.1</ele>
        <time>2025-07-01T08:55:48.598Z</time>
      </trkpt>
      <trkpt lat="42.944164" lon="-0.182506">
        <ele>1068.3</ele>
        <time>2025-07-01T08:56:46.346Z</time>
      </trkpt>
      <trkpt lat="42.944255" lon="-0.182360">
        <ele>1061.9</ele>
        <time>2025-07-01T08:57:50.611Z</time>
      </trkpt>
      <trkpt lat="42.944490" lon="-0.182316">
        <ele>1054.0</ele>
        <time>2025-07-01T08:59:00.795Z</time>
      </trkpt>
      <trkpt lat="42.944561" lon="-0.181982">
        <ele>1043.9</ele>
        <time>2025-07-01T09:00:25.784Z</time>
      </trkpt>
      <trkpt lat="42.944552" lon="-0.181648">
        <ele>1035.9</ele>
        <time>2025-07-01T09:01:38.631Z</time>
      </trkpt>
      <trkpt lat="42.944518" lon="-0.181245">
        <ele>1029.0</ele>
        <time>2025-07-01T09:02:49.258Z</time>
      </trkpt>
      <trkpt lat="42.944539" lon="-0.180934">
        <ele>1027.8</ele>
        <time>2025-07-01T09:03:18.365Z</time>
      </trkpt>
      <trkpt lat="42.944701" lon="-0.180341">
        <ele>1030.8</ele>
        <time>2025-07-01T09:04:32.933Z</time>
      </trkpt>
      <trkpt lat="42.944731" lon="-0.179908">
        <ele>1030.0</ele>
        <time>2025-07-01T09:05:08.146Z</time>
      </trkpt>
      <trkpt lat="42.944816" lon="-0.179547">
        <ele>1028.8</ele>
        <time>2025-07-01T09:05:42.703Z</time>
      </trkpt>
      <trkpt lat="42.944868" lon="-0.179225">
        <ele>1027.0</ele>
        <time>2025-07-01T09:06:16.661Z</time>
      </trkpt>
      <trkpt lat="42.945027" lon="-0.178589">
        <ele>1023.2</ele>
        <time>2025-07-01T09:07:25.850Z</time>
      </trkpt>
      <trkpt lat="42.945268" lon="-0.177942">
        <ele>1019.6</ele>
        <time>2025-07-01T09:08:43.304Z</time>
      </trkpt>
      <trkpt lat="42.945490" lon="-0.177402">
        <ele>1015.8</ele>
        <time>2025-07-01T09:09:49.021Z</time>
      </trkpt>
      <trkpt lat="42.945288" lon="-0.177146">
        <ele>1012.0</ele>
        <time>2025-07-01T09:10:40.961Z</time>
      </trkpt>
      <trkpt lat="42.945035" lon="-0.176790">
        <ele>1006.9</ele>
        <time>2025-07-01T09:11:56.366Z</time>
      </trkpt>
      <trkpt lat="42.945020" lon="-0.176512">
        <ele>1004.5</ele>
        <time>2025-07-01T09:12:34.352Z</time>
      </trkpt>
      <trkpt lat="42.945150" lon="-0.176204">
        <ele>1003.9</ele>
        <time>2025-07-01T09:13:02.658Z</time>
      </trkpt>
      <trkpt lat="42.944983" lon="-0.176396">
        <ele>1003.4</ele>
        <time>2025-07-01T09:13:27.929Z</time>
      </trkpt>
      <trkpt lat="42.944693" lon="-0.176521">
        <ele>1001.3</ele>
        <time>2025-07-01T09:14:09.804Z</time>
      </trkpt>
      <trkpt lat="42.944462" lon="-0.176581">
        <ele>999.7</ele>
        <time>2025-07-01T09:14:42.039Z</time>
      </trkpt>
      <trkpt lat="42.944154" lon="-0.176703">
        <ele>998.4</ele>
        <time>2025-07-01T09:15:20.413Z</time>
      </trkpt>
      <trkpt lat="42.943810" lon="-0.176780">
        <ele>991.8</ele>
        <time>2025-07-01T09:16:32.905Z</time>
      </trkpt>
      <trkpt lat="42.943666" lon="-0.176376">
        <ele>980.8</ele>
        <time>2025-07-01T09:18:11.389Z</time>
      </trkpt>
      <trkpt lat="42.943548" lon="-0.176156">
        <ele>979.9</ele>
        <time>2025-07-01T09:18:40.840Z</time>
      </trkpt>
      <trkpt lat="42.942454" lon="-0.175956">
        <ele>976.3</ele>
        <time>2025-07-01T09:20:48.438Z</time>
      </trkpt>
      <trkpt lat="42.942221" lon="-0.175858">
        <ele>978.2</ele>
        <time>2025-07-01T09:21:31.821Z</time>
      </trkpt>
      <trkpt lat="42.941611" lon="-0.176141">
        <ele>983.9</ele>
        <time>2025-07-01T09:23:37.796Z</time>
      </trkpt>
      <trkpt lat="42.940684" lon="-0.176830">
        <ele>992.0</ele>
        <time>2025-07-01T09:26:40.907Z</time>
      </trkpt>
      <trkpt lat="42.940486" lon="-0.176982">
        <ele>991.5</ele>
        <time>2025-07-01T09:27:05.382Z</time>
      </trkpt>
      <trkpt lat="42.940239" lon="-0.177068">
        <ele>991.0</ele>
        <time>2025-07-01T09:27:33.114Z</time>
      </trkpt>
      <trkpt lat="42.939844" lon="-0.177159">
        <ele>989.2</ele>
        <time>2025-07-01T09:28:21.626Z</time>
      </trkpt>
      <trkpt lat="42.939173" lon="-0.177471">
        <ele>989.3</ele>
        <time>2025-07-01T09:29:29.552Z</time>
      </trkpt>
      <trkpt lat="42.938914" lon="-0.177581">
        <ele>989.7</ele>
        <time>2025-07-01T09:29:59.706Z</time>
      </trkpt>
      <trkpt lat="42.938671" lon="-0.177693">
        <ele>990.1</ele>
        <time>2025-07-01T09:30:28.182Z</time>
      </trkpt>
      <trkpt lat="42.938409" lon="-0.177781">
        <ele>992.3</ele>
        <time>2025-07-01T09:31:17.324Z</time>
      </trkpt>
      <trkpt lat="42.938088" lon="-0.177747">
        <ele>995.0</ele>
        <time>2025-07-01T09:32:15.150Z</time>
      </trkpt>
      <trkpt lat="42.937806" lon="-0.177846">
        <ele>997.7</ele>
        <time>2025-07-01T09:33:10.803Z</time>
      </trkpt>
      <trkpt lat="42.937502" lon="-0.177911">
        <ele>999.4</ele>
        <time>2025-07-01T09:33:58.309Z</time>
      </trkpt>
      <trkpt lat="42.937125" lon="-0.178084">
        <ele>999.9</ele>
        <time>2025-07-01T09:34:41.571Z</time>
      </trkpt>
      <trkpt lat="42.937179" lon="-0.178293">
        <ele>997.8</ele>
        <time>2025-07-01T09:35:29.697Z</time>
      </trkpt>
      <trkpt lat="42.936999" lon="-0.178471">
        <ele>997.7</ele>
        <time>2025-07-01T09:36:00.358Z</time>
      </trkpt>
      <trkpt lat="42.936597" lon="-0.178641">
        <ele>998.8</ele>
        <time>2025-07-01T09:36:52.266Z</time>
      </trkpt>
      <trkpt lat="42.936278" lon="-0.178683">
        <ele>999.3</ele>
        <time>2025-07-01T09:37:28.204Z</time>
      </trkpt>
      <trkpt lat="42.936009" lon="-0.178676">
        <ele>999.8</ele>
        <time>2025-07-01T09:37:58.297Z</time>
      </trkpt>
      <trkpt lat="42.935715" lon="-0.178677">
        <ele>999.9</ele>
        <time>2025-07-01T09:38:27.783Z</time>
      </trkpt>
      <trkpt lat="42.935423" lon="-0.178816">
        <ele>1000.0</ele>
        <time>2025-07-01T09:38:58.838Z</time>
      </trkpt>
      <trkpt lat="42.935169" lon="-0.179042">
        <ele>1003.8</ele>
        <time>2025-07-01T09:40:06.587Z</time>
      </trkpt>
      <trkpt lat="42.934952" lon="-0.179300">
        <ele>1007.3</ele>
        <time>2025-07-01T09:41:10.297Z</time>
      </trkpt>
      <trkpt lat="42.934751" lon="-0.179553">
        <ele>1008.0</ele>
        <time>2025-07-01T09:41:43.799Z</time>
      </trkpt>
      <trkpt lat="42.934457" lon="-0.179669">
        <ele>1007.3</ele>
        <time>2025-07-01T09:42:18.025Z</time>
      </trkpt>
      <trkpt lat="42.934204" lon="-0.179564">
        <ele>1004.4</ele>
        <time>2025-07-01T09:43:01.083Z</time>
      </trkpt>
      <trkpt lat="42.933875" lon="-0.179399">
        <ele>1004.1</ele>
        <time>2025-07-01T09:43:37.256Z</time>
      </trkpt>
      <trkpt lat="42.933526" lon="-0.179585">
        <ele>1008.6</ele>
        <time>2025-07-01T09:44:59.544Z</time>
      </trkpt>
      <trkpt lat="42.933262" lon="-0.179785">
        <ele>1015.1</ele>
        <time>2025-07-01T09:46:34.318Z</time>
      </trkpt>
      <trkpt lat="42.932986" lon="-0.180013">
        <ele>1018.7</ele>
        <time>2025-07-01T09:47:42.283Z</time>
      </trkpt>
      <trkpt lat="42.932688" lon="-0.180067">
        <ele>1020.6</ele>
        <time>2025-07-01T09:48:31.442Z</time>
      </trkpt>
      <trkpt lat="42.932423" lon="-0.180160">
        <ele>1020.4</ele>
        <time>2025-07-01T09:48:59.049Z</time>
      </trkpt>
      <trkpt lat="42.932159" lon="-0.180360">
        <ele>1020.6</ele>
        <time>2025-07-01T09:49:30.273Z</time>
      </trkpt>
      <trkpt lat="42.931878" lon="-0.180533">
        <ele>1021.3</ele>
        <time>2025-07-01T09:50:06.731Z</time>
      </trkpt>
      <trkpt lat="42.931488" lon="-0.180468">
        <ele>1020.9</ele>
        <time>2025-07-01T09:50:47.223Z</time>
      </trkpt>
      <trkpt lat="42.931264" lon="-0.180490">
        <ele>1020.9</ele>
        <time>2025-07-01T09:51:10.661Z</time>
      </trkpt>
      <trkpt lat="42.930976" lon="-0.180754">
        <ele>1020.8</ele>
        <time>2025-07-01T09:51:43.872Z</time>
      </trkpt>
      <trkpt lat="42.930834" lon="-0.181039">
        <ele>1022.8</ele>
        <time>2025-07-01T09:52:30.911Z</time>
      </trkpt>
      <trkpt lat="42.930535" lon="-0.181186">
        <ele>1025.0</ele>
        <time>2025-07-01T09:53:23.848Z</time>
      </trkpt>
      <trkpt lat="42.930261" lon="-0.181247">
        <ele>1022.0</ele>
        <time>2025-07-01T09:54:08.369Z</time>
      </trkpt>
      <trkpt lat="42.930112" lon="-0.180872">
        <ele>1019.9</ele>
        <time>2025-07-01T09:54:52.068Z</time>
      </trkpt>
      <trkpt lat="42.929925" lon="-0.180667">
        <ele>1019.9</ele>
        <time>2025-07-01T09:55:15.068Z</time>
      </trkpt>
      <trkpt lat="42.929701" lon="-0.180601">
        <ele>1019.6</ele>
        <time>2025-07-01T09:55:46.085Z</time>
      </trkpt>
      <trkpt lat="42.929381" lon="-0.180601">
        <ele>1019.1</ele>
        <time>2025-07-01T09:56:19.532Z</time>
      </trkpt>
      <trkpt lat="42.928687" lon="-0.180724">
        <ele>1027.9</ele>
        <time>2025-07-01T09:58:56.622Z</time>
      </trkpt>
      <trkpt lat="42.928458" lon="-0.180793">
        <ele>1031.8</ele>
        <time>2025-07-01T09:59:59.105Z</time>
      </trkpt>
      <trkpt lat="42.928230" lon="-0.180955">
        <ele>1036.0</ele>
        <time>2025-07-01T10:01:07.526Z</time>
      </trkpt>
      <trkpt lat="42.928022" lon="-0.181163">
        <ele>1039.1</ele>
        <time>2025-07-01T10:02:03.310Z</time>
      </trkpt>
      <trkpt lat="42.927797" lon="-0.181498">
        <ele>1043.0</ele>
        <time>2025-07-01T10:03:15.362Z</time>
      </trkpt>
      <trkpt lat="42.927229" lon="-0.182229">
        <ele>1051.2</ele>
        <time>2025-07-01T10:05:54.436Z</time>
      </trkpt>
      <trkpt lat="42.926962" lon="-0.182488">
        <ele>1050.9</ele>
        <time>2025-07-01T10:06:27.696Z</time>
      </trkpt>
      <trkpt lat="42.926688" lon="-0.182655">
        <ele>1050.6</ele>
        <time>2025-07-01T10:06:58.224Z</time>
      </trkpt>
      <trkpt lat="42.926333" lon="-0.183024">
        <ele>1052.0</ele>
        <time>2025-07-01T10:07:56.145Z</time>
      </trkpt>
      <trkpt lat="42.926190" lon="-0.183277">
        <ele>1051.9</ele>
        <time>2025-07-01T10:08:19.216Z</time>
      </trkpt>
      <trkpt lat="42.926024" lon="-0.183559">
        <ele>1051.8</ele>
        <time>2025-07-01T10:08:45.320Z</time>
      </trkpt>
      <trkpt lat="42.925822" lon="-0.183758">
        <ele>1049.0</ele>
        <time>2025-07-01T10:09:25.494Z</time>
      </trkpt>
      <trkpt lat="42.925535" lon="-0.183813">
        <ele>1045.9</ele>
        <time>2025-07-01T10:10:12.449Z</time>
      </trkpt>
      <trkpt lat="42.925223" lon="-0.183716">
        <ele>1044.2</ele>
        <time>2025-07-01T10:10:52.950Z</time>
      </trkpt>
      <trkpt lat="42.925006" lon="-0.183588">
        <ele>1043.0</ele>
        <time>2025-07-01T10:11:22.875Z</time>
      </trkpt>
      <trkpt lat="42.924430" lon="-0.183617">
        <ele>1039.1</ele>
        <time>2025-07-01T10:12:41.806Z</time>
      </trkpt>
      <trkpt lat="42.924017" lon="-0.183779">
        <ele>1044.0</ele>
        <time>2025-07-01T10:14:13.573Z</time>
      </trkpt>
      <trkpt lat="42.923577" lon="-0.183833">
        <ele>1049.1</ele>
        <time>2025-07-01T10:15:47.810Z</time>
      </trkpt>
      <trkpt lat="42.923152" lon="-0.184192">
        <ele>1053.7</ele>
        <time>2025-07-01T10:17:22.933Z</time>
      </trkpt>
      <trkpt lat="42.922911" lon="-0.184346">
        <ele>1056.8</ele>
        <time>2025-07-01T10:18:20.035Z</time>
      </trkpt>
      <trkpt lat="42.922657" lon="-0.184466">
        <ele>1059.9</ele>
        <time>2025-07-01T10:19:17.501Z</time>
      </trkpt>
      <trkpt lat="42.922368" lon="-0.184535">
        <ele>1063.9</ele>
        <time>2025-07-01T10:20:26.567Z</time>
      </trkpt>
      <trkpt lat="42.922120" lon="-0.184546">
        <ele>1067.3</ele>
        <time>2025-07-01T10:21:25.091Z</time>
      </trkpt>
      <trkpt lat="42.921779" lon="-0.184702">
        <ele>1070.7</ele>
        <time>2025-07-01T10:22:35.263Z</time>
      </trkpt>
      <trkpt lat="42.921432" lon="-0.184917">
        <ele>1074.4</ele>
        <time>2025-07-01T10:23:49.315Z</time>
      </trkpt>
      <trkpt lat="42.921224" lon="-0.185141">
        <ele>1076.7</ele>
        <time>2025-07-01T10:24:38.314Z</time>
      </trkpt>
      <trkpt lat="42.920964" lon="-0.185535">
        <ele>1080.1</ele>
        <time>2025-07-01T10:25:50.222Z</time>
      </trkpt>
      <trkpt lat="42.920565" lon="-0.185817">
        <ele>1084.7</ele>
        <time>2025-07-01T10:27:21.029Z</time>
      </trkpt>
      <trkpt lat="42.920107" lon="-0.186340">
        <ele>1087.3</ele>
        <time>2025-07-01T10:28:44.496Z</time>
      </trkpt>
      <trkpt lat="42.919867" lon="-0.186565">
        <ele>1083.4</ele>
        <time>2025-07-01T10:29:35.386Z</time>
      </trkpt>
      <trkpt lat="42.919566" lon="-0.186761">
        <ele>1080.6</ele>
        <time>2025-07-01T10:30:24.487Z</time>
      </trkpt>
      <trkpt lat="42.919080" lon="-0.186787">
        <ele>1080.4</ele>
        <time>2025-07-01T10:31:11.833Z</time>
      </trkpt>
      <trkpt lat="42.918845" lon="-0.186901">
        <ele>1081.8</ele>
        <time>2025-07-01T10:31:49.387Z</time>
      </trkpt>
      <trkpt lat="42.918537" lon="-0.187375">
        <ele>1084.2</ele>
        <time>2025-07-01T10:32:58.958Z</time>
      </trkpt>
      <trkpt lat="42.917699" lon="-0.188485">
        <ele>1090.7</ele>
        <time>2025-07-01T10:35:57.445Z</time>
      </trkpt>
      <trkpt lat="42.917495" lon="-0.188681">
        <ele>1092.5</ele>
        <time>2025-07-01T10:36:38.822Z</time>
      </trkpt>
      <trkpt lat="42.917269" lon="-0.188846">
        <ele>1094.2</ele>
        <time>2025-07-01T10:37:21.202Z</time>
      </trkpt>
      <trkpt lat="42.917431" lon="-0.189267">
        <ele>1098.7</ele>
        <time>2025-07-01T10:38:41.170Z</time>
      </trkpt>
      <trkpt lat="42.917573" lon="-0.189518">
        <ele>1102.3</ele>
        <time>2025-07-01T10:39:41.160Z</time>
      </trkpt>
      <trkpt lat="42.917620" lon="-0.189817">
        <ele>1110.1</ele>
        <time>2025-07-01T10:41:26.819Z</time>
      </trkpt>
      <trkpt lat="42.917541" lon="-0.190133">
        <ele>1116.3</ele>
        <time>2025-07-01T10:42:54.451Z</time>
      </trkpt>
      <trkpt lat="42.917362" lon="-0.190571">
        <ele>1122.5</ele>
        <time>2025-07-01T10:44:34.000Z</time>
      </trkpt>
      <trkpt lat="42.917167" lon="-0.190851">
        <ele>1124.4</ele>
        <time>2025-07-01T10:45:20.689Z</time>
      </trkpt>
      <trkpt lat="42.916979" lon="-0.191168">
        <ele>1126.4</ele>
        <time>2025-07-01T10:46:09.760Z</time>
      </trkpt>
      <trkpt lat="42.916735" lon="-0.191243">
        <ele>1123.0</ele>
        <time>2025-07-01T10:46:54.515Z</time>
      </trkpt>
      <trkpt lat="42.916539" lon="-0.191505">
        <ele>1119.1</ele>
        <time>2025-07-01T10:47:44.733Z</time>
      </trkpt>
      <trkpt lat="42.916402" lon="-0.191756">
        <ele>1122.9</ele>
        <time>2025-07-01T10:48:46.111Z</time>
      </trkpt>
      <trkpt lat="42.916235" lon="-0.192124">
        <ele>1128.1</ele>
        <time>2025-07-01T10:50:10.278Z</time>
      </trkpt>
      <trkpt lat="42.916042" lon="-0.192415">
        <ele>1129.1</ele>
        <time>2025-07-01T10:50:47.868Z</time>
      </trkpt>
      <trkpt lat="42.915745" lon="-0.192716">
        <ele>1130.4</ele>
        <time>2025-07-01T10:51:36.499Z</time>
      </trkpt>
      <trkpt lat="42.915569" lon="-0.193017">
        <ele>1131.4</ele>
        <time>2025-07-01T10:52:13.810Z</time>
      </trkpt>
      <trkpt lat="42.915382" lon="-0.193345">
        <ele>1133.0</ele>
        <time>2025-07-01T10:52:58.612Z</time>
      </trkpt>
      <trkpt lat="42.915187" lon="-0.193696">
        <ele>1135.0</ele>
        <time>2025-07-01T10:53:50.857Z</time>
      </trkpt>
      <trkpt lat="42.915047" lon="-0.193966">
        <ele>1137.0</ele>
        <time>2025-07-01T10:54:35.372Z</time>
      </trkpt>
      <trkpt lat="42.914890" lon="-0.194198">
        <ele>1139.4</ele>
        <time>2025-07-01T10:55:22.261Z</time>
      </trkpt>
      <trkpt lat="42.914663" lon="-0.194533">
        <ele>1144.9</ele>
        <time>2025-07-01T10:56:50.511Z</time>
      </trkpt>
      <trkpt lat="42.914664" lon="-0.194833">
        <ele>1148.4</ele>
        <time>2025-07-01T10:57:48.944Z</time>
      </trkpt>
      <trkpt lat="42.914442" lon="-0.195049">
        <ele>1152.8</ele>
        <time>2025-07-01T10:59:01.383Z</time>
      </trkpt>
      <trkpt lat="42.914424" lon="-0.195344">
        <ele>1155.5</ele>
        <time>2025-07-01T10:59:51.936Z</time>
      </trkpt>
      <trkpt lat="42.914277" lon="-0.195586">
        <ele>1157.7</ele>
        <time>2025-07-01T11:00:36.938Z</time>
      </trkpt>
      <trkpt lat="42.914075" lon="-0.195724">
        <ele>1159.8</ele>
        <time>2025-07-01T11:01:19.919Z</time>
      </trkpt>
      <trkpt lat="42.913914" lon="-0.196015">
        <ele>1166.8</ele>
        <time>2025-07-01T11:02:58.572Z</time>
      </trkpt>
      <trkpt lat="42.913796" lon="-0.196291">
        <ele>1173.0</ele>
        <time>2025-07-01T11:04:25.992Z</time>
      </trkpt>
      <trkpt lat="42.913553" lon="-0.196376">
        <ele>1169.9</ele>
        <time>2025-07-01T11:05:09.471Z</time>
      </trkpt>
      <trkpt lat="42.913245" lon="-0.196586">
        <ele>1166.5</ele>
        <time>2025-07-01T11:06:04.203Z</time>
      </trkpt>
      <trkpt lat="42.912985" lon="-0.196749">
        <ele>1164.2</ele>
        <time>2025-07-01T11:06:48.961Z</time>
      </trkpt>
      <trkpt lat="42.912699" lon="-0.197108">
        <ele>1167.5</ele>
        <time>2025-07-01T11:08:05.368Z</time>
      </trkpt>
      <trkpt lat="42.912442" lon="-0.197205">
        <ele>1166.4</ele>
        <time>2025-07-01T11:08:37.220Z</time>
      </trkpt>
      <trkpt lat="42.912215" lon="-0.197264">
        <ele>1162.6</ele>
        <time>2025-07-01T11:09:21.929Z</time>
      </trkpt>
      <trkpt lat="42.912035" lon="-0.197112">
        <ele>1158.2</ele>
        <time>2025-07-01T11:10:09.788Z</time>
      </trkpt>
      <trkpt lat="42.911859" lon="-0.196790">
        <ele>1151.3</ele>
        <time>2025-07-01T11:11:19.626Z</time>
      </trkpt>
      <trkpt lat="42.911638" lon="-0.196960">
        <ele>1149.9</ele>
        <time>2025-07-01T11:11:55.038Z</time>
      </trkpt>
      <trkpt lat="42.911443" lon="-0.196783">
        <ele>1151.1</ele>
        <time>2025-07-01T11:12:35.168Z</time>
      </trkpt>
      <trkpt lat="42.911111" lon="-0.197064">
        <ele>1158.6</ele>
        <time>2025-07-01T11:15:01.383Z</time>
      </trkpt>
      <trkpt lat="42.910835" lon="-0.197668">
        <ele>1163.0</ele>
        <time>2025-07-01T11:16:36.070Z</time>
      </trkpt>
      <trkpt lat="42.910770" lon="-0.198091">
        <ele>1164.5</ele>
        <time>2025-07-01T11:17:21.762Z</time>
      </trkpt>
      <trkpt lat="42.910880" lon="-0.198587">
        <ele>1166.8</ele>
        <time>2025-07-01T11:18:21.492Z</time>
      </trkpt>
      <trkpt lat="42.910920" lon="-0.198988">
        <ele>1169.1</ele>
        <time>2025-07-01T11:19:15.846Z</time>
      </trkpt>
      <trkpt lat="42.910872" lon="-0.199319">
        <ele>1174.5</ele>
        <time>2025-07-01T11:20:35.173Z</time>
      </trkpt>
      <trkpt lat="42.910716" lon="-0.199748">
        <ele>1180.0</ele>
        <time>2025-07-01T11:22:05.863Z</time>
      </trkpt>
      <trkpt lat="42.910652" lon="-0.200148">
        <ele>1182.4</ele>
        <time>2025-07-01T11:22:59.345Z</time>
      </trkpt>
      <trkpt lat="42.910503" lon="-0.200519">
        <ele>1183.8</ele>
        <time>2025-07-01T11:23:42.827Z</time>
      </trkpt>
      <trkpt lat="42.910380" lon="-0.200953">
        <ele>1184.3</ele>
        <time>2025-07-01T11:24:20.868Z</time>
      </trkpt>
      <trkpt lat="42.910325" lon="-0.201404">
        <ele>1184.0</ele>
        <time>2025-07-01T11:24:55.045Z</time>
      </trkpt>
      <trkpt lat="42.910209" lon="-0.201731">
        <ele>1183.7</ele>
        <time>2025-07-01T11:25:21.898Z</time>
      </trkpt>
      <trkpt lat="42.910048" lon="-0.202068">
        <ele>1183.8</ele>
        <time>2025-07-01T11:25:50.930Z</time>
      </trkpt>
      <trkpt lat="42.909887" lon="-0.202369">
        <ele>1183.9</ele>
        <time>2025-07-01T11:26:17.878Z</time>
      </trkpt>
      <trkpt lat="42.909517" lon="-0.203054">
        <ele>1185.5</ele>
        <time>2025-07-01T11:27:33.834Z</time>
      </trkpt>
      <trkpt lat="42.908950" lon="-0.203721">
        <ele>1186.4</ele>
        <time>2025-07-01T11:28:54.182Z</time>
      </trkpt>
      <trkpt lat="42.908680" lon="-0.203846">
        <ele>1182.0</ele>
        <time>2025-07-01T11:29:47.840Z</time>
      </trkpt>
      <trkpt lat="42.908142" lon="-0.203985">
        <ele>1173.5</ele>
        <time>2025-07-01T11:31:30.953Z</time>
      </trkpt>
      <trkpt lat="42.907879" lon="-0.204057">
        <ele>1172.9</ele>
        <time>2025-07-01T11:32:00.206Z</time>
      </trkpt>
      <trkpt lat="42.907015" lon="-0.204295">
        <ele>1170.9</ele>
        <time>2025-07-01T11:33:36.158Z</time>
      </trkpt>
      <trkpt lat="42.906610" lon="-0.204406">
        <ele>1173.7</ele>
        <time>2025-07-01T11:34:43.812Z</time>
      </trkpt>
      <trkpt lat="42.906399" lon="-0.204557">
        <ele>1175.5</ele>
        <time>2025-07-01T11:35:25.369Z</time>
      </trkpt>
      <trkpt lat="42.906122" lon="-0.205120">
        <ele>1180.0</ele>
        <time>2025-07-01T11:37:03.529Z</time>
      </trkpt>
      <trkpt lat="42.905929" lon="-0.205521">
        <ele>1185.3</ele>
        <time>2025-07-01T11:38:31.413Z</time>
      </trkpt>
      <trkpt lat="42.905762" lon="-0.205873">
        <ele>1189.9</ele>
        <time>2025-07-01T11:39:47.849Z</time>
      </trkpt>
      <trkpt lat="42.905611" lon="-0.206136">
        <ele>1195.5</ele>
        <time>2025-07-01T11:41:08.999Z</time>
      </trkpt>
      <trkpt lat="42.905463" lon="-0.206377">
        <ele>1200.8</ele>
        <time>2025-07-01T11:42:25.562Z</time>
      </trkpt>
      <trkpt lat="42.905279" lon="-0.206640">
        <ele>1204.7</ele>
        <time>2025-07-01T11:43:30.729Z</time>
      </trkpt>
      <trkpt lat="42.905201" lon="-0.206933">
        <ele>1208.3</ele>
        <time>2025-07-01T11:44:31.846Z</time>
      </trkpt>
      <trkpt lat="42.905114" lon="-0.207274">
        <ele>1213.5</ele>
        <time>2025-07-01T11:45:50.380Z</time>
      </trkpt>
      <trkpt lat="42.904911" lon="-0.207272">
        <ele>1218.3</ele>
        <time>2025-07-01T11:47:03.939Z</time>
      </trkpt>
      <trkpt lat="42.904628" lon="-0.207454">
        <ele>1230.6</ele>
        <time>2025-07-01T11:49:40.502Z</time>
      </trkpt>
      <trkpt lat="42.904355" lon="-0.207428">
        <ele>1241.2</ele>
        <time>2025-07-01T11:51:56.546Z</time>
      </trkpt>
      <trkpt lat="42.904047" lon="-0.207360">
        <ele>1249.7</ele>
        <time>2025-07-01T11:53:54.052Z</time>
      </trkpt>
      <trkpt lat="42.903703" lon="-0.207682">
        <ele>1262.2</ele>
        <time>2025-07-01T11:56:43.822Z</time>
      </trkpt>
      <trkpt lat="42.903480" lon="-0.207578">
        <ele>1269.9</ele>
        <time>2025-07-01T11:58:27.380Z</time>
      </trkpt>
      <trkpt lat="42.903262" lon="-0.207327">
        <ele>1278.4</ele>
        <time>2025-07-01T12:00:26.897Z</time>
      </trkpt>
      <trkpt lat="42.903059" lon="-0.207463">
        <ele>1283.9</ele>
        <time>2025-07-01T12:01:44.760Z</time>
      </trkpt>
      <trkpt lat="42.902836" lon="-0.207618">
        <ele>1288.1</ele>
        <time>2025-07-01T12:02:52.956Z</time>
      </trkpt>
      <trkpt lat="42.902566" lon="-0.207643">
        <ele>1293.8</ele>
        <time>2025-07-01T12:04:17.947Z</time>
      </trkpt>
      <trkpt lat="42.902347" lon="-0.207501">
        <ele>1300.6</ele>
        <time>2025-07-01T12:05:51.956Z</time>
      </trkpt>
      <trkpt lat="42.902235" lon="-0.207155">
        <ele>1308.8</ele>
        <time>2025-07-01T12:07:42.870Z</time>
      </trkpt>
      <trkpt lat="42.902049" lon="-0.206655">
        <ele>1322.3</ele>
        <time>2025-07-01T12:10:40.998Z</time>
      </trkpt>
      <trkpt lat="42.901891" lon="-0.206338">
        <ele>1332.2</ele>
        <time>2025-07-01T12:12:50.211Z</time>
      </trkpt>
      <trkpt lat="42.901663" lon="-0.206231">
        <ele>1340.8</ele>
        <time>2025-07-01T12:14:41.179Z</time>
      </trkpt>
      <trkpt lat="42.901503" lon="-0.205986">
        <ele>1351.8</ele>
        <time>2025-07-01T12:16:57.430Z</time>
      </trkpt>
      <trkpt lat="42.901404" lon="-0.205623">
        <ele>1363.6</ele>
        <time>2025-07-01T12:19:26.740Z</time>
      </trkpt>
      <trkpt lat="42.901165" lon="-0.205560">
        <ele>1370.2</ele>
        <time>2025-07-01T12:20:57.829Z</time>
      </trkpt>
      <trkpt lat="42.900908" lon="-0.205539">
        <ele>1374.0</ele>
        <time>2025-07-01T12:22:03.675Z</time>
      </trkpt>
      <trkpt lat="42.900756" lon="-0.205634">
        <ele>1374.2</ele>
        <time>2025-07-01T12:22:31.282Z</time>
      </trkpt>
      <trkpt lat="42.900513" lon="-0.205384">
        <ele>1383.5</ele>
        <time>2025-07-01T12:24:43.085Z</time>
      </trkpt>
      <trkpt lat="42.900309" lon="-0.205155">
        <ele>1390.3</ele>
        <time>2025-07-01T12:26:18.657Z</time>
      </trkpt>
      <trkpt lat="42.900139" lon="-0.204942">
        <ele>1395.0</ele>
        <time>2025-07-01T12:27:28.645Z</time>
      </trkpt>
      <trkpt lat="42.899881" lon="-0.204953">
        <ele>1398.6</ele>
        <time>2025-07-01T12:28:32.939Z</time>
      </trkpt>
      <trkpt lat="42.899651" lon="-0.205123">
        <ele>1399.1</ele>
        <time>2025-07-01T12:29:02.819Z</time>
      </trkpt>
      <trkpt lat="42.899211" lon="-0.204927">
        <ele>1409.9</ele>
        <time>2025-07-01T12:31:42.236Z</time>
      </trkpt>
      <trkpt lat="42.898956" lon="-0.204770">
        <ele>1417.5</ele>
        <time>2025-07-01T12:33:27.201Z</time>
      </trkpt>
      <trkpt lat="42.898523" lon="-0.204773">
        <ele>1433.3</ele>
        <time>2025-07-01T12:36:50.697Z</time>
      </trkpt>
      <trkpt lat="42.898302" lon="-0.204791">
        <ele>1437.9</ele>
        <time>2025-07-01T12:37:59.996Z</time>
      </trkpt>
      <trkpt lat="42.898195" lon="-0.205094">
        <ele>1441.5</ele>
        <time>2025-07-01T12:39:01.558Z</time>
      </trkpt>
      <trkpt lat="42.898098" lon="-0.205443">
        <ele>1441.8</ele>
        <time>2025-07-01T12:39:30.623Z</time>
      </trkpt>
      <trkpt lat="42.898000" lon="-0.206010">
        <ele>1440.8</ele>
        <time>2025-07-01T12:40:17.000Z</time>
      </trkpt>
      <trkpt lat="42.897907" lon="-0.206291">
        <ele>1442.7</ele>
        <time>2025-07-01T12:40:58.082Z</time>
      </trkpt>
      <trkpt lat="42.897646" lon="-0.206149">
        <ele>1446.9</ele>
        <time>2025-07-01T12:42:11.055Z</time>
      </trkpt>
      <trkpt lat="42.897475" lon="-0.205911">
        <ele>1452.9</ele>
        <time>2025-07-01T12:43:36.600Z</time>
      </trkpt>
      <trkpt lat="42.897301" lon="-0.205674">
        <ele>1458.1</ele>
        <time>2025-07-01T12:44:53.510Z</time>
      </trkpt>
      <trkpt lat="42.897052" lon="-0.205247">
        <ele>1465.2</ele>
        <time>2025-07-01T12:46:45.210Z</time>
      </trkpt>
      <trkpt lat="42.896872" lon="-0.204982">
        <ele>1469.1</ele>
        <time>2025-07-01T12:47:50.460Z</time>
      </trkpt>
      <trkpt lat="42.896675" lon="-0.204823">
        <ele>1472.5</ele>
        <time>2025-07-01T12:48:47.340Z</time>
      </trkpt>
      <trkpt lat="42.896433" lon="-0.204695">
        <ele>1478.2</ele>
        <time>2025-07-01T12:50:11.342Z</time>
      </trkpt>
      <trkpt lat="42.896185" lon="-0.204593">
        <ele>1483.9</ele>
        <time>2025-07-01T12:51:34.582Z</time>
      </trkpt>
      <trkpt lat="42.895993" lon="-0.204435">
        <ele>1491.9</ele>
        <time>2025-07-01T12:53:18.679Z</time>
      </trkpt>
      <trkpt lat="42.895764" lon="-0.204214">
        <ele>1501.6</ele>
        <time>2025-07-01T12:55:25.316Z</time>
      </trkpt>
      <trkpt lat="42.895600" lon="-0.204010">
        <ele>1509.2</ele>
        <time>2025-07-01T12:57:05.022Z</time>
      </trkpt>
      <trkpt lat="42.895375" lon="-0.203826">
        <ele>1517.3</ele>
        <time>2025-07-01T12:58:53.677Z</time>
      </trkpt>
      <trkpt lat="42.894923" lon="-0.203486">
        <ele>1530.3</ele>
        <time>2025-07-01T13:01:56.391Z</time>
      </trkpt>
      <trkpt lat="42.894595" lon="-0.203283">
        <ele>1533.1</ele>
        <time>2025-07-01T13:02:59.750Z</time>
      </trkpt>
      <trkpt lat="42.894337" lon="-0.203190">
        <ele>1535.2</ele>
        <time>2025-07-01T13:03:46.803Z</time>
      </trkpt>
      <trkpt lat="42.894064" lon="-0.203009">
        <ele>1541.1</ele>
        <time>2025-07-01T13:05:16.537Z</time>
      </trkpt>
      <trkpt lat="42.893870" lon="-0.202855">
        <ele>1545.4</ele>
        <time>2025-07-01T13:06:22.216Z</time>
      </trkpt>
      <trkpt lat="42.893688" lon="-0.202631">
        <ele>1553.6</ele>
        <time>2025-07-01T13:08:10.331Z</time>
      </trkpt>
      <trkpt lat="42.893465" lon="-0.202452">
        <ele>1562.3</ele>
        <time>2025-07-01T13:10:04.954Z</time>
      </trkpt>
      <trkpt lat="42.893153" lon="-0.202288">
        <ele>1569.8</ele>
        <time>2025-07-01T13:11:53.452Z</time>
      </trkpt>
      <trkpt lat="42.892814" lon="-0.202028">
        <ele>1578.4</ele>
        <time>2025-07-01T13:13:59.053Z</time>
      </trkpt>
      <trkpt lat="42.892480" lon="-0.201911">
        <ele>1582.1</ele>
        <time>2025-07-01T13:15:10.597Z</time>
      </trkpt>
      <trkpt lat="42.892231" lon="-0.201844">
        <ele>1584.9</ele>
        <time>2025-07-01T13:16:03.761Z</time>
      </trkpt>
      <trkpt lat="42.891971" lon="-0.201730">
        <ele>1588.0</ele>
        <time>2025-07-01T13:17:01.849Z</time>
      </trkpt>
      <trkpt lat="42.891696" lon="-0.201543">
        <ele>1594.4</ele>
        <time>2025-07-01T13:18:37.101Z</time>
      </trkpt>
      <trkpt lat="42.891471" lon="-0.201384">
        <ele>1599.9</ele>
        <time>2025-07-01T13:19:58.180Z</time>
      </trkpt>
      <trkpt lat="42.891241" lon="-0.201173">
        <ele>1604.5</ele>
        <time>2025-07-01T13:21:12.008Z</time>
      </trkpt>
      <trkpt lat="42.891033" lon="-0.201028">
        <ele>1607.3</ele>
        <time>2025-07-01T13:22:03.812Z</time>
      </trkpt>
      <trkpt lat="42.890796" lon="-0.200782">
        <ele>1609.3</ele>
        <time>2025-07-01T13:22:52.294Z</time>
      </trkpt>
      <trkpt lat="42.890489" lon="-0.200557">
        <ele>1611.8</ele>
        <time>2025-07-01T13:23:51.550Z</time>
      </trkpt>
      <trkpt lat="42.890239" lon="-0.200310">
        <ele>1614.4</ele>
        <time>2025-07-01T13:24:47.784Z</time>
      </trkpt>
      <trkpt lat="42.889923" lon="-0.200022">
        <ele>1617.1</ele>
        <time>2025-07-01T13:25:52.371Z</time>
      </trkpt>
      <trkpt lat="42.889728" lon="-0.199817">
        <ele>1618.4</ele>
        <time>2025-07-01T13:26:29.459Z</time>
      </trkpt>
      <trkpt lat="42.889536" lon="-0.199651">
        <ele>1619.7</ele>
        <time>2025-07-01T13:27:03.797Z</time>
      </trkpt>
      <trkpt lat="42.889328" lon="-0.199495">
        <ele>1619.9</ele>
        <time>2025-07-01T13:27:29.424Z</time>
      </trkpt>
      <trkpt lat="42.889096" lon="-0.199406">
        <ele>1620.2</ele>
        <time>2025-07-01T13:27:55.178Z</time>
      </trkpt>
      <trkpt lat="42.888874" lon="-0.199329">
        <ele>1624.5</ele>
        <time>2025-07-01T13:29:01.093Z</time>
      </trkpt>
      <trkpt lat="42.888334" lon="-0.199041">
        <ele>1635.3</ele>
        <time>2025-07-01T13:31:48.071Z</time>
      </trkpt>
      <trkpt lat="42.888073" lon="-0.198923">
        <ele>1642.2</ele>
        <time>2025-07-01T13:33:24.504Z</time>
      </trkpt>
      <trkpt lat="42.887836" lon="-0.198834">
        <ele>1648.4</ele>
        <time>2025-07-01T13:34:52.774Z</time>
      </trkpt>
      <trkpt lat="42.887626" lon="-0.198627">
        <ele>1656.1</ele>
        <time>2025-07-01T13:36:36.532Z</time>
      </trkpt>
      <trkpt lat="42.887455" lon="-0.198585">
        <ele>1661.8</ele>
        <time>2025-07-01T13:37:59.854Z</time>
      </trkpt>
      <trkpt lat="42.887246" lon="-0.198524">
        <ele>1664.1</ele>
        <time>2025-07-01T13:38:45.446Z</time>
      </trkpt>
      <trkpt lat="42.886997" lon="-0.198133">
        <ele>1670.2</ele>
        <time>2025-07-01T13:40:24.852Z</time>
      </trkpt>
      <trkpt lat="42.886686" lon="-0.197905">
        <ele>1677.1</ele>
        <time>2025-07-01T13:42:09.793Z</time>
      </trkpt>
      <trkpt lat="42.886466" lon="-0.197818">
        <ele>1682.3</ele>
        <time>2025-07-01T13:43:25.708Z</time>
      </trkpt>
      <trkpt lat="42.886177" lon="-0.197627">
        <ele>1689.6</ele>
        <time>2025-07-01T13:45:11.763Z</time>
      </trkpt>
      <trkpt lat="42.885989" lon="-0.197476">
        <ele>1696.5</ele>
        <time>2025-07-01T13:46:44.444Z</time>
      </trkpt>
      <trkpt lat="42.885765" lon="-0.197370">
        <ele>1703.9</ele>
        <time>2025-07-01T13:48:25.042Z</time>
      </trkpt>
      <trkpt lat="42.885560" lon="-0.197303">
        <ele>1711.7</ele>
        <time>2025-07-01T13:50:08.878Z</time>
      </trkpt>
      <trkpt lat="42.885387" lon="-0.197057">
        <ele>1720.1</ele>
        <time>2025-07-01T13:52:00.111Z</time>
      </trkpt>
      <trkpt lat="42.885244" lon="-0.196833">
        <ele>1728.4</ele>
        <time>2025-07-01T13:53:47.355Z</time>
      </trkpt>
      <trkpt lat="42.885053" lon="-0.196625">
        <ele>1737.1</ele>
        <time>2025-07-01T13:55:39.436Z</time>
      </trkpt>
      <trkpt lat="42.884838" lon="-0.196692">
        <ele>1742.5</ele>
        <time>2025-07-01T13:56:57.714Z</time>
      </trkpt>
      <trkpt lat="42.884608" lon="-0.196651">
        <ele>1748.3</ele>
        <time>2025-07-01T13:58:20.444Z</time>
      </trkpt>
      <trkpt lat="42.884517" lon="-0.196425">
        <ele>1756.8</ele>
        <time>2025-07-01T14:00:10.509Z</time>
      </trkpt>
      <trkpt lat="42.884399" lon="-0.196284">
        <ele>1765.5</ele>
        <time>2025-07-01T14:02:02.250Z</time>
      </trkpt>
      <trkpt lat="42.884144" lon="-0.196355">
        <ele>1773.5</ele>
        <time>2025-07-01T14:03:49.081Z</time>
      </trkpt>
      <trkpt lat="42.883924" lon="-0.196494">
        <ele>1780.9</ele>
        <time>2025-07-01T14:05:28.633Z</time>
      </trkpt>
      <trkpt lat="42.883565" lon="-0.196420">
        <ele>1791.0</ele>
        <time>2025-07-01T14:07:47.855Z</time>
      </trkpt>
      <trkpt lat="42.883719" lon="-0.196170">
        <ele>1798.0</ele>
        <time>2025-07-01T14:09:25.676Z</time>
      </trkpt>
      <trkpt lat="42.883552" lon="-0.195959">
        <ele>1809.5</ele>
        <time>2025-07-01T14:11:48.640Z</time>
      </trkpt>
      <trkpt lat="42.883165" lon="-0.196013">
        <ele>1823.9</ele>
        <time>2025-07-01T14:14:54.233Z</time>
      </trkpt>
      <trkpt lat="42.882911" lon="-0.196132">
        <ele>1832.2</ele>
        <time>2025-07-01T14:16:45.777Z</time>
      </trkpt>
      <trkpt lat="42.882575" lon="-0.196183">
        <ele>1842.6</ele>
        <time>2025-07-01T14:19:05.921Z</time>
      </trkpt>
      <trkpt lat="42.882366" lon="-0.196101">
        <ele>1848.5</ele>
        <time>2025-07-01T14:20:28.406Z</time>
      </trkpt>
      <trkpt lat="42.882301" lon="-0.195689">
        <ele>1855.8</ele>
        <time>2025-07-01T14:22:13.861Z</time>
      </trkpt>
      <trkpt lat="42.882405" lon="-0.195385">
        <ele>1860.5</ele>
        <time>2025-07-01T14:23:26.147Z</time>
      </trkpt>
      <trkpt lat="42.882505" lon="-0.194996">
        <ele>1863.8</ele>
        <time>2025-07-01T14:24:28.442Z</time>
      </trkpt>
      <trkpt lat="42.882484" lon="-0.194425">
        <ele>1876.2</ele>
        <time>2025-07-01T14:27:19.422Z</time>
      </trkpt>
      <trkpt lat="42.882495" lon="-0.194157">
        <ele>1883.0</ele>
        <time>2025-07-01T14:28:54.753Z</time>
      </trkpt>
      <trkpt lat="42.882699" lon="-0.193774">
        <ele>1888.6</ele>
        <time>2025-07-01T14:30:26.894Z</time>
      </trkpt>
      <trkpt lat="42.882929" lon="-0.193528">
        <ele>1893.4</ele>
        <time>2025-07-01T14:31:45.803Z</time>
      </trkpt>
      <trkpt lat="42.883117" lon="-0.193357">
        <ele>1897.1</ele>
        <time>2025-07-01T14:32:45.278Z</time>
      </trkpt>
      <trkpt lat="42.883250" lon="-0.193181">
        <ele>1902.8</ele>
        <time>2025-07-01T14:34:07.677Z</time>
      </trkpt>
      <trkpt lat="42.883080" lon="-0.193109">
        <ele>1908.3</ele>
        <time>2025-07-01T14:35:25.288Z</time>
      </trkpt>
      <trkpt lat="42.883168" lon="-0.192817">
        <ele>1916.6</ele>
        <time>2025-07-01T14:37:14.759Z</time>
      </trkpt>
      <trkpt lat="42.883049" lon="-0.192759">
        <ele>1925.2</ele>
        <time>2025-07-01T14:39:07.492Z</time>
      </trkpt>
      <trkpt lat="42.882800" lon="-0.192613">
        <ele>1934.4</ele>
        <time>2025-07-01T14:41:13.451Z</time>
      </trkpt>
      <trkpt lat="42.882474" lon="-0.192520">
        <ele>1944.9</ele>
        <time>2025-07-01T14:43:35.770Z</time>
      </trkpt>
      <trkpt lat="42.882332" lon="-0.192363">
        <ele>1953.0</ele>
        <time>2025-07-01T14:45:25.308Z</time>
      </trkpt>
      <trkpt lat="42.882138" lon="-0.192225">
        <ele>1963.0</ele>
        <time>2025-07-01T14:47:37.799Z</time>
      </trkpt>
      <trkpt lat="42.881957" lon="-0.192116">
        <ele>1972.1</ele>
        <time>2025-07-01T14:49:35.321Z</time>
      </trkpt>
      <trkpt lat="42.881864" lon="-0.191873">
        <ele>1982.9</ele>
        <time>2025-07-01T14:51:48.796Z</time>
      </trkpt>
      <trkpt lat="42.881935" lon="-0.191544">
        <ele>1995.6</ele>
        <time>2025-07-01T14:54:24.856Z</time>
      </trkpt>
      <trkpt lat="42.881910" lon="-0.191266">
        <ele>2005.9</ele>
        <time>2025-07-01T14:56:32.407Z</time>
      </trkpt>
      <trkpt lat="42.881846" lon="-0.191020">
        <ele>2017.2</ele>
        <time>2025-07-01T14:58:54.705Z</time>
      </trkpt>
      <trkpt lat="42.881629" lon="-0.190944">
        <ele>2027.7</ele>
        <time>2025-07-01T15:01:10.088Z</time>
      </trkpt>
      <trkpt lat="42.881394" lon="-0.190936">
        <ele>2037.8</ele>
        <time>2025-07-01T15:03:16.920Z</time>
      </trkpt>
      <trkpt lat="42.881464" lon="-0.190641">
        <ele>2048.5</ele>
        <time>2025-07-01T15:05:30.075Z</time>
      </trkpt>
      <trkpt lat="42.881496" lon="-0.190320">
        <ele>2056.1</ele>
        <time>2025-07-01T15:07:11.932Z</time>
      </trkpt>
      <trkpt lat="42.881102" lon="-0.190397">
        <ele>2066.8</ele>
        <time>2025-07-01T15:09:39.680Z</time>
      </trkpt>
      <trkpt lat="42.880854" lon="-0.190484">
        <ele>2068.6</ele>
        <time>2025-07-01T15:10:23.303Z</time>
      </trkpt>
      <trkpt lat="42.880584" lon="-0.190437">
        <ele>2070.5</ele>
        <time>2025-07-01T15:11:08.651Z</time>
      </trkpt>
      <trkpt lat="42.880351" lon="-0.190431">
        <ele>2076.1</ele>
        <time>2025-07-01T15:12:28.702Z</time>
      </trkpt>
      <trkpt lat="42.880166" lon="-0.190262">
        <ele>2082.5</ele>
        <time>2025-07-01T15:13:59.424Z</time>
      </trkpt>
      <trkpt lat="42.879992" lon="-0.189988">
        <ele>2097.3</ele>
        <time>2025-07-01T15:16:59.783Z</time>
      </trkpt>
      <trkpt lat="42.879967" lon="-0.189721">
        <ele>2108.8</ele>
        <time>2025-07-01T15:19:20.454Z</time>
      </trkpt>
      <trkpt lat="42.879685" lon="-0.189634">
        <ele>2119.1</ele>
        <time>2025-07-01T15:21:35.790Z</time>
      </trkpt>
      <trkpt lat="42.879716" lon="-0.189372">
        <ele>2128.6</ele>
        <time>2025-07-01T15:23:39.404Z</time>
      </trkpt>
      <trkpt lat="42.879544" lon="-0.189346">
        <ele>2136.5</ele>
        <time>2025-07-01T15:25:23.521Z</time>
      </trkpt>
      <trkpt lat="42.879469" lon="-0.189086">
        <ele>2147.2</ele>
        <time>2025-07-01T15:27:40.883Z</time>
      </trkpt>
      <trkpt lat="42.879179" lon="-0.189045">
        <ele>2159.3</ele>
        <time>2025-07-01T15:30:13.113Z</time>
      </trkpt>
      <trkpt lat="42.878984" lon="-0.188655">
        <ele>2179.1</ele>
        <time>2025-07-01T15:34:10.679Z</time>
      </trkpt>
      <trkpt lat="42.878791" lon="-0.188483">
        <ele>2190.2</ele>
        <time>2025-07-01T15:36:27.958Z</time>
      </trkpt>
      <trkpt lat="42.878463" lon="-0.188418">
        <ele>2202.7</ele>
        <time>2025-07-01T15:39:07.834Z</time>
      </trkpt>
      <trkpt lat="42.878464" lon="-0.188135">
        <ele>2211.6</ele>
        <time>2025-07-01T15:41:05.762Z</time>
      </trkpt>
      <trkpt lat="42.878339" lon="-0.187913">
        <ele>2220.8</ele>
        <time>2025-07-01T15:43:07.936Z</time>
      </trkpt>
      <trkpt lat="42.878106" lon="-0.187906">
        <ele>2226.8</ele>
        <time>2025-07-01T15:44:32.041Z</time>
      </trkpt>
      <trkpt lat="42.877782" lon="-0.187484">
        <ele>2238.9</ele>
        <time>2025-07-01T15:47:21.165Z</time>
      </trkpt>
      <trkpt lat="42.877705" lon="-0.187146">
        <ele>2242.8</ele>
        <time>2025-07-01T15:48:29.444Z</time>
      </trkpt>
      <trkpt lat="42.877572" lon="-0.186857">
        <ele>2246.2</ele>
        <time>2025-07-01T15:49:29.484Z</time>
      </trkpt>
      <trkpt lat="42.877454" lon="-0.186285">
        <ele>2250.4</ele>
        <time>2025-07-01T15:50:54.195Z</time>
      </trkpt>
      <trkpt lat="42.877464" lon="-0.185908">
        <ele>2253.1</ele>
        <time>2025-07-01T15:51:47.801Z</time>
      </trkpt>
      <trkpt lat="42.877598" lon="-0.185644">
        <ele>2253.7</ele>
        <time>2025-07-01T15:52:17.436Z</time>
      </trkpt>
      <trkpt lat="42.877678" lon="-0.185275">
        <ele>2254.5</ele>
        <time>2025-07-01T15:52:52.831Z</time>
      </trkpt>
      <trkpt lat="42.877848" lon="-0.184958">
        <ele>2252.7</ele>
        <time>2025-07-01T15:53:31.533Z</time>
      </trkpt>
      <trkpt lat="42.877942" lon="-0.184616">
        <ele>2251.1</ele>
        <time>2025-07-01T15:54:07.079Z</time>
      </trkpt>
      <trkpt lat="42.878033" lon="-0.184172">
        <ele>2246.7</ele>
        <time>2025-07-01T15:55:05.656Z</time>
      </trkpt>
      <trkpt lat="42.878139" lon="-0.183832">
        <ele>2243.2</ele>
        <time>2025-07-01T15:55:52.743Z</time>
      </trkpt>
      <trkpt lat="42.878074" lon="-0.183347">
        <ele>2236.2</ele>
        <time>2025-07-01T15:57:09.564Z</time>
      </trkpt>
      <trkpt lat="42.878185" lon="-0.182892">
        <ele>2229.4</ele>
        <time>2025-07-01T15:58:23.508Z</time>
      </trkpt>
      <trkpt lat="42.878357" lon="-0.182477">
        <ele>2224.0</ele>
        <time>2025-07-01T15:59:29.601Z</time>
      </trkpt>
      <trkpt lat="42.878600" lon="-0.181974">
        <ele>2214.9</ele>
        <time>2025-07-01T16:01:06.583Z</time>
      </trkpt>
      <trkpt lat="42.878663" lon="-0.181676">
        <ele>2209.1</ele>
        <time>2025-07-01T16:02:02.861Z</time>
      </trkpt>
      <trkpt lat="42.878631" lon="-0.181234">
        <ele>2207.8</ele>
        <time>2025-07-01T16:02:42.167Z</time>
      </trkpt>
      <trkpt lat="42.878535" lon="-0.180808">
        <ele>2206.5</ele>
        <time>2025-07-01T16:03:21.154Z</time>
      </trkpt>
      <trkpt lat="42.878408" lon="-0.180459">
        <ele>2201.2</ele>
        <time>2025-07-01T16:04:20.526Z</time>
      </trkpt>
      <trkpt lat="42.878265" lon="-0.180108">
        <ele>2195.4</ele>
        <time>2025-07-01T16:05:24.168Z</time>
      </trkpt>
      <trkpt lat="42.878218" lon="-0.179747">
        <ele>2189.7</ele>
        <time>2025-07-01T16:06:23.954Z</time>
      </trkpt>
      <trkpt lat="42.878284" lon="-0.179332">
        <ele>2183.1</ele>
        <time>2025-07-01T16:07:33.053Z</time>
      </trkpt>
      <trkpt lat="42.878301" lon="-0.178887">
        <ele>2175.3</ele>
        <time>2025-07-01T16:08:51.317Z</time>
      </trkpt>
      <trkpt lat="42.878345" lon="-0.178544">
        <ele>2169.7</ele>
        <time>2025-07-01T16:09:49.104Z</time>
      </trkpt>
      <trkpt lat="42.878408" lon="-0.178159">
        <ele>2164.3</ele>
        <time>2025-07-01T16:10:49.370Z</time>
      </trkpt>
      <trkpt lat="42.878459" lon="-0.177725">
        <ele>2158.9</ele>
        <time>2025-07-01T16:11:52.529Z</time>
      </trkpt>
      <trkpt lat="42.878513" lon="-0.177033">
        <ele>2151.3</ele>
        <time>2025-07-01T16:13:26.633Z</time>
      </trkpt>
      <trkpt lat="42.878502" lon="-0.176644">
        <ele>2146.0</ele>
        <time>2025-07-01T16:14:27.083Z</time>
      </trkpt>
      <trkpt lat="42.878437" lon="-0.176229">
        <ele>2139.5</ele>
        <time>2025-07-01T16:15:35.441Z</time>
      </trkpt>
      <trkpt lat="42.878289" lon="-0.175860">
        <ele>2131.9</ele>
        <time>2025-07-01T16:16:50.736Z</time>
      </trkpt>
      <trkpt lat="42.878127" lon="-0.175283">
        <ele>2122.9</ele>
        <time>2025-07-01T16:18:28.352Z</time>
      </trkpt>
      <trkpt lat="42.877965" lon="-0.174833">
        <ele>2117.3</ele>
        <time>2025-07-01T16:19:36.960Z</time>
      </trkpt>
      <trkpt lat="42.877813" lon="-0.174511">
        <ele>2113.7</ele>
        <time>2025-07-01T16:20:25.633Z</time>
      </trkpt>
      <trkpt lat="42.877711" lon="-0.174191">
        <ele>2110.8</ele>
        <time>2025-07-01T16:21:08.141Z</time>
      </trkpt>
      <trkpt lat="42.877627" lon="-0.173998">
        <ele>2108.3</ele>
        <time>2025-07-01T16:21:45.345Z</time>
      </trkpt>
      <trkpt lat="42.877385" lon="-0.173764">
        <ele>2095.8</ele>
        <time>2025-07-01T16:23:28.472Z</time>
      </trkpt>
      <trkpt lat="42.877190" lon="-0.173605">
        <ele>2086.8</ele>
        <time>2025-07-01T16:24:44.803Z</time>
      </trkpt>
      <trkpt lat="42.876905" lon="-0.173439">
        <ele>2078.6</ele>
        <time>2025-07-01T16:26:04.231Z</time>
      </trkpt>
      <trkpt lat="42.876706" lon="-0.173286">
        <ele>2073.8</ele>
        <time>2025-07-01T16:26:54.406Z</time>
      </trkpt>
      <trkpt lat="42.876484" lon="-0.173147">
        <ele>2070.5</ele>
        <time>2025-07-01T16:27:37.907Z</time>
      </trkpt>
      <trkpt lat="42.876237" lon="-0.172899">
        <ele>2065.2</ele>
        <time>2025-07-01T16:28:38.849Z</time>
      </trkpt>
      <trkpt lat="42.876002" lon="-0.172777">
        <ele>2060.0</ele>
        <time>2025-07-01T16:29:34.707Z</time>
      </trkpt>
      <trkpt lat="42.875785" lon="-0.172839">
        <ele>2054.7</ele>
        <time>2025-07-01T16:30:29.241Z</time>
      </trkpt>
      <trkpt lat="42.875572" lon="-0.172866">
        <ele>2049.3</ele>
        <time>2025-07-01T16:31:23.666Z</time>
      </trkpt>
      <trkpt lat="42.875741" lon="-0.173063">
        <ele>2052.5</ele>
        <time>2025-07-01T16:32:19.707Z</time>
      </trkpt>
      <trkpt lat="42.875708" lon="-0.173292">
        <ele>2056.2</ele>
        <time>2025-07-01T16:33:19.284Z</time>
      </trkpt>
      <trkpt lat="42.875503" lon="-0.173680">
        <ele>2061.9</ele>
        <time>2025-07-01T16:34:51.638Z</time>
      </trkpt>
      <trkpt lat="42.875210" lon="-0.173761">
        <ele>2063.5</ele>
        <time>2025-07-01T16:35:36.804Z</time>
      </trkpt>
      <trkpt lat="42.874850" lon="-0.173834">
        <ele>2065.5</ele>
        <time>2025-07-01T16:36:31.671Z</time>
      </trkpt>
      <trkpt lat="42.874670" lon="-0.174002">
        <ele>2068.3</ele>
        <time>2025-07-01T16:37:22.054Z</time>
      </trkpt>
      <trkpt lat="42.874426" lon="-0.174267">
        <ele>2072.1</ele>
        <time>2025-07-01T16:38:31.468Z</time>
      </trkpt>
      <trkpt lat="42.874119" lon="-0.174455">
        <ele>2074.4</ele>
        <time>2025-07-01T16:39:26.920Z</time>
      </trkpt>
      <trkpt lat="42.873743" lon="-0.174430">
        <ele>2074.2</ele>
        <time>2025-07-01T16:40:04.172Z</time>
      </trkpt>
      <trkpt lat="42.873475" lon="-0.174331">
        <ele>2071.3</ele>
        <time>2025-07-01T16:40:48.015Z</time>
      </trkpt>
      <trkpt lat="42.873159" lon="-0.174259">
        <ele>2067.4</ele>
        <time>2025-07-01T16:41:41.819Z</time>
      </trkpt>
      <trkpt lat="42.872928" lon="-0.174187">
        <ele>2064.1</ele>
        <time>2025-07-01T16:42:24.419Z</time>
      </trkpt>
      <trkpt lat="42.872669" lon="-0.174124">
        <ele>2057.9</ele>
        <time>2025-07-01T16:43:26.442Z</time>
      </trkpt>
      <trkpt lat="42.872432" lon="-0.173926">
        <ele>2049.0</ele>
        <time>2025-07-01T16:44:47.060Z</time>
      </trkpt>
      <trkpt lat="42.872170" lon="-0.173878">
        <ele>2044.1</ele>
        <time>2025-07-01T16:45:42.219Z</time>
      </trkpt>
      <trkpt lat="42.871885" lon="-0.173919">
        <ele>2042.1</ele>
        <time>2025-07-01T16:46:21.543Z</time>
      </trkpt>
      <trkpt lat="42.871485" lon="-0.173908">
        <ele>2042.8</ele>
        <time>2025-07-01T16:47:06.916Z</time>
      </trkpt>
      <trkpt lat="42.871256" lon="-0.173848">
        <ele>2043.3</ele>
        <time>2025-07-01T16:47:35.729Z</time>
      </trkpt>
      <trkpt lat="42.871027" lon="-0.173756">
        <ele>2042.3</ele>
        <time>2025-07-01T16:48:07.574Z</time>
      </trkpt>
      <trkpt lat="42.870734" lon="-0.173733">
        <ele>2038.5</ele>
        <time>2025-07-01T16:48:59.329Z</time>
      </trkpt>
      <trkpt lat="42.870479" lon="-0.173575">
        <ele>2033.1</ele>
        <time>2025-07-01T16:49:59.135Z</time>
      </trkpt>
      <trkpt lat="42.870121" lon="-0.173606">
        <ele>2039.2</ele>
        <time>2025-07-01T16:51:36.367Z</time>
      </trkpt>
      <trkpt lat="42.869820" lon="-0.173604">
        <ele>2033.6</ele>
        <time>2025-07-01T16:52:40.193Z</time>
      </trkpt>
      <trkpt lat="42.869577" lon="-0.173579">
        <ele>2025.8</ele>
        <time>2025-07-01T16:53:50.854Z</time>
      </trkpt>
      <trkpt lat="42.869311" lon="-0.173685">
        <ele>2022.3</ele>
        <time>2025-07-01T16:54:39.843Z</time>
      </trkpt>
      <trkpt lat="42.869053" lon="-0.173655">
        <ele>2019.0</ele>
        <time>2025-07-01T16:55:24.902Z</time>
      </trkpt>
      <trkpt lat="42.868803" lon="-0.173834">
        <ele>2017.9</ele>
        <time>2025-07-01T16:55:58.025Z</time>
      </trkpt>
      <trkpt lat="42.868276" lon="-0.173928">
        <ele>2016.0</ele>
        <time>2025-07-01T16:57:00.502Z</time>
      </trkpt>
      <trkpt lat="42.867676" lon="-0.174041">
        <ele>2007.7</ele>
        <time>2025-07-01T16:58:47.855Z</time>
      </trkpt>
      <trkpt lat="42.867424" lon="-0.174126">
        <ele>2002.9</ele>
        <time>2025-07-01T16:59:41.460Z</time>
      </trkpt>
      <trkpt lat="42.867120" lon="-0.174129">
        <ele>1997.3</ele>
        <time>2025-07-01T17:00:44.378Z</time>
      </trkpt>
      <trkpt lat="42.866888" lon="-0.174152">
        <ele>1990.9</ele>
        <time>2025-07-01T17:01:44.764Z</time>
      </trkpt>
      <trkpt lat="42.866584" lon="-0.174119">
        <ele>1982.5</ele>
        <time>2025-07-01T17:03:04.460Z</time>
      </trkpt>
      <trkpt lat="42.866351" lon="-0.174118">
        <ele>1977.7</ele>
        <time>2025-07-01T17:03:57.348Z</time>
      </trkpt>
      <trkpt lat="42.866134" lon="-0.173993">
        <ele>1973.1</ele>
        <time>2025-07-01T17:04:49.001Z</time>
      </trkpt>
      <trkpt lat="42.866053" lon="-0.173669">
        <ele>1970.6</ele>
        <time>2025-07-01T17:05:28.760Z</time>
      </trkpt>
      <trkpt lat="42.866006" lon="-0.173327">
        <ele>1968.2</ele>
        <time>2025-07-01T17:06:08.338Z</time>
      </trkpt>
      <trkpt lat="42.865792" lon="-0.173253">
        <ele>1969.7</ele>
        <time>2025-07-01T17:06:47.203Z</time>
      </trkpt>
      <trkpt lat="42.865500" lon="-0.173256">
        <ele>1971.8</ele>
        <time>2025-07-01T17:07:37.756Z</time>
      </trkpt>
      <trkpt lat="42.865397" lon="-0.172963">
        <ele>1973.1</ele>
        <time>2025-07-01T17:08:18.422Z</time>
      </trkpt>
      <trkpt lat="42.865321" lon="-0.172659">
        <ele>1974.1</ele>
        <time>2025-07-01T17:08:51.711Z</time>
      </trkpt>
      <trkpt lat="42.865544" lon="-0.172136">
        <ele>1967.0</ele>
        <time>2025-07-01T17:10:16.908Z</time>
      </trkpt>
      <trkpt lat="42.865711" lon="-0.171669">
        <ele>1960.9</ele>
        <time>2025-07-01T17:11:29.674Z</time>
      </trkpt>
      <trkpt lat="42.865814" lon="-0.171368">
        <ele>1958.8</ele>
        <time>2025-07-01T17:12:05.460Z</time>
      </trkpt>
      <trkpt lat="42.866040" lon="-0.171016">
        <ele>1955.9</ele>
        <time>2025-07-01T17:12:55.656Z</time>
      </trkpt>
      <trkpt lat="42.866297" lon="-0.170566">
        <ele>1952.6</ele>
        <time>2025-07-01T17:13:55.834Z</time>
      </trkpt>
      <trkpt lat="42.866456" lon="-0.170302">
        <ele>1952.1</ele>
        <time>2025-07-01T17:14:23.096Z</time>
      </trkpt>
      <trkpt lat="42.866755" lon="-0.169923">
        <ele>1951.2</ele>
        <time>2025-07-01T17:15:07.195Z</time>
      </trkpt>
      <trkpt lat="42.866989" lon="-0.169745">
        <ele>1940.7</ele>
        <time>2025-07-01T17:16:36.096Z</time>
      </trkpt>
      <trkpt lat="42.867367" lon="-0.169634">
        <ele>1925.4</ele>
        <time>2025-07-01T17:18:44.625Z</time>
      </trkpt>
      <trkpt lat="42.868027" lon="-0.169312">
        <ele>1910.0</ele>
        <time>2025-07-01T17:21:23.730Z</time>
      </trkpt>
      <trkpt lat="42.868371" lon="-0.169093">
        <ele>1903.6</ele>
        <time>2025-07-01T17:22:38.306Z</time>
      </trkpt>
      <trkpt lat="42.868638" lon="-0.168919">
        <ele>1899.4</ele>
        <time>2025-07-01T17:23:31.936Z</time>
      </trkpt>
      <trkpt lat="42.868797" lon="-0.168692">
        <ele>1896.8</ele>
        <time>2025-07-01T17:24:09.343Z</time>
      </trkpt>
      <trkpt lat="42.869033" lon="-0.168894">
        <ele>1893.6</ele>
        <time>2025-07-01T17:24:56.679Z</time>
      </trkpt>
      <trkpt lat="42.869200" lon="-0.168995">
        <ele>1890.5</ele>
        <time>2025-07-01T17:25:40.597Z</time>
      </trkpt>
      <trkpt lat="42.869313" lon="-0.168706">
        <ele>1889.0</ele>
        <time>2025-07-01T17:26:12.698Z</time>
      </trkpt>
      <trkpt lat="42.869498" lon="-0.168377">
        <ele>1888.5</ele>
        <time>2025-07-01T17:26:51.470Z</time>
      </trkpt>
      <trkpt lat="42.869641" lon="-0.168125">
        <ele>1886.4</ele>
        <time>2025-07-01T17:27:26.236Z</time>
      </trkpt>
      <trkpt lat="42.869954" lon="-0.167981">
        <ele>1883.4</ele>
        <time>2025-07-01T17:28:17.322Z</time>
      </trkpt>
      <trkpt lat="42.870193" lon="-0.167906">
        <ele>1879.9</ele>
        <time>2025-07-01T17:29:01.433Z</time>
      </trkpt>
      <trkpt lat="42.870437" lon="-0.167802">
        <ele>1876.3</ele>
        <time>2025-07-01T17:29:48.373Z</time>
      </trkpt>
      <trkpt lat="42.870767" lon="-0.167643">
        <ele>1871.0</ele>
        <time>2025-07-01T17:30:54.131Z</time>
      </trkpt>
      <trkpt lat="42.871005" lon="-0.167535">
        <ele>1863.7</ele>
        <time>2025-07-01T17:32:02.191Z</time>
      </trkpt>
      <trkpt lat="42.871270" lon="-0.167319">
        <ele>1852.2</ele>
        <time>2025-07-01T17:33:41.238Z</time>
      </trkpt>
      <trkpt lat="42.871458" lon="-0.166951">
        <ele>1845.8</ele>
        <time>2025-07-01T17:34:50.734Z</time>
      </trkpt>
      <trkpt lat="42.871569" lon="-0.166629">
        <ele>1840.1</ele>
        <time>2025-07-01T17:35:51.392Z</time>
      </trkpt>
      <trkpt lat="42.871635" lon="-0.166441">
        <ele>1834.5</ele>
        <time>2025-07-01T17:36:46.969Z</time>
      </trkpt>
      <trkpt lat="42.871512" lon="-0.166195">
        <ele>1827.1</ele>
        <time>2025-07-01T17:37:59.434Z</time>
      </trkpt>
      <trkpt lat="42.871309" lon="-0.166033">
        <ele>1820.2</ele>
        <time>2025-07-01T17:39:04.813Z</time>
      </trkpt>
      <trkpt lat="42.871021" lon="-0.165890">
        <ele>1811.8</ele>
        <time>2025-07-01T17:40:24.636Z</time>
      </trkpt>
      <trkpt lat="42.871137" lon="-0.165751">
        <ele>1807.7</ele>
        <time>2025-07-01T17:41:11.121Z</time>
      </trkpt>
      <trkpt lat="42.870872" lon="-0.165673">
        <ele>1802.6</ele>
        <time>2025-07-01T17:42:08.812Z</time>
      </trkpt>
      <trkpt lat="42.870648" lon="-0.165578">
        <ele>1803.1</ele>
        <time>2025-07-01T17:42:38.201Z</time>
      </trkpt>
      <trkpt lat="42.870426" lon="-0.165314">
        <ele>1803.8</ele>
        <time>2025-07-01T17:43:19.805Z</time>
      </trkpt>
      <trkpt lat="42.870458" lon="-0.164988">
        <ele>1791.9</ele>
        <time>2025-07-01T17:44:55.556Z</time>
      </trkpt>
      <trkpt lat="42.870453" lon="-0.164679">
        <ele>1780.7</ele>
        <time>2025-07-01T17:46:25.845Z</time>
      </trkpt>
      <trkpt lat="42.870442" lon="-0.164216">
        <ele>1769.8</ele>
        <time>2025-07-01T17:48:05.729Z</time>
      </trkpt>
      <trkpt lat="42.870401" lon="-0.163885">
        <ele>1762.6</ele>
        <time>2025-07-01T17:49:12.562Z</time>
      </trkpt>
      <trkpt lat="42.870374" lon="-0.163479">
        <ele>1754.7</ele>
        <time>2025-07-01T17:50:28.562Z</time>
      </trkpt>
      <trkpt lat="42.870461" lon="-0.162988">
        <ele>1740.5</ele>
        <time>2025-07-01T17:52:29.865Z</time>
      </trkpt>
      <trkpt lat="42.870400" lon="-0.162508">
        <ele>1730.1</ele>
        <time>2025-07-01T17:54:06.823Z</time>
      </trkpt>
      <trkpt lat="42.870377" lon="-0.162040">
        <ele>1723.9</ele>
        <time>2025-07-01T17:55:16.945Z</time>
      </trkpt>
      <trkpt lat="42.870447" lon="-0.161606">
        <ele>1713.3</ele>
        <time>2025-07-01T17:56:51.106Z</time>
      </trkpt>
      <trkpt lat="42.870457" lon="-0.161094">
        <ele>1705.6</ele>
        <time>2025-07-01T17:58:13.057Z</time>
      </trkpt>
      <trkpt lat="42.870384" lon="-0.160554">
        <ele>1701.1</ele>
        <time>2025-07-01T17:59:18.615Z</time>
      </trkpt>
      <trkpt lat="42.870297" lon="-0.160194">
        <ele>1700.7</ele>
        <time>2025-07-01T17:59:47.927Z</time>
      </trkpt>
      <trkpt lat="42.870148" lon="-0.159933">
        <ele>1700.3</ele>
        <time>2025-07-01T18:00:13.332Z</time>
      </trkpt>
      <trkpt lat="42.869978" lon="-0.159681">
        <ele>1698.3</ele>
        <time>2025-07-01T18:00:49.791Z</time>
      </trkpt>
      <trkpt lat="42.870015" lon="-0.159511">
        <ele>1696.4</ele>
        <time>2025-07-01T18:01:22.656Z</time>
      </trkpt>
      <trkpt lat="42.870074" lon="-0.159322">
        <ele>1687.1</ele>
        <time>2025-07-01T18:02:40.189Z</time>
      </trkpt>
      <trkpt lat="42.870069" lon="-0.159014">
        <ele>1677.0</ele>
        <time>2025-07-01T18:04:04.015Z</time>
      </trkpt>
      <trkpt lat="42.870144" lon="-0.158647">
        <ele>1663.3</ele>
        <time>2025-07-01T18:05:52.882Z</time>
      </trkpt>
      <trkpt lat="42.870176" lon="-0.158055">
        <ele>1642.0</ele>
        <time>2025-07-01T18:08:42.273Z</time>
      </trkpt>
      <trkpt lat="42.870178" lon="-0.157654">
        <ele>1636.1</ele>
        <time>2025-07-01T18:09:45.608Z</time>
      </trkpt>
      <trkpt lat="42.870146" lon="-0.157254">
        <ele>1630.1</ele>
        <time>2025-07-01T18:10:49.316Z</time>
      </trkpt>
      <trkpt lat="42.870103" lon="-0.156912">
        <ele>1629.6</ele>
        <time>2025-07-01T18:11:17.507Z</time>
      </trkpt>
      <trkpt lat="42.870007" lon="-0.156610">
        <ele>1629.1</ele>
        <time>2025-07-01T18:11:43.560Z</time>
      </trkpt>
      <trkpt lat="42.869829" lon="-0.156250">
        <ele>1634.3</ele>
        <time>2025-07-01T18:13:07.006Z</time>
      </trkpt>
      <trkpt lat="42.869759" lon="-0.155915">
        <ele>1635.2</ele>
        <time>2025-07-01T18:13:40.960Z</time>
      </trkpt>
      <trkpt lat="42.869847" lon="-0.155364">
        <ele>1625.7</ele>
        <time>2025-07-01T18:15:17.287Z</time>
      </trkpt>
      <trkpt lat="42.869920" lon="-0.155054">
        <ele>1620.0</ele>
        <time>2025-07-01T18:16:14.655Z</time>
      </trkpt>
      <trkpt lat="42.870084" lon="-0.154684">
        <ele>1612.4</ele>
        <time>2025-07-01T18:17:30.826Z</time>
      </trkpt>
      <trkpt lat="42.870170" lon="-0.154362">
        <ele>1608.5</ele>
        <time>2025-07-01T18:18:18.146Z</time>
      </trkpt>
      <trkpt lat="42.870278" lon="-0.153992">
        <ele>1604.1</ele>
        <time>2025-07-01T18:19:12.616Z</time>
      </trkpt>
      <trkpt lat="42.870404" lon="-0.153723">
        <ele>1597.1</ele>
        <time>2025-07-01T18:20:16.409Z</time>
      </trkpt>
      <trkpt lat="42.870515" lon="-0.153343">
        <ele>1588.3</ele>
        <time>2025-07-01T18:21:38.060Z</time>
      </trkpt>
      <trkpt lat="42.870673" lon="-0.152902">
        <ele>1578.3</ele>
        <time>2025-07-01T18:23:12.731Z</time>
      </trkpt>
      <trkpt lat="42.870759" lon="-0.152404">
        <ele>1567.9</ele>
        <time>2025-07-01T18:24:50.843Z</time>
      </trkpt>
      <trkpt lat="42.870765" lon="-0.152020">
        <ele>1563.7</ele>
        <time>2025-07-01T18:25:42.841Z</time>
      </trkpt>
      <trkpt lat="42.870862" lon="-0.151522">
        <ele>1557.1</ele>
        <time>2025-07-01T18:26:58.795Z</time>
      </trkpt>
      <trkpt lat="42.871002" lon="-0.151182">
        <ele>1551.0</ele>
        <time>2025-07-01T18:28:03.441Z</time>
      </trkpt>
      <trkpt lat="42.871205" lon="-0.150926">
        <ele>1545.7</ele>
        <time>2025-07-01T18:29:01.372Z</time>
      </trkpt>
      <trkpt lat="42.871269" lon="-0.150625">
        <ele>1541.3</ele>
        <time>2025-07-01T18:29:50.092Z</time>
      </trkpt>
      <trkpt lat="42.871440" lon="-0.150320">
        <ele>1538.0</ele>
        <time>2025-07-01T18:30:37.120Z</time>
      </trkpt>
      <trkpt lat="42.871502" lon="-0.149959">
        <ele>1534.7</ele>
        <time>2025-07-01T18:31:23.564Z</time>
      </trkpt>
      <trkpt lat="42.871554" lon="-0.149547">
        <ele>1534.1</ele>
        <time>2025-07-01T18:31:56.006Z</time>
      </trkpt>
      <trkpt lat="42.871722" lon="-0.149244">
        <ele>1533.6</ele>
        <time>2025-07-01T18:32:26.153Z</time>
      </trkpt>
      <trkpt lat="42.871929" lon="-0.149017">
        <ele>1530.7</ele>
        <time>2025-07-01T18:33:08.813Z</time>
      </trkpt>
      <trkpt lat="42.872140" lon="-0.148828">
        <ele>1527.9</ele>
        <time>2025-07-01T18:33:50.189Z</time>
      </trkpt>
      <trkpt lat="42.872439" lon="-0.148489">
        <ele>1524.3</ele>
        <time>2025-07-01T18:34:49.195Z</time>
      </trkpt>
      <trkpt lat="42.872639" lon="-0.148320">
        <ele>1522.1</ele>
        <time>2025-07-01T18:35:24.921Z</time>
      </trkpt>
      <trkpt lat="42.872891" lon="-0.148150">
        <ele>1518.8</ele>
        <time>2025-07-01T18:36:11.205Z</time>
      </trkpt>
      <trkpt lat="42.873225" lon="-0.147741">
        <ele>1508.3</ele>
        <time>2025-07-01T18:37:56.933Z</time>
      </trkpt>
      <trkpt lat="42.873386" lon="-0.147458">
        <ele>1501.9</ele>
        <time>2025-07-01T18:39:00.995Z</time>
      </trkpt>
      <trkpt lat="42.873545" lon="-0.147221">
        <ele>1499.1</ele>
        <time>2025-07-01T18:39:40.083Z</time>
      </trkpt>
      <trkpt lat="42.873754" lon="-0.147008">
        <ele>1496.0</ele>
        <time>2025-07-01T18:40:24.001Z</time>
      </trkpt>
      <trkpt lat="42.873882" lon="-0.146681">
        <ele>1490.6</ele>
        <time>2025-07-01T18:41:22.837Z</time>
      </trkpt>
      <trkpt lat="42.874098" lon="-0.146563">
        <ele>1486.1</ele>
        <time>2025-07-01T18:42:12.530Z</time>
      </trkpt>
      <trkpt lat="42.874345" lon="-0.146358">
        <ele>1477.3</ele>
        <time>2025-07-01T18:43:34.802Z</time>
      </trkpt>
      <trkpt lat="42.874666" lon="-0.146259">
        <ele>1467.7</ele>
        <time>2025-07-01T18:45:03.877Z</time>
      </trkpt>
      <trkpt lat="42.874947" lon="-0.146241">
        <ele>1459.0</ele>
        <time>2025-07-01T18:46:24.240Z</time>
      </trkpt>
      <trkpt lat="42.875243" lon="-0.146131">
        <ele>1449.8</ele>
        <time>2025-07-01T18:47:48.954Z</time>
      </trkpt>
      <trkpt lat="42.875481" lon="-0.146062">
        <ele>1442.4</ele>
        <time>2025-07-01T18:48:58.187Z</time>
      </trkpt>
      <trkpt lat="42.875721" lon="-0.145912">
        <ele>1435.0</ele>
        <time>2025-07-01T18:50:07.845Z</time>
      </trkpt>
      <trkpt lat="42.875955" lon="-0.145847">
        <ele>1430.6</ele>
        <time>2025-07-01T18:50:57.433Z</time>
      </trkpt>
      <trkpt lat="42.876185" lon="-0.145858">
        <ele>1426.1</ele>
        <time>2025-07-01T18:51:46.573Z</time>
      </trkpt>
      <trkpt lat="42.876594" lon="-0.145607">
        <ele>1421.2</ele>
        <time>2025-07-01T18:53:03.092Z</time>
      </trkpt>
      <trkpt lat="42.876857" lon="-0.145392">
        <ele>1420.2</ele>
        <time>2025-07-01T18:53:39.344Z</time>
      </trkpt>
      <trkpt lat="42.877038" lon="-0.145183">
        <ele>1419.6</ele>
        <time>2025-07-01T18:54:05.693Z</time>
      </trkpt>
      <trkpt lat="42.877403" lon="-0.144916">
        <ele>1418.9</ele>
        <time>2025-07-01T18:54:49.296Z</time>
      </trkpt>
      <trkpt lat="42.877601" lon="-0.144685">
        <ele>1418.5</ele>
        <time>2025-07-01T18:55:22.387Z</time>
      </trkpt>
      <trkpt lat="42.877781" lon="-0.144362">
        <ele>1418.1</ele>
        <time>2025-07-01T18:55:53.732Z</time>
      </trkpt>
      <trkpt lat="42.878092" lon="-0.144141">
        <ele>1418.3</ele>
        <time>2025-07-01T18:56:29.358Z</time>
      </trkpt>
      <trkpt lat="42.878713" lon="-0.143672">
        <ele>1418.3</ele>
        <time>2025-07-01T18:57:39.174Z</time>
      </trkpt>
      <trkpt lat="42.878935" lon="-0.143623">
        <ele>1415.9</ele>
        <time>2025-07-01T18:58:15.418Z</time>
      </trkpt>
      <trkpt lat="42.879365" lon="-0.143156">
        <ele>1409.8</ele>
        <time>2025-07-01T18:59:44.494Z</time>
      </trkpt>
      <trkpt lat="42.879693" lon="-0.142865">
        <ele>1407.0</ele>
        <time>2025-07-01T19:00:38.959Z</time>
      </trkpt>
      <trkpt lat="42.879891" lon="-0.142641">
        <ele>1405.0</ele>
        <time>2025-07-01T19:01:16.010Z</time>
      </trkpt>
      <trkpt lat="42.880168" lon="-0.142542">
        <ele>1402.3</ele>
        <time>2025-07-01T19:02:00.806Z</time>
      </trkpt>
      <trkpt lat="42.880439" lon="-0.142286">
        <ele>1399.2</ele>
        <time>2025-07-01T19:02:51.119Z</time>
      </trkpt>
      <trkpt lat="42.880654" lon="-0.142063">
        <ele>1396.4</ele>
        <time>2025-07-01T19:03:34.200Z</time>
      </trkpt>
      <trkpt lat="42.880814" lon="-0.141660">
        <ele>1393.0</ele>
        <time>2025-07-01T19:04:26.853Z</time>
      </trkpt>
      <trkpt lat="42.880981" lon="-0.141283">
        <ele>1389.4</ele>
        <time>2025-07-01T19:05:19.514Z</time>
      </trkpt>
      <trkpt lat="42.881130" lon="-0.140958">
        <ele>1387.0</ele>
        <time>2025-07-01T19:06:01.100Z</time>
      </trkpt>
      <trkpt lat="42.881218" lon="-0.140575">
        <ele>1385.6</ele>
        <time>2025-07-01T19:06:38.221Z</time>
      </trkpt>
      <trkpt lat="42.881453" lon="-0.139939">
        <ele>1380.5</ele>
        <time>2025-07-01T19:07:58.680Z</time>
      </trkpt>
      <trkpt lat="42.881615" lon="-0.139349">
        <ele>1378.5</ele>
        <time>2025-07-01T19:08:54.852Z</time>
      </trkpt>
      <trkpt lat="42.881767" lon="-0.138817">
        <ele>1378.0</ele>
        <time>2025-07-01T19:09:37.705Z</time>
      </trkpt>
      <trkpt lat="42.881836" lon="-0.138404">
        <ele>1377.1</ele>
        <time>2025-07-01T19:10:12.933Z</time>
      </trkpt>
      <trkpt lat="42.881955" lon="-0.138016">
        <ele>1373.4</ele>
        <time>2025-07-01T19:11:05.469Z</time>
      </trkpt>
      <trkpt lat="42.882250" lon="-0.137491">
        <ele>1367.1</ele>
        <time>2025-07-01T19:12:29.358Z</time>
      </trkpt>
      <trkpt lat="42.882353" lon="-0.137225">
        <ele>1364.0</ele>
        <time>2025-07-01T19:13:10.589Z</time>
      </trkpt>
      <trkpt lat="42.882548" lon="-0.136986">
        <ele>1362.7</ele>
        <time>2025-07-01T19:13:44.706Z</time>
      </trkpt>
      <trkpt lat="42.882623" lon="-0.136696">
        <ele>1361.7</ele>
        <time>2025-07-01T19:14:12.132Z</time>
      </trkpt>
      <trkpt lat="42.882784" lon="-0.136324">
        <ele>1359.4</ele>
        <time>2025-07-01T19:14:56.158Z</time>
      </trkpt>
      <trkpt lat="42.883068" lon="-0.136161">
        <ele>1357.2</ele>
        <time>2025-07-01T19:15:38.871Z</time>
      </trkpt>
      <trkpt lat="42.883342" lon="-0.135935">
        <ele>1355.0</ele>
        <time>2025-07-01T19:16:22.544Z</time>
      </trkpt>
      <trkpt lat="42.883555" lon="-0.135244">
        <ele>1351.3</ele>
        <time>2025-07-01T19:17:37.282Z</time>
      </trkpt>
      <trkpt lat="42.883582" lon="-0.134884">
        <ele>1350.4</ele>
        <time>2025-07-01T19:18:07.930Z</time>
      </trkpt>
      <trkpt lat="42.883709" lon="-0.134494">
        <ele>1349.3</ele>
        <time>2025-07-01T19:18:44.168Z</time>
      </trkpt>
      <trkpt lat="42.883811" lon="-0.132945">
        <ele>1353.3</ele>
        <time>2025-07-01T19:21:13.326Z</time>
      </trkpt>
      <trkpt lat="42.884112" lon="-0.132678">
        <ele>1343.9</ele>
        <time>2025-07-01T19:22:43.933Z</time>
      </trkpt>
      <trkpt lat="42.884570" lon="-0.132455">
        <ele>1331.9</ele>
        <time>2025-07-01T19:24:42.381Z</time>
      </trkpt>
      <trkpt lat="42.884916" lon="-0.132327">
        <ele>1323.2</ele>
        <time>2025-07-01T19:26:08.739Z</time>
      </trkpt>
      <trkpt lat="42.885132" lon="-0.132218">
        <ele>1319.3</ele>
        <time>2025-07-01T19:26:54.552Z</time>
      </trkpt>
      <trkpt lat="42.885351" lon="-0.132028">
        <ele>1314.8</ele>
        <time>2025-07-01T19:27:46.297Z</time>
      </trkpt>
      <trkpt lat="42.885607" lon="-0.131265">
        <ele>1314.5</ele>
        <time>2025-07-01T19:28:46.716Z</time>
      </trkpt>
      <trkpt lat="42.885671" lon="-0.130895">
        <ele>1313.9</ele>
        <time>2025-07-01T19:29:16.791Z</time>
      </trkpt>
      <trkpt lat="42.885752" lon="-0.130132">
        <ele>1312.7</ele>
        <time>2025-07-01T19:30:17.708Z</time>
      </trkpt>
      <trkpt lat="42.885817" lon="-0.129396">
        <ele>1311.6</ele>
        <time>2025-07-01T19:31:16.001Z</time>
      </trkpt>
      <trkpt lat="42.885856" lon="-0.129042">
        <ele>1312.4</ele>
        <time>2025-07-01T19:31:48.866Z</time>
      </trkpt>
      <trkpt lat="42.885907" lon="-0.128636">
        <ele>1313.2</ele>
        <time>2025-07-01T19:32:26.562Z</time>
      </trkpt>
      <trkpt lat="42.886158" lon="-0.128110">
        <ele>1309.1</ele>
        <time>2025-07-01T19:33:35.756Z</time>
      </trkpt>
      <trkpt lat="42.886582" lon="-0.127632">
        <ele>1299.1</ele>
        <time>2025-07-01T19:35:30.354Z</time>
      </trkpt>
      <trkpt lat="42.886743" lon="-0.127302">
        <ele>1297.5</ele>
        <time>2025-07-01T19:36:07.526Z</time>
      </trkpt>
      <trkpt lat="42.887008" lon="-0.126665">
        <ele>1294.6</ele>
        <time>2025-07-01T19:37:16.368Z</time>
      </trkpt>
      <trkpt lat="42.887573" lon="-0.126140">
        <ele>1282.9</ele>
        <time>2025-07-01T19:39:32.132Z</time>
      </trkpt>
      <trkpt lat="42.887707" lon="-0.125965">
        <ele>1280.2</ele>
        <time>2025-07-01T19:40:12.549Z</time>
      </trkpt>
      <trkpt lat="42.887676" lon="-0.126423">
        <ele>1277.6</ele>
        <time>2025-07-01T19:41:03.663Z</time>
      </trkpt>
      <trkpt lat="42.887567" lon="-0.126935">
        <ele>1276.8</ele>
        <time>2025-07-01T19:41:45.831Z</time>
      </trkpt>
      <trkpt lat="42.887523" lon="-0.127347">
        <ele>1273.1</ele>
        <time>2025-07-01T19:42:37.318Z</time>
      </trkpt>
      <trkpt lat="42.887766" lon="-0.128120">
        <ele>1265.5</ele>
        <time>2025-07-01T19:44:21.543Z</time>
      </trkpt>
      <trkpt lat="42.887745" lon="-0.128567">
        <ele>1268.3</ele>
        <time>2025-07-01T19:45:21.442Z</time>
      </trkpt>
      <trkpt lat="42.887651" lon="-0.129058">
        <ele>1272.2</ele>
        <time>2025-07-01T19:46:36.701Z</time>
      </trkpt>
      <trkpt lat="42.887537" lon="-0.129402">
        <ele>1275.9</ele>
        <time>2025-07-01T19:47:41.947Z</time>
      </trkpt>
      <trkpt lat="42.887728" lon="-0.129235">
        <ele>1271.9</ele>
        <time>2025-07-01T19:48:38.995Z</time>
      </trkpt>
      <trkpt lat="42.887888" lon="-0.128955">
        <ele>1267.7</ele>
        <time>2025-07-01T19:49:28.936Z</time>
      </trkpt>
      <trkpt lat="42.888110" lon="-0.128640">
        <ele>1262.2</ele>
        <time>2025-07-01T19:50:32.736Z</time>
      </trkpt>
      <trkpt lat="42.888251" lon="-0.128321">
        <ele>1257.5</ele>
        <time>2025-07-01T19:51:27.331Z</time>
      </trkpt>
      <trkpt lat="42.888188" lon="-0.127788">
        <ele>1255.9</ele>
        <time>2025-07-01T19:52:14.517Z</time>
      </trkpt>
      <trkpt lat="42.888252" lon="-0.127306">
        <ele>1253.9</ele>
        <time>2025-07-01T19:53:00.717Z</time>
      </trkpt>
      <trkpt lat="42.888337" lon="-0.127555">
        <ele>1251.5</ele>
        <time>2025-07-01T19:53:40.018Z</time>
      </trkpt>
      <trkpt lat="42.888490" lon="-0.127214">
        <ele>1244.9</ele>
        <time>2025-07-01T19:54:47.836Z</time>
      </trkpt>
      <trkpt lat="42.888644" lon="-0.126900">
        <ele>1236.4</ele>
        <time>2025-07-01T19:56:08.205Z</time>
      </trkpt>
      <trkpt lat="42.888887" lon="-0.126672">
        <ele>1225.9</ele>
        <time>2025-07-01T19:57:43.152Z</time>
      </trkpt>
      <trkpt lat="42.889002" lon="-0.126327">
        <ele>1215.8</ele>
        <time>2025-07-01T19:59:10.754Z</time>
      </trkpt>
      <trkpt lat="42.889176" lon="-0.126510">
        <ele>1207.5</ele>
        <time>2025-07-01T20:00:22.899Z</time>
      </trkpt>
      <trkpt lat="42.889336" lon="-0.126335">
        <ele>1201.2</ele>
        <time>2025-07-01T20:01:22.462Z</time>
      </trkpt>
      <trkpt lat="42.889503" lon="-0.125904">
        <ele>1189.0</ele>
        <time>2025-07-01T20:03:12.129Z</time>
      </trkpt>
      <trkpt lat="42.889593" lon="-0.125574">
        <ele>1179.0</ele>
        <time>2025-07-01T20:04:38.027Z</time>
      </trkpt>
      <trkpt lat="42.889569" lon="-0.125203">
        <ele>1172.7</ele>
        <time>2025-07-01T20:05:42.045Z</time>
      </trkpt>
      <trkpt lat="42.889635" lon="-0.125505">
        <ele>1169.8</ele>
        <time>2025-07-01T20:06:21.903Z</time>
      </trkpt>
      <trkpt lat="42.889876" lon="-0.125413">
        <ele>1165.3</ele>
        <time>2025-07-01T20:07:14.619Z</time>
      </trkpt>
      <trkpt lat="42.889830" lon="-0.125038">
        <ele>1159.6</ele>
        <time>2025-07-01T20:08:16.061Z</time>
      </trkpt>
      <trkpt lat="42.889917" lon="-0.124794">
        <ele>1151.6</ele>
        <time>2025-07-01T20:09:30.688Z</time>
      </trkpt>
      <trkpt lat="42.890076" lon="-0.124610">
        <ele>1143.1</ele>
        <time>2025-07-01T20:10:44.799Z</time>
      </trkpt>
      <trkpt lat="42.889915" lon="-0.124210">
        <ele>1141.0</ele>
        <time>2025-07-01T20:11:29.963Z</time>
      </trkpt>
      <trkpt lat="42.889869" lon="-0.123864">
        <ele>1140.2</ele>
        <time>2025-07-01T20:11:59.305Z</time>
      </trkpt>
      <trkpt lat="42.889915" lon="-0.123438">
        <ele>1132.0</ele>
        <time>2025-07-01T20:13:18.499Z</time>
      </trkpt>
      <trkpt lat="42.889916" lon="-0.123108">
        <ele>1125.7</ele>
        <time>2025-07-01T20:14:19.163Z</time>
      </trkpt>
      <trkpt lat="42.889975" lon="-0.122696">
        <ele>1115.9</ele>
        <time>2025-07-01T20:15:47.591Z</time>
      </trkpt>
      <trkpt lat="42.889961" lon="-0.122370">
        <ele>1108.2</ele>
        <time>2025-07-01T20:16:56.323Z</time>
      </trkpt>
      <trkpt lat="42.889996" lon="-0.121827">
        <ele>1093.7</ele>
        <time>2025-07-01T20:19:01.581Z</time>
      </trkpt>
      <trkpt lat="42.889983" lon="-0.121364">
        <ele>1083.4</ele>
        <time>2025-07-01T20:20:35.744Z</time>
      </trkpt>
      <trkpt lat="42.889828" lon="-0.121000">
        <ele>1074.5</ele>
        <time>2025-07-01T20:21:58.986Z</time>
      </trkpt>
      <trkpt lat="42.889885" lon="-0.120724">
        <ele>1063.9</ele>
        <time>2025-07-01T20:23:24.851Z</time>
      </trkpt>
      <trkpt lat="42.890101" lon="-0.120636">
        <ele>1053.6</ele>
        <time>2025-07-01T20:24:48.092Z</time>
      </trkpt>
      <trkpt lat="42.890399" lon="-0.120589">
        <ele>1042.7</ele>
        <time>2025-07-01T20:26:22.662Z</time>
      </trkpt>
      <trkpt lat="42.890443" lon="-0.120362">
        <ele>1034.2</ele>
        <time>2025-07-01T20:27:35.876Z</time>
      </trkpt>
      <trkpt lat="42.890383" lon="-0.119947">
        <ele>1022.7</ele>
        <time>2025-07-01T20:29:15.225Z</time>
      </trkpt>
      <trkpt lat="42.890349" lon="-0.119720">
        <ele>1017.1</ele>
        <time>2025-07-01T20:30:14.749Z</time>
      </trkpt>
      <trkpt lat="42.890684" lon="-0.119821">
        <ele>1012.0</ele>
        <time>2025-07-01T20:31:19.871Z</time>
      </trkpt>
      <trkpt lat="42.890938" lon="-0.119780">
        <ele>1001.4</ele>
        <time>2025-07-01T20:32:49.182Z</time>
      </trkpt>
      <trkpt lat="42.890913" lon="-0.119452">
        <ele>992.1</ele>
        <time>2025-07-01T20:34:08.420Z</time>
      </trkpt>
      <trkpt lat="42.890827" lon="-0.119095">
        <ele>982.1</ele>
        <time>2025-07-01T20:35:34.622Z</time>
      </trkpt>
      <trkpt lat="42.890684" lon="-0.118842">
        <ele>973.7</ele>
        <time>2025-07-01T20:36:47.840Z</time>
      </trkpt>
      <trkpt lat="42.890533" lon="-0.118486">
        <ele>967.2</ele>
        <time>2025-07-01T20:37:55.021Z</time>
      </trkpt>
      <trkpt lat="42.890442" lon="-0.117914">
        <ele>956.6</ele>
        <time>2025-07-01T20:39:39.676Z</time>
      </trkpt>
      <trkpt lat="42.890395" lon="-0.117322">
        <ele>944.3</ele>
        <time>2025-07-01T20:41:35.780Z</time>
      </trkpt>
      <trkpt lat="42.889944" lon="-0.116905">
        <ele>950.2</ele>
        <time>2025-07-01T20:43:43.037Z</time>
      </trkpt>
      <trkpt lat="42.889492" lon="-0.116780">
        <ele>949.1</ele>
        <time>2025-07-01T20:44:33.274Z</time>
      </trkpt>
      <trkpt lat="42.889083" lon="-0.116750">
        <ele>948.1</ele>
        <time>2025-07-01T20:45:18.923Z</time>
      </trkpt>
      <trkpt lat="42.888823" lon="-0.116638">
        <ele>945.5</ele>
        <time>2025-07-01T20:46:00.335Z</time>
      </trkpt>
      <trkpt lat="42.888613" lon="-0.116435">
        <ele>942.7</ele>
        <time>2025-07-01T20:46:41.731Z</time>
      </trkpt>
      <trkpt lat="42.888320" lon="-0.116088">
        <ele>940.3</ele>
        <time>2025-07-01T20:47:33.389Z</time>
      </trkpt>
      <trkpt lat="42.888342" lon="-0.115715">
        <ele>936.2</ele>
        <time>2025-07-01T20:48:26.975Z</time>
      </trkpt>
      <trkpt lat="42.888412" lon="-0.115265">
        <ele>930.9</ele>
        <time>2025-07-01T20:49:30.968Z</time>
      </trkpt>
      <trkpt lat="42.888508" lon="-0.114906">
        <ele>929.6</ele>
        <time>2025-07-01T20:50:05.161Z</time>
      </trkpt>
      <trkpt lat="42.888527" lon="-0.114639">
        <ele>928.7</ele>
        <time>2025-07-01T20:50:29.398Z</time>
      </trkpt>
    </trkseg>
  </trk>
</gpx>
