<?xml version="1.0" encoding="UTF-8"?>
<gpx version="1.1" creator="carnet-trek seed (OpenStreetMap, EU-DEM)" xmlns="http://www.topografix.com/GPX/1/1">
  <metadata>
    <name>GR10 – Siguer → Cabane des Ludines</name>
    <copyright author="OpenStreetMap contributors"><license>https://opendatacommons.org/licenses/odbl/</license></copyright>
  </metadata>
  <wpt lat="42.764082" lon="1.565852">
    <name>Siguer</name>
    <sym>Convenience Store</sym>
  </wpt>
  <wpt lat="42.749769" lon="1.612648">
    <name>Point culminant (1891 m)</name>
    <sym>Summit</sym>
  </wpt>
  <wpt lat="42.713205" lon="1.645770">
    <name>Cabane des Ludines</name>
    <sym>Lodging</sym>
  </wpt>
  <trk>
    <name>GR10 – Siguer → Cabane des Ludines</name>
    <type>hike</type>
    <trkseg>
      <trkpt lat="42.764082" lon="1.565852">
        <ele>751.4</ele>
        <time>2025-07-21T07:30:00.000Z</time>
      </trkpt>
      <trkpt lat="42.764074" lon="1.566345">
        <ele>755.1</ele>
        <time>2025-07-21T07:31:12.627Z</time>
      </trkpt>
      <trkpt lat="42.763949" lon="1.566592">
        <ele>758.3</ele>
        <time>2025-07-21T07:32:07.592Z</time>
      </trkpt>
      <trkpt lat="42.763775" lon="1.566812">
        <ele>762.8</ele>
        <time>2025-07-21T07:33:17.144Z</time>
      </trkpt>
      <trkpt lat="42.763714" lon="1.567522">
        <ele>772.5</ele>
        <time>2025-07-21T07:35:47.291Z</time>
      </trkpt>
      <trkpt lat="42.763649" lon="1.568083">
        <ele>781.8</ele>
        <time>2025-07-21T07:38:03.017Z</time>
      </trkpt>
      <trkpt lat="42.762971" lon="1.569165">
        <ele>804.5</ele>
        <time>2025-07-21T07:43:36.277Z</time>
      </trkpt>
      <trkpt lat="42.762742" lon="1.569554">
        <ele>809.7</ele>
        <time>2025-07-21T07:45:04.891Z</time>
      </trkpt>
      <trkpt lat="42.762281" lon="1.569838">
        <ele>819.2</ele>
        <time>2025-07-21T07:47:32.764Z</time>
      </trkpt>
      <trkpt lat="42.762490" lon="1.570323">
        <ele>830.8</ele>
        <time>2025-07-21T07:50:13.916Z</time>
      </trkpt>
      <trkpt lat="42.762717" lon="1.570533">
        <ele>839.4</ele>
        <time>2025-07-21T07:52:07.881Z</time>
      </trkpt>
      <trkpt lat="42.762947" lon="1.570685">
        <ele>843.3</ele>
        <time>2025-07-21T07:53:12.981Z</time>
      </trkpt>
      <trkpt lat="42.763451" lon="1.570597">
        <ele>851.1</ele>
        <time>2025-07-21T07:55:22.109Z</time>
      </trkpt>
      <trkpt lat="42.763668" lon="1.570509">
        <ele>852.6</ele>
        <time>2025-07-21T07:55:59.015Z</time>
      </trkpt>
      <trkpt lat="42.763880" lon="1.570404">
        <ele>855.2</ele>
        <time>2025-07-21T07:56:50.809Z</time>
      </trkpt>
      <trkpt lat="42.763802" lon="1.570935">
        <ele>866.5</ele>
        <time>2025-07-21T07:59:24.889Z</time>
      </trkpt>
      <trkpt lat="42.764150" lon="1.571166">
        <ele>883.2</ele>
        <time>2025-07-21T08:02:59.402Z</time>
      </trkpt>
      <trkpt lat="42.764550" lon="1.571316">
        <ele>896.9</ele>
        <time>2025-07-21T08:06:00.650Z</time>
      </trkpt>
      <trkpt lat="42.765027" lon="1.571367">
        <ele>909.9</ele>
        <time>2025-07-21T08:08:59.970Z</time>
      </trkpt>
      <trkpt lat="42.765331" lon="1.571481">
        <ele>918.1</ele>
        <time>2025-07-21T08:10:56.113Z</time>
      </trkpt>
      <trkpt lat="42.765520" lon="1.571683">
        <ele>924.9</ele>
        <time>2025-07-21T08:12:31.210Z</time>
      </trkpt>
      <trkpt lat="42.765736" lon="1.572013">
        <ele>931.7</ele>
        <time>2025-07-21T08:14:12.538Z</time>
      </trkpt>
      <trkpt lat="42.766489" lon="1.572390">
        <ele>948.6</ele>
        <time>2025-07-21T08:18:23.134Z</time>
      </trkpt>
      <trkpt lat="42.766661" lon="1.572725">
        <ele>956.3</ele>
        <time>2025-07-21T08:20:10.971Z</time>
      </trkpt>
      <trkpt lat="42.766618" lon="1.573025">
        <ele>963.0</ele>
        <time>2025-07-21T08:21:49.061Z</time>
      </trkpt>
      <trkpt lat="42.766454" lon="1.573315">
        <ele>967.8</ele>
        <time>2025-07-21T08:23:05.099Z</time>
      </trkpt>
      <trkpt lat="42.766551" lon="1.573680">
        <ele>974.9</ele>
        <time>2025-07-21T08:24:46.936Z</time>
      </trkpt>
      <trkpt lat="42.766757" lon="1.574043">
        <ele>985.7</ele>
        <time>2025-07-21T08:27:11.917Z</time>
      </trkpt>
      <trkpt lat="42.766857" lon="1.574376">
        <ele>996.3</ele>
        <time>2025-07-21T08:29:26.225Z</time>
      </trkpt>
      <trkpt lat="42.766978" lon="1.574749">
        <ele>1008.0</ele>
        <time>2025-07-21T08:31:59.182Z</time>
      </trkpt>
      <trkpt lat="42.767121" lon="1.574906">
        <ele>1015.4</ele>
        <time>2025-07-21T08:33:37.965Z</time>
      </trkpt>
      <trkpt lat="42.767011" lon="1.575252">
        <ele>1021.5</ele>
        <time>2025-07-21T08:35:08.221Z</time>
      </trkpt>
      <trkpt lat="42.766645" lon="1.575421">
        <ele>1031.3</ele>
        <time>2025-07-21T08:37:26.592Z</time>
      </trkpt>
      <trkpt lat="42.766455" lon="1.575763">
        <ele>1040.5</ele>
        <time>2025-07-21T08:39:31.003Z</time>
      </trkpt>
      <trkpt lat="42.766302" lon="1.575953">
        <ele>1049.1</ele>
        <time>2025-07-21T08:41:22.175Z</time>
      </trkpt>
      <trkpt lat="42.766310" lon="1.576340">
        <ele>1060.8</ele>
        <time>2025-07-21T08:43:51.455Z</time>
      </trkpt>
      <trkpt lat="42.766227" lon="1.576800">
        <ele>1077.4</ele>
        <time>2025-07-21T08:47:16.406Z</time>
      </trkpt>
      <trkpt lat="42.766042" lon="1.577104">
        <ele>1084.6</ele>
        <time>2025-07-21T08:49:02.402Z</time>
      </trkpt>
      <trkpt lat="42.765746" lon="1.577227">
        <ele>1085.7</ele>
        <time>2025-07-21T08:49:44.777Z</time>
      </trkpt>
      <trkpt lat="42.765474" lon="1.577357">
        <ele>1088.6</ele>
        <time>2025-07-21T08:50:41.911Z</time>
      </trkpt>
      <trkpt lat="42.765335" lon="1.577639">
        <ele>1094.3</ele>
        <time>2025-07-21T08:52:05.890Z</time>
      </trkpt>
      <trkpt lat="42.765352" lon="1.578010">
        <ele>1108.3</ele>
        <time>2025-07-21T08:54:57.109Z</time>
      </trkpt>
      <trkpt lat="42.765408" lon="1.578253">
        <ele>1119.4</ele>
        <time>2025-07-21T08:57:13.831Z</time>
      </trkpt>
      <trkpt lat="42.765509" lon="1.578758">
        <ele>1137.2</ele>
        <time>2025-07-21T09:00:54.077Z</time>
      </trkpt>
      <trkpt lat="42.765459" lon="1.579106">
        <ele>1147.1</ele>
        <time>2025-07-21T09:03:03.477Z</time>
      </trkpt>
      <trkpt lat="42.765520" lon="1.579389">
        <ele>1155.3</ele>
        <time>2025-07-21T09:04:50.250Z</time>
      </trkpt>
      <trkpt lat="42.765474" lon="1.579727">
        <ele>1161.7</ele>
        <time>2025-07-21T09:06:19.393Z</time>
      </trkpt>
      <trkpt lat="42.765312" lon="1.579996">
        <ele>1168.2</ele>
        <time>2025-07-21T09:07:51.978Z</time>
      </trkpt>
      <trkpt lat="42.765238" lon="1.580347">
        <ele>1176.7</ele>
        <time>2025-07-21T09:09:44.681Z</time>
      </trkpt>
      <trkpt lat="42.765279" lon="1.580675">
        <ele>1184.7</ele>
        <time>2025-07-21T09:11:31.615Z</time>
      </trkpt>
      <trkpt lat="42.765326" lon="1.580942">
        <ele>1193.0</ele>
        <time>2025-07-21T09:13:19.537Z</time>
      </trkpt>
      <trkpt lat="42.765352" lon="1.581417">
        <ele>1205.3</ele>
        <time>2025-07-21T09:15:59.854Z</time>
      </trkpt>
      <trkpt lat="42.765192" lon="1.581696">
        <ele>1209.7</ele>
        <time>2025-07-21T09:17:10.137Z</time>
      </trkpt>
      <trkpt lat="42.765093" lon="1.581857">
        <ele>1213.4</ele>
        <time>2025-07-21T09:18:10.023Z</time>
      </trkpt>
      <trkpt lat="42.765145" lon="1.582266">
        <ele>1223.2</ele>
        <time>2025-07-21T09:20:20.816Z</time>
      </trkpt>
      <trkpt lat="42.765128" lon="1.582652">
        <ele>1231.8</ele>
        <time>2025-07-21T09:22:18.065Z</time>
      </trkpt>
      <trkpt lat="42.765025" lon="1.583210">
        <ele>1242.9</ele>
        <time>2025-07-21T09:24:52.822Z</time>
      </trkpt>
      <trkpt lat="42.764949" lon="1.583673">
        <ele>1250.8</ele>
        <time>2025-07-21T09:26:47.904Z</time>
      </trkpt>
      <trkpt lat="42.764777" lon="1.584265">
        <ele>1261.5</ele>
        <time>2025-07-21T09:29:22.436Z</time>
      </trkpt>
      <trkpt lat="42.764525" lon="1.584806">
        <ele>1269.1</ele>
        <time>2025-07-21T09:31:24.894Z</time>
      </trkpt>
      <trkpt lat="42.764333" lon="1.585086">
        <ele>1271.1</ele>
        <time>2025-07-21T09:32:14.628Z</time>
      </trkpt>
      <trkpt lat="42.764115" lon="1.585287">
        <ele>1273.0</ele>
        <time>2025-07-21T09:32:59.112Z</time>
      </trkpt>
      <trkpt lat="42.763887" lon="1.585533">
        <ele>1277.2</ele>
        <time>2025-07-21T09:34:10.352Z</time>
      </trkpt>
      <trkpt lat="42.763581" lon="1.585734">
        <ele>1283.1</ele>
        <time>2025-07-21T09:35:43.878Z</time>
      </trkpt>
      <trkpt lat="42.763346" lon="1.585753">
        <ele>1288.1</ele>
        <time>2025-07-21T09:36:57.569Z</time>
      </trkpt>
      <trkpt lat="42.763124" lon="1.585776">
        <ele>1294.7</ele>
        <time>2025-07-21T09:38:27.614Z</time>
      </trkpt>
      <trkpt lat="42.763136" lon="1.586107">
        <ele>1304.5</ele>
        <time>2025-07-21T09:40:38.543Z</time>
      </trkpt>
      <trkpt lat="42.763332" lon="1.586371">
        <ele>1312.9</ele>
        <time>2025-07-21T09:42:31.159Z</time>
      </trkpt>
      <trkpt lat="42.763596" lon="1.586673">
        <ele>1322.0</ele>
        <time>2025-07-21T09:44:37.395Z</time>
      </trkpt>
      <trkpt lat="42.763817" lon="1.586846">
        <ele>1327.5</ele>
        <time>2025-07-21T09:45:58.605Z</time>
      </trkpt>
      <trkpt lat="42.764122" lon="1.587201">
        <ele>1337.8</ele>
        <time>2025-07-21T09:48:22.628Z</time>
      </trkpt>
      <trkpt lat="42.764579" lon="1.587773">
        <ele>1353.9</ele>
        <time>2025-07-21T09:52:07.678Z</time>
      </trkpt>
      <trkpt lat="42.764737" lon="1.588131">
        <ele>1363.1</ele>
        <time>2025-07-21T09:54:11.871Z</time>
      </trkpt>
      <trkpt lat="42.764861" lon="1.588475">
        <ele>1371.8</ele>
        <time>2025-07-21T09:56:08.770Z</time>
      </trkpt>
      <trkpt lat="42.764833" lon="1.588895">
        <ele>1381.1</ele>
        <time>2025-07-21T09:58:14.321Z</time>
      </trkpt>
      <trkpt lat="42.764767" lon="1.589279">
        <ele>1386.6</ele>
        <time>2025-07-21T09:59:38.549Z</time>
      </trkpt>
      <trkpt lat="42.764681" lon="1.589503">
        <ele>1391.2</ele>
        <time>2025-07-21T10:00:57.308Z</time>
      </trkpt>
      <trkpt lat="42.764322" lon="1.589046">
        <ele>1393.3</ele>
        <time>2025-07-21T10:02:07.176Z</time>
      </trkpt>
      <trkpt lat="42.763939" lon="1.589170">
        <ele>1403.5</ele>
        <time>2025-07-21T10:04:29.297Z</time>
      </trkpt>
      <trkpt lat="42.764006" lon="1.589549">
        <ele>1411.8</ele>
        <time>2025-07-21T10:06:22.916Z</time>
      </trkpt>
      <trkpt lat="42.763654" lon="1.589608">
        <ele>1422.5</ele>
        <time>2025-07-21T10:08:47.160Z</time>
      </trkpt>
      <trkpt lat="42.763165" lon="1.589866">
        <ele>1442.7</ele>
        <time>2025-07-21T10:13:05.265Z</time>
      </trkpt>
      <trkpt lat="42.762574" lon="1.590133">
        <ele>1463.2</ele>
        <time>2025-07-21T10:17:35.126Z</time>
      </trkpt>
      <trkpt lat="42.762031" lon="1.590490">
        <ele>1481.5</ele>
        <time>2025-07-21T10:21:42.506Z</time>
      </trkpt>
      <trkpt lat="42.761804" lon="1.590431">
        <ele>1485.1</ele>
        <time>2025-07-21T10:22:41.202Z</time>
      </trkpt>
      <trkpt lat="42.761541" lon="1.590375">
        <ele>1489.6</ele>
        <time>2025-07-21T10:23:55.946Z</time>
      </trkpt>
      <trkpt lat="42.761420" lon="1.590945">
        <ele>1499.7</ele>
        <time>2025-07-21T10:26:20.801Z</time>
      </trkpt>
      <trkpt lat="42.761156" lon="1.590984">
        <ele>1506.8</ele>
        <time>2025-07-21T10:28:00.300Z</time>
      </trkpt>
      <trkpt lat="42.760593" lon="1.591096">
        <ele>1523.2</ele>
        <time>2025-07-21T10:31:43.590Z</time>
      </trkpt>
      <trkpt lat="42.760309" lon="1.591155">
        <ele>1534.8</ele>
        <time>2025-07-21T10:34:11.993Z</time>
      </trkpt>
      <trkpt lat="42.760024" lon="1.591293">
        <ele>1546.5</ele>
        <time>2025-07-21T10:36:40.487Z</time>
      </trkpt>
      <trkpt lat="42.759746" lon="1.591473">
        <ele>1558.2</ele>
        <time>2025-07-21T10:39:12.593Z</time>
      </trkpt>
      <trkpt lat="42.759459" lon="1.591554">
        <ele>1568.2</ele>
        <time>2025-07-21T10:41:25.213Z</time>
      </trkpt>
      <trkpt lat="42.759192" lon="1.591760">
        <ele>1576.9</ele>
        <time>2025-07-21T10:43:25.399Z</time>
      </trkpt>
      <trkpt lat="42.758990" lon="1.591932">
        <ele>1584.4</ele>
        <time>2025-07-21T10:45:05.619Z</time>
      </trkpt>
      <trkpt lat="42.758269" lon="1.592602">
        <ele>1611.2</ele>
        <time>2025-07-21T10:51:04.122Z</time>
      </trkpt>
      <trkpt lat="42.758029" lon="1.592875">
        <ele>1617.8</ele>
        <time>2025-07-21T10:52:42.564Z</time>
      </trkpt>
      <trkpt lat="42.757796" lon="1.593249">
        <ele>1625.5</ele>
        <time>2025-07-21T10:54:35.775Z</time>
      </trkpt>
      <trkpt lat="42.757645" lon="1.593503">
        <ele>1627.7</ele>
        <time>2025-07-21T10:55:20.716Z</time>
      </trkpt>
      <trkpt lat="42.757510" lon="1.593783">
        <ele>1629.9</ele>
        <time>2025-07-21T10:56:06.823Z</time>
      </trkpt>
      <trkpt lat="42.757232" lon="1.594161">
        <ele>1632.5</ele>
        <time>2025-07-21T10:57:11.657Z</time>
      </trkpt>
      <trkpt lat="42.756866" lon="1.594969">
        <ele>1637.3</ele>
        <time>2025-07-21T10:59:06.712Z</time>
      </trkpt>
      <trkpt lat="42.756698" lon="1.595236">
        <ele>1642.0</ele>
        <time>2025-07-21T11:00:20.408Z</time>
      </trkpt>
      <trkpt lat="42.756363" lon="1.596097">
        <ele>1656.1</ele>
        <time>2025-07-21T11:03:53.178Z</time>
      </trkpt>
      <trkpt lat="42.756242" lon="1.596338">
        <ele>1661.6</ele>
        <time>2025-07-21T11:05:12.162Z</time>
      </trkpt>
      <trkpt lat="42.756101" lon="1.596628">
        <ele>1667.7</ele>
        <time>2025-07-21T11:06:39.865Z</time>
      </trkpt>
      <trkpt lat="42.755933" lon="1.596945">
        <ele>1674.6</ele>
        <time>2025-07-21T11:08:17.734Z</time>
      </trkpt>
      <trkpt lat="42.755856" lon="1.597304">
        <ele>1681.0</ele>
        <time>2025-07-21T11:09:50.601Z</time>
      </trkpt>
      <trkpt lat="42.755757" lon="1.597918">
        <ele>1686.3</ele>
        <time>2025-07-21T11:11:29.032Z</time>
      </trkpt>
      <trkpt lat="42.755719" lon="1.598351">
        <ele>1685.7</ele>
        <time>2025-07-21T11:12:03.166Z</time>
      </trkpt>
      <trkpt lat="42.755505" lon="1.598922">
        <ele>1682.4</ele>
        <time>2025-07-21T11:13:08.352Z</time>
      </trkpt>
      <trkpt lat="42.755236" lon="1.599311">
        <ele>1677.7</ele>
        <time>2025-07-21T11:14:14.508Z</time>
      </trkpt>
      <trkpt lat="42.754991" lon="1.599753">
        <ele>1675.9</ele>
        <time>2025-07-21T11:15:04.296Z</time>
      </trkpt>
      <trkpt lat="42.754840" lon="1.600331">
        <ele>1680.0</ele>
        <time>2025-07-21T11:16:30.150Z</time>
      </trkpt>
      <trkpt lat="42.754775" lon="1.600771">
        <ele>1685.6</ele>
        <time>2025-07-21T11:17:58.499Z</time>
      </trkpt>
      <trkpt lat="42.754667" lon="1.601276">
        <ele>1691.4</ele>
        <time>2025-07-21T11:19:35.176Z</time>
      </trkpt>
      <trkpt lat="42.754608" lon="1.601825">
        <ele>1697.5</ele>
        <time>2025-07-21T11:21:16.927Z</time>
      </trkpt>
      <trkpt lat="42.754456" lon="1.602306">
        <ele>1703.0</ele>
        <time>2025-07-21T11:22:49.478Z</time>
      </trkpt>
      <trkpt lat="42.754290" lon="1.602661">
        <ele>1707.3</ele>
        <time>2025-07-21T11:24:03.894Z</time>
      </trkpt>
      <trkpt lat="42.754173" lon="1.603201">
        <ele>1716.4</ele>
        <time>2025-07-21T11:26:17.053Z</time>
      </trkpt>
      <trkpt lat="42.753890" lon="1.604080">
        <ele>1732.0</ele>
        <time>2025-07-21T11:30:04.470Z</time>
      </trkpt>
      <trkpt lat="42.753801" lon="1.604519">
        <ele>1740.2</ele>
        <time>2025-07-21T11:32:00.943Z</time>
      </trkpt>
      <trkpt lat="42.753581" lon="1.605152">
        <ele>1752.9</ele>
        <time>2025-07-21T11:35:00.347Z</time>
      </trkpt>
      <trkpt lat="42.753321" lon="1.605778">
        <ele>1765.6</ele>
        <time>2025-07-21T11:38:00.960Z</time>
      </trkpt>
      <trkpt lat="42.752662" lon="1.606884">
        <ele>1799.3</ele>
        <time>2025-07-21T11:45:27.433Z</time>
      </trkpt>
      <trkpt lat="42.752075" lon="1.608011">
        <ele>1827.4</ele>
        <time>2025-07-21T11:51:53.271Z</time>
      </trkpt>
      <trkpt lat="42.751634" lon="1.608866">
        <ele>1845.9</ele>
        <time>2025-07-21T11:56:16.263Z</time>
      </trkpt>
      <trkpt lat="42.751360" lon="1.609293">
        <ele>1857.5</ele>
        <time>2025-07-21T11:58:55.945Z</time>
      </trkpt>
      <trkpt lat="42.751250" lon="1.609811">
        <ele>1868.6</ele>
        <time>2025-07-21T12:01:27.906Z</time>
      </trkpt>
      <trkpt lat="42.750997" lon="1.610362">
        <ele>1878.3</ele>
        <time>2025-07-21T12:03:52.331Z</time>
      </trkpt>
      <trkpt lat="42.750751" lon="1.610916">
        <ele>1883.4</ele>
        <time>2025-07-21T12:05:30.459Z</time>
      </trkpt>
      <trkpt lat="42.750456" lon="1.611404">
        <ele>1886.5</ele>
        <time>2025-07-21T12:06:47.043Z</time>
      </trkpt>
      <trkpt lat="42.750286" lon="1.611689">
        <ele>1887.8</ele>
        <time>2025-07-21T12:07:25.956Z</time>
      </trkpt>
      <trkpt lat="42.750047" lon="1.612001">
        <ele>1889.4</ele>
        <time>2025-07-21T12:08:13.877Z</time>
      </trkpt>
      <trkpt lat="42.749857" lon="1.612326">
        <ele>1890.9</ele>
        <time>2025-07-21T12:08:58.845Z</time>
      </trkpt>
      <trkpt lat="42.749769" lon="1.612648">
        <ele>1891.3</ele>
        <time>2025-07-21T12:09:26.505Z</time>
      </trkpt>
      <trkpt lat="42.749579" lon="1.613050">
        <ele>1889.5</ele>
        <time>2025-07-21T12:10:10.650Z</time>
      </trkpt>
      <trkpt lat="42.749356" lon="1.613237">
        <ele>1887.9</ele>
        <time>2025-07-21T12:10:45.819Z</time>
      </trkpt>
      <trkpt lat="42.749101" lon="1.613164">
        <ele>1885.9</ele>
        <time>2025-07-21T12:11:22.923Z</time>
      </trkpt>
      <trkpt lat="42.748808" lon="1.613002">
        <ele>1881.0</ele>
        <time>2025-07-21T12:12:22.832Z</time>
      </trkpt>
      <trkpt lat="42.748338" lon="1.613029">
        <ele>1870.1</ele>
        <time>2025-07-21T12:14:13.309Z</time>
      </trkpt>
      <trkpt lat="42.748058" lon="1.612973">
        <ele>1866.2</ele>
        <time>2025-07-21T12:15:03.415Z</time>
      </trkpt>
      <trkpt lat="42.747763" lon="1.613080">
        <ele>1860.5</ele>
        <time>2025-07-21T12:16:08.607Z</time>
      </trkpt>
      <trkpt lat="42.747513" lon="1.613370">
        <ele>1851.7</ele>
        <time>2025-07-21T12:17:32.893Z</time>
      </trkpt>
      <trkpt lat="42.747329" lon="1.613578">
        <ele>1846.0</ele>
        <time>2025-07-21T12:18:30.062Z</time>
      </trkpt>
      <trkpt lat="42.747068" lon="1.613693">
        <ele>1840.7</ele>
        <time>2025-07-21T12:19:28.551Z</time>
      </trkpt>
      <trkpt lat="42.746870" lon="1.613943">
        <ele>1836.7</ele>
        <time>2025-07-21T12:20:20.515Z</time>
      </trkpt>
      <trkpt lat="42.746600" lon="1.613924">
        <ele>1833.4</ele>
        <time>2025-07-21T12:21:06.271Z</time>
      </trkpt>
      <trkpt lat="42.746330" lon="1.614161">
        <ele>1827.3</ele>
        <time>2025-07-21T12:22:13.573Z</time>
      </trkpt>
      <trkpt lat="42.746120" lon="1.614321">
        <ele>1822.7</ele>
        <time>2025-07-21T12:23:03.936Z</time>
      </trkpt>
      <trkpt lat="42.745758" lon="1.614582">
        <ele>1816.6</ele>
        <time>2025-07-21T12:24:19.617Z</time>
      </trkpt>
      <trkpt lat="42.745576" lon="1.614767">
        <ele>1813.5</ele>
        <time>2025-07-21T12:25:00.059Z</time>
      </trkpt>
      <trkpt lat="42.745368" lon="1.614961">
        <ele>1810.2</ele>
        <time>2025-07-21T12:25:43.624Z</time>
      </trkpt>
      <trkpt lat="42.745072" lon="1.615149">
        <ele>1807.0</ele>
        <time>2025-07-21T12:26:34.249Z</time>
      </trkpt>
      <trkpt lat="42.744852" lon="1.615397">
        <ele>1805.1</ele>
        <time>2025-07-21T12:27:12.576Z</time>
      </trkpt>
      <trkpt lat="42.744684" lon="1.615713">
        <ele>1803.1</ele>
        <time>2025-07-21T12:27:52.156Z</time>
      </trkpt>
      <trkpt lat="42.743982" lon="1.616313">
        <ele>1796.6</ele>
        <time>2025-07-21T12:29:50.173Z</time>
      </trkpt>
      <trkpt lat="42.743676" lon="1.616586">
        <ele>1793.6</ele>
        <time>2025-07-21T12:30:43.404Z</time>
      </trkpt>
      <trkpt lat="42.743381" lon="1.616567">
        <ele>1791.1</ele>
        <time>2025-07-21T12:31:26.367Z</time>
      </trkpt>
      <trkpt lat="42.742427" lon="1.616573">
        <ele>1794.0</ele>
        <time>2025-07-21T12:33:27.113Z</time>
      </trkpt>
      <trkpt lat="42.742151" lon="1.616551">
        <ele>1797.2</ele>
        <time>2025-07-21T12:34:26.535Z</time>
      </trkpt>
      <trkpt lat="42.741247" lon="1.616401">
        <ele>1807.8</ele>
        <time>2025-07-21T12:37:42.546Z</time>
      </trkpt>
      <trkpt lat="42.740714" lon="1.616205">
        <ele>1816.4</ele>
        <time>2025-07-21T12:40:03.115Z</time>
      </trkpt>
      <trkpt lat="42.740419" lon="1.616197">
        <ele>1820.4</ele>
        <time>2025-07-21T12:41:12.905Z</time>
      </trkpt>
      <trkpt lat="42.740190" lon="1.616204">
        <ele>1823.6</ele>
        <time>2025-07-21T12:42:07.184Z</time>
      </trkpt>
      <trkpt lat="42.739668" lon="1.616189">
        <ele>1829.4</ele>
        <time>2025-07-21T12:43:57.222Z</time>
      </trkpt>
      <trkpt lat="42.738827" lon="1.616448">
        <ele>1839.2</ele>
        <time>2025-07-21T12:47:00.136Z</time>
      </trkpt>
      <trkpt lat="42.737925" lon="1.616692">
        <ele>1855.8</ele>
        <time>2025-07-21T12:51:18.952Z</time>
      </trkpt>
      <trkpt lat="42.737167" lon="1.617264">
        <ele>1860.5</ele>
        <time>2025-07-21T12:53:29.821Z</time>
      </trkpt>
      <trkpt lat="42.736182" lon="1.618793">
        <ele>1864.4</ele>
        <time>2025-07-21T12:56:32.577Z</time>
      </trkpt>
      <trkpt lat="42.734734" lon="1.620175">
        <ele>1882.5</ele>
        <time>2025-07-21T13:02:26.557Z</time>
      </trkpt>
      <trkpt lat="42.734068" lon="1.622972">
        <ele>1866.8</ele>
        <time>2025-07-21T13:07:27.078Z</time>
      </trkpt>
      <trkpt lat="42.733767" lon="1.624862">
        <ele>1842.9</ele>
        <time>2025-07-21T13:12:06.072Z</time>
      </trkpt>
      <trkpt lat="42.733514" lon="1.625643">
        <ele>1833.1</ele>
        <time>2025-07-21T13:14:04.604Z</time>
      </trkpt>
      <trkpt lat="42.733291" lon="1.625955">
        <ele>1829.2</ele>
        <time>2025-07-21T13:14:59.014Z</time>
      </trkpt>
      <trkpt lat="42.733154" lon="1.626388">
        <ele>1824.7</ele>
        <time>2025-07-21T13:16:01.131Z</time>
      </trkpt>
      <trkpt lat="42.733105" lon="1.626743">
        <ele>1821.3</ele>
        <time>2025-07-21T13:16:47.305Z</time>
      </trkpt>
      <trkpt lat="42.732956" lon="1.627288">
        <ele>1815.8</ele>
        <time>2025-07-21T13:18:00.759Z</time>
      </trkpt>
      <trkpt lat="42.732834" lon="1.627550">
        <ele>1813.2</ele>
        <time>2025-07-21T13:18:38.134Z</time>
      </trkpt>
      <trkpt lat="42.732019" lon="1.628120">
        <ele>1802.7</ele>
        <time>2025-07-21T13:21:08.504Z</time>
      </trkpt>
      <trkpt lat="42.731463" lon="1.628839">
        <ele>1792.6</ele>
        <time>2025-07-21T13:23:22.155Z</time>
      </trkpt>
      <trkpt lat="42.730754" lon="1.629465">
        <ele>1783.4</ele>
        <time>2025-07-21T13:25:38.327Z</time>
      </trkpt>
      <trkpt lat="42.730426" lon="1.629297">
        <ele>1777.0</ele>
        <time>2025-07-21T13:26:49.603Z</time>
      </trkpt>
      <trkpt lat="42.730047" lon="1.629072">
        <ele>1766.5</ele>
        <time>2025-07-21T13:28:36.042Z</time>
      </trkpt>
      <trkpt lat="42.729799" lon="1.628944">
        <ele>1759.5</ele>
        <time>2025-07-21T13:29:43.558Z</time>
      </trkpt>
      <trkpt lat="42.729156" lon="1.628251">
        <ele>1743.6</ele>
        <time>2025-07-21T13:32:36.836Z</time>
      </trkpt>
      <trkpt lat="42.729021" lon="1.627941">
        <ele>1737.1</ele>
        <time>2025-07-21T13:33:40.904Z</time>
      </trkpt>
      <trkpt lat="42.728680" lon="1.628074">
        <ele>1728.5</ele>
        <time>2025-07-21T13:35:06.773Z</time>
      </trkpt>
      <trkpt lat="42.728299" lon="1.627941">
        <ele>1712.7</ele>
        <time>2025-07-21T13:37:19.892Z</time>
      </trkpt>
      <trkpt lat="42.728106" lon="1.627463">
        <ele>1697.0</ele>
        <time>2025-07-21T13:39:32.310Z</time>
      </trkpt>
      <trkpt lat="42.728079" lon="1.626839">
        <ele>1686.4</ele>
        <time>2025-07-21T13:41:19.467Z</time>
      </trkpt>
      <trkpt lat="42.727863" lon="1.626901">
        <ele>1673.7</ele>
        <time>2025-07-21T13:43:08.326Z</time>
      </trkpt>
      <trkpt lat="42.727629" lon="1.626978">
        <ele>1664.9</ele>
        <time>2025-07-21T13:44:24.312Z</time>
      </trkpt>
      <trkpt lat="42.727348" lon="1.627251">
        <ele>1653.8</ele>
        <time>2025-07-21T13:46:03.670Z</time>
      </trkpt>
      <trkpt lat="42.727216" lon="1.627007">
        <ele>1645.6</ele>
        <time>2025-07-21T13:47:17.341Z</time>
      </trkpt>
      <trkpt lat="42.727253" lon="1.626319">
        <ele>1634.4</ele>
        <time>2025-07-21T13:49:13.191Z</time>
      </trkpt>
      <trkpt lat="42.726506" lon="1.626939">
        <ele>1611.0</ele>
        <time>2025-07-21T13:52:56.627Z</time>
      </trkpt>
      <trkpt lat="42.725872" lon="1.627095">
        <ele>1592.8</ele>
        <time>2025-07-21T13:55:47.479Z</time>
      </trkpt>
      <trkpt lat="42.725387" lon="1.627031">
        <ele>1585.2</ele>
        <time>2025-07-21T13:57:19.594Z</time>
      </trkpt>
      <trkpt lat="42.724938" lon="1.626843">
        <ele>1578.1</ele>
        <time>2025-07-21T13:58:46.667Z</time>
      </trkpt>
      <trkpt lat="42.724632" lon="1.626604">
        <ele>1571.5</ele>
        <time>2025-07-21T13:59:59.691Z</time>
      </trkpt>
      <trkpt lat="42.724358" lon="1.626596">
        <ele>1566.4</ele>
        <time>2025-07-21T14:00:56.500Z</time>
      </trkpt>
      <trkpt lat="42.724096" lon="1.626481">
        <ele>1562.1</ele>
        <time>2025-07-21T14:01:48.935Z</time>
      </trkpt>
      <trkpt lat="42.723302" lon="1.627344">
        <ele>1545.8</ele>
        <time>2025-07-21T14:05:04.575Z</time>
      </trkpt>
      <trkpt lat="42.722938" lon="1.628425">
        <ele>1515.9</ele>
        <time>2025-07-21T14:09:27.099Z</time>
      </trkpt>
      <trkpt lat="42.722445" lon="1.628964">
        <ele>1504.4</ele>
        <time>2025-07-21T14:11:36.914Z</time>
      </trkpt>
      <trkpt lat="42.722193" lon="1.629010">
        <ele>1506.3</ele>
        <time>2025-07-21T14:12:21.370Z</time>
      </trkpt>
      <trkpt lat="42.721844" lon="1.629227">
        <ele>1503.9</ele>
        <time>2025-07-21T14:13:14.503Z</time>
      </trkpt>
      <trkpt lat="42.721576" lon="1.629761">
        <ele>1493.9</ele>
        <time>2025-07-21T14:15:00.098Z</time>
      </trkpt>
      <trkpt lat="42.721277" lon="1.630134">
        <ele>1479.6</ele>
        <time>2025-07-21T14:17:04.652Z</time>
      </trkpt>
      <trkpt lat="42.721320" lon="1.630508">
        <ele>1469.8</ele>
        <time>2025-07-21T14:18:30.066Z</time>
      </trkpt>
      <trkpt lat="42.721553" lon="1.630634">
        <ele>1464.8</ele>
        <time>2025-07-21T14:19:23.982Z</time>
      </trkpt>
      <trkpt lat="42.721811" lon="1.631175">
        <ele>1451.4</ele>
        <time>2025-07-21T14:21:31.324Z</time>
      </trkpt>
      <trkpt lat="42.721858" lon="1.631475">
        <ele>1444.4</ele>
        <time>2025-07-21T14:22:35.088Z</time>
      </trkpt>
      <trkpt lat="42.722224" lon="1.631969">
        <ele>1433.7</ele>
        <time>2025-07-21T14:24:28.626Z</time>
      </trkpt>
      <trkpt lat="42.722376" lon="1.632213">
        <ele>1432.6</ele>
        <time>2025-07-21T14:25:00.785Z</time>
      </trkpt>
      <trkpt lat="42.722589" lon="1.632396">
        <ele>1431.7</ele>
        <time>2025-07-21T14:25:30.534Z</time>
      </trkpt>
      <trkpt lat="42.723172" lon="1.632706">
        <ele>1431.1</ele>
        <time>2025-07-21T14:26:37.631Z</time>
      </trkpt>
      <trkpt lat="42.723517" lon="1.632854">
        <ele>1424.8</ele>
        <time>2025-07-21T14:27:49.795Z</time>
      </trkpt>
      <trkpt lat="42.723589" lon="1.633241">
        <ele>1419.7</ele>
        <time>2025-07-21T14:28:48.417Z</time>
      </trkpt>
      <trkpt lat="42.723456" lon="1.633763">
        <ele>1403.6</ele>
        <time>2025-07-21T14:31:04.892Z</time>
      </trkpt>
      <trkpt lat="42.723439" lon="1.634346">
        <ele>1390.7</ele>
        <time>2025-07-21T14:33:04.137Z</time>
      </trkpt>
      <trkpt lat="42.723927" lon="1.635883">
        <ele>1364.7</ele>
        <time>2025-07-21T14:37:40.015Z</time>
      </trkpt>
      <trkpt lat="42.723567" lon="1.636423">
        <ele>1364.7</ele>
        <time>2025-07-21T14:38:31.078Z</time>
      </trkpt>
      <trkpt lat="42.723581" lon="1.636894">
        <ele>1362.5</ele>
        <time>2025-07-21T14:39:19.076Z</time>
      </trkpt>
      <trkpt lat="42.723544" lon="1.637299">
        <ele>1360.8</ele>
        <time>2025-07-21T14:39:58.291Z</time>
      </trkpt>
      <trkpt lat="42.723607" lon="1.637777">
        <ele>1363.5</ele>
        <time>2025-07-21T14:41:00.523Z</time>
      </trkpt>
      <trkpt lat="42.723579" lon="1.638356">
        <ele>1366.8</ele>
        <time>2025-07-21T14:42:15.016Z</time>
      </trkpt>
      <trkpt lat="42.723644" lon="1.638889">
        <ele>1370.0</ele>
        <time>2025-07-21T14:43:25.580Z</time>
      </trkpt>
      <trkpt lat="42.723821" lon="1.639275">
        <ele>1372.7</ele>
        <time>2025-07-21T14:44:25.027Z</time>
      </trkpt>
      <trkpt lat="42.724140" lon="1.640395">
        <ele>1389.7</ele>
        <time>2025-07-21T14:48:46.085Z</time>
      </trkpt>
      <trkpt lat="42.724312" lon="1.640751">
        <ele>1394.3</ele>
        <time>2025-07-21T14:50:22.798Z</time>
      </trkpt>
      <trkpt lat="42.724001" lon="1.640874">
        <ele>1411.4</ele>
        <time>2025-07-21T14:53:57.950Z</time>
      </trkpt>
      <trkpt lat="42.723706" lon="1.640829">
        <ele>1423.5</ele>
        <time>2025-07-21T14:56:31.255Z</time>
      </trkpt>
      <trkpt lat="42.723860" lon="1.641237">
        <ele>1435.0</ele>
        <time>2025-07-21T14:59:01.340Z</time>
      </trkpt>
      <trkpt lat="42.723568" lon="1.641193">
        <ele>1445.0</ele>
        <time>2025-07-21T15:01:12.151Z</time>
      </trkpt>
      <trkpt lat="42.723892" lon="1.641614">
        <ele>1451.9</ele>
        <time>2025-07-21T15:03:06.064Z</time>
      </trkpt>
      <trkpt lat="42.723675" lon="1.641903">
        <ele>1469.6</ele>
        <time>2025-07-21T15:06:50.884Z</time>
      </trkpt>
      <trkpt lat="42.723515" lon="1.642000">
        <ele>1483.6</ele>
        <time>2025-07-21T15:09:51.159Z</time>
      </trkpt>
      <trkpt lat="42.723100" lon="1.642016">
        <ele>1501.7</ele>
        <time>2025-07-21T15:13:50.264Z</time>
      </trkpt>
      <trkpt lat="42.723144" lon="1.642221">
        <ele>1510.3</ele>
        <time>2025-07-21T15:15:49.084Z</time>
      </trkpt>
      <trkpt lat="42.723193" lon="1.642529">
        <ele>1518.7</ele>
        <time>2025-07-21T15:17:45.370Z</time>
      </trkpt>
      <trkpt lat="42.723049" lon="1.642630">
        <ele>1527.6</ele>
        <time>2025-07-21T15:19:44.981Z</time>
      </trkpt>
      <trkpt lat="42.722909" lon="1.642704">
        <ele>1536.1</ele>
        <time>2025-07-21T15:21:38.363Z</time>
      </trkpt>
      <trkpt lat="42.722288" lon="1.642588">
        <ele>1552.8</ele>
        <time>2025-07-21T15:25:37.548Z</time>
      </trkpt>
      <trkpt lat="42.721903" lon="1.643009">
        <ele>1579.8</ele>
        <time>2025-07-21T15:31:09.851Z</time>
      </trkpt>
      <trkpt lat="42.721223" lon="1.643026">
        <ele>1600.2</ele>
        <time>2025-07-21T15:35:44.394Z</time>
      </trkpt>
      <trkpt lat="42.721065" lon="1.643185">
        <ele>1612.4</ele>
        <time>2025-07-21T15:38:22.353Z</time>
      </trkpt>
      <trkpt lat="42.721023" lon="1.643489">
        <ele>1620.7</ele>
        <time>2025-07-21T15:40:08.776Z</time>
      </trkpt>
      <trkpt lat="42.720747" lon="1.643674">
        <ele>1633.0</ele>
        <time>2025-07-21T15:42:46.356Z</time>
      </trkpt>
      <trkpt lat="42.720565" lon="1.643985">
        <ele>1644.9</ele>
        <time>2025-07-21T15:45:19.366Z</time>
      </trkpt>
      <trkpt lat="42.720166" lon="1.644358">
        <ele>1659.8</ele>
        <time>2025-07-21T15:48:39.836Z</time>
      </trkpt>
      <trkpt lat="42.719976" lon="1.644719">
        <ele>1667.3</ele>
        <time>2025-07-21T15:50:27.324Z</time>
      </trkpt>
      <trkpt lat="42.719711" lon="1.644785">
        <ele>1673.4</ele>
        <time>2025-07-21T15:51:55.876Z</time>
      </trkpt>
      <trkpt lat="42.719302" lon="1.645264">
        <ele>1682.8</ele>
        <time>2025-07-21T15:54:24.915Z</time>
      </trkpt>
      <trkpt lat="42.719054" lon="1.645613">
        <ele>1683.1</ele>
        <time>2025-07-21T15:55:02.055Z</time>
      </trkpt>
      <trkpt lat="42.718160" lon="1.646386">
        <ele>1684.0</ele>
        <time>2025-07-21T15:56:52.282Z</time>
      </trkpt>
      <trkpt lat="42.717651" lon="1.646683">
        <ele>1681.4</ele>
        <time>2025-07-21T15:58:00.801Z</time>
      </trkpt>
      <trkpt lat="42.716865" lon="1.646900">
        <ele>1679.2</ele>
        <time>2025-07-21T15:59:30.179Z</time>
      </trkpt>
      <trkpt lat="42.716251" lon="1.646967">
        <ele>1674.9</ele>
        <time>2025-07-21T16:00:54.504Z</time>
      </trkpt>
      <trkpt lat="42.715315" lon="1.646690">
        <ele>1666.9</ele>
        <time>2025-07-21T16:03:14.255Z</time>
      </trkpt>
      <trkpt lat="42.714699" lon="1.645883">
        <ele>1653.4</ele>
        <time>2025-07-21T16:05:56.722Z</time>
      </trkpt>
      <trkpt lat="42.714249" lon="1.645467">
        <ele>1641.0</ele>
        <time>2025-07-21T16:08:03.043Z</time>
      </trkpt>
      <trkpt lat="42.713851" lon="1.645325">
        <ele>1637.1</ele>
        <time>2025-07-21T16:09:05.612Z</time>
      </trkpt>
      <trkpt lat="42.713540" lon="1.645286">
        <ele>1632.6</ele>
        <time>2025-07-21T16:10:02.393Z</time>
      </trkpt>
      <trkpt lat="42.713205" lon="1.645770">
        <ele>1624.1</ele>
        <time>2025-07-21T16:11:41.467Z</time>
      </trkpt>
    </trkseg>
  </trk>
</gpx>
