<?xml version="1.0" encoding="UTF-8"?>
<gpx version="1.1" creator="carnet-trek seed (OpenStreetMap, EU-DEM)" xmlns="http://www.topografix.com/GPX/1/1">
  <metadata>
    <name>GR10 – Refuge de l&apos;Étang d&apos;Araing → Eylie</name>
    <copyright author="OpenStreetMap contributors"><license>https://opendatacommons.org/licenses/odbl/</license></copyright>
  </metadata>
  <wpt lat="42.834591" lon="0.873392">
    <name>Refuge de l&apos;Étang d&apos;Araing</name>
    <sym>Lodging</sym>
  </wpt>
  <wpt lat="42.826807" lon="0.887628">
    <name>Point culminant (2234 m)</name>
    <sym>Summit</sym>
  </wpt>
  <wpt lat="42.834680" lon="0.873405">
    <name>Refuge de l&apos;etang d&apos;Araing</name>
    <sym>Lodging</sym>
  </wpt>
  <wpt lat="42.834357" lon="0.934565">
    <name>Eylie</name>
    <sym>Convenience Store</sym>
  </wpt>
  <trk>
    <name>GR10 – Refuge de l&apos;Étang d&apos;Araing → Eylie</name>
    <type>hike</type>
    <trkseg>
      <trkpt lat="42.834591" lon="0.873392">
        <ele>1936.2</ele>
        <time>2025-07-13T07:30:00.000Z</time>
      </trkpt>
      <trkpt lat="42.834479" lon="0.873656">
        <ele>1929.9</ele>
        <time>2025-07-13T07:31:00.093Z</time>
      </trkpt>
      <trkpt lat="42.834297" lon="0.873956">
        <ele>1923.7</ele>
        <time>2025-07-13T07:32:05.223Z</time>
      </trkpt>
      <trkpt lat="42.834298" lon="0.874302">
        <ele>1919.1</ele>
        <time>2025-07-13T07:32:57.623Z</time>
      </trkpt>
      <trkpt lat="42.834275" lon="0.874607">
        <ele>1915.8</ele>
        <time>2025-07-13T07:33:40.064Z</time>
      </trkpt>
      <trkpt lat="42.834231" lon="0.874901">
        <ele>1912.6</ele>
        <time>2025-07-13T07:34:21.096Z</time>
      </trkpt>
      <trkpt lat="42.834185" lon="0.875189">
        <ele>1910.0</ele>
        <time>2025-07-13T07:34:59.189Z</time>
      </trkpt>
      <trkpt lat="42.834156" lon="0.875515">
        <ele>1907.5</ele>
        <time>2025-07-13T07:35:37.564Z</time>
      </trkpt>
      <trkpt lat="42.834085" lon="0.875835">
        <ele>1903.6</ele>
        <time>2025-07-13T07:36:24.274Z</time>
      </trkpt>
      <trkpt lat="42.834170" lon="0.876153">
        <ele>1899.6</ele>
        <time>2025-07-13T07:37:13.272Z</time>
      </trkpt>
      <trkpt lat="42.834323" lon="0.876466">
        <ele>1895.0</ele>
        <time>2025-07-13T07:38:10.942Z</time>
      </trkpt>
      <trkpt lat="42.834208" lon="0.876712">
        <ele>1891.2</ele>
        <time>2025-07-13T07:38:59.255Z</time>
      </trkpt>
      <trkpt lat="42.834209" lon="0.877179">
        <ele>1886.2</ele>
        <time>2025-07-13T07:40:03.242Z</time>
      </trkpt>
      <trkpt lat="42.834077" lon="0.877540">
        <ele>1884.0</ele>
        <time>2025-07-13T07:40:45.396Z</time>
      </trkpt>
      <trkpt lat="42.833945" lon="0.877864">
        <ele>1882.2</ele>
        <time>2025-07-13T07:41:22.545Z</time>
      </trkpt>
      <trkpt lat="42.833957" lon="0.878224">
        <ele>1881.1</ele>
        <time>2025-07-13T07:41:54.463Z</time>
      </trkpt>
      <trkpt lat="42.834045" lon="0.878570">
        <ele>1880.7</ele>
        <time>2025-07-13T07:42:24.147Z</time>
      </trkpt>
      <trkpt lat="42.834102" lon="0.878788">
        <ele>1881.7</ele>
        <time>2025-07-13T07:42:59.828Z</time>
      </trkpt>
      <trkpt lat="42.833998" lon="0.878955">
        <ele>1883.6</ele>
        <time>2025-07-13T07:43:41.298Z</time>
      </trkpt>
      <trkpt lat="42.833655" lon="0.878835">
        <ele>1889.5</ele>
        <time>2025-07-13T07:45:15.353Z</time>
      </trkpt>
      <trkpt lat="42.833582" lon="0.879044">
        <ele>1891.5</ele>
        <time>2025-07-13T07:46:00.176Z</time>
      </trkpt>
      <trkpt lat="42.833790" lon="0.879180">
        <ele>1893.3</ele>
        <time>2025-07-13T07:46:40.889Z</time>
      </trkpt>
      <trkpt lat="42.833795" lon="0.879400">
        <ele>1898.8</ele>
        <time>2025-07-13T07:47:59.935Z</time>
      </trkpt>
      <trkpt lat="42.833517" lon="0.879402">
        <ele>1905.5</ele>
        <time>2025-07-13T07:49:37.020Z</time>
      </trkpt>
      <trkpt lat="42.833436" lon="0.879695">
        <ele>1914.0</ele>
        <time>2025-07-13T07:51:26.469Z</time>
      </trkpt>
      <trkpt lat="42.833239" lon="0.879772">
        <ele>1925.5</ele>
        <time>2025-07-13T07:53:54.254Z</time>
      </trkpt>
      <trkpt lat="42.833213" lon="0.880094">
        <ele>1936.8</ele>
        <time>2025-07-13T07:56:18.689Z</time>
      </trkpt>
      <trkpt lat="42.833054" lon="0.880210">
        <ele>1944.7</ele>
        <time>2025-07-13T07:58:02.936Z</time>
      </trkpt>
      <trkpt lat="42.832933" lon="0.880255">
        <ele>1950.7</ele>
        <time>2025-07-13T07:59:29.188Z</time>
      </trkpt>
      <trkpt lat="42.832982" lon="0.880614">
        <ele>1958.1</ele>
        <time>2025-07-13T08:01:11.971Z</time>
      </trkpt>
      <trkpt lat="42.832773" lon="0.881074">
        <ele>1970.7</ele>
        <time>2025-07-13T08:03:58.852Z</time>
      </trkpt>
      <trkpt lat="42.832761" lon="0.881520">
        <ele>1974.4</ele>
        <time>2025-07-13T08:05:08.646Z</time>
      </trkpt>
      <trkpt lat="42.832685" lon="0.881928">
        <ele>1978.0</ele>
        <time>2025-07-13T08:06:15.500Z</time>
      </trkpt>
      <trkpt lat="42.832437" lon="0.882120">
        <ele>1981.4</ele>
        <time>2025-07-13T08:07:17.061Z</time>
      </trkpt>
      <trkpt lat="42.832222" lon="0.882431">
        <ele>1983.8</ele>
        <time>2025-07-13T08:08:12.616Z</time>
      </trkpt>
      <trkpt lat="42.832098" lon="0.883019">
        <ele>1987.8</ele>
        <time>2025-07-13T08:09:36.930Z</time>
      </trkpt>
      <trkpt lat="42.831790" lon="0.883388">
        <ele>1994.2</ele>
        <time>2025-07-13T08:11:22.170Z</time>
      </trkpt>
      <trkpt lat="42.831494" lon="0.883401">
        <ele>2000.5</ele>
        <time>2025-07-13T08:12:56.283Z</time>
      </trkpt>
      <trkpt lat="42.831207" lon="0.883357">
        <ele>2007.9</ele>
        <time>2025-07-13T08:14:39.390Z</time>
      </trkpt>
      <trkpt lat="42.830981" lon="0.883344">
        <ele>2013.1</ele>
        <time>2025-07-13T08:15:55.221Z</time>
      </trkpt>
      <trkpt lat="42.830828" lon="0.883127">
        <ele>2016.7</ele>
        <time>2025-07-13T08:16:54.225Z</time>
      </trkpt>
      <trkpt lat="42.830626" lon="0.883035">
        <ele>2020.9</ele>
        <time>2025-07-13T08:18:00.021Z</time>
      </trkpt>
      <trkpt lat="42.830439" lon="0.883129">
        <ele>2028.4</ele>
        <time>2025-07-13T08:19:39.202Z</time>
      </trkpt>
      <trkpt lat="42.830284" lon="0.883385">
        <ele>2036.7</ele>
        <time>2025-07-13T08:21:28.835Z</time>
      </trkpt>
      <trkpt lat="42.830157" lon="0.883686">
        <ele>2045.7</ele>
        <time>2025-07-13T08:23:27.317Z</time>
      </trkpt>
      <trkpt lat="42.830051" lon="0.883869">
        <ele>2053.2</ele>
        <time>2025-07-13T08:25:05.806Z</time>
      </trkpt>
      <trkpt lat="42.829980" lon="0.884156">
        <ele>2059.2</ele>
        <time>2025-07-13T08:26:33.853Z</time>
      </trkpt>
      <trkpt lat="42.829722" lon="0.884218">
        <ele>2070.9</ele>
        <time>2025-07-13T08:29:21.393Z</time>
      </trkpt>
      <trkpt lat="42.829636" lon="0.884747">
        <ele>2080.9</ele>
        <time>2025-07-13T08:31:41.851Z</time>
      </trkpt>
      <trkpt lat="42.829406" lon="0.884602">
        <ele>2087.1</ele>
        <time>2025-07-13T08:33:09.947Z</time>
      </trkpt>
      <trkpt lat="42.829359" lon="0.884905">
        <ele>2092.7</ele>
        <time>2025-07-13T08:34:29.805Z</time>
      </trkpt>
      <trkpt lat="42.829274" lon="0.885201">
        <ele>2099.3</ele>
        <time>2025-07-13T08:36:00.506Z</time>
      </trkpt>
      <trkpt lat="42.829033" lon="0.885249">
        <ele>2106.5</ele>
        <time>2025-07-13T08:37:40.140Z</time>
      </trkpt>
      <trkpt lat="42.828836" lon="0.885508">
        <ele>2113.1</ele>
        <time>2025-07-13T08:39:15.493Z</time>
      </trkpt>
      <trkpt lat="42.828667" lon="0.885738">
        <ele>2118.8</ele>
        <time>2025-07-13T08:40:40.405Z</time>
      </trkpt>
      <trkpt lat="42.828605" lon="0.886025">
        <ele>2122.5</ele>
        <time>2025-07-13T08:41:40.851Z</time>
      </trkpt>
      <trkpt lat="42.828613" lon="0.886370">
        <ele>2126.7</ele>
        <time>2025-07-13T08:42:47.878Z</time>
      </trkpt>
      <trkpt lat="42.828682" lon="0.886795">
        <ele>2129.7</ele>
        <time>2025-07-13T08:43:49.517Z</time>
      </trkpt>
      <trkpt lat="42.828756" lon="0.887211">
        <ele>2132.7</ele>
        <time>2025-07-13T08:44:50.755Z</time>
      </trkpt>
      <trkpt lat="42.828673" lon="0.887603">
        <ele>2146.6</ele>
        <time>2025-07-13T08:47:42.673Z</time>
      </trkpt>
      <trkpt lat="42.828497" lon="0.888093">
        <ele>2165.2</ele>
        <time>2025-07-13T08:51:31.327Z</time>
      </trkpt>
      <trkpt lat="42.828304" lon="0.888398">
        <ele>2178.9</ele>
        <time>2025-07-13T08:54:20.400Z</time>
      </trkpt>
      <trkpt lat="42.828212" lon="0.888609">
        <ele>2189.4</ele>
        <time>2025-07-13T08:56:30.351Z</time>
      </trkpt>
      <trkpt lat="42.828074" lon="0.888724">
        <ele>2196.1</ele>
        <time>2025-07-13T08:58:02.228Z</time>
      </trkpt>
      <trkpt lat="42.827952" lon="0.888838">
        <ele>2202.6</ele>
        <time>2025-07-13T08:59:30.970Z</time>
      </trkpt>
      <trkpt lat="42.827752" lon="0.889099">
        <ele>2209.9</ele>
        <time>2025-07-13T09:01:15.317Z</time>
      </trkpt>
      <trkpt lat="42.827399" lon="0.888460">
        <ele>2219.7</ele>
        <time>2025-07-13T09:03:53.025Z</time>
      </trkpt>
      <trkpt lat="42.827164" lon="0.888059">
        <ele>2224.6</ele>
        <time>2025-07-13T09:05:19.634Z</time>
      </trkpt>
      <trkpt lat="42.826999" lon="0.887799">
        <ele>2229.6</ele>
        <time>2025-07-13T09:06:35.612Z</time>
      </trkpt>
      <trkpt lat="42.826807" lon="0.887628">
        <ele>2234.2</ele>
        <time>2025-07-13T09:07:44.736Z</time>
      </trkpt>
      <trkpt lat="42.826667" lon="0.887775">
        <ele>2232.7</ele>
        <time>2025-07-13T09:08:23.261Z</time>
      </trkpt>
      <trkpt lat="42.826857" lon="0.888393">
        <ele>2230.1</ele>
        <time>2025-07-13T09:09:25.369Z</time>
      </trkpt>
      <trkpt lat="42.827085" lon="0.888850">
        <ele>2226.9</ele>
        <time>2025-07-13T09:10:23.680Z</time>
      </trkpt>
      <trkpt lat="42.826690" lon="0.888723">
        <ele>2220.0</ele>
        <time>2025-07-13T09:11:43.875Z</time>
      </trkpt>
      <trkpt lat="42.826357" lon="0.888965">
        <ele>2212.1</ele>
        <time>2025-07-13T09:13:07.409Z</time>
      </trkpt>
      <trkpt lat="42.826153" lon="0.889297">
        <ele>2199.2</ele>
        <time>2025-07-13T09:14:54.869Z</time>
      </trkpt>
      <trkpt lat="42.826089" lon="0.889939">
        <ele>2181.7</ele>
        <time>2025-07-13T09:17:27.025Z</time>
      </trkpt>
      <trkpt lat="42.825995" lon="0.890385">
        <ele>2169.0</ele>
        <time>2025-07-13T09:19:19.532Z</time>
      </trkpt>
      <trkpt lat="42.825962" lon="0.890976">
        <ele>2154.5</ele>
        <time>2025-07-13T09:21:27.904Z</time>
      </trkpt>
      <trkpt lat="42.826160" lon="0.891126">
        <ele>2146.0</ele>
        <time>2025-07-13T09:22:42.770Z</time>
      </trkpt>
      <trkpt lat="42.826210" lon="0.891460">
        <ele>2137.6</ele>
        <time>2025-07-13T09:23:57.264Z</time>
      </trkpt>
      <trkpt lat="42.826190" lon="0.891979">
        <ele>2121.3</ele>
        <time>2025-07-13T09:26:11.063Z</time>
      </trkpt>
      <trkpt lat="42.826001" lon="0.892256">
        <ele>2112.0</ele>
        <time>2025-07-13T09:27:34.334Z</time>
      </trkpt>
      <trkpt lat="42.826283" lon="0.892682">
        <ele>2098.8</ele>
        <time>2025-07-13T09:29:36.706Z</time>
      </trkpt>
      <trkpt lat="42.826483" lon="0.892908">
        <ele>2090.2</ele>
        <time>2025-07-13T09:30:55.725Z</time>
      </trkpt>
      <trkpt lat="42.826397" lon="0.893250">
        <ele>2082.2</ele>
        <time>2025-07-13T09:32:08.840Z</time>
      </trkpt>
      <trkpt lat="42.826676" lon="0.893149">
        <ele>2080.7</ele>
        <time>2025-07-13T09:32:54.641Z</time>
      </trkpt>
      <trkpt lat="42.827073" lon="0.892875">
        <ele>2080.3</ele>
        <time>2025-07-13T09:33:40.900Z</time>
      </trkpt>
      <trkpt lat="42.827269" lon="0.892928">
        <ele>2080.7</ele>
        <time>2025-07-13T09:34:09.523Z</time>
      </trkpt>
      <trkpt lat="42.827345" lon="0.893308">
        <ele>2070.9</ele>
        <time>2025-07-13T09:35:36.336Z</time>
      </trkpt>
      <trkpt lat="42.827508" lon="0.893655">
        <ele>2060.3</ele>
        <time>2025-07-13T09:37:13.579Z</time>
      </trkpt>
      <trkpt lat="42.827470" lon="0.893918">
        <ele>2054.3</ele>
        <time>2025-07-13T09:38:12.181Z</time>
      </trkpt>
      <trkpt lat="42.827612" lon="0.893945">
        <ele>2048.2</ele>
        <time>2025-07-13T09:39:13.327Z</time>
      </trkpt>
      <trkpt lat="42.827701" lon="0.894437">
        <ele>2039.6</ele>
        <time>2025-07-13T09:40:40.964Z</time>
      </trkpt>
      <trkpt lat="42.827207" lon="0.895278">
        <ele>2017.2</ele>
        <time>2025-07-13T09:44:14.784Z</time>
      </trkpt>
      <trkpt lat="42.827055" lon="0.895664">
        <ele>2008.4</ele>
        <time>2025-07-13T09:45:40.500Z</time>
      </trkpt>
      <trkpt lat="42.826845" lon="0.896243">
        <ele>1996.2</ele>
        <time>2025-07-13T09:47:40.532Z</time>
      </trkpt>
      <trkpt lat="42.826565" lon="0.896511">
        <ele>1988.0</ele>
        <time>2025-07-13T09:49:02.279Z</time>
      </trkpt>
      <trkpt lat="42.826306" lon="0.897052">
        <ele>1978.2</ele>
        <time>2025-07-13T09:50:46.235Z</time>
      </trkpt>
      <trkpt lat="42.826313" lon="0.897389">
        <ele>1975.4</ele>
        <time>2025-07-13T09:51:26.330Z</time>
      </trkpt>
      <trkpt lat="42.826355" lon="0.897709">
        <ele>1972.5</ele>
        <time>2025-07-13T09:52:07.440Z</time>
      </trkpt>
      <trkpt lat="42.826396" lon="0.898082">
        <ele>1967.4</ele>
        <time>2025-07-13T09:53:04.397Z</time>
      </trkpt>
      <trkpt lat="42.826481" lon="0.898711">
        <ele>1957.9</ele>
        <time>2025-07-13T09:54:46.795Z</time>
      </trkpt>
      <trkpt lat="42.826385" lon="0.898925">
        <ele>1952.6</ele>
        <time>2025-07-13T09:55:42.034Z</time>
      </trkpt>
      <trkpt lat="42.826333" lon="0.899466">
        <ele>1939.4</ele>
        <time>2025-07-13T09:57:39.318Z</time>
      </trkpt>
      <trkpt lat="42.826329" lon="0.899800">
        <ele>1930.6</ele>
        <time>2025-07-13T09:58:56.124Z</time>
      </trkpt>
      <trkpt lat="42.826309" lon="0.900080">
        <ele>1921.0</ele>
        <time>2025-07-13T10:00:19.469Z</time>
      </trkpt>
      <trkpt lat="42.826504" lon="0.900239">
        <ele>1920.5</ele>
        <time>2025-07-13T10:00:47.643Z</time>
      </trkpt>
      <trkpt lat="42.826669" lon="0.900425">
        <ele>1919.8</ele>
        <time>2025-07-13T10:01:13.505Z</time>
      </trkpt>
      <trkpt lat="42.826803" lon="0.900690">
        <ele>1917.3</ele>
        <time>2025-07-13T10:01:52.993Z</time>
      </trkpt>
      <trkpt lat="42.826737" lon="0.901059">
        <ele>1914.5</ele>
        <time>2025-07-13T10:02:36.160Z</time>
      </trkpt>
      <trkpt lat="42.826670" lon="0.901613">
        <ele>1906.4</ele>
        <time>2025-07-13T10:04:03.838Z</time>
      </trkpt>
      <trkpt lat="42.826696" lon="0.902185">
        <ele>1898.2</ele>
        <time>2025-07-13T10:05:33.368Z</time>
      </trkpt>
      <trkpt lat="42.826681" lon="0.902540">
        <ele>1890.2</ele>
        <time>2025-07-13T10:06:46.193Z</time>
      </trkpt>
      <trkpt lat="42.826646" lon="0.903007">
        <ele>1881.1</ele>
        <time>2025-07-13T10:08:14.732Z</time>
      </trkpt>
      <trkpt lat="42.826799" lon="0.903411">
        <ele>1875.0</ele>
        <time>2025-07-13T10:09:22.960Z</time>
      </trkpt>
      <trkpt lat="42.826943" lon="0.903653">
        <ele>1873.7</ele>
        <time>2025-07-13T10:09:52.800Z</time>
      </trkpt>
      <trkpt lat="42.827247" lon="0.903722">
        <ele>1872.0</ele>
        <time>2025-07-13T10:10:32.837Z</time>
      </trkpt>
      <trkpt lat="42.827518" lon="0.903852">
        <ele>1864.3</ele>
        <time>2025-07-13T10:11:46.787Z</time>
      </trkpt>
      <trkpt lat="42.827772" lon="0.903817">
        <ele>1859.0</ele>
        <time>2025-07-13T10:12:45.501Z</time>
      </trkpt>
      <trkpt lat="42.827850" lon="0.903522">
        <ele>1861.3</ele>
        <time>2025-07-13T10:13:31.480Z</time>
      </trkpt>
      <trkpt lat="42.828104" lon="0.903568">
        <ele>1865.9</ele>
        <time>2025-07-13T10:14:44.915Z</time>
      </trkpt>
      <trkpt lat="42.828358" lon="0.904047">
        <ele>1879.2</ele>
        <time>2025-07-13T10:17:43.499Z</time>
      </trkpt>
      <trkpt lat="42.828726" lon="0.904490">
        <ele>1881.4</ele>
        <time>2025-07-13T10:18:52.444Z</time>
      </trkpt>
      <trkpt lat="42.828963" lon="0.904536">
        <ele>1887.4</ele>
        <time>2025-07-13T10:20:16.815Z</time>
      </trkpt>
      <trkpt lat="42.829140" lon="0.904729">
        <ele>1893.1</ele>
        <time>2025-07-13T10:21:37.528Z</time>
      </trkpt>
      <trkpt lat="42.829187" lon="0.905074">
        <ele>1889.1</ele>
        <time>2025-07-13T10:22:26.110Z</time>
      </trkpt>
      <trkpt lat="42.829517" lon="0.905954">
        <ele>1883.5</ele>
        <time>2025-07-13T10:24:08.971Z</time>
      </trkpt>
      <trkpt lat="42.829430" lon="0.906564">
        <ele>1866.2</ele>
        <time>2025-07-13T10:26:36.640Z</time>
      </trkpt>
      <trkpt lat="42.829586" lon="0.906965">
        <ele>1875.2</ele>
        <time>2025-07-13T10:28:42.191Z</time>
      </trkpt>
      <trkpt lat="42.829796" lon="0.907156">
        <ele>1881.9</ele>
        <time>2025-07-13T10:30:14.687Z</time>
      </trkpt>
      <trkpt lat="42.829840" lon="0.907480">
        <ele>1882.4</ele>
        <time>2025-07-13T10:30:43.302Z</time>
      </trkpt>
      <trkpt lat="42.829945" lon="0.907851">
        <ele>1883.1</ele>
        <time>2025-07-13T10:31:17.972Z</time>
      </trkpt>
      <trkpt lat="42.829880" lon="0.908384">
        <ele>1869.2</ele>
        <time>2025-07-13T10:33:18.885Z</time>
      </trkpt>
      <trkpt lat="42.829851" lon="0.908936">
        <ele>1863.5</ele>
        <time>2025-07-13T10:34:32.214Z</time>
      </trkpt>
      <trkpt lat="42.830021" lon="0.909665">
        <ele>1865.0</ele>
        <time>2025-07-13T10:35:40.905Z</time>
      </trkpt>
      <trkpt lat="42.830144" lon="0.910023">
        <ele>1861.9</ele>
        <time>2025-07-13T10:36:27.362Z</time>
      </trkpt>
      <trkpt lat="42.830146" lon="0.910455">
        <ele>1855.3</ele>
        <time>2025-07-13T10:37:37.960Z</time>
      </trkpt>
      <trkpt lat="42.829982" lon="0.910888">
        <ele>1840.7</ele>
        <time>2025-07-13T10:39:43.534Z</time>
      </trkpt>
      <trkpt lat="42.829871" lon="0.911149">
        <ele>1831.3</ele>
        <time>2025-07-13T10:41:01.177Z</time>
      </trkpt>
      <trkpt lat="42.829767" lon="0.911605">
        <ele>1817.0</ele>
        <time>2025-07-13T10:43:00.845Z</time>
      </trkpt>
      <trkpt lat="42.829631" lon="0.911971">
        <ele>1810.6</ele>
        <time>2025-07-13T10:44:08.075Z</time>
      </trkpt>
      <trkpt lat="42.829575" lon="0.912406">
        <ele>1795.1</ele>
        <time>2025-07-13T10:46:28.296Z</time>
      </trkpt>
      <trkpt lat="42.829538" lon="0.912686">
        <ele>1786.4</ele>
        <time>2025-07-13T10:47:44.515Z</time>
      </trkpt>
      <trkpt lat="42.829371" lon="0.912856">
        <ele>1779.4</ele>
        <time>2025-07-13T10:48:48.579Z</time>
      </trkpt>
      <trkpt lat="42.829219" lon="0.912844">
        <ele>1773.2</ele>
        <time>2025-07-13T10:49:57.797Z</time>
      </trkpt>
      <trkpt lat="42.829093" lon="0.912661">
        <ele>1771.0</ele>
        <time>2025-07-13T10:50:32.541Z</time>
      </trkpt>
      <trkpt lat="42.829105" lon="0.913019">
        <ele>1764.1</ele>
        <time>2025-07-13T10:51:39.929Z</time>
      </trkpt>
      <trkpt lat="42.829136" lon="0.913336">
        <ele>1756.8</ele>
        <time>2025-07-13T10:52:45.992Z</time>
      </trkpt>
      <trkpt lat="42.829156" lon="0.913832">
        <ele>1738.8</ele>
        <time>2025-07-13T10:55:15.909Z</time>
      </trkpt>
      <trkpt lat="42.829503" lon="0.914048">
        <ele>1722.1</ele>
        <time>2025-07-13T10:57:33.921Z</time>
      </trkpt>
      <trkpt lat="42.829653" lon="0.914353">
        <ele>1711.7</ele>
        <time>2025-07-13T10:59:02.720Z</time>
      </trkpt>
      <trkpt lat="42.829694" lon="0.914655">
        <ele>1703.0</ele>
        <time>2025-07-13T11:00:17.260Z</time>
      </trkpt>
      <trkpt lat="42.829710" lon="0.915015">
        <ele>1692.9</ele>
        <time>2025-07-13T11:01:44.123Z</time>
      </trkpt>
      <trkpt lat="42.829525" lon="0.915514">
        <ele>1685.1</ele>
        <time>2025-07-13T11:03:10.138Z</time>
      </trkpt>
      <trkpt lat="42.829441" lon="0.915963">
        <ele>1679.3</ele>
        <time>2025-07-13T11:04:17.514Z</time>
      </trkpt>
      <trkpt lat="42.829247" lon="0.916280">
        <ele>1674.7</ele>
        <time>2025-07-13T11:05:14.252Z</time>
      </trkpt>
      <trkpt lat="42.829071" lon="0.916488">
        <ele>1671.5</ele>
        <time>2025-07-13T11:05:57.385Z</time>
      </trkpt>
      <trkpt lat="42.828905" lon="0.917346">
        <ele>1657.1</ele>
        <time>2025-07-13T11:08:25.739Z</time>
      </trkpt>
      <trkpt lat="42.828720" lon="0.918032">
        <ele>1641.8</ele>
        <time>2025-07-13T11:10:48.591Z</time>
      </trkpt>
      <trkpt lat="42.828597" lon="0.918484">
        <ele>1631.4</ele>
        <time>2025-07-13T11:12:24.722Z</time>
      </trkpt>
      <trkpt lat="42.828644" lon="0.918962">
        <ele>1624.2</ele>
        <time>2025-07-13T11:13:41.974Z</time>
      </trkpt>
      <trkpt lat="42.828634" lon="0.919343">
        <ele>1618.5</ele>
        <time>2025-07-13T11:14:42.928Z</time>
      </trkpt>
      <trkpt lat="42.828620" lon="0.920012">
        <ele>1607.2</ele>
        <time>2025-07-13T11:16:37.486Z</time>
      </trkpt>
      <trkpt lat="42.828862" lon="0.919844">
        <ele>1610.0</ele>
        <time>2025-07-13T11:17:39.236Z</time>
      </trkpt>
      <trkpt lat="42.829106" lon="0.919686">
        <ele>1609.3</ele>
        <time>2025-07-13T11:18:10.302Z</time>
      </trkpt>
      <trkpt lat="42.829333" lon="0.919974">
        <ele>1598.7</ele>
        <time>2025-07-13T11:19:43.361Z</time>
      </trkpt>
      <trkpt lat="42.829501" lon="0.920296">
        <ele>1588.1</ele>
        <time>2025-07-13T11:21:14.772Z</time>
      </trkpt>
      <trkpt lat="42.829623" lon="0.920569">
        <ele>1577.8</ele>
        <time>2025-07-13T11:22:40.137Z</time>
      </trkpt>
      <trkpt lat="42.829800" lon="0.920767">
        <ele>1567.2</ele>
        <time>2025-07-13T11:24:06.995Z</time>
      </trkpt>
      <trkpt lat="42.830015" lon="0.920906">
        <ele>1555.9</ele>
        <time>2025-07-13T11:25:39.983Z</time>
      </trkpt>
      <trkpt lat="42.830269" lon="0.921248">
        <ele>1539.2</ele>
        <time>2025-07-13T11:27:56.545Z</time>
      </trkpt>
      <trkpt lat="42.830436" lon="0.921414">
        <ele>1528.5</ele>
        <time>2025-07-13T11:29:24.138Z</time>
      </trkpt>
      <trkpt lat="42.830638" lon="0.921551">
        <ele>1515.3</ele>
        <time>2025-07-13T11:31:08.490Z</time>
      </trkpt>
      <trkpt lat="42.830865" lon="0.921755">
        <ele>1501.7</ele>
        <time>2025-07-13T11:32:56.112Z</time>
      </trkpt>
      <trkpt lat="42.830987" lon="0.922066">
        <ele>1488.1</ele>
        <time>2025-07-13T11:34:45.215Z</time>
      </trkpt>
      <trkpt lat="42.831137" lon="0.922785">
        <ele>1459.5</ele>
        <time>2025-07-13T11:38:29.377Z</time>
      </trkpt>
      <trkpt lat="42.831270" lon="0.923172">
        <ele>1436.6</ele>
        <time>2025-07-13T11:41:33.252Z</time>
      </trkpt>
      <trkpt lat="42.831428" lon="0.923598">
        <ele>1419.2</ele>
        <time>2025-07-13T11:43:50.834Z</time>
      </trkpt>
      <trkpt lat="42.831285" lon="0.923867">
        <ele>1407.1</ele>
        <time>2025-07-13T11:45:26.536Z</time>
      </trkpt>
      <trkpt lat="42.831061" lon="0.924118">
        <ele>1416.5</ele>
        <time>2025-07-13T11:47:35.866Z</time>
      </trkpt>
      <trkpt lat="42.830677" lon="0.924239">
        <ele>1411.4</ele>
        <time>2025-07-13T11:48:50.193Z</time>
      </trkpt>
      <trkpt lat="42.830760" lon="0.924527">
        <ele>1401.5</ele>
        <time>2025-07-13T11:50:11.029Z</time>
      </trkpt>
      <trkpt lat="42.830610" lon="0.924895">
        <ele>1386.4</ele>
        <time>2025-07-13T11:52:11.042Z</time>
      </trkpt>
      <trkpt lat="42.830840" lon="0.925275">
        <ele>1368.8</ele>
        <time>2025-07-13T11:54:31.153Z</time>
      </trkpt>
      <trkpt lat="42.830806" lon="0.925986">
        <ele>1351.7</ele>
        <time>2025-07-13T11:57:03.586Z</time>
      </trkpt>
      <trkpt lat="42.831300" lon="0.926351">
        <ele>1314.2</ele>
        <time>2025-07-13T12:01:42.421Z</time>
      </trkpt>
      <trkpt lat="42.830889" lon="0.926779">
        <ele>1323.5</ele>
        <time>2025-07-13T12:04:08.313Z</time>
      </trkpt>
      <trkpt lat="42.831125" lon="0.926820">
        <ele>1310.3</ele>
        <time>2025-07-13T12:05:50.673Z</time>
      </trkpt>
      <trkpt lat="42.831121" lon="0.927357">
        <ele>1288.2</ele>
        <time>2025-07-13T12:08:40.551Z</time>
      </trkpt>
      <trkpt lat="42.831148" lon="0.927782">
        <ele>1272.9</ele>
        <time>2025-07-13T12:10:42.093Z</time>
      </trkpt>
      <trkpt lat="42.831171" lon="0.928238">
        <ele>1256.6</ele>
        <time>2025-07-13T12:12:52.308Z</time>
      </trkpt>
      <trkpt lat="42.831218" lon="0.928774">
        <ele>1241.3</ele>
        <time>2025-07-13T12:15:01.530Z</time>
      </trkpt>
      <trkpt lat="42.831417" lon="0.929298">
        <ele>1224.6</ele>
        <time>2025-07-13T12:17:22.900Z</time>
      </trkpt>
      <trkpt lat="42.831538" lon="0.928874">
        <ele>1213.0</ele>
        <time>2025-07-13T12:19:04.755Z</time>
      </trkpt>
      <trkpt lat="42.831842" lon="0.929410">
        <ele>1195.6</ele>
        <time>2025-07-13T12:21:36.148Z</time>
      </trkpt>
      <trkpt lat="42.831960" lon="0.929103">
        <ele>1191.1</ele>
        <time>2025-07-13T12:22:27.755Z</time>
      </trkpt>
      <trkpt lat="42.832260" lon="0.930059">
        <ele>1153.7</ele>
        <time>2025-07-13T12:27:26.011Z</time>
      </trkpt>
      <trkpt lat="42.832424" lon="0.930797">
        <ele>1134.0</ele>
        <time>2025-07-13T12:30:18.298Z</time>
      </trkpt>
      <trkpt lat="42.832758" lon="0.931336">
        <ele>1113.4</ele>
        <time>2025-07-13T12:33:11.393Z</time>
      </trkpt>
      <trkpt lat="42.833334" lon="0.931891">
        <ele>1084.9</ele>
        <time>2025-07-13T12:37:21.886Z</time>
      </trkpt>
      <trkpt lat="42.833536" lon="0.932037">
        <ele>1076.9</ele>
        <time>2025-07-13T12:38:31.536Z</time>
      </trkpt>
      <trkpt lat="42.833916" lon="0.931917">
        <ele>1063.3</ele>
        <time>2025-07-13T12:40:30.429Z</time>
      </trkpt>
      <trkpt lat="42.834199" lon="0.932216">
        <ele>1049.1</ele>
        <time>2025-07-13T12:42:29.803Z</time>
      </trkpt>
      <trkpt lat="42.834178" lon="0.932633">
        <ele>1036.9</ele>
        <time>2025-07-13T12:44:12.072Z</time>
      </trkpt>
      <trkpt lat="42.834088" lon="0.933393">
        <ele>1025.1</ele>
        <time>2025-07-13T12:46:16.873Z</time>
      </trkpt>
      <trkpt lat="42.834363" lon="0.933259">
        <ele>1014.2</ele>
        <time>2025-07-13T12:47:57.799Z</time>
      </trkpt>
      <trkpt lat="42.834485" lon="0.933756">
        <ele>1003.2</ele>
        <time>2025-07-13T12:49:40.420Z</time>
      </trkpt>
      <trkpt lat="42.834527" lon="0.934083">
        <ele>999.4</ele>
        <time>2025-07-13T12:50:26.501Z</time>
      </trkpt>
      <trkpt lat="42.834357" lon="0.934565">
        <ele>993.0</ele>
        <time>2025-07-13T12:51:44.614Z</time>
      </trkpt>
    </trkseg>
  </trk>
</gpx>
