<?xml version="1.0" encoding="UTF-8"?>
<gpx version="1.1" creator="carnet-trek seed (OpenStreetMap, EU-DEM)" xmlns="http://www.topografix.com/GPX/1/1">
  <metadata>
    <name>GR10 – Eylie → Cabane des Espugues</name>
    <copyright author="OpenStreetMap contributors"><license>https://opendatacommons.org/licenses/odbl/</license></copyright>
  </metadata>
  <wpt lat="42.834357" lon="0.934565">
    <name>Eylie</name>
    <sym>Convenience Store</sym>
  </wpt>
  <wpt lat="42.830129" lon="1.060801">
    <name>Point culminant (1894 m)</name>
    <sym>Summit</sym>
  </wpt>
  <wpt lat="42.834309" lon="0.934526">
    <name>Gite d&apos;Étape d&apos;Eylie</name>
    <sym>Lodging</sym>
  </wpt>
  <wpt lat="42.826825" lon="0.968464">
    <name>Cabane de l&apos;Arech</name>
    <sym>Lodging</sym>
  </wpt>
  <wpt lat="42.834309" lon="0.934526">
    <name>Gite d&apos;Étape d&apos;Eylie</name>
    <sym>Lodging</sym>
  </wpt>
  <wpt lat="42.830129" lon="1.060801">
    <name>Cabane des Espugues</name>
    <sym>Lodging</sym>
  </wpt>
  <trk>
    <name>GR10 – Eylie → Cabane des Espugues</name>
    <type>hike</type>
    <trkseg>
      <trkpt lat="42.834357" lon="0.934565">
        <ele>993.0</ele>
        <time>2025-07-14T07:30:00.000Z</time>
      </trkpt>
      <trkpt lat="42.834184" lon="0.934840">
        <ele>990.6</ele>
        <time>2025-07-14T07:30:39.522Z</time>
      </trkpt>
      <trkpt lat="42.834061" lon="0.935209">
        <ele>988.0</ele>
        <time>2025-07-14T07:31:23.909Z</time>
      </trkpt>
      <trkpt lat="42.833933" lon="0.935483">
        <ele>983.1</ele>
        <time>2025-07-14T07:32:16.480Z</time>
      </trkpt>
      <trkpt lat="42.833826" lon="0.935766">
        <ele>978.2</ele>
        <time>2025-07-14T07:33:10.466Z</time>
      </trkpt>
      <trkpt lat="42.833689" lon="0.935987">
        <ele>977.2</ele>
        <time>2025-07-14T07:33:38.538Z</time>
      </trkpt>
      <trkpt lat="42.833418" lon="0.936029">
        <ele>975.9</ele>
        <time>2025-07-14T07:34:12.319Z</time>
      </trkpt>
      <trkpt lat="42.833213" lon="0.936293">
        <ele>974.0</ele>
        <time>2025-07-14T07:34:53.409Z</time>
      </trkpt>
      <trkpt lat="42.833000" lon="0.936449">
        <ele>971.6</ele>
        <time>2025-07-14T07:35:31.129Z</time>
      </trkpt>
      <trkpt lat="42.832862" lon="0.936675">
        <ele>968.4</ele>
        <time>2025-07-14T07:36:12.079Z</time>
      </trkpt>
      <trkpt lat="42.832728" lon="0.936892">
        <ele>965.7</ele>
        <time>2025-07-14T07:36:51.584Z</time>
      </trkpt>
      <trkpt lat="42.832595" lon="0.937087">
        <ele>963.1</ele>
        <time>2025-07-14T07:37:33.338Z</time>
      </trkpt>
      <trkpt lat="42.832322" lon="0.937087">
        <ele>964.0</ele>
        <time>2025-07-14T07:38:09.456Z</time>
      </trkpt>
      <trkpt lat="42.832073" lon="0.936980">
        <ele>968.5</ele>
        <time>2025-07-14T07:39:20.932Z</time>
      </trkpt>
      <trkpt lat="42.831888" lon="0.936719">
        <ele>973.3</ele>
        <time>2025-07-14T07:40:36.246Z</time>
      </trkpt>
      <trkpt lat="42.831525" lon="0.936668">
        <ele>980.1</ele>
        <time>2025-07-14T07:42:21.855Z</time>
      </trkpt>
      <trkpt lat="42.831276" lon="0.936720">
        <ele>975.5</ele>
        <time>2025-07-14T07:43:15.730Z</time>
      </trkpt>
      <trkpt lat="42.831198" lon="0.936991">
        <ele>971.7</ele>
        <time>2025-07-14T07:44:01.701Z</time>
      </trkpt>
      <trkpt lat="42.831438" lon="0.937248">
        <ele>968.1</ele>
        <time>2025-07-14T07:44:57.791Z</time>
      </trkpt>
      <trkpt lat="42.831247" lon="0.937315">
        <ele>969.0</ele>
        <time>2025-07-14T07:45:36.531Z</time>
      </trkpt>
      <trkpt lat="42.831234" lon="0.937392">
        <ele>970.9</ele>
        <time>2025-07-14T07:46:23.386Z</time>
      </trkpt>
      <trkpt lat="42.831463" lon="0.937668">
        <ele>970.5</ele>
        <time>2025-07-14T07:46:55.247Z</time>
      </trkpt>
      <trkpt lat="42.831618" lon="0.937932">
        <ele>970.2</ele>
        <time>2025-07-14T07:47:21.045Z</time>
      </trkpt>
      <trkpt lat="42.831758" lon="0.938168">
        <ele>978.8</ele>
        <time>2025-07-14T07:49:10.838Z</time>
      </trkpt>
      <trkpt lat="42.831860" lon="0.938522">
        <ele>989.6</ele>
        <time>2025-07-14T07:51:29.876Z</time>
      </trkpt>
      <trkpt lat="42.832083" lon="0.938703">
        <ele>996.1</ele>
        <time>2025-07-14T07:53:01.726Z</time>
      </trkpt>
      <trkpt lat="42.832197" lon="0.938992">
        <ele>1002.2</ele>
        <time>2025-07-14T07:54:28.321Z</time>
      </trkpt>
      <trkpt lat="42.832283" lon="0.939257">
        <ele>1012.6</ele>
        <time>2025-07-14T07:56:38.412Z</time>
      </trkpt>
      <trkpt lat="42.832341" lon="0.939487">
        <ele>1022.8</ele>
        <time>2025-07-14T07:58:46.299Z</time>
      </trkpt>
      <trkpt lat="42.832475" lon="0.939835">
        <ele>1036.2</ele>
        <time>2025-07-14T08:01:33.466Z</time>
      </trkpt>
      <trkpt lat="42.832468" lon="0.940099">
        <ele>1047.0</ele>
        <time>2025-07-14T08:03:50.118Z</time>
      </trkpt>
      <trkpt lat="42.832254" lon="0.940159">
        <ele>1054.4</ele>
        <time>2025-07-14T08:05:28.842Z</time>
      </trkpt>
      <trkpt lat="42.832450" lon="0.940461">
        <ele>1062.5</ele>
        <time>2025-07-14T08:07:20.474Z</time>
      </trkpt>
      <trkpt lat="42.832619" lon="0.940655">
        <ele>1067.2</ele>
        <time>2025-07-14T08:08:30.128Z</time>
      </trkpt>
      <trkpt lat="42.832323" lon="0.940697">
        <ele>1073.1</ele>
        <time>2025-07-14T08:09:58.915Z</time>
      </trkpt>
      <trkpt lat="42.832331" lon="0.940864">
        <ele>1082.0</ele>
        <time>2025-07-14T08:12:18.795Z</time>
      </trkpt>
      <trkpt lat="42.832582" lon="0.941052">
        <ele>1083.7</ele>
        <time>2025-07-14T08:13:03.008Z</time>
      </trkpt>
      <trkpt lat="42.832749" lon="0.941373">
        <ele>1085.3</ele>
        <time>2025-07-14T08:13:47.684Z</time>
      </trkpt>
      <trkpt lat="42.832757" lon="0.941736">
        <ele>1095.4</ele>
        <time>2025-07-14T08:15:56.635Z</time>
      </trkpt>
      <trkpt lat="42.832890" lon="0.942121">
        <ele>1107.0</ele>
        <time>2025-07-14T08:18:26.670Z</time>
      </trkpt>
      <trkpt lat="42.832816" lon="0.942523">
        <ele>1118.4</ele>
        <time>2025-07-14T08:20:56.257Z</time>
      </trkpt>
      <trkpt lat="42.832811" lon="0.942862">
        <ele>1126.7</ele>
        <time>2025-07-14T08:22:45.142Z</time>
      </trkpt>
      <trkpt lat="42.832754" lon="0.943253">
        <ele>1132.6</ele>
        <time>2025-07-14T08:24:14.034Z</time>
      </trkpt>
      <trkpt lat="42.832667" lon="0.943613">
        <ele>1138.3</ele>
        <time>2025-07-14T08:25:38.488Z</time>
      </trkpt>
      <trkpt lat="42.832362" lon="0.944126">
        <ele>1151.8</ele>
        <time>2025-07-14T08:28:43.849Z</time>
      </trkpt>
      <trkpt lat="42.831975" lon="0.944680">
        <ele>1166.9</ele>
        <time>2025-07-14T08:32:12.278Z</time>
      </trkpt>
      <trkpt lat="42.831851" lon="0.945253">
        <ele>1168.6</ele>
        <time>2025-07-14T08:33:12.163Z</time>
      </trkpt>
      <trkpt lat="42.831590" lon="0.945688">
        <ele>1179.6</ele>
        <time>2025-07-14T08:35:45.956Z</time>
      </trkpt>
      <trkpt lat="42.831334" lon="0.945793">
        <ele>1189.4</ele>
        <time>2025-07-14T08:37:52.134Z</time>
      </trkpt>
      <trkpt lat="42.831530" lon="0.945937">
        <ele>1188.5</ele>
        <time>2025-07-14T08:38:23.000Z</time>
      </trkpt>
      <trkpt lat="42.831516" lon="0.947036">
        <ele>1185.9</ele>
        <time>2025-07-14T08:39:55.703Z</time>
      </trkpt>
      <trkpt lat="42.831435" lon="0.948126">
        <ele>1196.3</ele>
        <time>2025-07-14T08:42:58.605Z</time>
      </trkpt>
      <trkpt lat="42.831378" lon="0.948496">
        <ele>1203.8</ele>
        <time>2025-07-14T08:44:42.793Z</time>
      </trkpt>
      <trkpt lat="42.831294" lon="0.948791">
        <ele>1210.2</ele>
        <time>2025-07-14T08:46:10.037Z</time>
      </trkpt>
      <trkpt lat="42.831268" lon="0.949200">
        <ele>1214.7</ele>
        <time>2025-07-14T08:47:25.852Z</time>
      </trkpt>
      <trkpt lat="42.831197" lon="0.950008">
        <ele>1223.8</ele>
        <time>2025-07-14T08:49:56.288Z</time>
      </trkpt>
      <trkpt lat="42.831229" lon="0.950646">
        <ele>1225.0</ele>
        <time>2025-07-14T08:50:53.509Z</time>
      </trkpt>
      <trkpt lat="42.831348" lon="0.951397">
        <ele>1232.7</ele>
        <time>2025-07-14T08:53:06.566Z</time>
      </trkpt>
      <trkpt lat="42.831510" lon="0.951929">
        <ele>1237.8</ele>
        <time>2025-07-14T08:54:40.317Z</time>
      </trkpt>
      <trkpt lat="42.831660" lon="0.952312">
        <ele>1241.6</ele>
        <time>2025-07-14T08:55:49.216Z</time>
      </trkpt>
      <trkpt lat="42.831398" lon="0.952364">
        <ele>1248.1</ele>
        <time>2025-07-14T08:57:25.095Z</time>
      </trkpt>
      <trkpt lat="42.831606" lon="0.952916">
        <ele>1258.7</ele>
        <time>2025-07-14T09:00:01.882Z</time>
      </trkpt>
      <trkpt lat="42.831258" lon="0.953002">
        <ele>1268.3</ele>
        <time>2025-07-14T09:02:16.214Z</time>
      </trkpt>
      <trkpt lat="42.831350" lon="0.953254">
        <ele>1273.5</ele>
        <time>2025-07-14T09:03:32.089Z</time>
      </trkpt>
      <trkpt lat="42.831205" lon="0.953308">
        <ele>1278.2</ele>
        <time>2025-07-14T09:04:41.913Z</time>
      </trkpt>
      <trkpt lat="42.831256" lon="0.953574">
        <ele>1283.3</ele>
        <time>2025-07-14T09:05:57.477Z</time>
      </trkpt>
      <trkpt lat="42.831063" lon="0.953635">
        <ele>1290.5</ele>
        <time>2025-07-14T09:07:34.470Z</time>
      </trkpt>
      <trkpt lat="42.831114" lon="0.953955">
        <ele>1298.0</ele>
        <time>2025-07-14T09:09:14.889Z</time>
      </trkpt>
      <trkpt lat="42.830892" lon="0.953861">
        <ele>1304.0</ele>
        <time>2025-07-14T09:10:39.585Z</time>
      </trkpt>
      <trkpt lat="42.830857" lon="0.954142">
        <ele>1310.7</ele>
        <time>2025-07-14T09:12:13.572Z</time>
      </trkpt>
      <trkpt lat="42.830573" lon="0.954054">
        <ele>1322.7</ele>
        <time>2025-07-14T09:14:49.038Z</time>
      </trkpt>
      <trkpt lat="42.830495" lon="0.954300">
        <ele>1332.1</ele>
        <time>2025-07-14T09:16:49.334Z</time>
      </trkpt>
      <trkpt lat="42.830292" lon="0.954459">
        <ele>1347.0</ele>
        <time>2025-07-14T09:19:55.359Z</time>
      </trkpt>
      <trkpt lat="42.829915" lon="0.954249">
        <ele>1363.3</ele>
        <time>2025-07-14T09:23:22.658Z</time>
      </trkpt>
      <trkpt lat="42.829749" lon="0.953869">
        <ele>1374.8</ele>
        <time>2025-07-14T09:25:52.886Z</time>
      </trkpt>
      <trkpt lat="42.829708" lon="0.953528">
        <ele>1377.9</ele>
        <time>2025-07-14T09:26:50.394Z</time>
      </trkpt>
      <trkpt lat="42.829594" lon="0.953203">
        <ele>1383.2</ele>
        <time>2025-07-14T09:28:11.260Z</time>
      </trkpt>
      <trkpt lat="42.829279" lon="0.952501">
        <ele>1412.6</ele>
        <time>2025-07-14T09:34:19.848Z</time>
      </trkpt>
      <trkpt lat="42.829077" lon="0.952241">
        <ele>1427.6</ele>
        <time>2025-07-14T09:37:21.459Z</time>
      </trkpt>
      <trkpt lat="42.828884" lon="0.952393">
        <ele>1439.3</ele>
        <time>2025-07-14T09:39:44.508Z</time>
      </trkpt>
      <trkpt lat="42.828650" lon="0.952005">
        <ele>1450.2</ele>
        <time>2025-07-14T09:42:11.945Z</time>
      </trkpt>
      <trkpt lat="42.828522" lon="0.952080">
        <ele>1454.1</ele>
        <time>2025-07-14T09:43:13.999Z</time>
      </trkpt>
      <trkpt lat="42.828359" lon="0.951833">
        <ele>1457.2</ele>
        <time>2025-07-14T09:44:10.711Z</time>
      </trkpt>
      <trkpt lat="42.828239" lon="0.951567">
        <ele>1460.8</ele>
        <time>2025-07-14T09:45:09.816Z</time>
      </trkpt>
      <trkpt lat="42.827967" lon="0.951565">
        <ele>1467.3</ele>
        <time>2025-07-14T09:46:41.740Z</time>
      </trkpt>
      <trkpt lat="42.828036" lon="0.951760">
        <ele>1472.6</ele>
        <time>2025-07-14T09:47:58.321Z</time>
      </trkpt>
      <trkpt lat="42.827904" lon="0.951873">
        <ele>1479.9</ele>
        <time>2025-07-14T09:49:35.780Z</time>
      </trkpt>
      <trkpt lat="42.827959" lon="0.952345">
        <ele>1492.3</ele>
        <time>2025-07-14T09:52:21.493Z</time>
      </trkpt>
      <trkpt lat="42.827753" lon="0.952262">
        <ele>1497.1</ele>
        <time>2025-07-14T09:53:40.448Z</time>
      </trkpt>
      <trkpt lat="42.827529" lon="0.952214">
        <ele>1502.0</ele>
        <time>2025-07-14T09:54:53.436Z</time>
      </trkpt>
      <trkpt lat="42.827092" lon="0.952541">
        <ele>1523.7</ele>
        <time>2025-07-14T09:59:41.458Z</time>
      </trkpt>
      <trkpt lat="42.827312" lon="0.952695">
        <ele>1520.6</ele>
        <time>2025-07-14T10:00:26.040Z</time>
      </trkpt>
      <trkpt lat="42.827552" lon="0.952890">
        <ele>1519.5</ele>
        <time>2025-07-14T10:00:59.446Z</time>
      </trkpt>
      <trkpt lat="42.827454" lon="0.952964">
        <ele>1524.5</ele>
        <time>2025-07-14T10:02:13.937Z</time>
      </trkpt>
      <trkpt lat="42.827179" lon="0.952995">
        <ele>1529.3</ele>
        <time>2025-07-14T10:03:30.052Z</time>
      </trkpt>
      <trkpt lat="42.827332" lon="0.953193">
        <ele>1531.7</ele>
        <time>2025-07-14T10:04:17.737Z</time>
      </trkpt>
      <trkpt lat="42.827405" lon="0.953540">
        <ele>1535.3</ele>
        <time>2025-07-14T10:05:19.872Z</time>
      </trkpt>
      <trkpt lat="42.827269" lon="0.953423">
        <ele>1539.1</ele>
        <time>2025-07-14T10:06:20.907Z</time>
      </trkpt>
      <trkpt lat="42.827219" lon="0.953561">
        <ele>1543.6</ele>
        <time>2025-07-14T10:07:30.630Z</time>
      </trkpt>
      <trkpt lat="42.827197" lon="0.953768">
        <ele>1548.2</ele>
        <time>2025-07-14T10:08:39.299Z</time>
      </trkpt>
      <trkpt lat="42.826923" lon="0.953589">
        <ele>1555.4</ele>
        <time>2025-07-14T10:10:24.474Z</time>
      </trkpt>
      <trkpt lat="42.826914" lon="0.953822">
        <ele>1565.4</ele>
        <time>2025-07-14T10:12:44.551Z</time>
      </trkpt>
      <trkpt lat="42.826895" lon="0.953977">
        <ele>1572.6</ele>
        <time>2025-07-14T10:14:20.833Z</time>
      </trkpt>
      <trkpt lat="42.826611" lon="0.953863">
        <ele>1582.1</ele>
        <time>2025-07-14T10:16:26.594Z</time>
      </trkpt>
      <trkpt lat="42.826732" lon="0.954148">
        <ele>1587.5</ele>
        <time>2025-07-14T10:17:48.094Z</time>
      </trkpt>
      <trkpt lat="42.826614" lon="0.954194">
        <ele>1592.7</ele>
        <time>2025-07-14T10:19:05.660Z</time>
      </trkpt>
      <trkpt lat="42.826374" lon="0.954052">
        <ele>1598.4</ele>
        <time>2025-07-14T10:20:28.992Z</time>
      </trkpt>
      <trkpt lat="42.826487" lon="0.954408">
        <ele>1605.3</ele>
        <time>2025-07-14T10:22:11.121Z</time>
      </trkpt>
      <trkpt lat="42.826448" lon="0.954574">
        <ele>1611.8</ele>
        <time>2025-07-14T10:23:39.009Z</time>
      </trkpt>
      <trkpt lat="42.826208" lon="0.954374">
        <ele>1619.7</ele>
        <time>2025-07-14T10:25:27.805Z</time>
      </trkpt>
      <trkpt lat="42.826259" lon="0.954684">
        <ele>1623.0</ele>
        <time>2025-07-14T10:26:24.945Z</time>
      </trkpt>
      <trkpt lat="42.826190" lon="0.954803">
        <ele>1627.1</ele>
        <time>2025-07-14T10:27:35.420Z</time>
      </trkpt>
      <trkpt lat="42.826016" lon="0.954616">
        <ele>1631.0</ele>
        <time>2025-07-14T10:28:36.726Z</time>
      </trkpt>
      <trkpt lat="42.826009" lon="0.954802">
        <ele>1635.1</ele>
        <time>2025-07-14T10:29:41.069Z</time>
      </trkpt>
      <trkpt lat="42.826028" lon="0.955235">
        <ele>1637.7</ele>
        <time>2025-07-14T10:30:39.038Z</time>
      </trkpt>
      <trkpt lat="42.825926" lon="0.955170">
        <ele>1640.4</ele>
        <time>2025-07-14T10:31:35.668Z</time>
      </trkpt>
      <trkpt lat="42.825919" lon="0.955469">
        <ele>1645.7</ele>
        <time>2025-07-14T10:32:53.873Z</time>
      </trkpt>
      <trkpt lat="42.825772" lon="0.955608">
        <ele>1650.6</ele>
        <time>2025-07-14T10:34:07.325Z</time>
      </trkpt>
      <trkpt lat="42.825701" lon="0.955957">
        <ele>1656.7</ele>
        <time>2025-07-14T10:35:37.048Z</time>
      </trkpt>
      <trkpt lat="42.825447" lon="0.956297">
        <ele>1667.4</ele>
        <time>2025-07-14T10:38:01.406Z</time>
      </trkpt>
      <trkpt lat="42.825099" lon="0.956669">
        <ele>1685.1</ele>
        <time>2025-07-14T10:41:45.646Z</time>
      </trkpt>
      <trkpt lat="42.825019" lon="0.956635">
        <ele>1690.1</ele>
        <time>2025-07-14T10:43:03.903Z</time>
      </trkpt>
      <trkpt lat="42.824880" lon="0.956522">
        <ele>1695.3</ele>
        <time>2025-07-14T10:44:27.715Z</time>
      </trkpt>
      <trkpt lat="42.824684" lon="0.956811">
        <ele>1699.0</ele>
        <time>2025-07-14T10:45:34.159Z</time>
      </trkpt>
      <trkpt lat="42.824534" lon="0.957047">
        <ele>1709.0</ele>
        <time>2025-07-14T10:47:39.133Z</time>
      </trkpt>
      <trkpt lat="42.824378" lon="0.957375">
        <ele>1728.4</ele>
        <time>2025-07-14T10:51:27.255Z</time>
      </trkpt>
      <trkpt lat="42.824276" lon="0.957627">
        <ele>1734.8</ele>
        <time>2025-07-14T10:52:58.826Z</time>
      </trkpt>
      <trkpt lat="42.824373" lon="0.957905">
        <ele>1736.8</ele>
        <time>2025-07-14T10:53:41.451Z</time>
      </trkpt>
      <trkpt lat="42.824544" lon="0.958635">
        <ele>1732.8</ele>
        <time>2025-07-14T10:55:00.672Z</time>
      </trkpt>
      <trkpt lat="42.824667" lon="0.958963">
        <ele>1736.0</ele>
        <time>2025-07-14T10:56:00.927Z</time>
      </trkpt>
      <trkpt lat="42.824874" lon="0.959907">
        <ele>1744.0</ele>
        <time>2025-07-14T10:58:32.589Z</time>
      </trkpt>
      <trkpt lat="42.824900" lon="0.960315">
        <ele>1755.1</ele>
        <time>2025-07-14T11:00:55.403Z</time>
      </trkpt>
      <trkpt lat="42.824856" lon="0.960680">
        <ele>1765.1</ele>
        <time>2025-07-14T11:03:03.962Z</time>
      </trkpt>
      <trkpt lat="42.824861" lon="0.961260">
        <ele>1778.7</ele>
        <time>2025-07-14T11:06:04.911Z</time>
      </trkpt>
      <trkpt lat="42.824901" lon="0.961707">
        <ele>1786.4</ele>
        <time>2025-07-14T11:07:56.337Z</time>
      </trkpt>
      <trkpt lat="42.824984" lon="0.962093">
        <ele>1792.5</ele>
        <time>2025-07-14T11:09:27.516Z</time>
      </trkpt>
      <trkpt lat="42.825010" lon="0.962817">
        <ele>1806.7</ele>
        <time>2025-07-14T11:13:01.564Z</time>
      </trkpt>
      <trkpt lat="42.825159" lon="0.963198">
        <ele>1809.4</ele>
        <time>2025-07-14T11:14:00.070Z</time>
      </trkpt>
      <trkpt lat="42.825014" lon="0.963345">
        <ele>1811.4</ele>
        <time>2025-07-14T11:14:41.791Z</time>
      </trkpt>
      <trkpt lat="42.824836" lon="0.963556">
        <ele>1810.5</ele>
        <time>2025-07-14T11:15:11.132Z</time>
      </trkpt>
      <trkpt lat="42.825322" lon="0.963715">
        <ele>1808.7</ele>
        <time>2025-07-14T11:16:09.523Z</time>
      </trkpt>
      <trkpt lat="42.825558" lon="0.963761">
        <ele>1807.1</ele>
        <time>2025-07-14T11:16:42.273Z</time>
      </trkpt>
      <trkpt lat="42.825806" lon="0.963834">
        <ele>1805.3</ele>
        <time>2025-07-14T11:17:17.241Z</time>
      </trkpt>
      <trkpt lat="42.826241" lon="0.964087">
        <ele>1800.4</ele>
        <time>2025-07-14T11:18:31.785Z</time>
      </trkpt>
      <trkpt lat="42.826676" lon="0.964338">
        <ele>1793.9</ele>
        <time>2025-07-14T11:19:55.337Z</time>
      </trkpt>
      <trkpt lat="42.827019" lon="0.964430">
        <ele>1788.8</ele>
        <time>2025-07-14T11:20:59.734Z</time>
      </trkpt>
      <trkpt lat="42.827275" lon="0.964327">
        <ele>1786.0</ele>
        <time>2025-07-14T11:21:46.757Z</time>
      </trkpt>
      <trkpt lat="42.827389" lon="0.964596">
        <ele>1785.3</ele>
        <time>2025-07-14T11:22:15.839Z</time>
      </trkpt>
      <trkpt lat="42.827608" lon="0.964916">
        <ele>1786.6</ele>
        <time>2025-07-14T11:23:00.075Z</time>
      </trkpt>
      <trkpt lat="42.827981" lon="0.965160">
        <ele>1790.1</ele>
        <time>2025-07-14T11:24:15.217Z</time>
      </trkpt>
      <trkpt lat="42.828228" lon="0.965320">
        <ele>1795.5</ele>
        <time>2025-07-14T11:25:37.220Z</time>
      </trkpt>
      <trkpt lat="42.828563" lon="0.965519">
        <ele>1802.2</ele>
        <time>2025-07-14T11:27:20.848Z</time>
      </trkpt>
      <trkpt lat="42.828893" lon="0.965952">
        <ele>1809.4</ele>
        <time>2025-07-14T11:29:18.599Z</time>
      </trkpt>
      <trkpt lat="42.829073" lon="0.966356">
        <ele>1804.0</ele>
        <time>2025-07-14T11:30:23.720Z</time>
      </trkpt>
      <trkpt lat="42.829144" lon="0.967221">
        <ele>1794.3</ele>
        <time>2025-07-14T11:32:22.983Z</time>
      </trkpt>
      <trkpt lat="42.829218" lon="0.967714">
        <ele>1783.5</ele>
        <time>2025-07-14T11:34:02.695Z</time>
      </trkpt>
      <trkpt lat="42.829259" lon="0.968165">
        <ele>1775.9</ele>
        <time>2025-07-14T11:35:20.289Z</time>
      </trkpt>
      <trkpt lat="42.829065" lon="0.968331">
        <ele>1771.7</ele>
        <time>2025-07-14T11:36:13.041Z</time>
      </trkpt>
      <trkpt lat="42.828821" lon="0.967948">
        <ele>1770.1</ele>
        <time>2025-07-14T11:36:58.467Z</time>
      </trkpt>
      <trkpt lat="42.828596" lon="0.967498">
        <ele>1774.2</ele>
        <time>2025-07-14T11:38:18.772Z</time>
      </trkpt>
      <trkpt lat="42.828348" lon="0.967150">
        <ele>1769.9</ele>
        <time>2025-07-14T11:39:18.725Z</time>
      </trkpt>
      <trkpt lat="42.827872" lon="0.966779">
        <ele>1763.2</ele>
        <time>2025-07-14T11:40:51.056Z</time>
      </trkpt>
      <trkpt lat="42.827618" lon="0.966649">
        <ele>1756.3</ele>
        <time>2025-07-14T11:41:58.568Z</time>
      </trkpt>
      <trkpt lat="42.827396" lon="0.966570">
        <ele>1750.5</ele>
        <time>2025-07-14T11:42:55.294Z</time>
      </trkpt>
      <trkpt lat="42.827013" lon="0.966346">
        <ele>1749.4</ele>
        <time>2025-07-14T11:43:42.009Z</time>
      </trkpt>
      <trkpt lat="42.826532" lon="0.966132">
        <ele>1748.0</ele>
        <time>2025-07-14T11:44:38.557Z</time>
      </trkpt>
      <trkpt lat="42.826271" lon="0.966059">
        <ele>1740.5</ele>
        <time>2025-07-14T11:45:48.583Z</time>
      </trkpt>
      <trkpt lat="42.825664" lon="0.966086">
        <ele>1730.4</ele>
        <time>2025-07-14T11:47:47.151Z</time>
      </trkpt>
      <trkpt lat="42.825309" lon="0.966041">
        <ele>1726.8</ele>
        <time>2025-07-14T11:48:43.064Z</time>
      </trkpt>
      <trkpt lat="42.824819" lon="0.966098">
        <ele>1722.1</ele>
        <time>2025-07-14T11:49:58.385Z</time>
      </trkpt>
      <trkpt lat="42.824684" lon="0.966283">
        <ele>1712.4</ele>
        <time>2025-07-14T11:51:19.811Z</time>
      </trkpt>
      <trkpt lat="42.824965" lon="0.966437">
        <ele>1700.3</ele>
        <time>2025-07-14T11:53:00.885Z</time>
      </trkpt>
      <trkpt lat="42.825270" lon="0.966856">
        <ele>1679.5</ele>
        <time>2025-07-14T11:55:48.106Z</time>
      </trkpt>
      <trkpt lat="42.825555" lon="0.967068">
        <ele>1667.6</ele>
        <time>2025-07-14T11:57:30.896Z</time>
      </trkpt>
      <trkpt lat="42.825775" lon="0.967352">
        <ele>1660.7</ele>
        <time>2025-07-14T11:58:41.681Z</time>
      </trkpt>
      <trkpt lat="42.826065" lon="0.967487">
        <ele>1659.7</ele>
        <time>2025-07-14T11:59:16.929Z</time>
      </trkpt>
      <trkpt lat="42.826303" lon="0.967617">
        <ele>1655.1</ele>
        <time>2025-07-14T12:00:11.334Z</time>
      </trkpt>
      <trkpt lat="42.826444" lon="0.967979">
        <ele>1644.5</ele>
        <time>2025-07-14T12:01:45.804Z</time>
      </trkpt>
      <trkpt lat="42.826258" lon="0.968143">
        <ele>1637.4</ele>
        <time>2025-07-14T12:02:50.490Z</time>
      </trkpt>
      <trkpt lat="42.826224" lon="0.968563">
        <ele>1627.9</ele>
        <time>2025-07-14T12:04:18.620Z</time>
      </trkpt>
      <trkpt lat="42.826311" lon="0.968888">
        <ele>1625.0</ele>
        <time>2025-07-14T12:05:00.357Z</time>
      </trkpt>
      <trkpt lat="42.826386" lon="0.969333">
        <ele>1620.9</ele>
        <time>2025-07-14T12:05:57.105Z</time>
      </trkpt>
      <trkpt lat="42.826472" lon="0.969653">
        <ele>1617.4</ele>
        <time>2025-07-14T12:06:41.628Z</time>
      </trkpt>
      <trkpt lat="42.826594" lon="0.970159">
        <ele>1610.9</ele>
        <time>2025-07-14T12:07:58.244Z</time>
      </trkpt>
      <trkpt lat="42.826945" lon="0.970708">
        <ele>1608.4</ele>
        <time>2025-07-14T12:09:04.355Z</time>
      </trkpt>
      <trkpt lat="42.827073" lon="0.970963">
        <ele>1605.7</ele>
        <time>2025-07-14T12:09:42.212Z</time>
      </trkpt>
      <trkpt lat="42.826911" lon="0.971349">
        <ele>1592.1</ele>
        <time>2025-07-14T12:11:35.275Z</time>
      </trkpt>
      <trkpt lat="42.826776" lon="0.971647">
        <ele>1581.9</ele>
        <time>2025-07-14T12:13:01.505Z</time>
      </trkpt>
      <trkpt lat="42.826812" lon="0.972012">
        <ele>1570.7</ele>
        <time>2025-07-14T12:14:36.887Z</time>
      </trkpt>
      <trkpt lat="42.826843" lon="0.972401">
        <ele>1558.4</ele>
        <time>2025-07-14T12:16:18.687Z</time>
      </trkpt>
      <trkpt lat="42.826994" lon="0.972999">
        <ele>1537.2</ele>
        <time>2025-07-14T12:19:10.026Z</time>
      </trkpt>
      <trkpt lat="42.827127" lon="0.973324">
        <ele>1531.6</ele>
        <time>2025-07-14T12:20:09.601Z</time>
      </trkpt>
      <trkpt lat="42.827227" lon="0.973619">
        <ele>1527.6</ele>
        <time>2025-07-14T12:20:56.509Z</time>
      </trkpt>
      <trkpt lat="42.827135" lon="0.973705">
        <ele>1526.1</ele>
        <time>2025-07-14T12:21:29.324Z</time>
      </trkpt>
      <trkpt lat="42.827285" lon="0.973907">
        <ele>1524.3</ele>
        <time>2025-07-14T12:22:04.010Z</time>
      </trkpt>
      <trkpt lat="42.827032" lon="0.973867">
        <ele>1522.1</ele>
        <time>2025-07-14T12:22:44.088Z</time>
      </trkpt>
      <trkpt lat="42.827148" lon="0.974175">
        <ele>1519.3</ele>
        <time>2025-07-14T12:23:25.729Z</time>
      </trkpt>
      <trkpt lat="42.827176" lon="0.974375">
        <ele>1514.8</ele>
        <time>2025-07-14T12:24:15.663Z</time>
      </trkpt>
      <trkpt lat="42.827166" lon="0.974578">
        <ele>1509.1</ele>
        <time>2025-07-14T12:25:19.489Z</time>
      </trkpt>
      <trkpt lat="42.827081" lon="0.974666">
        <ele>1505.0</ele>
        <time>2025-07-14T12:26:07.158Z</time>
      </trkpt>
      <trkpt lat="42.827093" lon="0.974825">
        <ele>1501.3</ele>
        <time>2025-07-14T12:26:51.306Z</time>
      </trkpt>
      <trkpt lat="42.827049" lon="0.974951">
        <ele>1495.5</ele>
        <time>2025-07-14T12:27:50.473Z</time>
      </trkpt>
      <trkpt lat="42.827048" lon="0.975131">
        <ele>1489.3</ele>
        <time>2025-07-14T12:28:53.027Z</time>
      </trkpt>
      <trkpt lat="42.827030" lon="0.975341">
        <ele>1482.7</ele>
        <time>2025-07-14T12:29:56.647Z</time>
      </trkpt>
      <trkpt lat="42.827008" lon="0.975576">
        <ele>1475.4</ele>
        <time>2025-07-14T12:31:07.900Z</time>
      </trkpt>
      <trkpt lat="42.826961" lon="0.975883">
        <ele>1468.9</ele>
        <time>2025-07-14T12:32:11.862Z</time>
      </trkpt>
      <trkpt lat="42.826908" lon="0.976143">
        <ele>1456.6</ele>
        <time>2025-07-14T12:34:07.897Z</time>
      </trkpt>
      <trkpt lat="42.826811" lon="0.976257">
        <ele>1449.7</ele>
        <time>2025-07-14T12:35:12.040Z</time>
      </trkpt>
      <trkpt lat="42.826705" lon="0.976272">
        <ele>1445.3</ele>
        <time>2025-07-14T12:36:01.662Z</time>
      </trkpt>
      <trkpt lat="42.826847" lon="0.976540">
        <ele>1440.9</ele>
        <time>2025-07-14T12:36:51.077Z</time>
      </trkpt>
      <trkpt lat="42.826779" lon="0.976762">
        <ele>1435.3</ele>
        <time>2025-07-14T12:38:06.617Z</time>
      </trkpt>
      <trkpt lat="42.826763" lon="0.976950">
        <ele>1429.3</ele>
        <time>2025-07-14T12:39:25.917Z</time>
      </trkpt>
      <trkpt lat="42.826727" lon="0.977109">
        <ele>1423.4</ele>
        <time>2025-07-14T12:40:41.198Z</time>
      </trkpt>
      <trkpt lat="42.826654" lon="0.977167">
        <ele>1420.1</ele>
        <time>2025-07-14T12:41:26.863Z</time>
      </trkpt>
      <trkpt lat="42.826632" lon="0.977287">
        <ele>1417.0</ele>
        <time>2025-07-14T12:42:10.498Z</time>
      </trkpt>
      <trkpt lat="42.826603" lon="0.977423">
        <ele>1412.9</ele>
        <time>2025-07-14T12:42:57.844Z</time>
      </trkpt>
      <trkpt lat="42.826496" lon="0.977507">
        <ele>1407.4</ele>
        <time>2025-07-14T12:43:59.188Z</time>
      </trkpt>
      <trkpt lat="42.826460" lon="0.977663">
        <ele>1401.5</ele>
        <time>2025-07-14T12:44:58.205Z</time>
      </trkpt>
      <trkpt lat="42.826423" lon="0.977792">
        <ele>1395.1</ele>
        <time>2025-07-14T12:46:03.311Z</time>
      </trkpt>
      <trkpt lat="42.826374" lon="0.977989">
        <ele>1387.9</ele>
        <time>2025-07-14T12:47:16.897Z</time>
      </trkpt>
      <trkpt lat="42.826304" lon="0.978081">
        <ele>1381.8</ele>
        <time>2025-07-14T12:48:18.328Z</time>
      </trkpt>
      <trkpt lat="42.826219" lon="0.978188">
        <ele>1374.7</ele>
        <time>2025-07-14T12:49:30.219Z</time>
      </trkpt>
      <trkpt lat="42.826162" lon="0.978300">
        <ele>1369.3</ele>
        <time>2025-07-14T12:50:29.216Z</time>
      </trkpt>
      <trkpt lat="42.826037" lon="0.978309">
        <ele>1364.7</ele>
        <time>2025-07-14T12:51:33.879Z</time>
      </trkpt>
      <trkpt lat="42.826081" lon="0.978627">
        <ele>1357.6</ele>
        <time>2025-07-14T12:52:39.620Z</time>
      </trkpt>
      <trkpt lat="42.826014" lon="0.978875">
        <ele>1350.7</ele>
        <time>2025-07-14T12:53:42.341Z</time>
      </trkpt>
      <trkpt lat="42.825709" lon="0.979327">
        <ele>1334.8</ele>
        <time>2025-07-14T12:56:03.493Z</time>
      </trkpt>
      <trkpt lat="42.825666" lon="0.978938">
        <ele>1337.6</ele>
        <time>2025-07-14T12:57:00.643Z</time>
      </trkpt>
      <trkpt lat="42.825629" lon="0.978483">
        <ele>1340.7</ele>
        <time>2025-07-14T12:58:05.038Z</time>
      </trkpt>
      <trkpt lat="42.825505" lon="0.977881">
        <ele>1342.3</ele>
        <time>2025-07-14T12:59:05.386Z</time>
      </trkpt>
      <trkpt lat="42.825430" lon="0.977580">
        <ele>1340.2</ele>
        <time>2025-07-14T12:59:40.694Z</time>
      </trkpt>
      <trkpt lat="42.825270" lon="0.977644">
        <ele>1337.8</ele>
        <time>2025-07-14T13:00:18.178Z</time>
      </trkpt>
      <trkpt lat="42.824975" lon="0.978179">
        <ele>1333.0</ele>
        <time>2025-07-14T13:01:34.581Z</time>
      </trkpt>
      <trkpt lat="42.824711" lon="0.978499">
        <ele>1335.2</ele>
        <time>2025-07-14T13:02:31.006Z</time>
      </trkpt>
      <trkpt lat="42.824498" lon="0.978648">
        <ele>1334.4</ele>
        <time>2025-07-14T13:02:59.253Z</time>
      </trkpt>
      <trkpt lat="42.824242" lon="0.979114">
        <ele>1323.8</ele>
        <time>2025-07-14T13:04:43.849Z</time>
      </trkpt>
      <trkpt lat="42.824021" lon="0.979442">
        <ele>1316.4</ele>
        <time>2025-07-14T13:06:01.135Z</time>
      </trkpt>
      <trkpt lat="42.823762" lon="0.979626">
        <ele>1310.0</ele>
        <time>2025-07-14T13:07:07.042Z</time>
      </trkpt>
      <trkpt lat="42.823501" lon="0.979980">
        <ele>1303.0</ele>
        <time>2025-07-14T13:08:24.178Z</time>
      </trkpt>
      <trkpt lat="42.823296" lon="0.980221">
        <ele>1297.8</ele>
        <time>2025-07-14T13:09:20.859Z</time>
      </trkpt>
      <trkpt lat="42.823107" lon="0.980422">
        <ele>1296.1</ele>
        <time>2025-07-14T13:09:54.117Z</time>
      </trkpt>
      <trkpt lat="42.822893" lon="0.980598">
        <ele>1294.2</ele>
        <time>2025-07-14T13:10:30.499Z</time>
      </trkpt>
      <trkpt lat="42.822776" lon="0.980839">
        <ele>1284.3</ele>
        <time>2025-07-14T13:11:51.973Z</time>
      </trkpt>
      <trkpt lat="42.822718" lon="0.981229">
        <ele>1271.3</ele>
        <time>2025-07-14T13:13:38.477Z</time>
      </trkpt>
      <trkpt lat="42.822558" lon="0.981559">
        <ele>1269.4</ele>
        <time>2025-07-14T13:14:17.939Z</time>
      </trkpt>
      <trkpt lat="42.822330" lon="0.981820">
        <ele>1267.6</ele>
        <time>2025-07-14T13:14:57.448Z</time>
      </trkpt>
      <trkpt lat="42.822078" lon="0.982384">
        <ele>1262.5</ele>
        <time>2025-07-14T13:16:14.225Z</time>
      </trkpt>
      <trkpt lat="42.821850" lon="0.982665">
        <ele>1262.1</ele>
        <time>2025-07-14T13:16:45.916Z</time>
      </trkpt>
      <trkpt lat="42.821739" lon="0.983030">
        <ele>1258.0</ele>
        <time>2025-07-14T13:17:38.627Z</time>
      </trkpt>
      <trkpt lat="42.821743" lon="0.983455">
        <ele>1246.9</ele>
        <time>2025-07-14T13:19:15.562Z</time>
      </trkpt>
      <trkpt lat="42.821756" lon="0.983838">
        <ele>1236.2</ele>
        <time>2025-07-14T13:20:46.462Z</time>
      </trkpt>
      <trkpt lat="42.821858" lon="0.984214">
        <ele>1223.9</ele>
        <time>2025-07-14T13:22:29.510Z</time>
      </trkpt>
      <trkpt lat="42.821678" lon="0.984445">
        <ele>1221.8</ele>
        <time>2025-07-14T13:23:06.472Z</time>
      </trkpt>
      <trkpt lat="42.821564" lon="0.984663">
        <ele>1219.6</ele>
        <time>2025-07-14T13:23:44.521Z</time>
      </trkpt>
      <trkpt lat="42.821796" lon="0.984842">
        <ele>1212.8</ele>
        <time>2025-07-14T13:24:51.798Z</time>
      </trkpt>
      <trkpt lat="42.821736" lon="0.985025">
        <ele>1207.5</ele>
        <time>2025-07-14T13:25:46.814Z</time>
      </trkpt>
      <trkpt lat="42.821984" lon="0.985093">
        <ele>1203.9</ele>
        <time>2025-07-14T13:26:32.187Z</time>
      </trkpt>
      <trkpt lat="42.821738" lon="0.985228">
        <ele>1196.7</ele>
        <time>2025-07-14T13:27:45.588Z</time>
      </trkpt>
      <trkpt lat="42.821979" lon="0.985472">
        <ele>1184.7</ele>
        <time>2025-07-14T13:29:28.498Z</time>
      </trkpt>
      <trkpt lat="42.822237" lon="0.985664">
        <ele>1175.4</ele>
        <time>2025-07-14T13:30:52.310Z</time>
      </trkpt>
      <trkpt lat="42.822337" lon="0.985931">
        <ele>1170.1</ele>
        <time>2025-07-14T13:31:46.240Z</time>
      </trkpt>
      <trkpt lat="42.821882" lon="0.985779">
        <ele>1173.7</ele>
        <time>2025-07-14T13:33:08.973Z</time>
      </trkpt>
      <trkpt lat="42.821555" lon="0.985766">
        <ele>1175.9</ele>
        <time>2025-07-14T13:34:02.490Z</time>
      </trkpt>
      <trkpt lat="42.821092" lon="0.985582">
        <ele>1166.2</ele>
        <time>2025-07-14T13:35:48.981Z</time>
      </trkpt>
      <trkpt lat="42.820909" lon="0.985325">
        <ele>1168.5</ele>
        <time>2025-07-14T13:36:37.428Z</time>
      </trkpt>
      <trkpt lat="42.820573" lon="0.985084">
        <ele>1165.5</ele>
        <time>2025-07-14T13:37:32.770Z</time>
      </trkpt>
      <trkpt lat="42.820183" lon="0.984935">
        <ele>1156.0</ele>
        <time>2025-07-14T13:39:10.219Z</time>
      </trkpt>
      <trkpt lat="42.819825" lon="0.984993">
        <ele>1142.8</ele>
        <time>2025-07-14T13:41:04.216Z</time>
      </trkpt>
      <trkpt lat="42.819523" lon="0.985157">
        <ele>1131.1</ele>
        <time>2025-07-14T13:42:45.667Z</time>
      </trkpt>
      <trkpt lat="42.819097" lon="0.985335">
        <ele>1120.7</ele>
        <time>2025-07-14T13:44:30.923Z</time>
      </trkpt>
      <trkpt lat="42.819088" lon="0.985440">
        <ele>1114.0</ele>
        <time>2025-07-14T13:45:33.463Z</time>
      </trkpt>
      <trkpt lat="42.818975" lon="0.985669">
        <ele>1104.3</ele>
        <time>2025-07-14T13:46:59.263Z</time>
      </trkpt>
      <trkpt lat="42.818914" lon="0.985996">
        <ele>1101.0</ele>
        <time>2025-07-14T13:47:44.802Z</time>
      </trkpt>
      <trkpt lat="42.819119" lon="0.986216">
        <ele>1099.8</ele>
        <time>2025-07-14T13:48:17.390Z</time>
      </trkpt>
      <trkpt lat="42.819208" lon="0.986583">
        <ele>1100.6</ele>
        <time>2025-07-14T13:48:51.906Z</time>
      </trkpt>
      <trkpt lat="42.819257" lon="0.986995">
        <ele>1100.3</ele>
        <time>2025-07-14T13:49:23.072Z</time>
      </trkpt>
      <trkpt lat="42.819461" lon="0.987217">
        <ele>1098.0</ele>
        <time>2025-07-14T13:50:01.827Z</time>
      </trkpt>
      <trkpt lat="42.819801" lon="0.987457">
        <ele>1093.4</ele>
        <time>2025-07-14T13:51:06.294Z</time>
      </trkpt>
      <trkpt lat="42.820210" lon="0.987658">
        <ele>1091.0</ele>
        <time>2025-07-14T13:52:02.857Z</time>
      </trkpt>
      <trkpt lat="42.820228" lon="0.987989">
        <ele>1091.7</ele>
        <time>2025-07-14T13:52:33.762Z</time>
      </trkpt>
      <trkpt lat="42.820446" lon="0.987938">
        <ele>1090.7</ele>
        <time>2025-07-14T13:53:01.494Z</time>
      </trkpt>
      <trkpt lat="42.820617" lon="0.988138">
        <ele>1089.6</ele>
        <time>2025-07-14T13:53:29.534Z</time>
      </trkpt>
      <trkpt lat="42.820796" lon="0.988406">
        <ele>1091.1</ele>
        <time>2025-07-14T13:54:10.654Z</time>
      </trkpt>
      <trkpt lat="42.820931" lon="0.988541">
        <ele>1092.5</ele>
        <time>2025-07-14T13:54:46.662Z</time>
      </trkpt>
      <trkpt lat="42.821119" lon="0.988707">
        <ele>1093.4</ele>
        <time>2025-07-14T13:55:18.429Z</time>
      </trkpt>
      <trkpt lat="42.821256" lon="0.988978">
        <ele>1094.4</ele>
        <time>2025-07-14T13:55:51.915Z</time>
      </trkpt>
      <trkpt lat="42.821709" lon="0.989323">
        <ele>1088.6</ele>
        <time>2025-07-14T13:57:16.111Z</time>
      </trkpt>
      <trkpt lat="42.821959" lon="0.989526">
        <ele>1086.4</ele>
        <time>2025-07-14T13:57:57.586Z</time>
      </trkpt>
      <trkpt lat="42.822213" lon="0.989670">
        <ele>1084.4</ele>
        <time>2025-07-14T13:58:36.120Z</time>
      </trkpt>
      <trkpt lat="42.822407" lon="0.989868">
        <ele>1081.0</ele>
        <time>2025-07-14T13:59:20.202Z</time>
      </trkpt>
      <trkpt lat="42.822702" lon="0.989758">
        <ele>1077.0</ele>
        <time>2025-07-14T14:00:14.375Z</time>
      </trkpt>
      <trkpt lat="42.822966" lon="0.989776">
        <ele>1070.8</ele>
        <time>2025-07-14T14:01:16.868Z</time>
      </trkpt>
      <trkpt lat="42.823344" lon="0.989766">
        <ele>1061.9</ele>
        <time>2025-07-14T14:02:46.152Z</time>
      </trkpt>
      <trkpt lat="42.823617" lon="0.989834">
        <ele>1063.4</ele>
        <time>2025-07-14T14:03:28.370Z</time>
      </trkpt>
      <trkpt lat="42.823665" lon="0.990076">
        <ele>1064.7</ele>
        <time>2025-07-14T14:04:03.319Z</time>
      </trkpt>
      <trkpt lat="42.823861" lon="0.990280">
        <ele>1066.6</ele>
        <time>2025-07-14T14:04:46.951Z</time>
      </trkpt>
      <trkpt lat="42.824052" lon="0.990254">
        <ele>1068.4</ele>
        <time>2025-07-14T14:05:27.287Z</time>
      </trkpt>
      <trkpt lat="42.824169" lon="0.990207">
        <ele>1066.0</ele>
        <time>2025-07-14T14:06:04.575Z</time>
      </trkpt>
      <trkpt lat="42.824224" lon="0.990157">
        <ele>1062.4</ele>
        <time>2025-07-14T14:06:53.435Z</time>
      </trkpt>
      <trkpt lat="42.824262" lon="0.989945">
        <ele>1057.7</ele>
        <time>2025-07-14T14:07:43.117Z</time>
      </trkpt>
      <trkpt lat="42.824433" lon="0.989802">
        <ele>1055.3</ele>
        <time>2025-07-14T14:08:24.232Z</time>
      </trkpt>
      <trkpt lat="42.824677" lon="0.989835">
        <ele>1057.0</ele>
        <time>2025-07-14T14:09:05.989Z</time>
      </trkpt>
      <trkpt lat="42.824953" lon="0.989963">
        <ele>1062.9</ele>
        <time>2025-07-14T14:10:34.353Z</time>
      </trkpt>
      <trkpt lat="42.824717" lon="0.990234">
        <ele>1071.8</ele>
        <time>2025-07-14T14:12:35.719Z</time>
      </trkpt>
      <trkpt lat="42.824613" lon="0.990530">
        <ele>1082.9</ele>
        <time>2025-07-14T14:14:53.831Z</time>
      </trkpt>
      <trkpt lat="42.824526" lon="0.990866">
        <ele>1095.1</ele>
        <time>2025-07-14T14:17:23.782Z</time>
      </trkpt>
      <trkpt lat="42.824466" lon="0.991098">
        <ele>1096.3</ele>
        <time>2025-07-14T14:17:59.627Z</time>
      </trkpt>
      <trkpt lat="42.824680" lon="0.990839">
        <ele>1097.6</ele>
        <time>2025-07-14T14:18:41.246Z</time>
      </trkpt>
      <trkpt lat="42.824940" lon="0.990612">
        <ele>1099.0</ele>
        <time>2025-07-14T14:19:25.088Z</time>
      </trkpt>
      <trkpt lat="42.825246" lon="0.990657">
        <ele>1100.4</ele>
        <time>2025-07-14T14:20:08.465Z</time>
      </trkpt>
      <trkpt lat="42.825550" lon="0.990699">
        <ele>1108.4</ele>
        <time>2025-07-14T14:22:00.542Z</time>
      </trkpt>
      <trkpt lat="42.825386" lon="0.990882">
        <ele>1114.9</ele>
        <time>2025-07-14T14:23:31.609Z</time>
      </trkpt>
      <trkpt lat="42.825110" lon="0.991040">
        <ele>1117.8</ele>
        <time>2025-07-14T14:24:29.369Z</time>
      </trkpt>
      <trkpt lat="42.824880" lon="0.991282">
        <ele>1121.4</ele>
        <time>2025-07-14T14:25:34.229Z</time>
      </trkpt>
      <trkpt lat="42.825149" lon="0.991207">
        <ele>1126.1</ele>
        <time>2025-07-14T14:26:50.135Z</time>
      </trkpt>
      <trkpt lat="42.825471" lon="0.991237">
        <ele>1133.4</ele>
        <time>2025-07-14T14:28:35.439Z</time>
      </trkpt>
      <trkpt lat="42.825462" lon="0.991318">
        <ele>1139.5</ele>
        <time>2025-07-14T14:30:02.676Z</time>
      </trkpt>
      <trkpt lat="42.825244" lon="0.991494">
        <ele>1142.7</ele>
        <time>2025-07-14T14:31:00.023Z</time>
      </trkpt>
      <trkpt lat="42.825268" lon="0.991592">
        <ele>1146.6</ele>
        <time>2025-07-14T14:32:07.766Z</time>
      </trkpt>
      <trkpt lat="42.825545" lon="0.991572">
        <ele>1153.2</ele>
        <time>2025-07-14T14:33:42.411Z</time>
      </trkpt>
      <trkpt lat="42.825531" lon="0.991690">
        <ele>1158.9</ele>
        <time>2025-07-14T14:35:04.673Z</time>
      </trkpt>
      <trkpt lat="42.825332" lon="0.991881">
        <ele>1160.9</ele>
        <time>2025-07-14T14:35:48.397Z</time>
      </trkpt>
      <trkpt lat="42.825155" lon="0.992107">
        <ele>1162.9</ele>
        <time>2025-07-14T14:36:32.307Z</time>
      </trkpt>
      <trkpt lat="42.825346" lon="0.992056">
        <ele>1168.0</ele>
        <time>2025-07-14T14:37:45.623Z</time>
      </trkpt>
      <trkpt lat="42.825647" lon="0.991963">
        <ele>1174.9</ele>
        <time>2025-07-14T14:39:26.293Z</time>
      </trkpt>
      <trkpt lat="42.825487" lon="0.992211">
        <ele>1179.3</ele>
        <time>2025-07-14T14:40:38.779Z</time>
      </trkpt>
      <trkpt lat="42.825477" lon="0.992327">
        <ele>1183.0</ele>
        <time>2025-07-14T14:41:39.341Z</time>
      </trkpt>
      <trkpt lat="42.825737" lon="0.992199">
        <ele>1187.3</ele>
        <time>2025-07-14T14:42:49.773Z</time>
      </trkpt>
      <trkpt lat="42.826015" lon="0.992026">
        <ele>1192.0</ele>
        <time>2025-07-14T14:44:07.536Z</time>
      </trkpt>
      <trkpt lat="42.826086" lon="0.992096">
        <ele>1199.3</ele>
        <time>2025-07-14T14:45:46.198Z</time>
      </trkpt>
      <trkpt lat="42.825956" lon="0.992359">
        <ele>1206.2</ele>
        <time>2025-07-14T14:47:19.175Z</time>
      </trkpt>
      <trkpt lat="42.825816" lon="0.992627">
        <ele>1211.1</ele>
        <time>2025-07-14T14:48:33.300Z</time>
      </trkpt>
      <trkpt lat="42.825863" lon="0.992688">
        <ele>1216.4</ele>
        <time>2025-07-14T14:49:52.151Z</time>
      </trkpt>
      <trkpt lat="42.825914" lon="0.992770">
        <ele>1221.7</ele>
        <time>2025-07-14T14:51:16.303Z</time>
      </trkpt>
      <trkpt lat="42.825849" lon="0.992910">
        <ele>1225.5</ele>
        <time>2025-07-14T14:52:17.695Z</time>
      </trkpt>
      <trkpt lat="42.825956" lon="0.992893">
        <ele>1230.5</ele>
        <time>2025-07-14T14:53:30.853Z</time>
      </trkpt>
      <trkpt lat="42.825942" lon="0.993027">
        <ele>1235.9</ele>
        <time>2025-07-14T14:54:48.756Z</time>
      </trkpt>
      <trkpt lat="42.825989" lon="0.993090">
        <ele>1239.6</ele>
        <time>2025-07-14T14:55:59.289Z</time>
      </trkpt>
      <trkpt lat="42.825880" lon="0.993296">
        <ele>1242.9</ele>
        <time>2025-07-14T14:56:55.772Z</time>
      </trkpt>
      <trkpt lat="42.825922" lon="0.993348">
        <ele>1249.9</ele>
        <time>2025-07-14T14:58:29.125Z</time>
      </trkpt>
      <trkpt lat="42.826007" lon="0.993409">
        <ele>1256.4</ele>
        <time>2025-07-14T14:59:57.612Z</time>
      </trkpt>
      <trkpt lat="42.825885" lon="0.993719">
        <ele>1261.7</ele>
        <time>2025-07-14T15:01:18.315Z</time>
      </trkpt>
      <trkpt lat="42.826139" lon="0.993494">
        <ele>1268.5</ele>
        <time>2025-07-14T15:02:58.811Z</time>
      </trkpt>
      <trkpt lat="42.826040" lon="0.993781">
        <ele>1274.6</ele>
        <time>2025-07-14T15:04:23.479Z</time>
      </trkpt>
      <trkpt lat="42.826018" lon="0.994127">
        <ele>1280.3</ele>
        <time>2025-07-14T15:05:46.876Z</time>
      </trkpt>
      <trkpt lat="42.826124" lon="0.993955">
        <ele>1284.7</ele>
        <time>2025-07-14T15:06:54.567Z</time>
      </trkpt>
      <trkpt lat="42.826245" lon="0.993877">
        <ele>1291.7</ele>
        <time>2025-07-14T15:08:29.668Z</time>
      </trkpt>
      <trkpt lat="42.826209" lon="0.994227">
        <ele>1300.8</ele>
        <time>2025-07-14T15:10:28.424Z</time>
      </trkpt>
      <trkpt lat="42.826152" lon="0.994530">
        <ele>1306.4</ele>
        <time>2025-07-14T15:11:48.200Z</time>
      </trkpt>
      <trkpt lat="42.826323" lon="0.994304">
        <ele>1309.4</ele>
        <time>2025-07-14T15:12:42.553Z</time>
      </trkpt>
      <trkpt lat="42.826433" lon="0.994167">
        <ele>1315.3</ele>
        <time>2025-07-14T15:14:10.091Z</time>
      </trkpt>
      <trkpt lat="42.826478" lon="0.994345">
        <ele>1324.0</ele>
        <time>2025-07-14T15:16:07.642Z</time>
      </trkpt>
      <trkpt lat="42.826632" lon="0.994028">
        <ele>1328.8</ele>
        <time>2025-07-14T15:17:23.801Z</time>
      </trkpt>
      <trkpt lat="42.826619" lon="0.994271">
        <ele>1332.7</ele>
        <time>2025-07-14T15:18:25.956Z</time>
      </trkpt>
      <trkpt lat="42.826533" lon="0.994560">
        <ele>1335.8</ele>
        <time>2025-07-14T15:19:19.495Z</time>
      </trkpt>
      <trkpt lat="42.826680" lon="0.994309">
        <ele>1339.0</ele>
        <time>2025-07-14T15:20:14.821Z</time>
      </trkpt>
      <trkpt lat="42.826814" lon="0.994058">
        <ele>1340.4</ele>
        <time>2025-07-14T15:20:51.358Z</time>
      </trkpt>
      <trkpt lat="42.826964" lon="0.993827">
        <ele>1341.8</ele>
        <time>2025-07-14T15:21:27.901Z</time>
      </trkpt>
      <trkpt lat="42.827155" lon="0.993611">
        <ele>1349.1</ele>
        <time>2025-07-14T15:23:07.595Z</time>
      </trkpt>
      <trkpt lat="42.827416" lon="0.993581">
        <ele>1356.4</ele>
        <time>2025-07-14T15:24:47.685Z</time>
      </trkpt>
      <trkpt lat="42.827464" lon="0.993663">
        <ele>1363.2</ele>
        <time>2025-07-14T15:26:22.998Z</time>
      </trkpt>
      <trkpt lat="42.827560" lon="0.993744">
        <ele>1371.1</ele>
        <time>2025-07-14T15:28:11.667Z</time>
      </trkpt>
      <trkpt lat="42.827408" lon="0.994048">
        <ele>1378.8</ele>
        <time>2025-07-14T15:29:56.860Z</time>
      </trkpt>
      <trkpt lat="42.827507" lon="0.994091">
        <ele>1385.8</ele>
        <time>2025-07-14T15:31:36.946Z</time>
      </trkpt>
      <trkpt lat="42.827593" lon="0.994139">
        <ele>1391.1</ele>
        <time>2025-07-14T15:32:55.186Z</time>
      </trkpt>
      <trkpt lat="42.827734" lon="0.994168">
        <ele>1393.9</ele>
        <time>2025-07-14T15:33:53.676Z</time>
      </trkpt>
      <trkpt lat="42.828016" lon="0.993958">
        <ele>1395.1</ele>
        <time>2025-07-14T15:34:36.892Z</time>
      </trkpt>
      <trkpt lat="42.828108" lon="0.994083">
        <ele>1402.2</ele>
        <time>2025-07-14T15:36:16.486Z</time>
      </trkpt>
      <trkpt lat="42.828232" lon="0.994221">
        <ele>1408.5</ele>
        <time>2025-07-14T15:37:44.929Z</time>
      </trkpt>
      <trkpt lat="42.828266" lon="0.994362">
        <ele>1415.0</ele>
        <time>2025-07-14T15:39:19.145Z</time>
      </trkpt>
      <trkpt lat="42.828483" lon="0.994477">
        <ele>1420.1</ele>
        <time>2025-07-14T15:40:34.908Z</time>
      </trkpt>
      <trkpt lat="42.828301" lon="0.994553">
        <ele>1425.0</ele>
        <time>2025-07-14T15:41:47.769Z</time>
      </trkpt>
      <trkpt lat="42.828509" lon="0.994737">
        <ele>1432.7</ele>
        <time>2025-07-14T15:43:31.009Z</time>
      </trkpt>
      <trkpt lat="42.828758" lon="0.994859">
        <ele>1443.5</ele>
        <time>2025-07-14T15:45:47.531Z</time>
      </trkpt>
      <trkpt lat="42.829138" lon="0.994749">
        <ele>1453.6</ele>
        <time>2025-07-14T15:48:09.648Z</time>
      </trkpt>
      <trkpt lat="42.829419" lon="0.994654">
        <ele>1455.8</ele>
        <time>2025-07-14T15:49:00.276Z</time>
      </trkpt>
      <trkpt lat="42.829679" lon="0.994588">
        <ele>1460.2</ele>
        <time>2025-07-14T15:50:10.506Z</time>
      </trkpt>
      <trkpt lat="42.829899" lon="0.994690">
        <ele>1464.2</ele>
        <time>2025-07-14T15:51:14.872Z</time>
      </trkpt>
      <trkpt lat="42.830172" lon="0.994784">
        <ele>1468.6</ele>
        <time>2025-07-14T15:52:27.881Z</time>
      </trkpt>
      <trkpt lat="42.830389" lon="0.994978">
        <ele>1472.1</ele>
        <time>2025-07-14T15:53:29.127Z</time>
      </trkpt>
      <trkpt lat="42.830604" lon="0.995199">
        <ele>1475.2</ele>
        <time>2025-07-14T15:54:27.811Z</time>
      </trkpt>
      <trkpt lat="42.830613" lon="0.995373">
        <ele>1482.2</ele>
        <time>2025-07-14T15:56:03.761Z</time>
      </trkpt>
      <trkpt lat="42.830368" lon="0.995418">
        <ele>1491.2</ele>
        <time>2025-07-14T15:58:00.454Z</time>
      </trkpt>
      <trkpt lat="42.830128" lon="0.995502">
        <ele>1500.0</ele>
        <time>2025-07-14T15:59:54.311Z</time>
      </trkpt>
      <trkpt lat="42.829861" lon="0.995754">
        <ele>1510.9</ele>
        <time>2025-07-14T16:02:18.342Z</time>
      </trkpt>
      <trkpt lat="42.829703" lon="0.995975">
        <ele>1519.5</ele>
        <time>2025-07-14T16:04:09.079Z</time>
      </trkpt>
      <trkpt lat="42.829672" lon="0.996218">
        <ele>1527.8</ele>
        <time>2025-07-14T16:05:58.612Z</time>
      </trkpt>
      <trkpt lat="42.829920" lon="0.996237">
        <ele>1529.9</ele>
        <time>2025-07-14T16:06:45.112Z</time>
      </trkpt>
      <trkpt lat="42.830186" lon="0.996369">
        <ele>1533.1</ele>
        <time>2025-07-14T16:07:45.764Z</time>
      </trkpt>
      <trkpt lat="42.830046" lon="0.996497">
        <ele>1537.9</ele>
        <time>2025-07-14T16:08:57.579Z</time>
      </trkpt>
      <trkpt lat="42.829796" lon="0.996704">
        <ele>1542.9</ele>
        <time>2025-07-14T16:10:16.312Z</time>
      </trkpt>
      <trkpt lat="42.829842" lon="0.996784">
        <ele>1546.1</ele>
        <time>2025-07-14T16:11:20.361Z</time>
      </trkpt>
      <trkpt lat="42.829703" lon="0.996962">
        <ele>1549.4</ele>
        <time>2025-07-14T16:12:19.302Z</time>
      </trkpt>
      <trkpt lat="42.829577" lon="0.997202">
        <ele>1556.4</ele>
        <time>2025-07-14T16:14:19.646Z</time>
      </trkpt>
      <trkpt lat="42.829876" lon="0.997204">
        <ele>1561.2</ele>
        <time>2025-07-14T16:15:42.563Z</time>
      </trkpt>
      <trkpt lat="42.829557" lon="0.997502">
        <ele>1567.0</ele>
        <time>2025-07-14T16:17:25.517Z</time>
      </trkpt>
      <trkpt lat="42.829257" lon="0.997696">
        <ele>1571.4</ele>
        <time>2025-07-14T16:18:41.660Z</time>
      </trkpt>
      <trkpt lat="42.829059" lon="0.997841">
        <ele>1576.1</ele>
        <time>2025-07-14T16:19:51.831Z</time>
      </trkpt>
      <trkpt lat="42.828854" lon="0.998130">
        <ele>1582.4</ele>
        <time>2025-07-14T16:21:24.539Z</time>
      </trkpt>
      <trkpt lat="42.828650" lon="0.998402">
        <ele>1591.3</ele>
        <time>2025-07-14T16:23:24.144Z</time>
      </trkpt>
      <trkpt lat="42.828441" lon="0.998645">
        <ele>1600.5</ele>
        <time>2025-07-14T16:25:24.806Z</time>
      </trkpt>
      <trkpt lat="42.828566" lon="0.998773">
        <ele>1609.9</ele>
        <time>2025-07-14T16:27:28.635Z</time>
      </trkpt>
      <trkpt lat="42.828738" lon="0.998873">
        <ele>1618.2</ele>
        <time>2025-07-14T16:29:17.022Z</time>
      </trkpt>
      <trkpt lat="42.828791" lon="0.999021">
        <ele>1627.0</ele>
        <time>2025-07-14T16:31:10.995Z</time>
      </trkpt>
      <trkpt lat="42.829019" lon="0.999052">
        <ele>1634.6</ele>
        <time>2025-07-14T16:32:51.100Z</time>
      </trkpt>
      <trkpt lat="42.829248" lon="0.999066">
        <ele>1641.1</ele>
        <time>2025-07-14T16:34:20.938Z</time>
      </trkpt>
      <trkpt lat="42.829200" lon="0.999349">
        <ele>1647.1</ele>
        <time>2025-07-14T16:35:45.904Z</time>
      </trkpt>
      <trkpt lat="42.829419" lon="0.999405">
        <ele>1651.4</ele>
        <time>2025-07-14T16:36:50.812Z</time>
      </trkpt>
      <trkpt lat="42.829596" lon="0.999472">
        <ele>1655.3</ele>
        <time>2025-07-14T16:37:53.827Z</time>
      </trkpt>
      <trkpt lat="42.829682" lon="0.999567">
        <ele>1659.1</ele>
        <time>2025-07-14T16:39:04.773Z</time>
      </trkpt>
      <trkpt lat="42.829608" lon="0.999722">
        <ele>1662.1</ele>
        <time>2025-07-14T16:39:58.321Z</time>
      </trkpt>
      <trkpt lat="42.829843" lon="0.999753">
        <ele>1665.2</ele>
        <time>2025-07-14T16:40:52.824Z</time>
      </trkpt>
      <trkpt lat="42.829562" lon="1.000022">
        <ele>1671.8</ele>
        <time>2025-07-14T16:42:33.705Z</time>
      </trkpt>
      <trkpt lat="42.829606" lon="1.000207">
        <ele>1678.7</ele>
        <time>2025-07-14T16:44:08.457Z</time>
      </trkpt>
      <trkpt lat="42.829824" lon="1.000375">
        <ele>1685.4</ele>
        <time>2025-07-14T16:45:41.633Z</time>
      </trkpt>
      <trkpt lat="42.829668" lon="1.000593">
        <ele>1693.9</ele>
        <time>2025-07-14T16:47:40.033Z</time>
      </trkpt>
      <trkpt lat="42.829490" lon="1.000819">
        <ele>1704.5</ele>
        <time>2025-07-14T16:49:52.265Z</time>
      </trkpt>
      <trkpt lat="42.829245" lon="1.001320">
        <ele>1724.2</ele>
        <time>2025-07-14T16:53:56.843Z</time>
      </trkpt>
      <trkpt lat="42.829411" lon="1.001459">
        <ele>1735.2</ele>
        <time>2025-07-14T16:56:13.643Z</time>
      </trkpt>
      <trkpt lat="42.829495" lon="1.001516">
        <ele>1741.9</ele>
        <time>2025-07-14T16:57:45.308Z</time>
      </trkpt>
      <trkpt lat="42.829694" lon="1.001605">
        <ele>1750.2</ele>
        <time>2025-07-14T16:59:39.603Z</time>
      </trkpt>
      <trkpt lat="42.829815" lon="1.001749">
        <ele>1759.0</ele>
        <time>2025-07-14T17:01:38.379Z</time>
      </trkpt>
      <trkpt lat="42.829544" lon="1.002100">
        <ele>1767.6</ele>
        <time>2025-07-14T17:03:45.404Z</time>
      </trkpt>
      <trkpt lat="42.829389" lon="1.002358">
        <ele>1772.4</ele>
        <time>2025-07-14T17:04:58.023Z</time>
      </trkpt>
      <trkpt lat="42.829039" lon="1.002890">
        <ele>1781.8</ele>
        <time>2025-07-14T17:07:25.016Z</time>
      </trkpt>
      <trkpt lat="42.828762" lon="1.003701">
        <ele>1802.4</ele>
        <time>2025-07-14T17:11:58.720Z</time>
      </trkpt>
      <trkpt lat="42.828844" lon="1.003917">
        <ele>1807.9</ele>
        <time>2025-07-14T17:13:27.674Z</time>
      </trkpt>
      <trkpt lat="42.828891" lon="1.004102">
        <ele>1811.9</ele>
        <time>2025-07-14T17:14:32.660Z</time>
      </trkpt>
      <trkpt lat="42.828995" lon="1.004563">
        <ele>1814.2</ele>
        <time>2025-07-14T17:15:30.158Z</time>
      </trkpt>
      <trkpt lat="42.829020" lon="1.004911">
        <ele>1814.6</ele>
        <time>2025-07-14T17:15:59.680Z</time>
      </trkpt>
      <trkpt lat="42.829113" lon="1.005202">
        <ele>1811.8</ele>
        <time>2025-07-14T17:16:44.431Z</time>
      </trkpt>
      <trkpt lat="42.829155" lon="1.005383">
        <ele>1806.1</ele>
        <time>2025-07-14T17:17:40.035Z</time>
      </trkpt>
      <trkpt lat="42.828902" lon="1.005457">
        <ele>1796.3</ele>
        <time>2025-07-14T17:19:04.175Z</time>
      </trkpt>
      <trkpt lat="42.828471" lon="1.005700">
        <ele>1788.0</ele>
        <time>2025-07-14T17:20:38.168Z</time>
      </trkpt>
      <trkpt lat="42.828185" lon="1.006036">
        <ele>1789.7</ele>
        <time>2025-07-14T17:21:31.054Z</time>
      </trkpt>
      <trkpt lat="42.827889" lon="1.006331">
        <ele>1798.7</ele>
        <time>2025-07-14T17:23:39.326Z</time>
      </trkpt>
      <trkpt lat="42.827673" lon="1.006676">
        <ele>1805.8</ele>
        <time>2025-07-14T17:25:23.795Z</time>
      </trkpt>
      <trkpt lat="42.827553" lon="1.006974">
        <ele>1811.1</ele>
        <time>2025-07-14T17:26:42.205Z</time>
      </trkpt>
      <trkpt lat="42.827396" lon="1.007215">
        <ele>1814.9</ele>
        <time>2025-07-14T17:27:44.050Z</time>
      </trkpt>
      <trkpt lat="42.827210" lon="1.007490">
        <ele>1819.3</ele>
        <time>2025-07-14T17:28:55.645Z</time>
      </trkpt>
      <trkpt lat="42.827039" lon="1.007709">
        <ele>1824.8</ele>
        <time>2025-07-14T17:30:13.863Z</time>
      </trkpt>
      <trkpt lat="42.826822" lon="1.007883">
        <ele>1830.6</ele>
        <time>2025-07-14T17:31:38.140Z</time>
      </trkpt>
      <trkpt lat="42.826677" lon="1.008158">
        <ele>1827.6</ele>
        <time>2025-07-14T17:32:20.514Z</time>
      </trkpt>
      <trkpt lat="42.826499" lon="1.008431">
        <ele>1823.5</ele>
        <time>2025-07-14T17:33:10.565Z</time>
      </trkpt>
      <trkpt lat="42.826355" lon="1.008635">
        <ele>1817.1</ele>
        <time>2025-07-14T17:34:11.981Z</time>
      </trkpt>
      <trkpt lat="42.826155" lon="1.008883">
        <ele>1811.3</ele>
        <time>2025-07-14T17:35:12.316Z</time>
      </trkpt>
      <trkpt lat="42.825947" lon="1.008895">
        <ele>1810.7</ele>
        <time>2025-07-14T17:35:38.199Z</time>
      </trkpt>
      <trkpt lat="42.825698" lon="1.008694">
        <ele>1814.4</ele>
        <time>2025-07-14T17:36:43.755Z</time>
      </trkpt>
      <trkpt lat="42.825587" lon="1.008441">
        <ele>1821.0</ele>
        <time>2025-07-14T17:38:13.472Z</time>
      </trkpt>
      <trkpt lat="42.825338" lon="1.008324">
        <ele>1819.9</ele>
        <time>2025-07-14T17:38:45.582Z</time>
      </trkpt>
      <trkpt lat="42.825114" lon="1.008240">
        <ele>1815.3</ele>
        <time>2025-07-14T17:39:36.195Z</time>
      </trkpt>
      <trkpt lat="42.824835" lon="1.008291">
        <ele>1807.4</ele>
        <time>2025-07-14T17:40:50.952Z</time>
      </trkpt>
      <trkpt lat="42.824647" lon="1.008476">
        <ele>1800.6</ele>
        <time>2025-07-14T17:41:54.015Z</time>
      </trkpt>
      <trkpt lat="42.824408" lon="1.008825">
        <ele>1786.9</ele>
        <time>2025-07-14T17:43:49.731Z</time>
      </trkpt>
      <trkpt lat="42.824281" lon="1.009166">
        <ele>1777.6</ele>
        <time>2025-07-14T17:45:11.905Z</time>
      </trkpt>
      <trkpt lat="42.824193" lon="1.009468">
        <ele>1772.4</ele>
        <time>2025-07-14T17:46:06.062Z</time>
      </trkpt>
      <trkpt lat="42.823986" lon="1.009685">
        <ele>1768.1</ele>
        <time>2025-07-14T17:46:57.606Z</time>
      </trkpt>
      <trkpt lat="42.823909" lon="1.009986">
        <ele>1765.5</ele>
        <time>2025-07-14T17:47:35.636Z</time>
      </trkpt>
      <trkpt lat="42.823852" lon="1.010507">
        <ele>1762.1</ele>
        <time>2025-07-14T17:48:33.402Z</time>
      </trkpt>
      <trkpt lat="42.823720" lon="1.011151">
        <ele>1758.3</ele>
        <time>2025-07-14T17:49:42.983Z</time>
      </trkpt>
      <trkpt lat="42.823685" lon="1.011261">
        <ele>1753.3</ele>
        <time>2025-07-14T17:50:36.273Z</time>
      </trkpt>
      <trkpt lat="42.823928" lon="1.011073">
        <ele>1747.6</ele>
        <time>2025-07-14T17:51:37.335Z</time>
      </trkpt>
      <trkpt lat="42.824153" lon="1.010835">
        <ele>1743.0</ele>
        <time>2025-07-14T17:52:33.143Z</time>
      </trkpt>
      <trkpt lat="42.824318" lon="1.010467">
        <ele>1738.1</ele>
        <time>2025-07-14T17:53:33.113Z</time>
      </trkpt>
      <trkpt lat="42.824543" lon="1.010296">
        <ele>1733.3</ele>
        <time>2025-07-14T17:54:28.233Z</time>
      </trkpt>
      <trkpt lat="42.824492" lon="1.010682">
        <ele>1725.7</ele>
        <time>2025-07-14T17:55:44.044Z</time>
      </trkpt>
      <trkpt lat="42.824520" lon="1.011066">
        <ele>1716.0</ele>
        <time>2025-07-14T17:57:09.461Z</time>
      </trkpt>
      <trkpt lat="42.824425" lon="1.011398">
        <ele>1713.5</ele>
        <time>2025-07-14T17:57:50.232Z</time>
      </trkpt>
      <trkpt lat="42.824315" lon="1.011674">
        <ele>1713.8</ele>
        <time>2025-07-14T17:58:15.119Z</time>
      </trkpt>
      <trkpt lat="42.824255" lon="1.012015">
        <ele>1711.7</ele>
        <time>2025-07-14T17:58:51.789Z</time>
      </trkpt>
      <trkpt lat="42.824236" lon="1.012525">
        <ele>1705.3</ele>
        <time>2025-07-14T18:00:06.135Z</time>
      </trkpt>
      <trkpt lat="42.824417" lon="1.012264">
        <ele>1697.5</ele>
        <time>2025-07-14T18:01:26.087Z</time>
      </trkpt>
      <trkpt lat="42.824657" lon="1.011987">
        <ele>1690.2</ele>
        <time>2025-07-14T18:02:40.354Z</time>
      </trkpt>
      <trkpt lat="42.824786" lon="1.011940">
        <ele>1684.0</ele>
        <time>2025-07-14T18:03:40.078Z</time>
      </trkpt>
      <trkpt lat="42.824819" lon="1.012278">
        <ele>1675.5</ele>
        <time>2025-07-14T18:04:55.600Z</time>
      </trkpt>
      <trkpt lat="42.824937" lon="1.012553">
        <ele>1665.5</ele>
        <time>2025-07-14T18:06:17.998Z</time>
      </trkpt>
      <trkpt lat="42.824948" lon="1.012870">
        <ele>1656.5</ele>
        <time>2025-07-14T18:07:34.228Z</time>
      </trkpt>
      <trkpt lat="42.825073" lon="1.012937">
        <ele>1648.9</ele>
        <time>2025-07-14T18:08:42.725Z</time>
      </trkpt>
      <trkpt lat="42.825186" lon="1.012730">
        <ele>1645.3</ele>
        <time>2025-07-14T18:09:28.150Z</time>
      </trkpt>
      <trkpt lat="42.825409" lon="1.012314">
        <ele>1647.0</ele>
        <time>2025-07-14T18:10:22.560Z</time>
      </trkpt>
      <trkpt lat="42.825633" lon="1.012083">
        <ele>1645.6</ele>
        <time>2025-07-14T18:10:57.857Z</time>
      </trkpt>
      <trkpt lat="42.825788" lon="1.012109">
        <ele>1643.5</ele>
        <time>2025-07-14T18:11:32.110Z</time>
      </trkpt>
      <trkpt lat="42.825655" lon="1.012387">
        <ele>1636.9</ele>
        <time>2025-07-14T18:12:35.083Z</time>
      </trkpt>
      <trkpt lat="42.825551" lon="1.012679">
        <ele>1630.4</ele>
        <time>2025-07-14T18:13:36.810Z</time>
      </trkpt>
      <trkpt lat="42.825786" lon="1.012634">
        <ele>1623.9</ele>
        <time>2025-07-14T18:14:40.851Z</time>
      </trkpt>
      <trkpt lat="42.826023" lon="1.012622">
        <ele>1618.1</ele>
        <time>2025-07-14T18:15:38.422Z</time>
      </trkpt>
      <trkpt lat="42.825960" lon="1.012933">
        <ele>1608.8</ele>
        <time>2025-07-14T18:16:57.122Z</time>
      </trkpt>
      <trkpt lat="42.825858" lon="1.013245">
        <ele>1598.9</ele>
        <time>2025-07-14T18:18:21.115Z</time>
      </trkpt>
      <trkpt lat="42.825762" lon="1.013540">
        <ele>1597.1</ele>
        <time>2025-07-14T18:18:54.649Z</time>
      </trkpt>
      <trkpt lat="42.825692" lon="1.013912">
        <ele>1595.0</ele>
        <time>2025-07-14T18:19:34.626Z</time>
      </trkpt>
      <trkpt lat="42.825694" lon="1.014304">
        <ele>1591.6</ele>
        <time>2025-07-14T18:20:22.659Z</time>
      </trkpt>
      <trkpt lat="42.825723" lon="1.014620">
        <ele>1588.8</ele>
        <time>2025-07-14T18:21:01.716Z</time>
      </trkpt>
      <trkpt lat="42.825834" lon="1.015003">
        <ele>1581.5</ele>
        <time>2025-07-14T18:22:14.283Z</time>
      </trkpt>
      <trkpt lat="42.826028" lon="1.015275">
        <ele>1574.3</ele>
        <time>2025-07-14T18:23:24.244Z</time>
      </trkpt>
      <trkpt lat="42.826225" lon="1.015566">
        <ele>1565.3</ele>
        <time>2025-07-14T18:24:46.456Z</time>
      </trkpt>
      <trkpt lat="42.826288" lon="1.015451">
        <ele>1561.2</ele>
        <time>2025-07-14T18:25:32.797Z</time>
      </trkpt>
      <trkpt lat="42.826368" lon="1.015285">
        <ele>1557.0</ele>
        <time>2025-07-14T18:26:26.525Z</time>
      </trkpt>
      <trkpt lat="42.826546" lon="1.015524">
        <ele>1553.2</ele>
        <time>2025-07-14T18:27:13.670Z</time>
      </trkpt>
      <trkpt lat="42.826515" lon="1.015881">
        <ele>1548.8</ele>
        <time>2025-07-14T18:28:05.548Z</time>
      </trkpt>
      <trkpt lat="42.826635" lon="1.016138">
        <ele>1543.4</ele>
        <time>2025-07-14T18:28:59.727Z</time>
      </trkpt>
      <trkpt lat="42.826718" lon="1.015956">
        <ele>1537.1</ele>
        <time>2025-07-14T18:30:04.657Z</time>
      </trkpt>
      <trkpt lat="42.826879" lon="1.015735">
        <ele>1533.2</ele>
        <time>2025-07-14T18:30:50.264Z</time>
      </trkpt>
      <trkpt lat="42.826898" lon="1.015942">
        <ele>1526.7</ele>
        <time>2025-07-14T18:31:56.497Z</time>
      </trkpt>
      <trkpt lat="42.826988" lon="1.016306">
        <ele>1518.0</ele>
        <time>2025-07-14T18:33:16.043Z</time>
      </trkpt>
      <trkpt lat="42.827077" lon="1.016081">
        <ele>1515.0</ele>
        <time>2025-07-14T18:34:04.224Z</time>
      </trkpt>
      <trkpt lat="42.827226" lon="1.015821">
        <ele>1513.2</ele>
        <time>2025-07-14T18:34:38.185Z</time>
      </trkpt>
      <trkpt lat="42.827266" lon="1.016176">
        <ele>1504.3</ele>
        <time>2025-07-14T18:35:58.013Z</time>
      </trkpt>
      <trkpt lat="42.827325" lon="1.016537">
        <ele>1495.3</ele>
        <time>2025-07-14T18:37:17.667Z</time>
      </trkpt>
      <trkpt lat="42.827396" lon="1.016198">
        <ele>1495.0</ele>
        <time>2025-07-14T18:37:44.424Z</time>
      </trkpt>
      <trkpt lat="42.827491" lon="1.016144">
        <ele>1494.6</ele>
        <time>2025-07-14T18:38:13.421Z</time>
      </trkpt>
      <trkpt lat="42.827534" lon="1.016451">
        <ele>1483.6</ele>
        <time>2025-07-14T18:39:41.867Z</time>
      </trkpt>
      <trkpt lat="42.827632" lon="1.016737">
        <ele>1472.3</ele>
        <time>2025-07-14T18:41:11.585Z</time>
      </trkpt>
      <trkpt lat="42.827742" lon="1.016365">
        <ele>1474.3</ele>
        <time>2025-07-14T18:42:00.272Z</time>
      </trkpt>
      <trkpt lat="42.827837" lon="1.016062">
        <ele>1475.0</ele>
        <time>2025-07-14T18:42:30.539Z</time>
      </trkpt>
      <trkpt lat="42.827930" lon="1.015826">
        <ele>1471.6</ele>
        <time>2025-07-14T18:43:13.260Z</time>
      </trkpt>
      <trkpt lat="42.828164" lon="1.015741">
        <ele>1468.0</ele>
        <time>2025-07-14T18:43:58.006Z</time>
      </trkpt>
      <trkpt lat="42.828382" lon="1.015606">
        <ele>1462.2</ele>
        <time>2025-07-14T18:44:55.451Z</time>
      </trkpt>
      <trkpt lat="42.828629" lon="1.015416">
        <ele>1455.2</ele>
        <time>2025-07-14T18:46:05.799Z</time>
      </trkpt>
      <trkpt lat="42.828914" lon="1.015394">
        <ele>1448.9</ele>
        <time>2025-07-14T18:47:10.518Z</time>
      </trkpt>
      <trkpt lat="42.829214" lon="1.015435">
        <ele>1442.2</ele>
        <time>2025-07-14T18:48:19.756Z</time>
      </trkpt>
      <trkpt lat="42.829485" lon="1.015480">
        <ele>1438.7</ele>
        <time>2025-07-14T18:49:07.071Z</time>
      </trkpt>
      <trkpt lat="42.829415" lon="1.015610">
        <ele>1435.8</ele>
        <time>2025-07-14T18:49:46.000Z</time>
      </trkpt>
      <trkpt lat="42.829209" lon="1.015748">
        <ele>1431.1</ele>
        <time>2025-07-14T18:50:36.325Z</time>
      </trkpt>
      <trkpt lat="42.829431" lon="1.015880">
        <ele>1425.9</ele>
        <time>2025-07-14T18:51:31.114Z</time>
      </trkpt>
      <trkpt lat="42.829660" lon="1.015923">
        <ele>1420.1</ele>
        <time>2025-07-14T18:52:28.439Z</time>
      </trkpt>
      <trkpt lat="42.829684" lon="1.016212">
        <ele>1414.1</ele>
        <time>2025-07-14T18:53:28.504Z</time>
      </trkpt>
      <trkpt lat="42.829741" lon="1.016608">
        <ele>1407.4</ele>
        <time>2025-07-14T18:54:37.053Z</time>
      </trkpt>
      <trkpt lat="42.829593" lon="1.016806">
        <ele>1401.8</ele>
        <time>2025-07-14T18:55:34.276Z</time>
      </trkpt>
      <trkpt lat="42.829758" lon="1.017106">
        <ele>1394.6</ele>
        <time>2025-07-14T18:56:48.150Z</time>
      </trkpt>
      <trkpt lat="42.829675" lon="1.017258">
        <ele>1389.1</ele>
        <time>2025-07-14T18:57:44.247Z</time>
      </trkpt>
      <trkpt lat="42.829805" lon="1.017503">
        <ele>1384.3</ele>
        <time>2025-07-14T18:58:34.282Z</time>
      </trkpt>
      <trkpt lat="42.829579" lon="1.017505">
        <ele>1381.1</ele>
        <time>2025-07-14T18:59:15.977Z</time>
      </trkpt>
      <trkpt lat="42.829314" lon="1.017563">
        <ele>1380.8</ele>
        <time>2025-07-14T18:59:43.401Z</time>
      </trkpt>
      <trkpt lat="42.829442" lon="1.017798">
        <ele>1374.1</ele>
        <time>2025-07-14T19:00:45.927Z</time>
      </trkpt>
      <trkpt lat="42.829624" lon="1.018049">
        <ele>1360.8</ele>
        <time>2025-07-14T19:02:30.998Z</time>
      </trkpt>
      <trkpt lat="42.829870" lon="1.018073">
        <ele>1352.8</ele>
        <time>2025-07-14T19:03:43.071Z</time>
      </trkpt>
      <trkpt lat="42.830055" lon="1.018003">
        <ele>1350.7</ele>
        <time>2025-07-14T19:04:17.471Z</time>
      </trkpt>
      <trkpt lat="42.830038" lon="1.018437">
        <ele>1350.3</ele>
        <time>2025-07-14T19:04:50.388Z</time>
      </trkpt>
      <trkpt lat="42.830044" lon="1.018715">
        <ele>1351.6</ele>
        <time>2025-07-14T19:05:25.523Z</time>
      </trkpt>
      <trkpt lat="42.829969" lon="1.019024">
        <ele>1351.3</ele>
        <time>2025-07-14T19:05:50.376Z</time>
      </trkpt>
      <trkpt lat="42.829976" lon="1.019369">
        <ele>1350.0</ele>
        <time>2025-07-14T19:06:22.879Z</time>
      </trkpt>
      <trkpt lat="42.830012" lon="1.019699">
        <ele>1344.6</ele>
        <time>2025-07-14T19:07:19.761Z</time>
      </trkpt>
      <trkpt lat="42.830067" lon="1.020010">
        <ele>1337.9</ele>
        <time>2025-07-14T19:08:24.748Z</time>
      </trkpt>
      <trkpt lat="42.829922" lon="1.020096">
        <ele>1322.9</ele>
        <time>2025-07-14T19:10:20.217Z</time>
      </trkpt>
      <trkpt lat="42.829892" lon="1.020299">
        <ele>1309.6</ele>
        <time>2025-07-14T19:12:03.805Z</time>
      </trkpt>
      <trkpt lat="42.829805" lon="1.020530">
        <ele>1297.2</ele>
        <time>2025-07-14T19:13:43.768Z</time>
      </trkpt>
      <trkpt lat="42.829859" lon="1.020853">
        <ele>1285.6</ele>
        <time>2025-07-14T19:15:17.900Z</time>
      </trkpt>
      <trkpt lat="42.829730" lon="1.020978">
        <ele>1275.2</ele>
        <time>2025-07-14T19:16:44.519Z</time>
      </trkpt>
      <trkpt lat="42.829635" lon="1.021089">
        <ele>1266.7</ele>
        <time>2025-07-14T19:17:57.190Z</time>
      </trkpt>
      <trkpt lat="42.829697" lon="1.021335">
        <ele>1258.9</ele>
        <time>2025-07-14T19:19:06.485Z</time>
      </trkpt>
      <trkpt lat="42.829652" lon="1.021556">
        <ele>1251.1</ele>
        <time>2025-07-14T19:20:15.894Z</time>
      </trkpt>
      <trkpt lat="42.829662" lon="1.021824">
        <ele>1243.8</ele>
        <time>2025-07-14T19:21:21.986Z</time>
      </trkpt>
      <trkpt lat="42.829555" lon="1.021962">
        <ele>1236.8</ele>
        <time>2025-07-14T19:22:25.821Z</time>
      </trkpt>
      <trkpt lat="42.829461" lon="1.022105">
        <ele>1229.6</ele>
        <time>2025-07-14T19:23:30.966Z</time>
      </trkpt>
      <trkpt lat="42.829520" lon="1.022312">
        <ele>1221.8</ele>
        <time>2025-07-14T19:24:42.281Z</time>
      </trkpt>
      <trkpt lat="42.829467" lon="1.022557">
        <ele>1212.1</ele>
        <time>2025-07-14T19:26:09.707Z</time>
      </trkpt>
      <trkpt lat="42.829578" lon="1.022796">
        <ele>1204.8</ele>
        <time>2025-07-14T19:27:15.253Z</time>
      </trkpt>
      <trkpt lat="42.829718" lon="1.023053">
        <ele>1196.3</ele>
        <time>2025-07-14T19:28:30.156Z</time>
      </trkpt>
      <trkpt lat="42.829929" lon="1.023269">
        <ele>1187.6</ele>
        <time>2025-07-14T19:29:47.488Z</time>
      </trkpt>
      <trkpt lat="42.830068" lon="1.023535">
        <ele>1179.9</ele>
        <time>2025-07-14T19:30:58.262Z</time>
      </trkpt>
      <trkpt lat="42.830306" lon="1.023745">
        <ele>1173.3</ele>
        <time>2025-07-14T19:32:05.862Z</time>
      </trkpt>
      <trkpt lat="42.830487" lon="1.023937">
        <ele>1168.6</ele>
        <time>2025-07-14T19:32:56.319Z</time>
      </trkpt>
      <trkpt lat="42.830675" lon="1.024210">
        <ele>1160.7</ele>
        <time>2025-07-14T19:34:10.546Z</time>
      </trkpt>
      <trkpt lat="42.830922" lon="1.024579">
        <ele>1149.5</ele>
        <time>2025-07-14T19:35:53.625Z</time>
      </trkpt>
      <trkpt lat="42.831124" lon="1.024829">
        <ele>1146.2</ele>
        <time>2025-07-14T19:36:40.756Z</time>
      </trkpt>
      <trkpt lat="42.831312" lon="1.024836">
        <ele>1143.7</ele>
        <time>2025-07-14T19:37:17.664Z</time>
      </trkpt>
      <trkpt lat="42.831536" lon="1.025067">
        <ele>1132.3</ele>
        <time>2025-07-14T19:38:57.658Z</time>
      </trkpt>
      <trkpt lat="42.831780" lon="1.025261">
        <ele>1122.7</ele>
        <time>2025-07-14T19:40:22.243Z</time>
      </trkpt>
      <trkpt lat="42.832009" lon="1.025484">
        <ele>1111.4</ele>
        <time>2025-07-14T19:41:56.807Z</time>
      </trkpt>
      <trkpt lat="42.832146" lon="1.025773">
        <ele>1100.1</ele>
        <time>2025-07-14T19:43:31.840Z</time>
      </trkpt>
      <trkpt lat="42.832332" lon="1.026034">
        <ele>1089.4</ele>
        <time>2025-07-14T19:45:01.295Z</time>
      </trkpt>
      <trkpt lat="42.832437" lon="1.026302">
        <ele>1080.1</ele>
        <time>2025-07-14T19:46:19.705Z</time>
      </trkpt>
      <trkpt lat="42.832523" lon="1.026583">
        <ele>1072.0</ele>
        <time>2025-07-14T19:47:31.133Z</time>
      </trkpt>
      <trkpt lat="42.832575" lon="1.026836">
        <ele>1062.4</ele>
        <time>2025-07-14T19:48:56.458Z</time>
      </trkpt>
      <trkpt lat="42.832709" lon="1.026992">
        <ele>1055.6</ele>
        <time>2025-07-14T19:49:59.261Z</time>
      </trkpt>
      <trkpt lat="42.832416" lon="1.027150">
        <ele>1035.7</ele>
        <time>2025-07-14T19:52:31.311Z</time>
      </trkpt>
      <trkpt lat="42.832309" lon="1.027524">
        <ele>1016.7</ele>
        <time>2025-07-14T19:54:54.571Z</time>
      </trkpt>
      <trkpt lat="42.832280" lon="1.027848">
        <ele>1008.1</ele>
        <time>2025-07-14T19:56:09.164Z</time>
      </trkpt>
      <trkpt lat="42.832325" lon="1.028169">
        <ele>999.9</ele>
        <time>2025-07-14T19:57:23.945Z</time>
      </trkpt>
      <trkpt lat="42.832253" lon="1.028635">
        <ele>991.8</ele>
        <time>2025-07-14T19:58:45.666Z</time>
      </trkpt>
      <trkpt lat="42.832359" lon="1.028974">
        <ele>986.1</ele>
        <time>2025-07-14T19:59:46.577Z</time>
      </trkpt>
      <trkpt lat="42.832495" lon="1.029319">
        <ele>979.4</ele>
        <time>2025-07-14T20:00:54.089Z</time>
      </trkpt>
      <trkpt lat="42.832514" lon="1.029628">
        <ele>972.3</ele>
        <time>2025-07-14T20:02:00.530Z</time>
      </trkpt>
      <trkpt lat="42.832617" lon="1.029889">
        <ele>964.8</ele>
        <time>2025-07-14T20:03:07.838Z</time>
      </trkpt>
      <trkpt lat="42.832734" lon="1.030262">
        <ele>954.6</ele>
        <time>2025-07-14T20:04:37.579Z</time>
      </trkpt>
      <trkpt lat="42.832774" lon="1.030605">
        <ele>948.2</ele>
        <time>2025-07-14T20:05:40.072Z</time>
      </trkpt>
      <trkpt lat="42.832644" lon="1.030783">
        <ele>943.1</ele>
        <time>2025-07-14T20:06:36.736Z</time>
      </trkpt>
      <trkpt lat="42.832292" lon="1.030840">
        <ele>937.9</ele>
        <time>2025-07-14T20:07:41.230Z</time>
      </trkpt>
      <trkpt lat="42.832138" lon="1.031136">
        <ele>934.0</ele>
        <time>2025-07-14T20:08:36.259Z</time>
      </trkpt>
      <trkpt lat="42.832223" lon="1.031485">
        <ele>931.0</ele>
        <time>2025-07-14T20:09:20.193Z</time>
      </trkpt>
      <trkpt lat="42.832188" lon="1.031921">
        <ele>930.0</ele>
        <time>2025-07-14T20:09:56.483Z</time>
      </trkpt>
      <trkpt lat="42.831566" lon="1.032354">
        <ele>930.1</ele>
        <time>2025-07-14T20:11:06.011Z</time>
      </trkpt>
      <trkpt lat="42.831288" lon="1.032570">
        <ele>934.7</ele>
        <time>2025-07-14T20:12:24.067Z</time>
      </trkpt>
      <trkpt lat="42.831051" lon="1.032813">
        <ele>939.0</ele>
        <time>2025-07-14T20:13:36.542Z</time>
      </trkpt>
      <trkpt lat="42.830829" lon="1.032977">
        <ele>944.1</ele>
        <time>2025-07-14T20:14:53.487Z</time>
      </trkpt>
      <trkpt lat="42.830553" lon="1.033355">
        <ele>948.2</ele>
        <time>2025-07-14T20:16:15.678Z</time>
      </trkpt>
      <trkpt lat="42.830564" lon="1.033656">
        <ele>948.2</ele>
        <time>2025-07-14T20:16:40.990Z</time>
      </trkpt>
      <trkpt lat="42.830563" lon="1.033969">
        <ele>951.3</ele>
        <time>2025-07-14T20:17:37.383Z</time>
      </trkpt>
      <trkpt lat="42.830156" lon="1.034889">
        <ele>960.9</ele>
        <time>2025-07-14T20:20:31.667Z</time>
      </trkpt>
      <trkpt lat="42.829899" lon="1.035401">
        <ele>964.7</ele>
        <time>2025-07-14T20:21:54.268Z</time>
      </trkpt>
      <trkpt lat="42.829407" lon="1.035704">
        <ele>957.5</ele>
        <time>2025-07-14T20:23:29.156Z</time>
      </trkpt>
      <trkpt lat="42.828641" lon="1.036525">
        <ele>960.1</ele>
        <time>2025-07-14T20:25:29.034Z</time>
      </trkpt>
      <trkpt lat="42.827773" lon="1.037645">
        <ele>977.3</ele>
        <time>2025-07-14T20:30:19.627Z</time>
      </trkpt>
      <trkpt lat="42.827167" lon="1.038798">
        <ele>989.2</ele>
        <time>2025-07-14T20:34:01.241Z</time>
      </trkpt>
      <trkpt lat="42.827420" lon="1.038828">
        <ele>997.3</ele>
        <time>2025-07-14T20:35:48.810Z</time>
      </trkpt>
      <trkpt lat="42.827609" lon="1.038961">
        <ele>1004.3</ele>
        <time>2025-07-14T20:37:24.961Z</time>
      </trkpt>
      <trkpt lat="42.827309" lon="1.039460">
        <ele>1007.5</ele>
        <time>2025-07-14T20:38:43.237Z</time>
      </trkpt>
      <trkpt lat="42.827253" lon="1.039986">
        <ele>1016.3</ele>
        <time>2025-07-14T20:40:51.043Z</time>
      </trkpt>
      <trkpt lat="42.827058" lon="1.040504">
        <ele>1025.9</ele>
        <time>2025-07-14T20:43:10.869Z</time>
      </trkpt>
      <trkpt lat="42.826272" lon="1.041492">
        <ele>1039.9</ele>
        <time>2025-07-14T20:47:15.918Z</time>
      </trkpt>
      <trkpt lat="42.825541" lon="1.042506">
        <ele>1061.3</ele>
        <time>2025-07-14T20:52:35.464Z</time>
      </trkpt>
      <trkpt lat="42.825257" lon="1.043027">
        <ele>1076.1</ele>
        <time>2025-07-14T20:55:53.540Z</time>
      </trkpt>
      <trkpt lat="42.825160" lon="1.043380">
        <ele>1085.2</ele>
        <time>2025-07-14T20:57:53.081Z</time>
      </trkpt>
      <trkpt lat="42.825098" lon="1.043814">
        <ele>1097.5</ele>
        <time>2025-07-14T21:00:35.682Z</time>
      </trkpt>
      <trkpt lat="42.825145" lon="1.044116">
        <ele>1111.4</ele>
        <time>2025-07-14T21:03:26.078Z</time>
      </trkpt>
      <trkpt lat="42.825257" lon="1.044345">
        <ele>1123.9</ele>
        <time>2025-07-14T21:05:59.077Z</time>
      </trkpt>
      <trkpt lat="42.825294" lon="1.044668">
        <ele>1137.2</ele>
        <time>2025-07-14T21:08:40.861Z</time>
      </trkpt>
      <trkpt lat="42.825496" lon="1.044607">
        <ele>1151.0</ele>
        <time>2025-07-14T21:11:27.553Z</time>
      </trkpt>
      <trkpt lat="42.825507" lon="1.045194">
        <ele>1164.3</ele>
        <time>2025-07-14T21:14:26.026Z</time>
      </trkpt>
      <trkpt lat="42.825480" lon="1.045808">
        <ele>1178.3</ele>
        <time>2025-07-14T21:17:32.631Z</time>
      </trkpt>
      <trkpt lat="42.825651" lon="1.045549">
        <ele>1183.4</ele>
        <time>2025-07-14T21:18:49.520Z</time>
      </trkpt>
      <trkpt lat="42.825726" lon="1.046237">
        <ele>1193.5</ele>
        <time>2025-07-14T21:21:22.938Z</time>
      </trkpt>
      <trkpt lat="42.825992" lon="1.045708">
        <ele>1199.9</ele>
        <time>2025-07-14T21:23:13.524Z</time>
      </trkpt>
      <trkpt lat="42.825976" lon="1.046079">
        <ele>1205.2</ele>
        <time>2025-07-14T21:24:33.364Z</time>
      </trkpt>
      <trkpt lat="42.826213" lon="1.047211">
        <ele>1221.8</ele>
        <time>2025-07-14T21:28:46.694Z</time>
      </trkpt>
      <trkpt lat="42.826259" lon="1.047577">
        <ele>1230.0</ele>
        <time>2025-07-14T21:30:36.732Z</time>
      </trkpt>
      <trkpt lat="42.826215" lon="1.048022">
        <ele>1239.9</ele>
        <time>2025-07-14T21:32:49.712Z</time>
      </trkpt>
      <trkpt lat="42.826180" lon="1.048361">
        <ele>1246.5</ele>
        <time>2025-07-14T21:34:22.562Z</time>
      </trkpt>
      <trkpt lat="42.826121" lon="1.048722">
        <ele>1254.6</ele>
        <time>2025-07-14T21:36:13.811Z</time>
      </trkpt>
      <trkpt lat="42.825770" lon="1.049490">
        <ele>1264.3</ele>
        <time>2025-07-14T21:38:57.730Z</time>
      </trkpt>
      <trkpt lat="42.825545" lon="1.049793">
        <ele>1268.0</ele>
        <time>2025-07-14T21:40:05.056Z</time>
      </trkpt>
      <trkpt lat="42.825261" lon="1.050232">
        <ele>1277.3</ele>
        <time>2025-07-14T21:42:24.378Z</time>
      </trkpt>
      <trkpt lat="42.825292" lon="1.050689">
        <ele>1286.5</ele>
        <time>2025-07-14T21:44:31.712Z</time>
      </trkpt>
      <trkpt lat="42.825349" lon="1.051094">
        <ele>1294.3</ele>
        <time>2025-07-14T21:46:33.372Z</time>
      </trkpt>
      <trkpt lat="42.825285" lon="1.051383">
        <ele>1302.9</ele>
        <time>2025-07-14T21:48:36.901Z</time>
      </trkpt>
      <trkpt lat="42.825543" lon="1.051380">
        <ele>1309.3</ele>
        <time>2025-07-14T21:50:07.334Z</time>
      </trkpt>
      <trkpt lat="42.825648" lon="1.051538">
        <ele>1318.3</ele>
        <time>2025-07-14T21:52:16.505Z</time>
      </trkpt>
      <trkpt lat="42.825772" lon="1.051670">
        <ele>1332.3</ele>
        <time>2025-07-14T21:55:23.521Z</time>
      </trkpt>
      <trkpt lat="42.825980" lon="1.051753">
        <ele>1348.9</ele>
        <time>2025-07-14T21:58:53.899Z</time>
      </trkpt>
      <trkpt lat="42.826042" lon="1.052057">
        <ele>1359.0</ele>
        <time>2025-07-14T22:01:00.270Z</time>
      </trkpt>
      <trkpt lat="42.826042" lon="1.052312">
        <ele>1374.4</ele>
        <time>2025-07-14T22:04:12.465Z</time>
      </trkpt>
      <trkpt lat="42.826266" lon="1.052510">
        <ele>1394.2</ele>
        <time>2025-07-14T22:08:10.444Z</time>
      </trkpt>
      <trkpt lat="42.826313" lon="1.052654">
        <ele>1405.0</ele>
        <time>2025-07-14T22:10:24.002Z</time>
      </trkpt>
      <trkpt lat="42.826557" lon="1.052623">
        <ele>1418.3</ele>
        <time>2025-07-14T22:13:10.878Z</time>
      </trkpt>
      <trkpt lat="42.826714" lon="1.052573">
        <ele>1422.7</ele>
        <time>2025-07-14T22:14:23.212Z</time>
      </trkpt>
      <trkpt lat="42.827039" lon="1.051825">
        <ele>1420.3</ele>
        <time>2025-07-14T22:15:40.787Z</time>
      </trkpt>
      <trkpt lat="42.827141" lon="1.052082">
        <ele>1424.3</ele>
        <time>2025-07-14T22:16:46.397Z</time>
      </trkpt>
      <trkpt lat="42.827195" lon="1.051763">
        <ele>1428.0</ele>
        <time>2025-07-14T22:17:48.205Z</time>
      </trkpt>
      <trkpt lat="42.827463" lon="1.051304">
        <ele>1436.1</ele>
        <time>2025-07-14T22:19:52.522Z</time>
      </trkpt>
      <trkpt lat="42.827605" lon="1.051400">
        <ele>1441.7</ele>
        <time>2025-07-14T22:21:16.338Z</time>
      </trkpt>
      <trkpt lat="42.827992" lon="1.051128">
        <ele>1452.3</ele>
        <time>2025-07-14T22:23:46.638Z</time>
      </trkpt>
      <trkpt lat="42.828212" lon="1.050920">
        <ele>1455.6</ele>
        <time>2025-07-14T22:24:46.253Z</time>
      </trkpt>
      <trkpt lat="42.828252" lon="1.051030">
        <ele>1458.9</ele>
        <time>2025-07-14T22:25:46.686Z</time>
      </trkpt>
      <trkpt lat="42.828260" lon="1.051135">
        <ele>1463.6</ele>
        <time>2025-07-14T22:26:58.650Z</time>
      </trkpt>
      <trkpt lat="42.828236" lon="1.051235">
        <ele>1468.7</ele>
        <time>2025-07-14T22:28:18.230Z</time>
      </trkpt>
      <trkpt lat="42.828317" lon="1.051412">
        <ele>1473.0</ele>
        <time>2025-07-14T22:29:26.490Z</time>
      </trkpt>
      <trkpt lat="42.828450" lon="1.051427">
        <ele>1477.3</ele>
        <time>2025-07-14T22:30:34.148Z</time>
      </trkpt>
      <trkpt lat="42.828531" lon="1.051489">
        <ele>1481.4</ele>
        <time>2025-07-14T22:31:43.202Z</time>
      </trkpt>
      <trkpt lat="42.828637" lon="1.051322">
        <ele>1485.2</ele>
        <time>2025-07-14T22:32:46.233Z</time>
      </trkpt>
      <trkpt lat="42.828860" lon="1.051193">
        <ele>1489.5</ele>
        <time>2025-07-14T22:33:53.124Z</time>
      </trkpt>
      <trkpt lat="42.829199" lon="1.051203">
        <ele>1496.7</ele>
        <time>2025-07-14T22:35:40.699Z</time>
      </trkpt>
      <trkpt lat="42.829253" lon="1.051284">
        <ele>1502.5</ele>
        <time>2025-07-14T22:37:03.467Z</time>
      </trkpt>
      <trkpt lat="42.829578" lon="1.051379">
        <ele>1512.4</ele>
        <time>2025-07-14T22:39:17.381Z</time>
      </trkpt>
      <trkpt lat="42.829969" lon="1.051478">
        <ele>1523.8</ele>
        <time>2025-07-14T22:41:52.817Z</time>
      </trkpt>
      <trkpt lat="42.829998" lon="1.051544">
        <ele>1530.1</ele>
        <time>2025-07-14T22:43:19.355Z</time>
      </trkpt>
      <trkpt lat="42.829625" lon="1.051669">
        <ele>1533.7</ele>
        <time>2025-07-14T22:44:33.692Z</time>
      </trkpt>
      <trkpt lat="42.830087" lon="1.051930">
        <ele>1544.2</ele>
        <time>2025-07-14T22:47:09.702Z</time>
      </trkpt>
      <trkpt lat="42.829865" lon="1.051986">
        <ele>1550.4</ele>
        <time>2025-07-14T22:48:34.116Z</time>
      </trkpt>
      <trkpt lat="42.829601" lon="1.052017">
        <ele>1553.8</ele>
        <time>2025-07-14T22:49:34.657Z</time>
      </trkpt>
      <trkpt lat="42.829767" lon="1.052165">
        <ele>1557.3</ele>
        <time>2025-07-14T22:50:37.161Z</time>
      </trkpt>
      <trkpt lat="42.829961" lon="1.052366">
        <ele>1564.7</ele>
        <time>2025-07-14T22:52:16.477Z</time>
      </trkpt>
      <trkpt lat="42.829918" lon="1.052448">
        <ele>1572.9</ele>
        <time>2025-07-14T22:54:06.369Z</time>
      </trkpt>
      <trkpt lat="42.830088" lon="1.052719">
        <ele>1581.1</ele>
        <time>2025-07-14T22:56:01.447Z</time>
      </trkpt>
      <trkpt lat="42.830327" lon="1.052846">
        <ele>1587.6</ele>
        <time>2025-07-14T22:57:32.992Z</time>
      </trkpt>
      <trkpt lat="42.830518" lon="1.053031">
        <ele>1589.4</ele>
        <time>2025-07-14T22:58:14.115Z</time>
      </trkpt>
      <trkpt lat="42.830779" lon="1.053240">
        <ele>1591.8</ele>
        <time>2025-07-14T22:59:08.079Z</time>
      </trkpt>
      <trkpt lat="42.830988" lon="1.053163">
        <ele>1597.4</ele>
        <time>2025-07-14T23:00:28.457Z</time>
      </trkpt>
      <trkpt lat="42.830990" lon="1.053393">
        <ele>1602.7</ele>
        <time>2025-07-14T23:01:45.187Z</time>
      </trkpt>
      <trkpt lat="42.831023" lon="1.053719">
        <ele>1617.7</ele>
        <time>2025-07-14T23:04:43.194Z</time>
      </trkpt>
      <trkpt lat="42.831119" lon="1.053971">
        <ele>1631.7</ele>
        <time>2025-07-14T23:07:29.270Z</time>
      </trkpt>
      <trkpt lat="42.831137" lon="1.054201">
        <ele>1639.4</ele>
        <time>2025-07-14T23:09:13.341Z</time>
      </trkpt>
      <trkpt lat="42.831119" lon="1.054368">
        <ele>1647.0</ele>
        <time>2025-07-14T23:10:57.188Z</time>
      </trkpt>
      <trkpt lat="42.831087" lon="1.054523">
        <ele>1652.2</ele>
        <time>2025-07-14T23:12:12.825Z</time>
      </trkpt>
      <trkpt lat="42.830974" lon="1.054789">
        <ele>1657.4</ele>
        <time>2025-07-14T23:13:27.696Z</time>
      </trkpt>
      <trkpt lat="42.831060" lon="1.054857">
        <ele>1663.6</ele>
        <time>2025-07-14T23:14:54.329Z</time>
      </trkpt>
      <trkpt lat="42.831021" lon="1.055076">
        <ele>1669.3</ele>
        <time>2025-07-14T23:16:14.882Z</time>
      </trkpt>
      <trkpt lat="42.831045" lon="1.055303">
        <ele>1676.7</ele>
        <time>2025-07-14T23:17:55.006Z</time>
      </trkpt>
      <trkpt lat="42.831110" lon="1.055423">
        <ele>1684.5</ele>
        <time>2025-07-14T23:19:39.647Z</time>
      </trkpt>
      <trkpt lat="42.831102" lon="1.055612">
        <ele>1691.1</ele>
        <time>2025-07-14T23:21:15.453Z</time>
      </trkpt>
      <trkpt lat="42.831024" lon="1.056051">
        <ele>1697.5</ele>
        <time>2025-07-14T23:23:17.717Z</time>
      </trkpt>
      <trkpt lat="42.830701" lon="1.056281">
        <ele>1705.0</ele>
        <time>2025-07-14T23:25:10.055Z</time>
      </trkpt>
      <trkpt lat="42.830930" lon="1.056339">
        <ele>1713.8</ele>
        <time>2025-07-14T23:27:05.697Z</time>
      </trkpt>
      <trkpt lat="42.830531" lon="1.056733">
        <ele>1723.7</ele>
        <time>2025-07-14T23:29:35.675Z</time>
      </trkpt>
      <trkpt lat="42.830760" lon="1.056715">
        <ele>1732.9</ele>
        <time>2025-07-14T23:31:34.580Z</time>
      </trkpt>
      <trkpt lat="42.830582" lon="1.056952">
        <ele>1743.0</ele>
        <time>2025-07-14T23:33:45.906Z</time>
      </trkpt>
      <trkpt lat="42.830792" lon="1.056918">
        <ele>1748.0</ele>
        <time>2025-07-14T23:34:59.916Z</time>
      </trkpt>
      <trkpt lat="42.830618" lon="1.057172">
        <ele>1754.0</ele>
        <time>2025-07-14T23:36:30.123Z</time>
      </trkpt>
      <trkpt lat="42.830563" lon="1.057371">
        <ele>1762.5</ele>
        <time>2025-07-14T23:38:21.769Z</time>
      </trkpt>
      <trkpt lat="42.830617" lon="1.057476">
        <ele>1770.0</ele>
        <time>2025-07-14T23:40:05.117Z</time>
      </trkpt>
      <trkpt lat="42.830568" lon="1.057666">
        <ele>1773.2</ele>
        <time>2025-07-14T23:41:03.974Z</time>
      </trkpt>
      <trkpt lat="42.830787" lon="1.057547">
        <ele>1777.0</ele>
        <time>2025-07-14T23:42:08.688Z</time>
      </trkpt>
      <trkpt lat="42.830761" lon="1.057762">
        <ele>1782.9</ele>
        <time>2025-07-14T23:43:30.268Z</time>
      </trkpt>
      <trkpt lat="42.830790" lon="1.057884">
        <ele>1789.6</ele>
        <time>2025-07-14T23:45:03.682Z</time>
      </trkpt>
      <trkpt lat="42.830772" lon="1.058072">
        <ele>1795.5</ele>
        <time>2025-07-14T23:46:34.367Z</time>
      </trkpt>
      <trkpt lat="42.830647" lon="1.058311">
        <ele>1800.8</ele>
        <time>2025-07-14T23:47:57.498Z</time>
      </trkpt>
      <trkpt lat="42.830785" lon="1.058324">
        <ele>1804.7</ele>
        <time>2025-07-14T23:48:58.819Z</time>
      </trkpt>
      <trkpt lat="42.830712" lon="1.058542">
        <ele>1809.3</ele>
        <time>2025-07-14T23:50:12.095Z</time>
      </trkpt>
      <trkpt lat="42.830554" lon="1.058780">
        <ele>1814.0</ele>
        <time>2025-07-14T23:51:22.270Z</time>
      </trkpt>
      <trkpt lat="42.830246" lon="1.058933">
        <ele>1821.4</ele>
        <time>2025-07-14T23:53:10.233Z</time>
      </trkpt>
      <trkpt lat="42.830470" lon="1.059011">
        <ele>1827.2</ele>
        <time>2025-07-14T23:54:33.621Z</time>
      </trkpt>
      <trkpt lat="42.830710" lon="1.059068">
        <ele>1832.1</ele>
        <time>2025-07-14T23:55:50.144Z</time>
      </trkpt>
      <trkpt lat="42.830935" lon="1.059001">
        <ele>1835.9</ele>
        <time>2025-07-14T23:56:51.256Z</time>
      </trkpt>
      <trkpt lat="42.830758" lon="1.059262">
        <ele>1840.5</ele>
        <time>2025-07-14T23:58:05.388Z</time>
      </trkpt>
      <trkpt lat="42.830525" lon="1.059465">
        <ele>1845.5</ele>
        <time>2025-07-14T23:59:25.765Z</time>
      </trkpt>
      <trkpt lat="42.830137" lon="1.059674">
        <ele>1852.7</ele>
        <time>2025-07-15T00:01:19.261Z</time>
      </trkpt>
      <trkpt lat="42.830383" lon="1.059776">
        <ele>1855.2</ele>
        <time>2025-07-15T00:02:09.651Z</time>
      </trkpt>
      <trkpt lat="42.830667" lon="1.059822">
        <ele>1857.9</ele>
        <time>2025-07-15T00:03:05.313Z</time>
      </trkpt>
      <trkpt lat="42.830890" lon="1.059754">
        <ele>1862.5</ele>
        <time>2025-07-15T00:04:14.355Z</time>
      </trkpt>
      <trkpt lat="42.831111" lon="1.059697">
        <ele>1867.1</ele>
        <time>2025-07-15T00:05:23.640Z</time>
      </trkpt>
      <trkpt lat="42.830973" lon="1.059915">
        <ele>1870.4</ele>
        <time>2025-07-15T00:06:22.255Z</time>
      </trkpt>
      <trkpt lat="42.830623" lon="1.060318">
        <ele>1876.1</ele>
        <time>2025-07-15T00:08:05.777Z</time>
      </trkpt>
      <trkpt lat="42.830403" lon="1.060437">
        <ele>1880.9</ele>
        <time>2025-07-15T00:09:17.803Z</time>
      </trkpt>
      <trkpt lat="42.830163" lon="1.060500">
        <ele>1885.6</ele>
        <time>2025-07-15T00:10:29.814Z</time>
      </trkpt>
      <trkpt lat="42.830278" lon="1.060704">
        <ele>1892.8</ele>
        <time>2025-07-15T00:12:29.073Z</time>
      </trkpt>
      <trkpt lat="42.830129" lon="1.060801">
        <ele>1893.7</ele>
        <time>2025-07-15T00:12:59.355Z</time>
      </trkpt>
    </trkseg>
  </trk>
</gpx>
