<?xml version="1.0" encoding="UTF-8"?>
<gpx version="1.1" creator="carnet-trek seed (OpenStreetMap, EU-DEM)" xmlns="http://www.topografix.com/GPX/1/1">
  <metadata>
    <name>GR10 – Refuge d&apos;Ayous → Gabas</name>
    <copyright author="OpenStreetMap contributors"><license>https://opendatacommons.org/licenses/odbl/</license></copyright>
  </metadata>
  <wpt lat="42.850144" lon="-0.483747">
    <name>Refuge d&apos;Ayous</name>
    <sym>Lodging</sym>
  </wpt>
  <wpt lat="42.850422" lon="-0.482899">
    <name>Point culminant (1937 m)</name>
    <sym>Summit</sym>
  </wpt>
  <wpt lat="42.892940" lon="-0.421450">
    <name>Gabas</name>
    <sym>Convenience Store</sym>
  </wpt>
  <trk>
    <name>GR10 – Refuge d&apos;Ayous → Gabas</name>
    <type>hike</type>
    <trkseg>
      <trkpt lat="42.850144" lon="-0.483747">
        <ele>1935.4</ele>
        <time>2025-06-28T07:30:00.000Z</time>
      </trkpt>
      <trkpt lat="42.850346" lon="-0.483287">
        <ele>1936.9</ele>
        <time>2025-06-28T07:30:52.526Z</time>
      </trkpt>
      <trkpt lat="42.850422" lon="-0.482899">
        <ele>1937.1</ele>
        <time>2025-06-28T07:31:23.669Z</time>
      </trkpt>
      <trkpt lat="42.850496" lon="-0.482565">
        <ele>1936.4</ele>
        <time>2025-06-28T07:31:52.745Z</time>
      </trkpt>
      <trkpt lat="42.850433" lon="-0.482184">
        <ele>1932.8</ele>
        <time>2025-06-28T07:32:45.714Z</time>
      </trkpt>
      <trkpt lat="42.850235" lon="-0.481808">
        <ele>1927.6</ele>
        <time>2025-06-28T07:33:49.673Z</time>
      </trkpt>
      <trkpt lat="42.850022" lon="-0.481440">
        <ele>1921.1</ele>
        <time>2025-06-28T07:35:02.495Z</time>
      </trkpt>
      <trkpt lat="42.849934" lon="-0.481083">
        <ele>1919.9</ele>
        <time>2025-06-28T07:35:39.257Z</time>
      </trkpt>
      <trkpt lat="42.850118" lon="-0.481024">
        <ele>1918.4</ele>
        <time>2025-06-28T07:36:09.984Z</time>
      </trkpt>
      <trkpt lat="42.850125" lon="-0.480708">
        <ele>1914.7</ele>
        <time>2025-06-28T07:36:57.651Z</time>
      </trkpt>
      <trkpt lat="42.850157" lon="-0.480389">
        <ele>1911.0</ele>
        <time>2025-06-28T07:37:45.397Z</time>
      </trkpt>
      <trkpt lat="42.850226" lon="-0.480186">
        <ele>1907.1</ele>
        <time>2025-06-28T07:38:31.649Z</time>
      </trkpt>
      <trkpt lat="42.850074" lon="-0.480192">
        <ele>1902.1</ele>
        <time>2025-06-28T07:39:30.660Z</time>
      </trkpt>
      <trkpt lat="42.849998" lon="-0.479932">
        <ele>1894.4</ele>
        <time>2025-06-28T07:40:40.917Z</time>
      </trkpt>
      <trkpt lat="42.850068" lon="-0.479629">
        <ele>1887.1</ele>
        <time>2025-06-28T07:41:48.505Z</time>
      </trkpt>
      <trkpt lat="42.850092" lon="-0.479309">
        <ele>1878.5</ele>
        <time>2025-06-28T07:43:02.757Z</time>
      </trkpt>
      <trkpt lat="42.849744" lon="-0.478893">
        <ele>1861.8</ele>
        <time>2025-06-28T07:45:27.929Z</time>
      </trkpt>
      <trkpt lat="42.849061" lon="-0.477836">
        <ele>1845.6</ele>
        <time>2025-06-28T07:48:43.638Z</time>
      </trkpt>
      <trkpt lat="42.848942" lon="-0.477549">
        <ele>1845.7</ele>
        <time>2025-06-28T07:49:07.719Z</time>
      </trkpt>
      <trkpt lat="42.848949" lon="-0.476893">
        <ele>1845.9</ele>
        <time>2025-06-28T07:49:56.150Z</time>
      </trkpt>
      <trkpt lat="42.849016" lon="-0.476587">
        <ele>1843.5</ele>
        <time>2025-06-28T07:50:32.995Z</time>
      </trkpt>
      <trkpt lat="42.849210" lon="-0.476326">
        <ele>1840.6</ele>
        <time>2025-06-28T07:51:16.569Z</time>
      </trkpt>
      <trkpt lat="42.849497" lon="-0.475979">
        <ele>1833.4</ele>
        <time>2025-06-28T07:52:36.867Z</time>
      </trkpt>
      <trkpt lat="42.849823" lon="-0.475620">
        <ele>1826.4</ele>
        <time>2025-06-28T07:53:59.589Z</time>
      </trkpt>
      <trkpt lat="42.850080" lon="-0.475452">
        <ele>1823.4</ele>
        <time>2025-06-28T07:54:45.096Z</time>
      </trkpt>
      <trkpt lat="42.850290" lon="-0.475383">
        <ele>1822.3</ele>
        <time>2025-06-28T07:55:16.280Z</time>
      </trkpt>
      <trkpt lat="42.850261" lon="-0.474854">
        <ele>1815.9</ele>
        <time>2025-06-28T07:56:32.205Z</time>
      </trkpt>
      <trkpt lat="42.850396" lon="-0.474087">
        <ele>1801.7</ele>
        <time>2025-06-28T07:58:54.008Z</time>
      </trkpt>
      <trkpt lat="42.850638" lon="-0.473647">
        <ele>1795.2</ele>
        <time>2025-06-28T08:00:11.951Z</time>
      </trkpt>
      <trkpt lat="42.850785" lon="-0.473405">
        <ele>1791.4</ele>
        <time>2025-06-28T08:00:56.538Z</time>
      </trkpt>
      <trkpt lat="42.851024" lon="-0.473225">
        <ele>1787.2</ele>
        <time>2025-06-28T08:01:47.670Z</time>
      </trkpt>
      <trkpt lat="42.851414" lon="-0.472986">
        <ele>1781.9</ele>
        <time>2025-06-28T08:03:00.707Z</time>
      </trkpt>
      <trkpt lat="42.851787" lon="-0.472963">
        <ele>1778.1</ele>
        <time>2025-06-28T08:03:58.657Z</time>
      </trkpt>
      <trkpt lat="42.851997" lon="-0.473132">
        <ele>1783.6</ele>
        <time>2025-06-28T08:05:18.673Z</time>
      </trkpt>
      <trkpt lat="42.852258" lon="-0.473119">
        <ele>1789.5</ele>
        <time>2025-06-28T08:06:43.656Z</time>
      </trkpt>
      <trkpt lat="42.852540" lon="-0.472971">
        <ele>1788.0</ele>
        <time>2025-06-28T08:07:21.710Z</time>
      </trkpt>
      <trkpt lat="42.852759" lon="-0.472745">
        <ele>1786.6</ele>
        <time>2025-06-28T08:07:55.922Z</time>
      </trkpt>
      <trkpt lat="42.852955" lon="-0.472498">
        <ele>1779.2</ele>
        <time>2025-06-28T08:09:06.091Z</time>
      </trkpt>
      <trkpt lat="42.853110" lon="-0.472133">
        <ele>1768.9</ele>
        <time>2025-06-28T08:10:37.887Z</time>
      </trkpt>
      <trkpt lat="42.853253" lon="-0.471632">
        <ele>1752.7</ele>
        <time>2025-06-28T08:12:53.044Z</time>
      </trkpt>
      <trkpt lat="42.853432" lon="-0.471368">
        <ele>1746.3</ele>
        <time>2025-06-28T08:13:57.424Z</time>
      </trkpt>
      <trkpt lat="42.853661" lon="-0.471170">
        <ele>1739.8</ele>
        <time>2025-06-28T08:15:02.027Z</time>
      </trkpt>
      <trkpt lat="42.854094" lon="-0.470240">
        <ele>1727.1</ele>
        <time>2025-06-28T08:17:35.704Z</time>
      </trkpt>
      <trkpt lat="42.854231" lon="-0.470001">
        <ele>1721.7</ele>
        <time>2025-06-28T08:18:33.022Z</time>
      </trkpt>
      <trkpt lat="42.854240" lon="-0.469679">
        <ele>1716.8</ele>
        <time>2025-06-28T08:19:25.222Z</time>
      </trkpt>
      <trkpt lat="42.854263" lon="-0.469104">
        <ele>1711.0</ele>
        <time>2025-06-28T08:20:40.975Z</time>
      </trkpt>
      <trkpt lat="42.854170" lon="-0.468670">
        <ele>1706.5</ele>
        <time>2025-06-28T08:21:39.491Z</time>
      </trkpt>
      <trkpt lat="42.854089" lon="-0.468362">
        <ele>1707.0</ele>
        <time>2025-06-28T08:22:06.665Z</time>
      </trkpt>
      <trkpt lat="42.854024" lon="-0.467873">
        <ele>1707.6</ele>
        <time>2025-06-28T08:22:48.016Z</time>
      </trkpt>
      <trkpt lat="42.853945" lon="-0.467570">
        <ele>1708.9</ele>
        <time>2025-06-28T08:23:24.530Z</time>
      </trkpt>
      <trkpt lat="42.853794" lon="-0.467393">
        <ele>1710.6</ele>
        <time>2025-06-28T08:24:09.520Z</time>
      </trkpt>
      <trkpt lat="42.853551" lon="-0.467235">
        <ele>1703.5</ele>
        <time>2025-06-28T08:25:21.068Z</time>
      </trkpt>
      <trkpt lat="42.853269" lon="-0.466725">
        <ele>1689.0</ele>
        <time>2025-06-28T08:27:33.224Z</time>
      </trkpt>
      <trkpt lat="42.853237" lon="-0.466309">
        <ele>1678.5</ele>
        <time>2025-06-28T08:29:05.400Z</time>
      </trkpt>
      <trkpt lat="42.853267" lon="-0.465848">
        <ele>1672.8</ele>
        <time>2025-06-28T08:30:12.225Z</time>
      </trkpt>
      <trkpt lat="42.853345" lon="-0.465395">
        <ele>1667.0</ele>
        <time>2025-06-28T08:31:19.388Z</time>
      </trkpt>
      <trkpt lat="42.853429" lon="-0.464987">
        <ele>1663.0</ele>
        <time>2025-06-28T08:32:12.691Z</time>
      </trkpt>
      <trkpt lat="42.853452" lon="-0.464480">
        <ele>1658.3</ele>
        <time>2025-06-28T08:33:16.586Z</time>
      </trkpt>
      <trkpt lat="42.853567" lon="-0.462847">
        <ele>1628.6</ele>
        <time>2025-06-28T08:38:09.135Z</time>
      </trkpt>
      <trkpt lat="42.853764" lon="-0.462240">
        <ele>1618.1</ele>
        <time>2025-06-28T08:39:58.835Z</time>
      </trkpt>
      <trkpt lat="42.853837" lon="-0.461557">
        <ele>1599.1</ele>
        <time>2025-06-28T08:42:40.866Z</time>
      </trkpt>
      <trkpt lat="42.853893" lon="-0.461002">
        <ele>1588.5</ele>
        <time>2025-06-28T08:44:23.907Z</time>
      </trkpt>
      <trkpt lat="42.853882" lon="-0.460435">
        <ele>1577.7</ele>
        <time>2025-06-28T08:46:08.349Z</time>
      </trkpt>
      <trkpt lat="42.853727" lon="-0.460056">
        <ele>1569.5</ele>
        <time>2025-06-28T08:47:28.524Z</time>
      </trkpt>
      <trkpt lat="42.853755" lon="-0.459663">
        <ele>1562.3</ele>
        <time>2025-06-28T08:48:39.539Z</time>
      </trkpt>
      <trkpt lat="42.853968" lon="-0.459384">
        <ele>1563.5</ele>
        <time>2025-06-28T08:49:20.083Z</time>
      </trkpt>
      <trkpt lat="42.854172" lon="-0.458913">
        <ele>1565.1</ele>
        <time>2025-06-28T08:50:15.276Z</time>
      </trkpt>
      <trkpt lat="42.854229" lon="-0.458522">
        <ele>1561.5</ele>
        <time>2025-06-28T08:51:05.079Z</time>
      </trkpt>
      <trkpt lat="42.854327" lon="-0.457951">
        <ele>1553.9</ele>
        <time>2025-06-28T08:52:31.751Z</time>
      </trkpt>
      <trkpt lat="42.854426" lon="-0.457675">
        <ele>1549.1</ele>
        <time>2025-06-28T08:53:22.311Z</time>
      </trkpt>
      <trkpt lat="42.854695" lon="-0.457486">
        <ele>1545.3</ele>
        <time>2025-06-28T08:54:14.550Z</time>
      </trkpt>
      <trkpt lat="42.855201" lon="-0.456935">
        <ele>1537.1</ele>
        <time>2025-06-28T08:56:05.316Z</time>
      </trkpt>
      <trkpt lat="42.855396" lon="-0.456718">
        <ele>1537.7</ele>
        <time>2025-06-28T08:56:35.815Z</time>
      </trkpt>
      <trkpt lat="42.855777" lon="-0.456142">
        <ele>1539.0</ele>
        <time>2025-06-28T08:57:43.226Z</time>
      </trkpt>
      <trkpt lat="42.856138" lon="-0.456109">
        <ele>1539.2</ele>
        <time>2025-06-28T08:58:21.183Z</time>
      </trkpt>
      <trkpt lat="42.856410" lon="-0.456162">
        <ele>1537.6</ele>
        <time>2025-06-28T08:58:57.133Z</time>
      </trkpt>
      <trkpt lat="42.856743" lon="-0.456063">
        <ele>1529.8</ele>
        <time>2025-06-28T09:00:16.811Z</time>
      </trkpt>
      <trkpt lat="42.857069" lon="-0.455921">
        <ele>1521.9</ele>
        <time>2025-06-28T09:01:36.707Z</time>
      </trkpt>
      <trkpt lat="42.857214" lon="-0.455741">
        <ele>1516.5</ele>
        <time>2025-06-28T09:02:34.425Z</time>
      </trkpt>
      <trkpt lat="42.857321" lon="-0.455486">
        <ele>1511.5</ele>
        <time>2025-06-28T09:03:28.143Z</time>
      </trkpt>
      <trkpt lat="42.857592" lon="-0.455334">
        <ele>1505.7</ele>
        <time>2025-06-28T09:04:31.240Z</time>
      </trkpt>
      <trkpt lat="42.857798" lon="-0.455085">
        <ele>1502.9</ele>
        <time>2025-06-28T09:05:14.186Z</time>
      </trkpt>
      <trkpt lat="42.857969" lon="-0.454821">
        <ele>1502.9</ele>
        <time>2025-06-28T09:05:39.315Z</time>
      </trkpt>
      <trkpt lat="42.858046" lon="-0.454503">
        <ele>1502.6</ele>
        <time>2025-06-28T09:06:04.620Z</time>
      </trkpt>
      <trkpt lat="42.858292" lon="-0.454336">
        <ele>1502.1</ele>
        <time>2025-06-28T09:06:33.613Z</time>
      </trkpt>
      <trkpt lat="42.858687" lon="-0.454381">
        <ele>1493.9</ele>
        <time>2025-06-28T09:08:01.859Z</time>
      </trkpt>
      <trkpt lat="42.858992" lon="-0.454447">
        <ele>1487.2</ele>
        <time>2025-06-28T09:09:12.306Z</time>
      </trkpt>
      <trkpt lat="42.859289" lon="-0.454422">
        <ele>1481.1</ele>
        <time>2025-06-28T09:10:16.898Z</time>
      </trkpt>
      <trkpt lat="42.859521" lon="-0.454444">
        <ele>1475.5</ele>
        <time>2025-06-28T09:11:12.701Z</time>
      </trkpt>
      <trkpt lat="42.859960" lon="-0.454363">
        <ele>1464.8</ele>
        <time>2025-06-28T09:12:59.290Z</time>
      </trkpt>
      <trkpt lat="42.860231" lon="-0.454365">
        <ele>1461.3</ele>
        <time>2025-06-28T09:13:46.175Z</time>
      </trkpt>
      <trkpt lat="42.860530" lon="-0.454318">
        <ele>1457.3</ele>
        <time>2025-06-28T09:14:38.945Z</time>
      </trkpt>
      <trkpt lat="42.861050" lon="-0.454209">
        <ele>1447.3</ele>
        <time>2025-06-28T09:16:30.831Z</time>
      </trkpt>
      <trkpt lat="42.861336" lon="-0.454113">
        <ele>1445.5</ele>
        <time>2025-06-28T09:17:09.703Z</time>
      </trkpt>
      <trkpt lat="42.861556" lon="-0.453873">
        <ele>1443.8</ele>
        <time>2025-06-28T09:17:46.764Z</time>
      </trkpt>
      <trkpt lat="42.861753" lon="-0.453506">
        <ele>1444.9</ele>
        <time>2025-06-28T09:18:29.199Z</time>
      </trkpt>
      <trkpt lat="42.862035" lon="-0.453048">
        <ele>1446.2</ele>
        <time>2025-06-28T09:19:24.995Z</time>
      </trkpt>
      <trkpt lat="42.862401" lon="-0.452593">
        <ele>1444.1</ele>
        <time>2025-06-28T09:20:24.980Z</time>
      </trkpt>
      <trkpt lat="42.862551" lon="-0.452345">
        <ele>1445.2</ele>
        <time>2025-06-28T09:20:58.131Z</time>
      </trkpt>
      <trkpt lat="42.862829" lon="-0.452090">
        <ele>1446.7</ele>
        <time>2025-06-28T09:21:45.416Z</time>
      </trkpt>
      <trkpt lat="42.863244" lon="-0.452002">
        <ele>1445.5</ele>
        <time>2025-06-28T09:22:32.600Z</time>
      </trkpt>
      <trkpt lat="42.863583" lon="-0.451834">
        <ele>1443.1</ele>
        <time>2025-06-28T09:23:21.761Z</time>
      </trkpt>
      <trkpt lat="42.863859" lon="-0.451654">
        <ele>1439.5</ele>
        <time>2025-06-28T09:24:12.702Z</time>
      </trkpt>
      <trkpt lat="42.864117" lon="-0.451433">
        <ele>1434.4</ele>
        <time>2025-06-28T09:25:12.025Z</time>
      </trkpt>
      <trkpt lat="42.864269" lon="-0.451040">
        <ele>1431.1</ele>
        <time>2025-06-28T09:26:03.707Z</time>
      </trkpt>
      <trkpt lat="42.864260" lon="-0.450699">
        <ele>1431.5</ele>
        <time>2025-06-28T09:26:31.867Z</time>
      </trkpt>
      <trkpt lat="42.864350" lon="-0.450334">
        <ele>1433.2</ele>
        <time>2025-06-28T09:27:15.788Z</time>
      </trkpt>
      <trkpt lat="42.864375" lon="-0.449954">
        <ele>1435.5</ele>
        <time>2025-06-28T09:28:06.418Z</time>
      </trkpt>
      <trkpt lat="42.864554" lon="-0.449800">
        <ele>1432.3</ele>
        <time>2025-06-28T09:28:47.510Z</time>
      </trkpt>
      <trkpt lat="42.864965" lon="-0.450198">
        <ele>1425.2</ele>
        <time>2025-06-28T09:30:18.034Z</time>
      </trkpt>
      <trkpt lat="42.865240" lon="-0.450432">
        <ele>1422.9</ele>
        <time>2025-06-28T09:31:02.691Z</time>
      </trkpt>
      <trkpt lat="42.865486" lon="-0.450482">
        <ele>1423.2</ele>
        <time>2025-06-28T09:31:29.822Z</time>
      </trkpt>
      <trkpt lat="42.865701" lon="-0.450374">
        <ele>1426.6</ele>
        <time>2025-06-28T09:32:26.853Z</time>
      </trkpt>
      <trkpt lat="42.865975" lon="-0.450090">
        <ele>1430.3</ele>
        <time>2025-06-28T09:33:37.697Z</time>
      </trkpt>
      <trkpt lat="42.866350" lon="-0.449972">
        <ele>1432.6</ele>
        <time>2025-06-28T09:34:38.701Z</time>
      </trkpt>
      <trkpt lat="42.866673" lon="-0.450088">
        <ele>1430.2</ele>
        <time>2025-06-28T09:35:24.726Z</time>
      </trkpt>
      <trkpt lat="42.866914" lon="-0.450149">
        <ele>1428.5</ele>
        <time>2025-06-28T09:35:58.538Z</time>
      </trkpt>
      <trkpt lat="42.867168" lon="-0.450282">
        <ele>1425.3</ele>
        <time>2025-06-28T09:36:43.928Z</time>
      </trkpt>
      <trkpt lat="42.867451" lon="-0.450301">
        <ele>1422.5</ele>
        <time>2025-06-28T09:37:28.176Z</time>
      </trkpt>
      <trkpt lat="42.867656" lon="-0.450168">
        <ele>1421.5</ele>
        <time>2025-06-28T09:37:55.742Z</time>
      </trkpt>
      <trkpt lat="42.867864" lon="-0.449956">
        <ele>1420.4</ele>
        <time>2025-06-28T09:38:27.169Z</time>
      </trkpt>
      <trkpt lat="42.868036" lon="-0.449736">
        <ele>1418.5</ele>
        <time>2025-06-28T09:39:00.848Z</time>
      </trkpt>
      <trkpt lat="42.868176" lon="-0.449413">
        <ele>1416.3</ele>
        <time>2025-06-28T09:39:40.321Z</time>
      </trkpt>
      <trkpt lat="42.868302" lon="-0.448983">
        <ele>1415.4</ele>
        <time>2025-06-28T09:40:18.180Z</time>
      </trkpt>
      <trkpt lat="42.868437" lon="-0.448636">
        <ele>1414.6</ele>
        <time>2025-06-28T09:40:50.251Z</time>
      </trkpt>
      <trkpt lat="42.868612" lon="-0.448338">
        <ele>1414.8</ele>
        <time>2025-06-28T09:41:19.385Z</time>
      </trkpt>
      <trkpt lat="42.869270" lon="-0.447960">
        <ele>1415.1</ele>
        <time>2025-06-28T09:42:30.734Z</time>
      </trkpt>
      <trkpt lat="42.869455" lon="-0.448140">
        <ele>1407.9</ele>
        <time>2025-06-28T09:43:38.964Z</time>
      </trkpt>
      <trkpt lat="42.869711" lon="-0.448932">
        <ele>1390.1</ele>
        <time>2025-06-28T09:46:25.905Z</time>
      </trkpt>
      <trkpt lat="42.869627" lon="-0.449821">
        <ele>1388.9</ele>
        <time>2025-06-28T09:47:36.728Z</time>
      </trkpt>
      <trkpt lat="42.869583" lon="-0.450159">
        <ele>1391.8</ele>
        <time>2025-06-28T09:48:31.251Z</time>
      </trkpt>
      <trkpt lat="42.869574" lon="-0.450724">
        <ele>1390.5</ele>
        <time>2025-06-28T09:49:19.328Z</time>
      </trkpt>
      <trkpt lat="42.869892" lon="-0.451576">
        <ele>1377.0</ele>
        <time>2025-06-28T09:51:46.970Z</time>
      </trkpt>
      <trkpt lat="42.870018" lon="-0.451870">
        <ele>1371.0</ele>
        <time>2025-06-28T09:52:46.798Z</time>
      </trkpt>
      <trkpt lat="42.870313" lon="-0.452383">
        <ele>1359.6</ele>
        <time>2025-06-28T09:54:41.033Z</time>
      </trkpt>
      <trkpt lat="42.870600" lon="-0.452967">
        <ele>1355.2</ele>
        <time>2025-06-28T09:55:56.313Z</time>
      </trkpt>
      <trkpt lat="42.870599" lon="-0.453300">
        <ele>1357.2</ele>
        <time>2025-06-28T09:56:39.813Z</time>
      </trkpt>
      <trkpt lat="42.870787" lon="-0.453453">
        <ele>1357.9</ele>
        <time>2025-06-28T09:57:11.523Z</time>
      </trkpt>
      <trkpt lat="42.870865" lon="-0.453009">
        <ele>1348.1</ele>
        <time>2025-06-28T09:58:44.446Z</time>
      </trkpt>
      <trkpt lat="42.870875" lon="-0.452448">
        <ele>1336.8</ele>
        <time>2025-06-28T10:00:31.802Z</time>
      </trkpt>
      <trkpt lat="42.870696" lon="-0.451026">
        <ele>1329.7</ele>
        <time>2025-06-28T10:02:54.752Z</time>
      </trkpt>
      <trkpt lat="42.870688" lon="-0.450706">
        <ele>1327.8</ele>
        <time>2025-06-28T10:03:28.833Z</time>
      </trkpt>
      <trkpt lat="42.870824" lon="-0.450121">
        <ele>1324.1</ele>
        <time>2025-06-28T10:04:33.948Z</time>
      </trkpt>
      <trkpt lat="42.871080" lon="-0.449892">
        <ele>1319.2</ele>
        <time>2025-06-28T10:05:33.557Z</time>
      </trkpt>
      <trkpt lat="42.871513" lon="-0.449806">
        <ele>1312.4</ele>
        <time>2025-06-28T10:06:55.738Z</time>
      </trkpt>
      <trkpt lat="42.871926" lon="-0.449603">
        <ele>1311.4</ele>
        <time>2025-06-28T10:07:43.952Z</time>
      </trkpt>
      <trkpt lat="42.872262" lon="-0.449444">
        <ele>1310.5</ele>
        <time>2025-06-28T10:08:23.036Z</time>
      </trkpt>
      <trkpt lat="42.872484" lon="-0.449376">
        <ele>1310.1</ele>
        <time>2025-06-28T10:08:47.499Z</time>
      </trkpt>
      <trkpt lat="42.872814" lon="-0.449159">
        <ele>1309.3</ele>
        <time>2025-06-28T10:09:26.998Z</time>
      </trkpt>
      <trkpt lat="42.872965" lon="-0.448937">
        <ele>1309.3</ele>
        <time>2025-06-28T10:09:48.695Z</time>
      </trkpt>
      <trkpt lat="42.873097" lon="-0.448642">
        <ele>1309.4</ele>
        <time>2025-06-28T10:10:13.100Z</time>
      </trkpt>
      <trkpt lat="42.873250" lon="-0.448337">
        <ele>1310.1</ele>
        <time>2025-06-28T10:10:46.465Z</time>
      </trkpt>
      <trkpt lat="42.873440" lon="-0.448199">
        <ele>1310.7</ele>
        <time>2025-06-28T10:11:14.173Z</time>
      </trkpt>
      <trkpt lat="42.873713" lon="-0.448175">
        <ele>1308.5</ele>
        <time>2025-06-28T10:11:53.633Z</time>
      </trkpt>
      <trkpt lat="42.874051" lon="-0.447920">
        <ele>1306.9</ele>
        <time>2025-06-28T10:12:39.767Z</time>
      </trkpt>
      <trkpt lat="42.874235" lon="-0.447638">
        <ele>1306.9</ele>
        <time>2025-06-28T10:13:06.267Z</time>
      </trkpt>
      <trkpt lat="42.874440" lon="-0.447148">
        <ele>1304.3</ele>
        <time>2025-06-28T10:14:01.154Z</time>
      </trkpt>
      <trkpt lat="42.874558" lon="-0.446733">
        <ele>1300.6</ele>
        <time>2025-06-28T10:14:54.931Z</time>
      </trkpt>
      <trkpt lat="42.874599" lon="-0.446292">
        <ele>1295.4</ele>
        <time>2025-06-28T10:15:56.983Z</time>
      </trkpt>
      <trkpt lat="42.874638" lon="-0.445115">
        <ele>1276.3</ele>
        <time>2025-06-28T10:19:14.088Z</time>
      </trkpt>
      <trkpt lat="42.874594" lon="-0.444770">
        <ele>1273.7</ele>
        <time>2025-06-28T10:19:54.208Z</time>
      </trkpt>
      <trkpt lat="42.874558" lon="-0.444436">
        <ele>1271.2</ele>
        <time>2025-06-28T10:20:32.913Z</time>
      </trkpt>
      <trkpt lat="42.874461" lon="-0.443781">
        <ele>1268.5</ele>
        <time>2025-06-28T10:21:35.549Z</time>
      </trkpt>
      <trkpt lat="42.874508" lon="-0.443368">
        <ele>1268.3</ele>
        <time>2025-06-28T10:22:05.972Z</time>
      </trkpt>
      <trkpt lat="42.874839" lon="-0.443130">
        <ele>1264.3</ele>
        <time>2025-06-28T10:23:07.637Z</time>
      </trkpt>
      <trkpt lat="42.875347" lon="-0.442797">
        <ele>1254.0</ele>
        <time>2025-06-28T10:25:04.212Z</time>
      </trkpt>
      <trkpt lat="42.875584" lon="-0.442795">
        <ele>1252.0</ele>
        <time>2025-06-28T10:25:39.310Z</time>
      </trkpt>
      <trkpt lat="42.875683" lon="-0.443267">
        <ele>1249.0</ele>
        <time>2025-06-28T10:26:32.612Z</time>
      </trkpt>
      <trkpt lat="42.875910" lon="-0.443470">
        <ele>1245.7</ele>
        <time>2025-06-28T10:27:20.792Z</time>
      </trkpt>
      <trkpt lat="42.876153" lon="-0.443426">
        <ele>1242.9</ele>
        <time>2025-06-28T10:28:01.056Z</time>
      </trkpt>
      <trkpt lat="42.876316" lon="-0.443129">
        <ele>1241.4</ele>
        <time>2025-06-28T10:28:37.315Z</time>
      </trkpt>
      <trkpt lat="42.876416" lon="-0.442834">
        <ele>1240.1</ele>
        <time>2025-06-28T10:29:07.839Z</time>
      </trkpt>
      <trkpt lat="42.876489" lon="-0.442540">
        <ele>1239.2</ele>
        <time>2025-06-28T10:29:34.893Z</time>
      </trkpt>
      <trkpt lat="42.876555" lon="-0.441737">
        <ele>1236.9</ele>
        <time>2025-06-28T10:30:45.154Z</time>
      </trkpt>
      <trkpt lat="42.876620" lon="-0.441391">
        <ele>1236.5</ele>
        <time>2025-06-28T10:31:12.383Z</time>
      </trkpt>
      <trkpt lat="42.876829" lon="-0.441023">
        <ele>1236.0</ele>
        <time>2025-06-28T10:31:48.075Z</time>
      </trkpt>
      <trkpt lat="42.877707" lon="-0.440033">
        <ele>1222.2</ele>
        <time>2025-06-28T10:34:59.423Z</time>
      </trkpt>
      <trkpt lat="42.877992" lon="-0.439363">
        <ele>1223.1</ele>
        <time>2025-06-28T10:36:02.361Z</time>
      </trkpt>
      <trkpt lat="42.878506" lon="-0.438420">
        <ele>1211.9</ele>
        <time>2025-06-28T10:38:31.460Z</time>
      </trkpt>
      <trkpt lat="42.878678" lon="-0.438004">
        <ele>1206.5</ele>
        <time>2025-06-28T10:39:37.605Z</time>
      </trkpt>
      <trkpt lat="42.878834" lon="-0.437178">
        <ele>1196.7</ele>
        <time>2025-06-28T10:41:35.758Z</time>
      </trkpt>
      <trkpt lat="42.878889" lon="-0.436629">
        <ele>1192.1</ele>
        <time>2025-06-28T10:42:42.329Z</time>
      </trkpt>
      <trkpt lat="42.878888" lon="-0.436306">
        <ele>1189.4</ele>
        <time>2025-06-28T10:43:21.139Z</time>
      </trkpt>
      <trkpt lat="42.878858" lon="-0.435845">
        <ele>1187.2</ele>
        <time>2025-06-28T10:44:06.630Z</time>
      </trkpt>
      <trkpt lat="42.878787" lon="-0.435155">
        <ele>1183.9</ele>
        <time>2025-06-28T10:45:15.115Z</time>
      </trkpt>
      <trkpt lat="42.878813" lon="-0.434659">
        <ele>1183.1</ele>
        <time>2025-06-28T10:45:54.486Z</time>
      </trkpt>
      <trkpt lat="42.878964" lon="-0.433858">
        <ele>1181.8</ele>
        <time>2025-06-28T10:46:59.998Z</time>
      </trkpt>
      <trkpt lat="42.879455" lon="-0.432216">
        <ele>1164.5</ele>
        <time>2025-06-28T10:50:47.720Z</time>
      </trkpt>
      <trkpt lat="42.879659" lon="-0.431831">
        <ele>1160.1</ele>
        <time>2025-06-28T10:51:47.946Z</time>
      </trkpt>
      <trkpt lat="42.879720" lon="-0.431533">
        <ele>1158.9</ele>
        <time>2025-06-28T10:52:16.761Z</time>
      </trkpt>
      <trkpt lat="42.879665" lon="-0.430994">
        <ele>1159.0</ele>
        <time>2025-06-28T10:52:56.293Z</time>
      </trkpt>
      <trkpt lat="42.879725" lon="-0.430626">
        <ele>1156.4</ele>
        <time>2025-06-28T10:53:38.832Z</time>
      </trkpt>
      <trkpt lat="42.879937" lon="-0.430316">
        <ele>1153.4</ele>
        <time>2025-06-28T10:54:26.559Z</time>
      </trkpt>
      <trkpt lat="42.880345" lon="-0.430046">
        <ele>1144.6</ele>
        <time>2025-06-28T10:56:02.915Z</time>
      </trkpt>
      <trkpt lat="42.880621" lon="-0.429857">
        <ele>1138.5</ele>
        <time>2025-06-28T10:57:09.099Z</time>
      </trkpt>
      <trkpt lat="42.881110" lon="-0.429580">
        <ele>1127.9</ele>
        <time>2025-06-28T10:59:02.773Z</time>
      </trkpt>
      <trkpt lat="42.881595" lon="-0.429123">
        <ele>1120.8</ele>
        <time>2025-06-28T11:00:42.177Z</time>
      </trkpt>
      <trkpt lat="42.881956" lon="-0.429095">
        <ele>1116.5</ele>
        <time>2025-06-28T11:01:42.727Z</time>
      </trkpt>
      <trkpt lat="42.883010" lon="-0.428670">
        <ele>1115.6</ele>
        <time>2025-06-28T11:03:32.947Z</time>
      </trkpt>
      <trkpt lat="42.883587" lon="-0.428321">
        <ele>1100.2</ele>
        <time>2025-06-28T11:06:05.657Z</time>
      </trkpt>
      <trkpt lat="42.884301" lon="-0.427555">
        <ele>1086.3</ele>
        <time>2025-06-28T11:08:55.886Z</time>
      </trkpt>
      <trkpt lat="42.884681" lon="-0.427313">
        <ele>1081.9</ele>
        <time>2025-06-28T11:10:02.337Z</time>
      </trkpt>
      <trkpt lat="42.885035" lon="-0.427187">
        <ele>1079.4</ele>
        <time>2025-06-28T11:10:51.797Z</time>
      </trkpt>
      <trkpt lat="42.885421" lon="-0.426968">
        <ele>1077.9</ele>
        <time>2025-06-28T11:11:41.141Z</time>
      </trkpt>
      <trkpt lat="42.885684" lon="-0.426799">
        <ele>1073.2</ele>
        <time>2025-06-28T11:12:37.025Z</time>
      </trkpt>
      <trkpt lat="42.886204" lon="-0.426636">
        <ele>1064.5</ele>
        <time>2025-06-28T11:14:19.756Z</time>
      </trkpt>
      <trkpt lat="42.886763" lon="-0.426378">
        <ele>1052.1</ele>
        <time>2025-06-28T11:16:30.764Z</time>
      </trkpt>
      <trkpt lat="42.886973" lon="-0.426159">
        <ele>1053.3</ele>
        <time>2025-06-28T11:17:10.464Z</time>
      </trkpt>
      <trkpt lat="42.887225" lon="-0.424905">
        <ele>1057.5</ele>
        <time>2025-06-28T11:19:24.691Z</time>
      </trkpt>
      <trkpt lat="42.887433" lon="-0.424522">
        <ele>1061.8</ele>
        <time>2025-06-28T11:20:41.886Z</time>
      </trkpt>
      <trkpt lat="42.887691" lon="-0.423961">
        <ele>1067.7</ele>
        <time>2025-06-28T11:22:29.126Z</time>
      </trkpt>
      <trkpt lat="42.887822" lon="-0.422626">
        <ele>1082.8</ele>
        <time>2025-06-28T11:26:39.166Z</time>
      </trkpt>
      <trkpt lat="42.887881" lon="-0.422156">
        <ele>1088.5</ele>
        <time>2025-06-28T11:28:10.438Z</time>
      </trkpt>
      <trkpt lat="42.887909" lon="-0.421681">
        <ele>1094.1</ele>
        <time>2025-06-28T11:29:41.838Z</time>
      </trkpt>
      <trkpt lat="42.887701" lon="-0.421290">
        <ele>1100.4</ele>
        <time>2025-06-28T11:31:20.229Z</time>
      </trkpt>
      <trkpt lat="42.887521" lon="-0.420769">
        <ele>1107.7</ele>
        <time>2025-06-28T11:33:16.146Z</time>
      </trkpt>
      <trkpt lat="42.887411" lon="-0.420354">
        <ele>1112.4</ele>
        <time>2025-06-28T11:34:35.511Z</time>
      </trkpt>
      <trkpt lat="42.887385" lon="-0.420011">
        <ele>1114.7</ele>
        <time>2025-06-28T11:35:23.049Z</time>
      </trkpt>
      <trkpt lat="42.887689" lon="-0.418308">
        <ele>1119.2</ele>
        <time>2025-06-28T11:38:11.726Z</time>
      </trkpt>
      <trkpt lat="42.887661" lon="-0.417905">
        <ele>1121.2</ele>
        <time>2025-06-28T11:39:01.360Z</time>
      </trkpt>
      <trkpt lat="42.887250" lon="-0.416781">
        <ele>1127.5</ele>
        <time>2025-06-28T11:41:33.426Z</time>
      </trkpt>
      <trkpt lat="42.887128" lon="-0.416220">
        <ele>1134.1</ele>
        <time>2025-06-28T11:43:22.114Z</time>
      </trkpt>
      <trkpt lat="42.887064" lon="-0.415415">
        <ele>1139.1</ele>
        <time>2025-06-28T11:45:10.074Z</time>
      </trkpt>
      <trkpt lat="42.887028" lon="-0.414879">
        <ele>1139.6</ele>
        <time>2025-06-28T11:45:53.086Z</time>
      </trkpt>
      <trkpt lat="42.886955" lon="-0.414587">
        <ele>1139.0</ele>
        <time>2025-06-28T11:46:18.103Z</time>
      </trkpt>
      <trkpt lat="42.887296" lon="-0.414368">
        <ele>1141.5</ele>
        <time>2025-06-28T11:47:19.855Z</time>
      </trkpt>
      <trkpt lat="42.887512" lon="-0.414329">
        <ele>1144.6</ele>
        <time>2025-06-28T11:48:12.886Z</time>
      </trkpt>
      <trkpt lat="42.887631" lon="-0.414674">
        <ele>1147.0</ele>
        <time>2025-06-28T11:49:05.422Z</time>
      </trkpt>
      <trkpt lat="42.887808" lon="-0.414958">
        <ele>1149.1</ele>
        <time>2025-06-28T11:49:52.361Z</time>
      </trkpt>
      <trkpt lat="42.888014" lon="-0.415926">
        <ele>1152.1</ele>
        <time>2025-06-28T11:51:34.135Z</time>
      </trkpt>
      <trkpt lat="42.888210" lon="-0.416538">
        <ele>1157.2</ele>
        <time>2025-06-28T11:53:13.034Z</time>
      </trkpt>
      <trkpt lat="42.888370" lon="-0.416939">
        <ele>1161.1</ele>
        <time>2025-06-28T11:54:25.957Z</time>
      </trkpt>
      <trkpt lat="42.888482" lon="-0.417346">
        <ele>1164.9</ele>
        <time>2025-06-28T11:55:35.268Z</time>
      </trkpt>
      <trkpt lat="42.888585" lon="-0.417749">
        <ele>1163.6</ele>
        <time>2025-06-28T11:56:12.872Z</time>
      </trkpt>
      <trkpt lat="42.888651" lon="-0.418256">
        <ele>1163.6</ele>
        <time>2025-06-28T11:56:49.866Z</time>
      </trkpt>
      <trkpt lat="42.888668" lon="-0.418569">
        <ele>1164.3</ele>
        <time>2025-06-28T11:57:18.947Z</time>
      </trkpt>
      <trkpt lat="42.888629" lon="-0.419153">
        <ele>1160.4</ele>
        <time>2025-06-28T11:58:23.730Z</time>
      </trkpt>
      <trkpt lat="42.888705" lon="-0.419879">
        <ele>1161.8</ele>
        <time>2025-06-28T11:59:29.830Z</time>
      </trkpt>
      <trkpt lat="42.888868" lon="-0.420261">
        <ele>1167.5</ele>
        <time>2025-06-28T12:00:59.994Z</time>
      </trkpt>
      <trkpt lat="42.889038" lon="-0.420657">
        <ele>1174.8</ele>
        <time>2025-06-28T12:02:46.920Z</time>
      </trkpt>
      <trkpt lat="42.889193" lon="-0.421183">
        <ele>1174.1</ele>
        <time>2025-06-28T12:03:31.039Z</time>
      </trkpt>
      <trkpt lat="42.889299" lon="-0.421585">
        <ele>1173.5</ele>
        <time>2025-06-28T12:04:04.256Z</time>
      </trkpt>
      <trkpt lat="42.889259" lon="-0.421196">
        <ele>1179.1</ele>
        <time>2025-06-28T12:05:29.866Z</time>
      </trkpt>
      <trkpt lat="42.889403" lon="-0.421481">
        <ele>1184.2</ele>
        <time>2025-06-28T12:06:48.318Z</time>
      </trkpt>
      <trkpt lat="42.889530" lon="-0.421975">
        <ele>1183.3</ele>
        <time>2025-06-28T12:07:30.675Z</time>
      </trkpt>
      <trkpt lat="42.889639" lon="-0.422132">
        <ele>1185.4</ele>
        <time>2025-06-28T12:08:15.837Z</time>
      </trkpt>
      <trkpt lat="42.889661" lon="-0.421652">
        <ele>1198.1</ele>
        <time>2025-06-28T12:11:00.011Z</time>
      </trkpt>
      <trkpt lat="42.889905" lon="-0.421714">
        <ele>1205.5</ele>
        <time>2025-06-28T12:12:40.132Z</time>
      </trkpt>
      <trkpt lat="42.890140" lon="-0.421746">
        <ele>1211.6</ele>
        <time>2025-06-28T12:14:06.212Z</time>
      </trkpt>
      <trkpt lat="42.890462" lon="-0.421509">
        <ele>1224.6</ele>
        <time>2025-06-28T12:16:55.673Z</time>
      </trkpt>
      <trkpt lat="42.890738" lon="-0.421338">
        <ele>1235.7</ele>
        <time>2025-06-28T12:19:18.494Z</time>
      </trkpt>
      <trkpt lat="42.890935" lon="-0.421144">
        <ele>1244.1</ele>
        <time>2025-06-28T12:21:08.250Z</time>
      </trkpt>
      <trkpt lat="42.891281" lon="-0.421135">
        <ele>1252.4</ele>
        <time>2025-06-28T12:23:06.897Z</time>
      </trkpt>
      <trkpt lat="42.891624" lon="-0.421167">
        <ele>1256.4</ele>
        <time>2025-06-28T12:24:20.812Z</time>
      </trkpt>
      <trkpt lat="42.891865" lon="-0.421300">
        <ele>1254.0</ele>
        <time>2025-06-28T12:24:59.908Z</time>
      </trkpt>
      <trkpt lat="42.892137" lon="-0.421327">
        <ele>1251.5</ele>
        <time>2025-06-28T12:25:40.931Z</time>
      </trkpt>
      <trkpt lat="42.892392" lon="-0.421305">
        <ele>1247.8</ele>
        <time>2025-06-28T12:26:27.730Z</time>
      </trkpt>
      <trkpt lat="42.892683" lon="-0.421387">
        <ele>1243.5</ele>
        <time>2025-06-28T12:27:22.286Z</time>
      </trkpt>
      <trkpt lat="42.892940" lon="-0.421450">
        <ele>1240.0</ele>
        <time>2025-06-28T12:28:07.899Z</time>
      </trkpt>
    </trkseg>
  </trk>
</gpx>
