<?xml version="1.0" encoding="UTF-8"?>
<gpx version="1.1" creator="carnet-trek seed" xmlns="http://www.topografix.com/GPX/1/1">
  <metadata>
    <name>GR20 1 – Calenzana → Ortu di u Piobbu</name>
  </metadata>
  <wpt lat="42.508500" lon="8.855000">
    <ele>275</ele>
    <name>Calenzana</name>
    <sym>Drinking Water</sym>
  </wpt>
  <wpt lat="42.487000" lon="8.873000">
    <ele>1250</ele>
    <name>Bocca a u Saltu</name>
    <sym>Summit</sym>
  </wpt>
  <wpt lat="42.478000" lon="8.893000">
    <ele>1486</ele>
    <name>Bocca a u Bazzichellu</name>
    <sym>Summit</sym>
  </wpt>
  <wpt lat="42.473000" lon="8.915000">
    <ele>1570</ele>
    <name>Refuge d'Ortu di u Piobbu</name>
    <sym>Lodging</sym>
  </wpt>
  <trk>
    <name>GR20 1 – Calenzana → Ortu di u Piobbu</name>
    <type>hike</type>
    <trkseg>
      <trkpt lat="42.508500" lon="8.855000">
        <ele>274.1</ele>
        <time>2025-06-02T07:30:00.000Z</time>
      </trkpt>
      <trkpt lat="42.508260" lon="8.855168">
        <ele>283.6</ele>
        <time>2025-06-02T07:32:03.967Z</time>
      </trkpt>
      <trkpt lat="42.508012" lon="8.855317">
        <ele>293.0</ele>
        <time>2025-06-02T07:34:06.307Z</time>
      </trkpt>
      <trkpt lat="42.507757" lon="8.855448">
        <ele>302.7</ele>
        <time>2025-06-02T07:36:11.499Z</time>
      </trkpt>
      <trkpt lat="42.507503" lon="8.855581">
        <ele>311.1</ele>
        <time>2025-06-02T07:38:04.142Z</time>
      </trkpt>
      <trkpt lat="42.507258" lon="8.855740">
        <ele>319.5</ele>
        <time>2025-06-02T07:39:56.784Z</time>
      </trkpt>
      <trkpt lat="42.507024" lon="8.855921">
        <ele>328.5</ele>
        <time>2025-06-02T07:41:54.708Z</time>
      </trkpt>
      <trkpt lat="42.506802" lon="8.856136">
        <ele>338.0</ele>
        <time>2025-06-02T07:43:58.891Z</time>
      </trkpt>
      <trkpt lat="42.506599" lon="8.856398">
        <ele>346.6</ele>
        <time>2025-06-02T07:45:53.802Z</time>
      </trkpt>
      <trkpt lat="42.506401" lon="8.856671">
        <ele>356.5</ele>
        <time>2025-06-02T07:48:02.281Z</time>
      </trkpt>
      <trkpt lat="42.506203" lon="8.856946">
        <ele>364.6</ele>
        <time>2025-06-02T07:49:52.385Z</time>
      </trkpt>
      <trkpt lat="42.505999" lon="8.857204">
        <ele>374.3</ele>
        <time>2025-06-02T07:51:58.964Z</time>
      </trkpt>
      <trkpt lat="42.505777" lon="8.857418">
        <ele>382.9</ele>
        <time>2025-06-02T07:53:53.199Z</time>
      </trkpt>
      <trkpt lat="42.505530" lon="8.857569">
        <ele>392.5</ele>
        <time>2025-06-02T07:55:58.313Z</time>
      </trkpt>
      <trkpt lat="42.505261" lon="8.857664">
        <ele>401.5</ele>
        <time>2025-06-02T07:57:57.088Z</time>
      </trkpt>
      <trkpt lat="42.504970" lon="8.857705">
        <ele>411.5</ele>
        <time>2025-06-02T08:00:08.108Z</time>
      </trkpt>
      <trkpt lat="42.504672" lon="8.857731">
        <ele>422.8</ele>
        <time>2025-06-02T08:02:32.292Z</time>
      </trkpt>
      <trkpt lat="42.504373" lon="8.857752">
        <ele>431.4</ele>
        <time>2025-06-02T08:04:29.562Z</time>
      </trkpt>
      <trkpt lat="42.504093" lon="8.857821">
        <ele>442.8</ele>
        <time>2025-06-02T08:06:53.509Z</time>
      </trkpt>
      <trkpt lat="42.503828" lon="8.857928">
        <ele>452.0</ele>
        <time>2025-06-02T08:08:55.024Z</time>
      </trkpt>
      <trkpt lat="42.503611" lon="8.858152">
        <ele>463.4</ele>
        <time>2025-06-02T08:11:17.923Z</time>
      </trkpt>
      <trkpt lat="42.503398" lon="8.858388">
        <ele>474.4</ele>
        <time>2025-06-02T08:13:37.852Z</time>
      </trkpt>
      <trkpt lat="42.503220" lon="8.858713">
        <ele>483.3</ele>
        <time>2025-06-02T08:15:37.177Z</time>
      </trkpt>
      <trkpt lat="42.503044" lon="8.859041">
        <ele>493.7</ele>
        <time>2025-06-02T08:17:53.290Z</time>
      </trkpt>
      <trkpt lat="42.502860" lon="8.859349">
        <ele>503.6</ele>
        <time>2025-06-02T08:20:02.849Z</time>
      </trkpt>
      <trkpt lat="42.502665" lon="8.859632">
        <ele>514.9</ele>
        <time>2025-06-02T08:22:25.774Z</time>
      </trkpt>
      <trkpt lat="42.502457" lon="8.859880">
        <ele>524.1</ele>
        <time>2025-06-02T08:24:27.137Z</time>
      </trkpt>
      <trkpt lat="42.502225" lon="8.860070">
        <ele>532.8</ele>
        <time>2025-06-02T08:26:21.976Z</time>
      </trkpt>
      <trkpt lat="42.501956" lon="8.860165">
        <ele>542.6</ele>
        <time>2025-06-02T08:28:30.198Z</time>
      </trkpt>
      <trkpt lat="42.501678" lon="8.860240">
        <ele>550.4</ele>
        <time>2025-06-02T08:30:17.097Z</time>
      </trkpt>
      <trkpt lat="42.501402" lon="8.860318">
        <ele>559.8</ele>
        <time>2025-06-02T08:32:20.256Z</time>
      </trkpt>
      <trkpt lat="42.501115" lon="8.860370">
        <ele>568.1</ele>
        <time>2025-06-02T08:34:13.597Z</time>
      </trkpt>
      <trkpt lat="42.500850" lon="8.860475">
        <ele>577.7</ele>
        <time>2025-06-02T08:36:18.357Z</time>
      </trkpt>
      <trkpt lat="42.500592" lon="8.860599">
        <ele>586.0</ele>
        <time>2025-06-02T08:38:10.181Z</time>
      </trkpt>
      <trkpt lat="42.500358" lon="8.860782">
        <ele>594.6</ele>
        <time>2025-06-02T08:40:03.935Z</time>
      </trkpt>
      <trkpt lat="42.500129" lon="8.860979">
        <ele>603.2</ele>
        <time>2025-06-02T08:41:58.699Z</time>
      </trkpt>
      <trkpt lat="42.499917" lon="8.861217">
        <ele>613.5</ele>
        <time>2025-06-02T08:44:10.990Z</time>
      </trkpt>
      <trkpt lat="42.499699" lon="8.861441">
        <ele>621.7</ele>
        <time>2025-06-02T08:46:01.182Z</time>
      </trkpt>
      <trkpt lat="42.499475" lon="8.861650">
        <ele>630.7</ele>
        <time>2025-06-02T08:47:59.191Z</time>
      </trkpt>
      <trkpt lat="42.499243" lon="8.861838">
        <ele>639.5</ele>
        <time>2025-06-02T08:49:56.298Z</time>
      </trkpt>
      <trkpt lat="42.499000" lon="8.862000">
        <ele>649.8</ele>
        <time>2025-06-02T08:52:07.383Z</time>
      </trkpt>
      <trkpt lat="42.498773" lon="8.862194">
        <ele>661.1</ele>
        <time>2025-06-02T08:54:29.339Z</time>
      </trkpt>
      <trkpt lat="42.498537" lon="8.862370">
        <ele>671.7</ele>
        <time>2025-06-02T08:56:44.482Z</time>
      </trkpt>
      <trkpt lat="42.498297" lon="8.862537">
        <ele>681.9</ele>
        <time>2025-06-02T08:58:54.902Z</time>
      </trkpt>
      <trkpt lat="42.498061" lon="8.862714">
        <ele>694.1</ele>
        <time>2025-06-02T09:01:26.082Z</time>
      </trkpt>
      <trkpt lat="42.497830" lon="8.862900">
        <ele>703.4</ele>
        <time>2025-06-02T09:03:27.678Z</time>
      </trkpt>
      <trkpt lat="42.497621" lon="8.863130">
        <ele>715.3</ele>
        <time>2025-06-02T09:05:54.959Z</time>
      </trkpt>
      <trkpt lat="42.497423" lon="8.863383">
        <ele>724.8</ele>
        <time>2025-06-02T09:07:58.815Z</time>
      </trkpt>
      <trkpt lat="42.497241" lon="8.863668">
        <ele>736.6</ele>
        <time>2025-06-02T09:10:27.316Z</time>
      </trkpt>
      <trkpt lat="42.497062" lon="8.863958">
        <ele>746.2</ele>
        <time>2025-06-02T09:12:32.498Z</time>
      </trkpt>
      <trkpt lat="42.496884" lon="8.864251">
        <ele>756.6</ele>
        <time>2025-06-02T09:14:45.420Z</time>
      </trkpt>
      <trkpt lat="42.496684" lon="8.864498">
        <ele>766.9</ele>
        <time>2025-06-02T09:16:57.185Z</time>
      </trkpt>
      <trkpt lat="42.496477" lon="8.864733">
        <ele>777.8</ele>
        <time>2025-06-02T09:19:15.812Z</time>
      </trkpt>
      <trkpt lat="42.496230" lon="8.864888">
        <ele>789.4</ele>
        <time>2025-06-02T09:21:41.091Z</time>
      </trkpt>
      <trkpt lat="42.495959" lon="8.864992">
        <ele>800.0</ele>
        <time>2025-06-02T09:23:56.711Z</time>
      </trkpt>
      <trkpt lat="42.495682" lon="8.865087">
        <ele>810.2</ele>
        <time>2025-06-02T09:26:08.833Z</time>
      </trkpt>
      <trkpt lat="42.495378" lon="8.865125">
        <ele>821.4</ele>
        <time>2025-06-02T09:28:32.538Z</time>
      </trkpt>
      <trkpt lat="42.495095" lon="8.865207">
        <ele>833.7</ele>
        <time>2025-06-02T09:31:07.056Z</time>
      </trkpt>
      <trkpt lat="42.494820" lon="8.865305">
        <ele>845.1</ele>
        <time>2025-06-02T09:33:30.959Z</time>
      </trkpt>
      <trkpt lat="42.494578" lon="8.865469">
        <ele>857.1</ele>
        <time>2025-06-02T09:36:00.912Z</time>
      </trkpt>
      <trkpt lat="42.494363" lon="8.865687">
        <ele>868.8</ele>
        <time>2025-06-02T09:38:26.649Z</time>
      </trkpt>
      <trkpt lat="42.494191" lon="8.865992">
        <ele>881.0</ele>
        <time>2025-06-02T09:40:59.449Z</time>
      </trkpt>
      <trkpt lat="42.494047" lon="8.866352">
        <ele>891.1</ele>
        <time>2025-06-02T09:43:12.054Z</time>
      </trkpt>
      <trkpt lat="42.493925" lon="8.866758">
        <ele>904.8</ele>
        <time>2025-06-02T09:46:03.651Z</time>
      </trkpt>
      <trkpt lat="42.493773" lon="8.867102">
        <ele>916.3</ele>
        <time>2025-06-02T09:48:30.042Z</time>
      </trkpt>
      <trkpt lat="42.493622" lon="8.867449">
        <ele>927.4</ele>
        <time>2025-06-02T09:50:52.800Z</time>
      </trkpt>
      <trkpt lat="42.493441" lon="8.867736">
        <ele>940.5</ele>
        <time>2025-06-02T09:53:33.857Z</time>
      </trkpt>
      <trkpt lat="42.493215" lon="8.867931">
        <ele>952.2</ele>
        <time>2025-06-02T09:55:59.893Z</time>
      </trkpt>
      <trkpt lat="42.492959" lon="8.868068">
        <ele>964.8</ele>
        <time>2025-06-02T09:58:35.104Z</time>
      </trkpt>
      <trkpt lat="42.492671" lon="8.868139">
        <ele>977.2</ele>
        <time>2025-06-02T10:01:11.120Z</time>
      </trkpt>
      <trkpt lat="42.492351" lon="8.868146">
        <ele>989.2</ele>
        <time>2025-06-02T10:03:45.260Z</time>
      </trkpt>
      <trkpt lat="42.492040" lon="8.868172">
        <ele>1001.3</ele>
        <time>2025-06-02T10:06:18.459Z</time>
      </trkpt>
      <trkpt lat="42.491748" lon="8.868236">
        <ele>1011.3</ele>
        <time>2025-06-02T10:08:29.605Z</time>
      </trkpt>
      <trkpt lat="42.491478" lon="8.868343">
        <ele>1022.5</ele>
        <time>2025-06-02T10:10:52.412Z</time>
      </trkpt>
      <trkpt lat="42.491234" lon="8.868504">
        <ele>1034.3</ele>
        <time>2025-06-02T10:13:19.679Z</time>
      </trkpt>
      <trkpt lat="42.491040" lon="8.868764">
        <ele>1046.2</ele>
        <time>2025-06-02T10:15:47.219Z</time>
      </trkpt>
      <trkpt lat="42.490871" lon="8.869075">
        <ele>1056.1</ele>
        <time>2025-06-02T10:17:56.776Z</time>
      </trkpt>
      <trkpt lat="42.490715" lon="8.869411">
        <ele>1068.6</ele>
        <time>2025-06-02T10:20:32.988Z</time>
      </trkpt>
      <trkpt lat="42.490569" lon="8.869767">
        <ele>1078.1</ele>
        <time>2025-06-02T10:22:39.497Z</time>
      </trkpt>
      <trkpt lat="42.490416" lon="8.870110">
        <ele>1089.0</ele>
        <time>2025-06-02T10:24:59.360Z</time>
      </trkpt>
      <trkpt lat="42.490244" lon="8.870415">
        <ele>1099.8</ele>
        <time>2025-06-02T10:27:18.090Z</time>
      </trkpt>
      <trkpt lat="42.490037" lon="8.870650">
        <ele>1109.7</ele>
        <time>2025-06-02T10:29:25.375Z</time>
      </trkpt>
      <trkpt lat="42.489804" lon="8.870830">
        <ele>1119.8</ele>
        <time>2025-06-02T10:31:35.270Z</time>
      </trkpt>
      <trkpt lat="42.489551" lon="8.870974">
        <ele>1131.9</ele>
        <time>2025-06-02T10:34:05.220Z</time>
      </trkpt>
      <trkpt lat="42.489286" lon="8.871091">
        <ele>1140.7</ele>
        <time>2025-06-02T10:36:02.931Z</time>
      </trkpt>
      <trkpt lat="42.489017" lon="8.871201">
        <ele>1151.8</ele>
        <time>2025-06-02T10:38:23.783Z</time>
      </trkpt>
      <trkpt lat="42.488748" lon="8.871311">
        <ele>1161.6</ele>
        <time>2025-06-02T10:40:31.356Z</time>
      </trkpt>
      <trkpt lat="42.488495" lon="8.871452">
        <ele>1172.2</ele>
        <time>2025-06-02T10:42:46.005Z</time>
      </trkpt>
      <trkpt lat="42.488263" lon="8.871637">
        <ele>1182.7</ele>
        <time>2025-06-02T10:44:59.636Z</time>
      </trkpt>
      <trkpt lat="42.488043" lon="8.871846">
        <ele>1194.3</ele>
        <time>2025-06-02T10:47:24.539Z</time>
      </trkpt>
      <trkpt lat="42.487838" lon="8.872084">
        <ele>1205.3</ele>
        <time>2025-06-02T10:49:43.300Z</time>
      </trkpt>
      <trkpt lat="42.487637" lon="8.872330">
        <ele>1216.1</ele>
        <time>2025-06-02T10:52:00.800Z</time>
      </trkpt>
      <trkpt lat="42.487435" lon="8.872573">
        <ele>1226.7</ele>
        <time>2025-06-02T10:54:15.250Z</time>
      </trkpt>
      <trkpt lat="42.487223" lon="8.872797">
        <ele>1239.6</ele>
        <time>2025-06-02T10:56:53.471Z</time>
      </trkpt>
      <trkpt lat="42.487000" lon="8.873000">
        <ele>1250.3</ele>
        <time>2025-06-02T10:59:08.718Z</time>
      </trkpt>
      <trkpt lat="42.486869" lon="8.873320">
        <ele>1254.8</ele>
        <time>2025-06-02T11:00:20.701Z</time>
      </trkpt>
      <trkpt lat="42.486724" lon="8.873629">
        <ele>1257.3</ele>
        <time>2025-06-02T11:01:12.470Z</time>
      </trkpt>
      <trkpt lat="42.486566" lon="8.873928">
        <ele>1262.5</ele>
        <time>2025-06-02T11:02:31.496Z</time>
      </trkpt>
      <trkpt lat="42.486398" lon="8.874217">
        <ele>1265.2</ele>
        <time>2025-06-02T11:03:25.786Z</time>
      </trkpt>
      <trkpt lat="42.486224" lon="8.874502">
        <ele>1269.2</ele>
        <time>2025-06-02T11:04:33.228Z</time>
      </trkpt>
      <trkpt lat="42.486053" lon="8.874790">
        <ele>1273.1</ele>
        <time>2025-06-02T11:05:38.636Z</time>
      </trkpt>
      <trkpt lat="42.485905" lon="8.875096">
        <ele>1277.6</ele>
        <time>2025-06-02T11:06:50.624Z</time>
      </trkpt>
      <trkpt lat="42.485782" lon="8.875423">
        <ele>1280.7</ele>
        <time>2025-06-02T11:07:48.590Z</time>
      </trkpt>
      <trkpt lat="42.485682" lon="8.875769">
        <ele>1283.5</ele>
        <time>2025-06-02T11:08:43.853Z</time>
      </trkpt>
      <trkpt lat="42.485605" lon="8.876134">
        <ele>1286.3</ele>
        <time>2025-06-02T11:09:38.480Z</time>
      </trkpt>
      <trkpt lat="42.485525" lon="8.876497">
        <ele>1288.7</ele>
        <time>2025-06-02T11:10:30.637Z</time>
      </trkpt>
      <trkpt lat="42.485464" lon="8.876875">
        <ele>1292.6</ele>
        <time>2025-06-02T11:11:37.406Z</time>
      </trkpt>
      <trkpt lat="42.485371" lon="8.877227">
        <ele>1295.2</ele>
        <time>2025-06-02T11:12:30.923Z</time>
      </trkpt>
      <trkpt lat="42.485246" lon="8.877553">
        <ele>1299.3</ele>
        <time>2025-06-02T11:13:38.643Z</time>
      </trkpt>
      <trkpt lat="42.485084" lon="8.877847">
        <ele>1301.2</ele>
        <time>2025-06-02T11:14:23.889Z</time>
      </trkpt>
      <trkpt lat="42.484889" lon="8.878115">
        <ele>1304.0</ele>
        <time>2025-06-02T11:15:18.672Z</time>
      </trkpt>
      <trkpt lat="42.484662" lon="8.878356">
        <ele>1308.0</ele>
        <time>2025-06-02T11:16:27.375Z</time>
      </trkpt>
      <trkpt lat="42.484396" lon="8.878564">
        <ele>1310.1</ele>
        <time>2025-06-02T11:17:18.548Z</time>
      </trkpt>
      <trkpt lat="42.484164" lon="8.878801">
        <ele>1312.3</ele>
        <time>2025-06-02T11:18:09.270Z</time>
      </trkpt>
      <trkpt lat="42.483938" lon="8.879043">
        <ele>1316.7</ele>
        <time>2025-06-02T11:19:21.660Z</time>
      </trkpt>
      <trkpt lat="42.483763" lon="8.879327">
        <ele>1319.4</ele>
        <time>2025-06-02T11:20:15.109Z</time>
      </trkpt>
      <trkpt lat="42.483625" lon="8.879642">
        <ele>1323.1</ele>
        <time>2025-06-02T11:21:19.271Z</time>
      </trkpt>
      <trkpt lat="42.483546" lon="8.880006">
        <ele>1325.2</ele>
        <time>2025-06-02T11:22:07.247Z</time>
      </trkpt>
      <trkpt lat="42.483515" lon="8.880409">
        <ele>1329.0</ele>
        <time>2025-06-02T11:23:15.242Z</time>
      </trkpt>
      <trkpt lat="42.483509" lon="8.880833">
        <ele>1333.4</ele>
        <time>2025-06-02T11:24:29.612Z</time>
      </trkpt>
      <trkpt lat="42.483494" lon="8.881249">
        <ele>1337.4</ele>
        <time>2025-06-02T11:25:40.921Z</time>
      </trkpt>
      <trkpt lat="42.483465" lon="8.881654">
        <ele>1340.4</ele>
        <time>2025-06-02T11:26:39.716Z</time>
      </trkpt>
      <trkpt lat="42.483389" lon="8.882020">
        <ele>1344.2</ele>
        <time>2025-06-02T11:27:45.689Z</time>
      </trkpt>
      <trkpt lat="42.483257" lon="8.882340">
        <ele>1348.1</ele>
        <time>2025-06-02T11:28:51.283Z</time>
      </trkpt>
      <trkpt lat="42.483083" lon="8.882624">
        <ele>1353.6</ele>
        <time>2025-06-02T11:30:14.174Z</time>
      </trkpt>
      <trkpt lat="42.482834" lon="8.882847">
        <ele>1358.5</ele>
        <time>2025-06-02T11:31:33.065Z</time>
      </trkpt>
      <trkpt lat="42.482545" lon="8.883037">
        <ele>1361.9</ele>
        <time>2025-06-02T11:32:38.901Z</time>
      </trkpt>
      <trkpt lat="42.482268" lon="8.883237">
        <ele>1366.0</ele>
        <time>2025-06-02T11:33:50.244Z</time>
      </trkpt>
      <trkpt lat="42.482016" lon="8.883457">
        <ele>1372.1</ele>
        <time>2025-06-02T11:35:21.508Z</time>
      </trkpt>
      <trkpt lat="42.481772" lon="8.883684">
        <ele>1375.9</ele>
        <time>2025-06-02T11:36:29.568Z</time>
      </trkpt>
      <trkpt lat="42.481601" lon="8.883971">
        <ele>1381.2</ele>
        <time>2025-06-02T11:37:49.986Z</time>
      </trkpt>
      <trkpt lat="42.481480" lon="8.884300">
        <ele>1385.9</ele>
        <time>2025-06-02T11:39:04.026Z</time>
      </trkpt>
      <trkpt lat="42.481415" lon="8.884675">
        <ele>1389.3</ele>
        <time>2025-06-02T11:40:05.723Z</time>
      </trkpt>
      <trkpt lat="42.481393" lon="8.885086">
        <ele>1394.7</ele>
        <time>2025-06-02T11:41:30.627Z</time>
      </trkpt>
      <trkpt lat="42.481388" lon="8.885511">
        <ele>1400.0</ele>
        <time>2025-06-02T11:42:54.729Z</time>
      </trkpt>
      <trkpt lat="42.481379" lon="8.885932">
        <ele>1404.6</ele>
        <time>2025-06-02T11:44:11.501Z</time>
      </trkpt>
      <trkpt lat="42.481335" lon="8.886325">
        <ele>1408.0</ele>
        <time>2025-06-02T11:45:14.259Z</time>
      </trkpt>
      <trkpt lat="42.481242" lon="8.886677">
        <ele>1412.3</ele>
        <time>2025-06-02T11:46:25.611Z</time>
      </trkpt>
      <trkpt lat="42.481100" lon="8.886988">
        <ele>1416.1</ele>
        <time>2025-06-02T11:47:30.196Z</time>
      </trkpt>
      <trkpt lat="42.480915" lon="8.887263">
        <ele>1420.8</ele>
        <time>2025-06-02T11:48:44.408Z</time>
      </trkpt>
      <trkpt lat="42.480672" lon="8.887491">
        <ele>1424.3</ele>
        <time>2025-06-02T11:49:49.003Z</time>
      </trkpt>
      <trkpt lat="42.480442" lon="8.887730">
        <ele>1428.4</ele>
        <time>2025-06-02T11:50:58.945Z</time>
      </trkpt>
      <trkpt lat="42.480180" lon="8.887942">
        <ele>1433.7</ele>
        <time>2025-06-02T11:52:21.636Z</time>
      </trkpt>
      <trkpt lat="42.479963" lon="8.888191">
        <ele>1436.9</ele>
        <time>2025-06-02T11:53:22.005Z</time>
      </trkpt>
      <trkpt lat="42.479775" lon="8.888465">
        <ele>1441.3</ele>
        <time>2025-06-02T11:54:33.166Z</time>
      </trkpt>
      <trkpt lat="42.479617" lon="8.888763">
        <ele>1444.6</ele>
        <time>2025-06-02T11:55:33.153Z</time>
      </trkpt>
      <trkpt lat="42.479508" lon="8.889101">
        <ele>1446.4</ele>
        <time>2025-06-02T11:56:18.182Z</time>
      </trkpt>
      <trkpt lat="42.479418" lon="8.889456">
        <ele>1451.4</ele>
        <time>2025-06-02T11:57:35.177Z</time>
      </trkpt>
      <trkpt lat="42.479353" lon="8.889831">
        <ele>1454.4</ele>
        <time>2025-06-02T11:58:33.399Z</time>
      </trkpt>
      <trkpt lat="42.479273" lon="8.890194">
        <ele>1456.6</ele>
        <time>2025-06-02T11:59:22.774Z</time>
      </trkpt>
      <trkpt lat="42.479187" lon="8.890551">
        <ele>1460.8</ele>
        <time>2025-06-02T12:00:33.020Z</time>
      </trkpt>
      <trkpt lat="42.479071" lon="8.890884">
        <ele>1463.5</ele>
        <time>2025-06-02T12:01:25.658Z</time>
      </trkpt>
      <trkpt lat="42.478941" lon="8.891206">
        <ele>1465.4</ele>
        <time>2025-06-02T12:02:11.755Z</time>
      </trkpt>
      <trkpt lat="42.478784" lon="8.891504">
        <ele>1469.3</ele>
        <time>2025-06-02T12:03:17.604Z</time>
      </trkpt>
      <trkpt lat="42.478620" lon="8.891798">
        <ele>1473.2</ele>
        <time>2025-06-02T12:04:23.700Z</time>
      </trkpt>
      <trkpt lat="42.478449" lon="8.892085">
        <ele>1475.2</ele>
        <time>2025-06-02T12:05:09.505Z</time>
      </trkpt>
      <trkpt lat="42.478287" lon="8.892380">
        <ele>1478.6</ele>
        <time>2025-06-02T12:06:10.425Z</time>
      </trkpt>
      <trkpt lat="42.478136" lon="8.892684">
        <ele>1482.3</ele>
        <time>2025-06-02T12:07:14.697Z</time>
      </trkpt>
      <trkpt lat="42.478000" lon="8.893000">
        <ele>1485.0</ele>
        <time>2025-06-02T12:08:08.098Z</time>
      </trkpt>
      <trkpt lat="42.477943" lon="8.893359">
        <ele>1487.1</ele>
        <time>2025-06-02T12:08:55.443Z</time>
      </trkpt>
      <trkpt lat="42.477896" lon="8.893721">
        <ele>1489.3</ele>
        <time>2025-06-02T12:09:44.208Z</time>
      </trkpt>
      <trkpt lat="42.477859" lon="8.894088">
        <ele>1491.5</ele>
        <time>2025-06-02T12:10:32.231Z</time>
      </trkpt>
      <trkpt lat="42.477825" lon="8.894456">
        <ele>1492.4</ele>
        <time>2025-06-02T12:11:07.903Z</time>
      </trkpt>
      <trkpt lat="42.477786" lon="8.894822">
        <ele>1494.9</ele>
        <time>2025-06-02T12:12:00.008Z</time>
      </trkpt>
      <trkpt lat="42.477756" lon="8.895192">
        <ele>1496.9</ele>
        <time>2025-06-02T12:12:46.269Z</time>
      </trkpt>
      <trkpt lat="42.477705" lon="8.895553">
        <ele>1498.2</ele>
        <time>2025-06-02T12:13:26.049Z</time>
      </trkpt>
      <trkpt lat="42.477654" lon="8.895914">
        <ele>1501.2</ele>
        <time>2025-06-02T12:14:22.374Z</time>
      </trkpt>
      <trkpt lat="42.477586" lon="8.896268">
        <ele>1501.6</ele>
        <time>2025-06-02T12:14:52.037Z</time>
      </trkpt>
      <trkpt lat="42.477507" lon="8.896618">
        <ele>1504.6</ele>
        <time>2025-06-02T12:15:49.042Z</time>
      </trkpt>
      <trkpt lat="42.477417" lon="8.896962">
        <ele>1506.5</ele>
        <time>2025-06-02T12:16:34.288Z</time>
      </trkpt>
      <trkpt lat="42.477298" lon="8.897295">
        <ele>1507.7</ele>
        <time>2025-06-02T12:17:12.296Z</time>
      </trkpt>
      <trkpt lat="42.477177" lon="8.897627">
        <ele>1508.2</ele>
        <time>2025-06-02T12:17:43.051Z</time>
      </trkpt>
      <trkpt lat="42.477015" lon="8.897942">
        <ele>1510.0</ele>
        <time>2025-06-02T12:18:28.501Z</time>
      </trkpt>
      <trkpt lat="42.476862" lon="8.898260">
        <ele>1510.6</ele>
        <time>2025-06-02T12:19:01.916Z</time>
      </trkpt>
      <trkpt lat="42.476681" lon="8.898567">
        <ele>1512.9</ele>
        <time>2025-06-02T12:19:52.846Z</time>
      </trkpt>
      <trkpt lat="42.476503" lon="8.898875">
        <ele>1512.9</ele>
        <time>2025-06-02T12:20:20.524Z</time>
      </trkpt>
      <trkpt lat="42.476322" lon="8.899182">
        <ele>1513.7</ele>
        <time>2025-06-02T12:20:56.690Z</time>
      </trkpt>
      <trkpt lat="42.476155" lon="8.899494">
        <ele>1515.0</ele>
        <time>2025-06-02T12:21:37.232Z</time>
      </trkpt>
      <trkpt lat="42.475965" lon="8.899797">
        <ele>1515.2</ele>
        <time>2025-06-02T12:22:06.841Z</time>
      </trkpt>
      <trkpt lat="42.475782" lon="8.900103">
        <ele>1516.7</ele>
        <time>2025-06-02T12:22:49.800Z</time>
      </trkpt>
      <trkpt lat="42.475638" lon="8.900425">
        <ele>1516.9</ele>
        <time>2025-06-02T12:23:18.935Z</time>
      </trkpt>
      <trkpt lat="42.475491" lon="8.900746">
        <ele>1518.0</ele>
        <time>2025-06-02T12:23:56.702Z</time>
      </trkpt>
      <trkpt lat="42.475390" lon="8.901086">
        <ele>1518.1</ele>
        <time>2025-06-02T12:24:23.061Z</time>
      </trkpt>
      <trkpt lat="42.475270" lon="8.901419">
        <ele>1518.0</ele>
        <time>2025-06-02T12:24:49.678Z</time>
      </trkpt>
      <trkpt lat="42.475203" lon="8.901773">
        <ele>1517.7</ele>
        <time>2025-06-02T12:25:16.949Z</time>
      </trkpt>
      <trkpt lat="42.475151" lon="8.902134">
        <ele>1518.6</ele>
        <time>2025-06-02T12:25:51.734Z</time>
      </trkpt>
      <trkpt lat="42.475125" lon="8.902505">
        <ele>1520.2</ele>
        <time>2025-06-02T12:26:34.089Z</time>
      </trkpt>
      <trkpt lat="42.475113" lon="8.902882">
        <ele>1520.5</ele>
        <time>2025-06-02T12:27:03.834Z</time>
      </trkpt>
      <trkpt lat="42.475151" lon="8.903280">
        <ele>1519.6</ele>
        <time>2025-06-02T12:27:37.223Z</time>
      </trkpt>
      <trkpt lat="42.475161" lon="8.903667">
        <ele>1521.5</ele>
        <time>2025-06-02T12:28:24.356Z</time>
      </trkpt>
      <trkpt lat="42.475197" lon="8.904065">
        <ele>1521.2</ele>
        <time>2025-06-02T12:28:54.834Z</time>
      </trkpt>
      <trkpt lat="42.475247" lon="8.904468">
        <ele>1521.8</ele>
        <time>2025-06-02T12:29:30.368Z</time>
      </trkpt>
      <trkpt lat="42.475321" lon="8.904881">
        <ele>1523.8</ele>
        <time>2025-06-02T12:30:20.919Z</time>
      </trkpt>
      <trkpt lat="42.475361" lon="8.905280">
        <ele>1523.7</ele>
        <time>2025-06-02T12:30:50.165Z</time>
      </trkpt>
      <trkpt lat="42.475392" lon="8.905675">
        <ele>1525.1</ele>
        <time>2025-06-02T12:31:33.075Z</time>
      </trkpt>
      <trkpt lat="42.475443" lon="8.906079">
        <ele>1526.9</ele>
        <time>2025-06-02T12:32:19.951Z</time>
      </trkpt>
      <trkpt lat="42.475464" lon="8.906470">
        <ele>1528.6</ele>
        <time>2025-06-02T12:33:04.766Z</time>
      </trkpt>
      <trkpt lat="42.475465" lon="8.906853">
        <ele>1529.9</ele>
        <time>2025-06-02T12:33:45.190Z</time>
      </trkpt>
      <trkpt lat="42.475444" lon="8.907227">
        <ele>1530.4</ele>
        <time>2025-06-02T12:34:16.592Z</time>
      </trkpt>
      <trkpt lat="42.475397" lon="8.907589">
        <ele>1532.6</ele>
        <time>2025-06-02T12:35:05.425Z</time>
      </trkpt>
      <trkpt lat="42.475325" lon="8.907942">
        <ele>1534.5</ele>
        <time>2025-06-02T12:35:50.422Z</time>
      </trkpt>
      <trkpt lat="42.475248" lon="8.908292">
        <ele>1537.0</ele>
        <time>2025-06-02T12:36:42.534Z</time>
      </trkpt>
      <trkpt lat="42.475126" lon="8.908623">
        <ele>1539.4</ele>
        <time>2025-06-02T12:37:32.528Z</time>
      </trkpt>
      <trkpt lat="42.475004" lon="8.908955">
        <ele>1539.9</ele>
        <time>2025-06-02T12:38:03.633Z</time>
      </trkpt>
      <trkpt lat="42.474861" lon="8.909277">
        <ele>1543.2</ele>
        <time>2025-06-02T12:39:04.667Z</time>
      </trkpt>
      <trkpt lat="42.474695" lon="8.909590">
        <ele>1544.5</ele>
        <time>2025-06-02T12:39:45.147Z</time>
      </trkpt>
      <trkpt lat="42.474549" lon="8.909912">
        <ele>1547.5</ele>
        <time>2025-06-02T12:40:41.910Z</time>
      </trkpt>
      <trkpt lat="42.474384" lon="8.910225">
        <ele>1549.0</ele>
        <time>2025-06-02T12:41:24.854Z</time>
      </trkpt>
      <trkpt lat="42.474212" lon="8.910536">
        <ele>1550.8</ele>
        <time>2025-06-02T12:42:10.465Z</time>
      </trkpt>
      <trkpt lat="42.474038" lon="8.910846">
        <ele>1552.9</ele>
        <time>2025-06-02T12:42:59.346Z</time>
      </trkpt>
      <trkpt lat="42.473887" lon="8.911164">
        <ele>1554.7</ele>
        <time>2025-06-02T12:43:45.017Z</time>
      </trkpt>
      <trkpt lat="42.473744" lon="8.911487">
        <ele>1557.2</ele>
        <time>2025-06-02T12:44:37.082Z</time>
      </trkpt>
      <trkpt lat="42.473613" lon="8.911815">
        <ele>1558.5</ele>
        <time>2025-06-02T12:45:16.421Z</time>
      </trkpt>
      <trkpt lat="42.473499" lon="8.912150">
        <ele>1561.1</ele>
        <time>2025-06-02T12:46:08.821Z</time>
      </trkpt>
      <trkpt lat="42.473403" lon="8.912492">
        <ele>1561.5</ele>
        <time>2025-06-02T12:46:38.515Z</time>
      </trkpt>
      <trkpt lat="42.473314" lon="8.912837">
        <ele>1562.7</ele>
        <time>2025-06-02T12:47:17.037Z</time>
      </trkpt>
      <trkpt lat="42.473241" lon="8.913189">
        <ele>1563.9</ele>
        <time>2025-06-02T12:47:54.537Z</time>
      </trkpt>
      <trkpt lat="42.473175" lon="8.913544">
        <ele>1565.2</ele>
        <time>2025-06-02T12:48:33.787Z</time>
      </trkpt>
      <trkpt lat="42.473126" lon="8.913906">
        <ele>1568.1</ele>
        <time>2025-06-02T12:49:29.381Z</time>
      </trkpt>
      <trkpt lat="42.473083" lon="8.914270">
        <ele>1569.0</ele>
        <time>2025-06-02T12:50:04.928Z</time>
      </trkpt>
      <trkpt lat="42.473041" lon="8.914635">
        <ele>1569.7</ele>
        <time>2025-06-02T12:50:37.761Z</time>
      </trkpt>
      <trkpt lat="42.473000" lon="8.915000">
        <ele>1569.1</ele>
        <time>2025-06-02T12:51:06.902Z</time>
      </trkpt>
    </trkseg>
  </trk>
</gpx>
