<?xml version="1.0" encoding="UTF-8"?>
<gpx version="1.1" creator="carnet-trek seed" xmlns="http://www.topografix.com/GPX/1/1">
  <metadata>
    <name>TMB 3 – Les Chapieux → Rifugio Elisabetta</name>
  </metadata>
  <wpt lat="45.738000" lon="6.793000">
    <ele>1870</ele>
    <name>Refuge des Mottets</name>
    <sym>Lodging</sym>
  </wpt>
  <wpt lat="45.753000" lon="6.808000">
    <ele>2516</ele>
    <name>Col de la Seigne</name>
    <sym>Summit</sym>
  </wpt>
  <wpt lat="45.760000" lon="6.829000">
    <ele>2195</ele>
    <name>Rifugio Elisabetta</name>
    <sym>Lodging</sym>
  </wpt>
  <trk>
    <name>TMB 3 – Les Chapieux → Rifugio Elisabetta</name>
    <type>hike</type>
    <trkseg>
      <trkpt lat="45.710000" lon="6.737000">
        <ele>1553.2</ele>
        <time>2025-07-16T07:30:00.000Z</time>
      </trkpt>
      <trkpt lat="45.710107" lon="6.737357">
        <ele>1555.9</ele>
        <time>2025-07-16T07:30:53.461Z</time>
      </trkpt>
      <trkpt lat="45.710212" lon="6.737715">
        <ele>1559.8</ele>
        <time>2025-07-16T07:31:59.354Z</time>
      </trkpt>
      <trkpt lat="45.710313" lon="6.738075">
        <ele>1562.0</ele>
        <time>2025-07-16T07:32:48.292Z</time>
      </trkpt>
      <trkpt lat="45.710407" lon="6.738439">
        <ele>1564.6</ele>
        <time>2025-07-16T07:33:40.184Z</time>
      </trkpt>
      <trkpt lat="45.710499" lon="6.738803">
        <ele>1565.3</ele>
        <time>2025-07-16T07:34:13.286Z</time>
      </trkpt>
      <trkpt lat="45.710579" lon="6.739173">
        <ele>1568.0</ele>
        <time>2025-07-16T07:35:07.596Z</time>
      </trkpt>
      <trkpt lat="45.710655" lon="6.739546">
        <ele>1571.2</ele>
        <time>2025-07-16T07:36:05.508Z</time>
      </trkpt>
      <trkpt lat="45.710722" lon="6.739923">
        <ele>1572.1</ele>
        <time>2025-07-16T07:36:41.166Z</time>
      </trkpt>
      <trkpt lat="45.710780" lon="6.740304">
        <ele>1574.3</ele>
        <time>2025-07-16T07:37:29.150Z</time>
      </trkpt>
      <trkpt lat="45.710834" lon="6.740687">
        <ele>1576.4</ele>
        <time>2025-07-16T07:38:17.700Z</time>
      </trkpt>
      <trkpt lat="45.710881" lon="6.741073">
        <ele>1579.7</ele>
        <time>2025-07-16T07:39:17.149Z</time>
      </trkpt>
      <trkpt lat="45.710923" lon="6.741462">
        <ele>1582.0</ele>
        <time>2025-07-16T07:40:07.190Z</time>
      </trkpt>
      <trkpt lat="45.710963" lon="6.741852">
        <ele>1582.8</ele>
        <time>2025-07-16T07:40:41.047Z</time>
      </trkpt>
      <trkpt lat="45.711003" lon="6.742242">
        <ele>1586.1</ele>
        <time>2025-07-16T07:41:41.260Z</time>
      </trkpt>
      <trkpt lat="45.711053" lon="6.742627">
        <ele>1588.4</ele>
        <time>2025-07-16T07:42:31.461Z</time>
      </trkpt>
      <trkpt lat="45.711110" lon="6.743009">
        <ele>1589.1</ele>
        <time>2025-07-16T07:43:05.101Z</time>
      </trkpt>
      <trkpt lat="45.711164" lon="6.743391">
        <ele>1592.0</ele>
        <time>2025-07-16T07:44:00.588Z</time>
      </trkpt>
      <trkpt lat="45.711225" lon="6.743771">
        <ele>1592.2</ele>
        <time>2025-07-16T07:44:28.463Z</time>
      </trkpt>
      <trkpt lat="45.711300" lon="6.744144">
        <ele>1595.3</ele>
        <time>2025-07-16T07:45:25.718Z</time>
      </trkpt>
      <trkpt lat="45.711388" lon="6.744510">
        <ele>1595.6</ele>
        <time>2025-07-16T07:45:55.395Z</time>
      </trkpt>
      <trkpt lat="45.711495" lon="6.744868">
        <ele>1598.2</ele>
        <time>2025-07-16T07:46:47.966Z</time>
      </trkpt>
      <trkpt lat="45.711601" lon="6.745225">
        <ele>1600.0</ele>
        <time>2025-07-16T07:47:32.118Z</time>
      </trkpt>
      <trkpt lat="45.711743" lon="6.745565">
        <ele>1599.7</ele>
        <time>2025-07-16T07:48:00.222Z</time>
      </trkpt>
      <trkpt lat="45.711880" lon="6.745907">
        <ele>1601.2</ele>
        <time>2025-07-16T07:48:41.391Z</time>
      </trkpt>
      <trkpt lat="45.712037" lon="6.746240">
        <ele>1604.2</ele>
        <time>2025-07-16T07:49:39.608Z</time>
      </trkpt>
      <trkpt lat="45.712195" lon="6.746572">
        <ele>1603.9</ele>
        <time>2025-07-16T07:50:08.198Z</time>
      </trkpt>
      <trkpt lat="45.712371" lon="6.746896">
        <ele>1605.0</ele>
        <time>2025-07-16T07:50:46.996Z</time>
      </trkpt>
      <trkpt lat="45.712536" lon="6.747225">
        <ele>1606.3</ele>
        <time>2025-07-16T07:51:26.556Z</time>
      </trkpt>
      <trkpt lat="45.712723" lon="6.747542">
        <ele>1608.2</ele>
        <time>2025-07-16T07:52:14.538Z</time>
      </trkpt>
      <trkpt lat="45.712899" lon="6.747866">
        <ele>1610.1</ele>
        <time>2025-07-16T07:53:00.991Z</time>
      </trkpt>
      <trkpt lat="45.713069" lon="6.748192">
        <ele>1610.4</ele>
        <time>2025-07-16T07:53:31.381Z</time>
      </trkpt>
      <trkpt lat="45.713225" lon="6.748525">
        <ele>1612.6</ele>
        <time>2025-07-16T07:54:20.349Z</time>
      </trkpt>
      <trkpt lat="45.713374" lon="6.748862">
        <ele>1612.1</ele>
        <time>2025-07-16T07:54:49.599Z</time>
      </trkpt>
      <trkpt lat="45.713523" lon="6.749199">
        <ele>1614.1</ele>
        <time>2025-07-16T07:55:35.900Z</time>
      </trkpt>
      <trkpt lat="45.713670" lon="6.749536">
        <ele>1615.7</ele>
        <time>2025-07-16T07:56:19.276Z</time>
      </trkpt>
      <trkpt lat="45.713758" lon="6.749903">
        <ele>1616.5</ele>
        <time>2025-07-16T07:56:53.023Z</time>
      </trkpt>
      <trkpt lat="45.713859" lon="6.750263">
        <ele>1617.7</ele>
        <time>2025-07-16T07:57:31.278Z</time>
      </trkpt>
      <trkpt lat="45.713946" lon="6.750629">
        <ele>1617.6</ele>
        <time>2025-07-16T07:57:57.349Z</time>
      </trkpt>
      <trkpt lat="45.713994" lon="6.751016">
        <ele>1620.4</ele>
        <time>2025-07-16T07:58:51.903Z</time>
      </trkpt>
      <trkpt lat="45.714035" lon="6.751405">
        <ele>1621.6</ele>
        <time>2025-07-16T07:59:30.436Z</time>
      </trkpt>
      <trkpt lat="45.714033" lon="6.751815">
        <ele>1621.4</ele>
        <time>2025-07-16T07:59:59.055Z</time>
      </trkpt>
      <trkpt lat="45.714052" lon="6.752215">
        <ele>1623.0</ele>
        <time>2025-07-16T08:00:42.711Z</time>
      </trkpt>
      <trkpt lat="45.714028" lon="6.752637">
        <ele>1624.0</ele>
        <time>2025-07-16T08:01:20.721Z</time>
      </trkpt>
      <trkpt lat="45.714011" lon="6.753055">
        <ele>1626.0</ele>
        <time>2025-07-16T08:02:08.798Z</time>
      </trkpt>
      <trkpt lat="45.713986" lon="6.753476">
        <ele>1626.2</ele>
        <time>2025-07-16T08:02:39.543Z</time>
      </trkpt>
      <trkpt lat="45.713935" lon="6.753911">
        <ele>1627.7</ele>
        <time>2025-07-16T08:03:23.984Z</time>
      </trkpt>
      <trkpt lat="45.713895" lon="6.754340">
        <ele>1629.8</ele>
        <time>2025-07-16T08:04:14.290Z</time>
      </trkpt>
      <trkpt lat="45.713863" lon="6.754765">
        <ele>1631.4</ele>
        <time>2025-07-16T08:04:59.677Z</time>
      </trkpt>
      <trkpt lat="45.713852" lon="6.755180">
        <ele>1632.8</ele>
        <time>2025-07-16T08:05:41.024Z</time>
      </trkpt>
      <trkpt lat="45.713849" lon="6.755591">
        <ele>1634.6</ele>
        <time>2025-07-16T08:06:27.553Z</time>
      </trkpt>
      <trkpt lat="45.713857" lon="6.755996">
        <ele>1635.9</ele>
        <time>2025-07-16T08:07:08.131Z</time>
      </trkpt>
      <trkpt lat="45.713861" lon="6.756404">
        <ele>1638.7</ele>
        <time>2025-07-16T08:08:03.693Z</time>
      </trkpt>
      <trkpt lat="45.713901" lon="6.756794">
        <ele>1639.6</ele>
        <time>2025-07-16T08:08:39.173Z</time>
      </trkpt>
      <trkpt lat="45.713986" lon="6.757162">
        <ele>1642.6</ele>
        <time>2025-07-16T08:09:35.248Z</time>
      </trkpt>
      <trkpt lat="45.714070" lon="6.757530">
        <ele>1644.9</ele>
        <time>2025-07-16T08:10:24.949Z</time>
      </trkpt>
      <trkpt lat="45.714155" lon="6.757898">
        <ele>1645.2</ele>
        <time>2025-07-16T08:10:53.603Z</time>
      </trkpt>
      <trkpt lat="45.714294" lon="6.758239">
        <ele>1647.6</ele>
        <time>2025-07-16T08:11:45.568Z</time>
      </trkpt>
      <trkpt lat="45.714441" lon="6.758577">
        <ele>1649.5</ele>
        <time>2025-07-16T08:12:31.542Z</time>
      </trkpt>
      <trkpt lat="45.714629" lon="6.758894">
        <ele>1653.6</ele>
        <time>2025-07-16T08:13:40.437Z</time>
      </trkpt>
      <trkpt lat="45.714797" lon="6.759222">
        <ele>1655.5</ele>
        <time>2025-07-16T08:14:27.653Z</time>
      </trkpt>
      <trkpt lat="45.715012" lon="6.759526">
        <ele>1656.7</ele>
        <time>2025-07-16T08:15:08.415Z</time>
      </trkpt>
      <trkpt lat="45.715217" lon="6.759835">
        <ele>1660.7</ele>
        <time>2025-07-16T08:16:17.839Z</time>
      </trkpt>
      <trkpt lat="45.715445" lon="6.760133">
        <ele>1662.5</ele>
        <time>2025-07-16T08:17:06.094Z</time>
      </trkpt>
      <trkpt lat="45.715662" lon="6.760436">
        <ele>1665.1</ele>
        <time>2025-07-16T08:18:01.326Z</time>
      </trkpt>
      <trkpt lat="45.715877" lon="6.760741">
        <ele>1667.3</ele>
        <time>2025-07-16T08:18:53.589Z</time>
      </trkpt>
      <trkpt lat="45.716085" lon="6.761048">
        <ele>1670.0</ele>
        <time>2025-07-16T08:19:49.416Z</time>
      </trkpt>
      <trkpt lat="45.716269" lon="6.761368">
        <ele>1672.4</ele>
        <time>2025-07-16T08:20:41.215Z</time>
      </trkpt>
      <trkpt lat="45.716458" lon="6.761685">
        <ele>1677.1</ele>
        <time>2025-07-16T08:21:57.891Z</time>
      </trkpt>
      <trkpt lat="45.716639" lon="6.762005">
        <ele>1678.9</ele>
        <time>2025-07-16T08:22:43.798Z</time>
      </trkpt>
      <trkpt lat="45.716772" lon="6.762350">
        <ele>1681.4</ele>
        <time>2025-07-16T08:23:35.281Z</time>
      </trkpt>
      <trkpt lat="45.716904" lon="6.762695">
        <ele>1685.2</ele>
        <time>2025-07-16T08:24:40.943Z</time>
      </trkpt>
      <trkpt lat="45.717009" lon="6.763053">
        <ele>1688.5</ele>
        <time>2025-07-16T08:25:40.559Z</time>
      </trkpt>
      <trkpt lat="45.717123" lon="6.763407">
        <ele>1690.2</ele>
        <time>2025-07-16T08:26:24.117Z</time>
      </trkpt>
      <trkpt lat="45.717173" lon="6.763792">
        <ele>1693.0</ele>
        <time>2025-07-16T08:27:18.802Z</time>
      </trkpt>
      <trkpt lat="45.717216" lon="6.764180">
        <ele>1696.5</ele>
        <time>2025-07-16T08:28:21.491Z</time>
      </trkpt>
      <trkpt lat="45.717254" lon="6.764571">
        <ele>1698.6</ele>
        <time>2025-07-16T08:29:08.972Z</time>
      </trkpt>
      <trkpt lat="45.717240" lon="6.764987">
        <ele>1702.6</ele>
        <time>2025-07-16T08:30:18.209Z</time>
      </trkpt>
      <trkpt lat="45.717243" lon="6.765396">
        <ele>1705.8</ele>
        <time>2025-07-16T08:31:18.220Z</time>
      </trkpt>
      <trkpt lat="45.717217" lon="6.765818">
        <ele>1707.8</ele>
        <time>2025-07-16T08:32:06.702Z</time>
      </trkpt>
      <trkpt lat="45.717219" lon="6.766226">
        <ele>1711.0</ele>
        <time>2025-07-16T08:33:06.487Z</time>
      </trkpt>
      <trkpt lat="45.717178" lon="6.766656">
        <ele>1714.7</ele>
        <time>2025-07-16T08:34:13.353Z</time>
      </trkpt>
      <trkpt lat="45.717171" lon="6.767068">
        <ele>1717.4</ele>
        <time>2025-07-16T08:35:08.527Z</time>
      </trkpt>
      <trkpt lat="45.717145" lon="6.767491">
        <ele>1720.2</ele>
        <time>2025-07-16T08:36:06.233Z</time>
      </trkpt>
      <trkpt lat="45.717118" lon="6.767914">
        <ele>1722.9</ele>
        <time>2025-07-16T08:37:01.705Z</time>
      </trkpt>
      <trkpt lat="45.717137" lon="6.768314">
        <ele>1724.8</ele>
        <time>2025-07-16T08:37:48.657Z</time>
      </trkpt>
      <trkpt lat="45.717127" lon="6.768728">
        <ele>1728.0</ele>
        <time>2025-07-16T08:38:48.357Z</time>
      </trkpt>
      <trkpt lat="45.717166" lon="6.769119">
        <ele>1730.5</ele>
        <time>2025-07-16T08:39:41.095Z</time>
      </trkpt>
      <trkpt lat="45.717210" lon="6.769506">
        <ele>1733.4</ele>
        <time>2025-07-16T08:40:37.076Z</time>
      </trkpt>
      <trkpt lat="45.717260" lon="6.769891">
        <ele>1735.8</ele>
        <time>2025-07-16T08:41:27.837Z</time>
      </trkpt>
      <trkpt lat="45.717332" lon="6.770266">
        <ele>1737.3</ele>
        <time>2025-07-16T08:42:08.419Z</time>
      </trkpt>
      <trkpt lat="45.717436" lon="6.770624">
        <ele>1740.8</ele>
        <time>2025-07-16T08:43:11.035Z</time>
      </trkpt>
      <trkpt lat="45.717555" lon="6.770976">
        <ele>1742.1</ele>
        <time>2025-07-16T08:43:49.818Z</time>
      </trkpt>
      <trkpt lat="45.717679" lon="6.771324">
        <ele>1744.7</ele>
        <time>2025-07-16T08:44:42.194Z</time>
      </trkpt>
      <trkpt lat="45.717816" lon="6.771667">
        <ele>1746.7</ele>
        <time>2025-07-16T08:45:29.526Z</time>
      </trkpt>
      <trkpt lat="45.717951" lon="6.772010">
        <ele>1749.4</ele>
        <time>2025-07-16T08:46:23.685Z</time>
      </trkpt>
      <trkpt lat="45.718112" lon="6.772341">
        <ele>1750.3</ele>
        <time>2025-07-16T08:46:59.255Z</time>
      </trkpt>
      <trkpt lat="45.718261" lon="6.772678">
        <ele>1752.9</ele>
        <time>2025-07-16T08:47:52.699Z</time>
      </trkpt>
      <trkpt lat="45.718418" lon="6.773010">
        <ele>1755.2</ele>
        <time>2025-07-16T08:48:43.101Z</time>
      </trkpt>
      <trkpt lat="45.718588" lon="6.773336">
        <ele>1756.2</ele>
        <time>2025-07-16T08:49:20.295Z</time>
      </trkpt>
      <trkpt lat="45.718749" lon="6.773667">
        <ele>1758.6</ele>
        <time>2025-07-16T08:50:12.650Z</time>
      </trkpt>
      <trkpt lat="45.718890" lon="6.774007">
        <ele>1759.9</ele>
        <time>2025-07-16T08:50:51.609Z</time>
      </trkpt>
      <trkpt lat="45.719041" lon="6.774343">
        <ele>1760.8</ele>
        <time>2025-07-16T08:51:27.545Z</time>
      </trkpt>
      <trkpt lat="45.719172" lon="6.774689">
        <ele>1763.2</ele>
        <time>2025-07-16T08:52:18.545Z</time>
      </trkpt>
      <trkpt lat="45.719286" lon="6.775042">
        <ele>1765.0</ele>
        <time>2025-07-16T08:53:03.423Z</time>
      </trkpt>
      <trkpt lat="45.719406" lon="6.775393">
        <ele>1767.2</ele>
        <time>2025-07-16T08:53:51.238Z</time>
      </trkpt>
      <trkpt lat="45.719505" lon="6.775754">
        <ele>1767.8</ele>
        <time>2025-07-16T08:54:23.580Z</time>
      </trkpt>
      <trkpt lat="45.719596" lon="6.776119">
        <ele>1769.9</ele>
        <time>2025-07-16T08:55:10.788Z</time>
      </trkpt>
      <trkpt lat="45.719682" lon="6.776487">
        <ele>1771.3</ele>
        <time>2025-07-16T08:55:51.565Z</time>
      </trkpt>
      <trkpt lat="45.719756" lon="6.776860">
        <ele>1771.7</ele>
        <time>2025-07-16T08:56:20.690Z</time>
      </trkpt>
      <trkpt lat="45.719817" lon="6.777239">
        <ele>1773.3</ele>
        <time>2025-07-16T08:57:03.825Z</time>
      </trkpt>
      <trkpt lat="45.719881" lon="6.777618">
        <ele>1775.2</ele>
        <time>2025-07-16T08:57:48.974Z</time>
      </trkpt>
      <trkpt lat="45.719943" lon="6.777997">
        <ele>1777.7</ele>
        <time>2025-07-16T08:58:40.909Z</time>
      </trkpt>
      <trkpt lat="45.720001" lon="6.778378">
        <ele>1777.4</ele>
        <time>2025-07-16T08:59:08.869Z</time>
      </trkpt>
      <trkpt lat="45.720060" lon="6.778759">
        <ele>1779.8</ele>
        <time>2025-07-16T08:59:59.324Z</time>
      </trkpt>
      <trkpt lat="45.720116" lon="6.779141">
        <ele>1781.6</ele>
        <time>2025-07-16T09:00:43.524Z</time>
      </trkpt>
      <trkpt lat="45.720184" lon="6.779517">
        <ele>1783.0</ele>
        <time>2025-07-16T09:01:24.263Z</time>
      </trkpt>
      <trkpt lat="45.720252" lon="6.779893">
        <ele>1783.4</ele>
        <time>2025-07-16T09:01:53.813Z</time>
      </trkpt>
      <trkpt lat="45.720328" lon="6.780265">
        <ele>1785.6</ele>
        <time>2025-07-16T09:02:42.935Z</time>
      </trkpt>
      <trkpt lat="45.720410" lon="6.780634">
        <ele>1787.9</ele>
        <time>2025-07-16T09:03:31.945Z</time>
      </trkpt>
      <trkpt lat="45.720500" lon="6.781000">
        <ele>1788.4</ele>
        <time>2025-07-16T09:04:03.355Z</time>
      </trkpt>
      <trkpt lat="45.720730" lon="6.781207">
        <ele>1790.6</ele>
        <time>2025-07-16T09:04:51.208Z</time>
      </trkpt>
      <trkpt lat="45.720956" lon="6.781422">
        <ele>1791.0</ele>
        <time>2025-07-16T09:05:21.940Z</time>
      </trkpt>
      <trkpt lat="45.721184" lon="6.781634">
        <ele>1790.1</ele>
        <time>2025-07-16T09:05:53.297Z</time>
      </trkpt>
      <trkpt lat="45.721410" lon="6.781852">
        <ele>1791.5</ele>
        <time>2025-07-16T09:06:33.782Z</time>
      </trkpt>
      <trkpt lat="45.721643" lon="6.782051">
        <ele>1791.8</ele>
        <time>2025-07-16T09:07:01.805Z</time>
      </trkpt>
      <trkpt lat="45.721875" lon="6.782248">
        <ele>1792.9</ele>
        <time>2025-07-16T09:07:39.052Z</time>
      </trkpt>
      <trkpt lat="45.722112" lon="6.782435">
        <ele>1793.8</ele>
        <time>2025-07-16T09:08:14.649Z</time>
      </trkpt>
      <trkpt lat="45.722356" lon="6.782599">
        <ele>1794.7</ele>
        <time>2025-07-16T09:08:48.827Z</time>
      </trkpt>
      <trkpt lat="45.722606" lon="6.782745">
        <ele>1795.6</ele>
        <time>2025-07-16T09:09:24.568Z</time>
      </trkpt>
      <trkpt lat="45.722857" lon="6.782887">
        <ele>1796.3</ele>
        <time>2025-07-16T09:09:57.524Z</time>
      </trkpt>
      <trkpt lat="45.723117" lon="6.783004">
        <ele>1796.4</ele>
        <time>2025-07-16T09:10:23.650Z</time>
      </trkpt>
      <trkpt lat="45.723390" lon="6.783080">
        <ele>1798.0</ele>
        <time>2025-07-16T09:11:06.652Z</time>
      </trkpt>
      <trkpt lat="45.723658" lon="6.783172">
        <ele>1798.0</ele>
        <time>2025-07-16T09:11:33.006Z</time>
      </trkpt>
      <trkpt lat="45.723939" lon="6.783226">
        <ele>1799.9</ele>
        <time>2025-07-16T09:12:19.459Z</time>
      </trkpt>
      <trkpt lat="45.724216" lon="6.783289">
        <ele>1801.5</ele>
        <time>2025-07-16T09:13:03.055Z</time>
      </trkpt>
      <trkpt lat="45.724495" lon="6.783348">
        <ele>1802.9</ele>
        <time>2025-07-16T09:13:44.212Z</time>
      </trkpt>
      <trkpt lat="45.724784" lon="6.783379">
        <ele>1803.5</ele>
        <time>2025-07-16T09:14:18.672Z</time>
      </trkpt>
      <trkpt lat="45.725058" lon="6.783453">
        <ele>1806.4</ele>
        <time>2025-07-16T09:15:15.142Z</time>
      </trkpt>
      <trkpt lat="45.725338" lon="6.783510">
        <ele>1808.0</ele>
        <time>2025-07-16T09:15:57.933Z</time>
      </trkpt>
      <trkpt lat="45.725611" lon="6.783585">
        <ele>1808.3</ele>
        <time>2025-07-16T09:16:27.698Z</time>
      </trkpt>
      <trkpt lat="45.725870" lon="6.783703">
        <ele>1811.4</ele>
        <time>2025-07-16T09:17:25.406Z</time>
      </trkpt>
      <trkpt lat="45.726130" lon="6.783821">
        <ele>1813.7</ele>
        <time>2025-07-16T09:18:15.043Z</time>
      </trkpt>
      <trkpt lat="45.726379" lon="6.783968">
        <ele>1815.2</ele>
        <time>2025-07-16T09:18:56.295Z</time>
      </trkpt>
      <trkpt lat="45.726623" lon="6.784132">
        <ele>1816.2</ele>
        <time>2025-07-16T09:19:31.918Z</time>
      </trkpt>
      <trkpt lat="45.726854" lon="6.784337">
        <ele>1819.2</ele>
        <time>2025-07-16T09:20:28.587Z</time>
      </trkpt>
      <trkpt lat="45.727075" lon="6.784569">
        <ele>1820.9</ele>
        <time>2025-07-16T09:21:12.590Z</time>
      </trkpt>
      <trkpt lat="45.727285" lon="6.784833">
        <ele>1823.8</ele>
        <time>2025-07-16T09:22:08.636Z</time>
      </trkpt>
      <trkpt lat="45.727485" lon="6.785130">
        <ele>1826.2</ele>
        <time>2025-07-16T09:23:01.563Z</time>
      </trkpt>
      <trkpt lat="45.727674" lon="6.785458">
        <ele>1828.1</ele>
        <time>2025-07-16T09:23:48.460Z</time>
      </trkpt>
      <trkpt lat="45.727863" lon="6.785788">
        <ele>1829.6</ele>
        <time>2025-07-16T09:24:33.175Z</time>
      </trkpt>
      <trkpt lat="45.728055" lon="6.786106">
        <ele>1831.4</ele>
        <time>2025-07-16T09:25:18.900Z</time>
      </trkpt>
      <trkpt lat="45.728240" lon="6.786448">
        <ele>1834.1</ele>
        <time>2025-07-16T09:26:15.737Z</time>
      </trkpt>
      <trkpt lat="45.728425" lon="6.786788">
        <ele>1835.8</ele>
        <time>2025-07-16T09:27:02.046Z</time>
      </trkpt>
      <trkpt lat="45.728618" lon="6.787102">
        <ele>1836.9</ele>
        <time>2025-07-16T09:27:41.008Z</time>
      </trkpt>
      <trkpt lat="45.728798" lon="6.787458">
        <ele>1837.5</ele>
        <time>2025-07-16T09:28:16.277Z</time>
      </trkpt>
      <trkpt lat="45.729001" lon="6.787744">
        <ele>1839.3</ele>
        <time>2025-07-16T09:29:02.605Z</time>
      </trkpt>
      <trkpt lat="45.729207" lon="6.788022">
        <ele>1841.7</ele>
        <time>2025-07-16T09:29:54.130Z</time>
      </trkpt>
      <trkpt lat="45.729421" lon="6.788275">
        <ele>1842.1</ele>
        <time>2025-07-16T09:30:24.191Z</time>
      </trkpt>
      <trkpt lat="45.729645" lon="6.788500">
        <ele>1843.2</ele>
        <time>2025-07-16T09:31:02.149Z</time>
      </trkpt>
      <trkpt lat="45.729879" lon="6.788693">
        <ele>1844.1</ele>
        <time>2025-07-16T09:31:36.721Z</time>
      </trkpt>
      <trkpt lat="45.730125" lon="6.788853">
        <ele>1846.3</ele>
        <time>2025-07-16T09:32:24.613Z</time>
      </trkpt>
      <trkpt lat="45.730379" lon="6.788984">
        <ele>1845.3</ele>
        <time>2025-07-16T09:32:56.078Z</time>
      </trkpt>
      <trkpt lat="45.730647" lon="6.789076">
        <ele>1846.0</ele>
        <time>2025-07-16T09:33:29.341Z</time>
      </trkpt>
      <trkpt lat="45.730918" lon="6.789160">
        <ele>1847.0</ele>
        <time>2025-07-16T09:34:06.268Z</time>
      </trkpt>
      <trkpt lat="45.731205" lon="6.789197">
        <ele>1848.2</ele>
        <time>2025-07-16T09:34:46.194Z</time>
      </trkpt>
      <trkpt lat="45.731493" lon="6.789229">
        <ele>1848.9</ele>
        <time>2025-07-16T09:35:21.095Z</time>
      </trkpt>
      <trkpt lat="45.731792" lon="6.789228">
        <ele>1849.6</ele>
        <time>2025-07-16T09:35:56.652Z</time>
      </trkpt>
      <trkpt lat="45.732081" lon="6.789256">
        <ele>1849.7</ele>
        <time>2025-07-16T09:36:25.498Z</time>
      </trkpt>
      <trkpt lat="45.732370" lon="6.789287">
        <ele>1849.4</ele>
        <time>2025-07-16T09:36:55.200Z</time>
      </trkpt>
      <trkpt lat="45.732663" lon="6.789303">
        <ele>1848.6</ele>
        <time>2025-07-16T09:37:28.190Z</time>
      </trkpt>
      <trkpt lat="45.732952" lon="6.789332">
        <ele>1850.7</ele>
        <time>2025-07-16T09:38:17.327Z</time>
      </trkpt>
      <trkpt lat="45.733242" lon="6.789359">
        <ele>1849.2</ele>
        <time>2025-07-16T09:38:53.571Z</time>
      </trkpt>
      <trkpt lat="45.733523" lon="6.789412">
        <ele>1851.3</ele>
        <time>2025-07-16T09:39:41.880Z</time>
      </trkpt>
      <trkpt lat="45.733788" lon="6.789513">
        <ele>1849.7</ele>
        <time>2025-07-16T09:40:17.433Z</time>
      </trkpt>
      <trkpt lat="45.734050" lon="6.789624">
        <ele>1850.4</ele>
        <time>2025-07-16T09:40:50.439Z</time>
      </trkpt>
      <trkpt lat="45.734304" lon="6.789755">
        <ele>1852.2</ele>
        <time>2025-07-16T09:41:34.399Z</time>
      </trkpt>
      <trkpt lat="45.734553" lon="6.789904">
        <ele>1852.9</ele>
        <time>2025-07-16T09:42:07.441Z</time>
      </trkpt>
      <trkpt lat="45.734792" lon="6.790083">
        <ele>1852.9</ele>
        <time>2025-07-16T09:42:33.181Z</time>
      </trkpt>
      <trkpt lat="45.735027" lon="6.790276">
        <ele>1853.1</ele>
        <time>2025-07-16T09:43:01.562Z</time>
      </trkpt>
      <trkpt lat="45.735252" lon="6.790496">
        <ele>1853.3</ele>
        <time>2025-07-16T09:43:29.386Z</time>
      </trkpt>
      <trkpt lat="45.735475" lon="6.790723">
        <ele>1855.2</ele>
        <time>2025-07-16T09:44:14.774Z</time>
      </trkpt>
      <trkpt lat="45.735695" lon="6.790959">
        <ele>1856.1</ele>
        <time>2025-07-16T09:44:50.816Z</time>
      </trkpt>
      <trkpt lat="45.735914" lon="6.791196">
        <ele>1857.5</ele>
        <time>2025-07-16T09:45:30.990Z</time>
      </trkpt>
      <trkpt lat="45.736131" lon="6.791441">
        <ele>1858.4</ele>
        <time>2025-07-16T09:46:06.710Z</time>
      </trkpt>
      <trkpt lat="45.736350" lon="6.791679">
        <ele>1860.3</ele>
        <time>2025-07-16T09:46:51.968Z</time>
      </trkpt>
      <trkpt lat="45.736572" lon="6.791909">
        <ele>1860.2</ele>
        <time>2025-07-16T09:47:18.709Z</time>
      </trkpt>
      <trkpt lat="45.736797" lon="6.792129">
        <ele>1863.0</ele>
        <time>2025-07-16T09:48:13.443Z</time>
      </trkpt>
      <trkpt lat="45.737028" lon="6.792331">
        <ele>1864.3</ele>
        <time>2025-07-16T09:48:52.965Z</time>
      </trkpt>
      <trkpt lat="45.737264" lon="6.792520">
        <ele>1864.8</ele>
        <time>2025-07-16T09:49:24.327Z</time>
      </trkpt>
      <trkpt lat="45.737504" lon="6.792697">
        <ele>1865.9</ele>
        <time>2025-07-16T09:50:00.817Z</time>
      </trkpt>
      <trkpt lat="45.737749" lon="6.792856">
        <ele>1868.9</ele>
        <time>2025-07-16T09:50:57.612Z</time>
      </trkpt>
      <trkpt lat="45.738000" lon="6.793000">
        <ele>1869.4</ele>
        <time>2025-07-16T09:51:28.716Z</time>
      </trkpt>
      <trkpt lat="45.738236" lon="6.793193">
        <ele>1880.4</ele>
        <time>2025-07-16T09:53:47.034Z</time>
      </trkpt>
      <trkpt lat="45.738466" lon="6.793399">
        <ele>1889.7</ele>
        <time>2025-07-16T09:55:48.581Z</time>
      </trkpt>
      <trkpt lat="45.738687" lon="6.793625">
        <ele>1898.9</ele>
        <time>2025-07-16T09:57:49.357Z</time>
      </trkpt>
      <trkpt lat="45.738897" lon="6.793873">
        <ele>1908.4</ele>
        <time>2025-07-16T09:59:52.577Z</time>
      </trkpt>
      <trkpt lat="45.739088" lon="6.794159">
        <ele>1917.8</ele>
        <time>2025-07-16T10:01:56.020Z</time>
      </trkpt>
      <trkpt lat="45.739275" lon="6.794453">
        <ele>1926.2</ele>
        <time>2025-07-16T10:03:48.791Z</time>
      </trkpt>
      <trkpt lat="45.739471" lon="6.794730">
        <ele>1935.4</ele>
        <time>2025-07-16T10:05:49.670Z</time>
      </trkpt>
      <trkpt lat="45.739675" lon="6.794990">
        <ele>1944.9</ele>
        <time>2025-07-16T10:07:53.662Z</time>
      </trkpt>
      <trkpt lat="45.739898" lon="6.795209">
        <ele>1953.6</ele>
        <time>2025-07-16T10:09:49.118Z</time>
      </trkpt>
      <trkpt lat="45.740140" lon="6.795391">
        <ele>1961.1</ele>
        <time>2025-07-16T10:11:32.052Z</time>
      </trkpt>
      <trkpt lat="45.740409" lon="6.795517">
        <ele>1969.2</ele>
        <time>2025-07-16T10:13:22.528Z</time>
      </trkpt>
      <trkpt lat="45.740680" lon="6.795639">
        <ele>1977.8</ele>
        <time>2025-07-16T10:15:18.068Z</time>
      </trkpt>
      <trkpt lat="45.740970" lon="6.795721">
        <ele>1985.8</ele>
        <time>2025-07-16T10:17:08.668Z</time>
      </trkpt>
      <trkpt lat="45.741232" lon="6.795863">
        <ele>1995.1</ele>
        <time>2025-07-16T10:19:10.493Z</time>
      </trkpt>
      <trkpt lat="45.741495" lon="6.796001">
        <ele>2003.6</ele>
        <time>2025-07-16T10:21:05.145Z</time>
      </trkpt>
      <trkpt lat="45.741724" lon="6.796209">
        <ele>2010.6</ele>
        <time>2025-07-16T10:22:42.228Z</time>
      </trkpt>
      <trkpt lat="45.741910" lon="6.796507">
        <ele>2020.1</ele>
        <time>2025-07-16T10:24:46.599Z</time>
      </trkpt>
      <trkpt lat="45.742072" lon="6.796852">
        <ele>2028.8</ele>
        <time>2025-07-16T10:26:44.002Z</time>
      </trkpt>
      <trkpt lat="45.742244" lon="6.797177">
        <ele>2039.8</ele>
        <time>2025-07-16T10:29:03.986Z</time>
      </trkpt>
      <trkpt lat="45.742393" lon="6.797550">
        <ele>2049.4</ele>
        <time>2025-07-16T10:31:11.502Z</time>
      </trkpt>
      <trkpt lat="45.742562" lon="6.797881">
        <ele>2059.3</ele>
        <time>2025-07-16T10:33:21.013Z</time>
      </trkpt>
      <trkpt lat="45.742739" lon="6.798196">
        <ele>2068.5</ele>
        <time>2025-07-16T10:35:21.953Z</time>
      </trkpt>
      <trkpt lat="45.742968" lon="6.798405">
        <ele>2078.7</ele>
        <time>2025-07-16T10:37:32.862Z</time>
      </trkpt>
      <trkpt lat="45.743210" lon="6.798587">
        <ele>2089.6</ele>
        <time>2025-07-16T10:39:51.246Z</time>
      </trkpt>
      <trkpt lat="45.743461" lon="6.798749">
        <ele>2098.8</ele>
        <time>2025-07-16T10:41:52.314Z</time>
      </trkpt>
      <trkpt lat="45.743748" lon="6.798839">
        <ele>2108.8</ele>
        <time>2025-07-16T10:44:02.812Z</time>
      </trkpt>
      <trkpt lat="45.744021" lon="6.798956">
        <ele>2119.2</ele>
        <time>2025-07-16T10:46:16.934Z</time>
      </trkpt>
      <trkpt lat="45.744281" lon="6.799102">
        <ele>2128.1</ele>
        <time>2025-07-16T10:48:15.324Z</time>
      </trkpt>
      <trkpt lat="45.744527" lon="6.799275">
        <ele>2138.3</ele>
        <time>2025-07-16T10:50:26.266Z</time>
      </trkpt>
      <trkpt lat="45.744753" lon="6.799489">
        <ele>2147.4</ele>
        <time>2025-07-16T10:52:25.507Z</time>
      </trkpt>
      <trkpt lat="45.744954" lon="6.799755">
        <ele>2155.8</ele>
        <time>2025-07-16T10:54:18.457Z</time>
      </trkpt>
      <trkpt lat="45.745156" lon="6.800019">
        <ele>2165.1</ele>
        <time>2025-07-16T10:56:19.808Z</time>
      </trkpt>
      <trkpt lat="45.745354" lon="6.800291">
        <ele>2174.4</ele>
        <time>2025-07-16T10:58:21.705Z</time>
      </trkpt>
      <trkpt lat="45.745556" lon="6.800554">
        <ele>2183.5</ele>
        <time>2025-07-16T11:00:21.148Z</time>
      </trkpt>
      <trkpt lat="45.745773" lon="6.800787">
        <ele>2190.8</ele>
        <time>2025-07-16T11:02:02.582Z</time>
      </trkpt>
      <trkpt lat="45.746000" lon="6.801000">
        <ele>2200.6</ele>
        <time>2025-07-16T11:04:08.847Z</time>
      </trkpt>
      <trkpt lat="45.746206" lon="6.801244">
        <ele>2209.5</ele>
        <time>2025-07-16T11:06:05.475Z</time>
      </trkpt>
      <trkpt lat="45.746422" lon="6.801469">
        <ele>2218.3</ele>
        <time>2025-07-16T11:08:02.396Z</time>
      </trkpt>
      <trkpt lat="45.746649" lon="6.801672">
        <ele>2229.3</ele>
        <time>2025-07-16T11:10:20.285Z</time>
      </trkpt>
      <trkpt lat="45.746884" lon="6.801857">
        <ele>2238.5</ele>
        <time>2025-07-16T11:12:20.600Z</time>
      </trkpt>
      <trkpt lat="45.747135" lon="6.802009">
        <ele>2248.9</ele>
        <time>2025-07-16T11:14:34.038Z</time>
      </trkpt>
      <trkpt lat="45.747382" lon="6.802170">
        <ele>2259.2</ele>
        <time>2025-07-16T11:16:45.759Z</time>
      </trkpt>
      <trkpt lat="45.747629" lon="6.802330">
        <ele>2270.1</ele>
        <time>2025-07-16T11:19:03.972Z</time>
      </trkpt>
      <trkpt lat="45.747850" lon="6.802544">
        <ele>2279.5</ele>
        <time>2025-07-16T11:21:05.230Z</time>
      </trkpt>
      <trkpt lat="45.748054" lon="6.802793">
        <ele>2289.8</ele>
        <time>2025-07-16T11:23:17.401Z</time>
      </trkpt>
      <trkpt lat="45.748240" lon="6.803079">
        <ele>2301.8</ele>
        <time>2025-07-16T11:25:46.274Z</time>
      </trkpt>
      <trkpt lat="45.748409" lon="6.803401">
        <ele>2311.4</ele>
        <time>2025-07-16T11:27:51.978Z</time>
      </trkpt>
      <trkpt lat="45.748581" lon="6.803715">
        <ele>2322.2</ele>
        <time>2025-07-16T11:30:09.820Z</time>
      </trkpt>
      <trkpt lat="45.748738" lon="6.804061">
        <ele>2332.8</ele>
        <time>2025-07-16T11:32:25.673Z</time>
      </trkpt>
      <trkpt lat="45.748935" lon="6.804324">
        <ele>2342.1</ele>
        <time>2025-07-16T11:34:27.839Z</time>
      </trkpt>
      <trkpt lat="45.749135" lon="6.804582">
        <ele>2351.9</ele>
        <time>2025-07-16T11:36:33.672Z</time>
      </trkpt>
      <trkpt lat="45.749363" lon="6.804781">
        <ele>2362.3</ele>
        <time>2025-07-16T11:38:46.030Z</time>
      </trkpt>
      <trkpt lat="45.749631" lon="6.804898">
        <ele>2370.9</ele>
        <time>2025-07-16T11:40:41.920Z</time>
      </trkpt>
      <trkpt lat="45.749897" lon="6.805021">
        <ele>2379.8</ele>
        <time>2025-07-16T11:42:39.970Z</time>
      </trkpt>
      <trkpt lat="45.750184" lon="6.805098">
        <ele>2389.6</ele>
        <time>2025-07-16T11:44:48.376Z</time>
      </trkpt>
      <trkpt lat="45.750438" lon="6.805247">
        <ele>2399.1</ele>
        <time>2025-07-16T11:46:51.922Z</time>
      </trkpt>
      <trkpt lat="45.750701" lon="6.805375">
        <ele>2406.6</ele>
        <time>2025-07-16T11:48:35.756Z</time>
      </trkpt>
      <trkpt lat="45.750932" lon="6.805568">
        <ele>2415.6</ele>
        <time>2025-07-16T11:50:33.465Z</time>
      </trkpt>
      <trkpt lat="45.751135" lon="6.805819">
        <ele>2426.1</ele>
        <time>2025-07-16T11:52:47.090Z</time>
      </trkpt>
      <trkpt lat="45.751337" lon="6.806071">
        <ele>2435.9</ele>
        <time>2025-07-16T11:54:53.950Z</time>
      </trkpt>
      <trkpt lat="45.751521" lon="6.806362">
        <ele>2444.7</ele>
        <time>2025-07-16T11:56:50.097Z</time>
      </trkpt>
      <trkpt lat="45.751695" lon="6.806672">
        <ele>2453.6</ele>
        <time>2025-07-16T11:58:48.306Z</time>
      </trkpt>
      <trkpt lat="45.751882" lon="6.806955">
        <ele>2464.4</ele>
        <time>2025-07-16T12:01:05.066Z</time>
      </trkpt>
      <trkpt lat="45.752085" lon="6.807207">
        <ele>2474.1</ele>
        <time>2025-07-16T12:03:11.032Z</time>
      </trkpt>
      <trkpt lat="45.752306" lon="6.807420">
        <ele>2485.8</ele>
        <time>2025-07-16T12:05:36.059Z</time>
      </trkpt>
      <trkpt lat="45.752535" lon="6.807619">
        <ele>2495.5</ele>
        <time>2025-07-16T12:07:41.598Z</time>
      </trkpt>
      <trkpt lat="45.752767" lon="6.807810">
        <ele>2505.7</ele>
        <time>2025-07-16T12:09:51.660Z</time>
      </trkpt>
      <trkpt lat="45.753000" lon="6.808000">
        <ele>2516.0</ele>
        <time>2025-07-16T12:12:03.790Z</time>
      </trkpt>
      <trkpt lat="45.753153" lon="6.808317">
        <ele>2509.5</ele>
        <time>2025-07-16T12:13:08.696Z</time>
      </trkpt>
      <trkpt lat="45.753291" lon="6.808647">
        <ele>2501.4</ele>
        <time>2025-07-16T12:14:22.428Z</time>
      </trkpt>
      <trkpt lat="45.753408" lon="6.808993">
        <ele>2495.8</ele>
        <time>2025-07-16T12:15:22.145Z</time>
      </trkpt>
      <trkpt lat="45.753510" lon="6.809352">
        <ele>2488.5</ele>
        <time>2025-07-16T12:16:31.249Z</time>
      </trkpt>
      <trkpt lat="45.753605" lon="6.809717">
        <ele>2480.3</ele>
        <time>2025-07-16T12:17:46.578Z</time>
      </trkpt>
      <trkpt lat="45.753693" lon="6.810088">
        <ele>2472.9</ele>
        <time>2025-07-16T12:18:56.784Z</time>
      </trkpt>
      <trkpt lat="45.753796" lon="6.810446">
        <ele>2464.9</ele>
        <time>2025-07-16T12:20:10.683Z</time>
      </trkpt>
      <trkpt lat="45.753931" lon="6.810778">
        <ele>2457.5</ele>
        <time>2025-07-16T12:21:20.654Z</time>
      </trkpt>
      <trkpt lat="45.754093" lon="6.811088">
        <ele>2448.1</ele>
        <time>2025-07-16T12:22:42.580Z</time>
      </trkpt>
      <trkpt lat="45.754272" lon="6.811384">
        <ele>2440.3</ele>
        <time>2025-07-16T12:23:55.589Z</time>
      </trkpt>
      <trkpt lat="45.754470" lon="6.811664">
        <ele>2432.7</ele>
        <time>2025-07-16T12:25:07.923Z</time>
      </trkpt>
      <trkpt lat="45.754701" lon="6.811917">
        <ele>2424.5</ele>
        <time>2025-07-16T12:26:24.609Z</time>
      </trkpt>
      <trkpt lat="45.754877" lon="6.812216">
        <ele>2418.0</ele>
        <time>2025-07-16T12:27:29.724Z</time>
      </trkpt>
      <trkpt lat="45.755076" lon="6.812495">
        <ele>2410.3</ele>
        <time>2025-07-16T12:28:42.310Z</time>
      </trkpt>
      <trkpt lat="45.755207" lon="6.812830">
        <ele>2404.8</ele>
        <time>2025-07-16T12:29:40.849Z</time>
      </trkpt>
      <trkpt lat="45.755319" lon="6.813181">
        <ele>2398.5</ele>
        <time>2025-07-16T12:30:44.204Z</time>
      </trkpt>
      <trkpt lat="45.755379" lon="6.813574">
        <ele>2392.2</ele>
        <time>2025-07-16T12:31:49.343Z</time>
      </trkpt>
      <trkpt lat="45.755448" lon="6.813961">
        <ele>2385.2</ele>
        <time>2025-07-16T12:32:57.624Z</time>
      </trkpt>
      <trkpt lat="45.755499" lon="6.814361">
        <ele>2378.2</ele>
        <time>2025-07-16T12:34:06.915Z</time>
      </trkpt>
      <trkpt lat="45.755565" lon="6.814751">
        <ele>2373.2</ele>
        <time>2025-07-16T12:35:02.980Z</time>
      </trkpt>
      <trkpt lat="45.755652" lon="6.815122">
        <ele>2366.1</ele>
        <time>2025-07-16T12:36:11.895Z</time>
      </trkpt>
      <trkpt lat="45.755777" lon="6.815462">
        <ele>2359.9</ele>
        <time>2025-07-16T12:37:14.416Z</time>
      </trkpt>
      <trkpt lat="45.755945" lon="6.815767">
        <ele>2352.3</ele>
        <time>2025-07-16T12:38:26.218Z</time>
      </trkpt>
      <trkpt lat="45.756105" lon="6.816078">
        <ele>2344.7</ele>
        <time>2025-07-16T12:39:37.337Z</time>
      </trkpt>
      <trkpt lat="45.756288" lon="6.816370">
        <ele>2338.1</ele>
        <time>2025-07-16T12:40:43.233Z</time>
      </trkpt>
      <trkpt lat="45.756466" lon="6.816667">
        <ele>2330.0</ele>
        <time>2025-07-16T12:41:57.687Z</time>
      </trkpt>
      <trkpt lat="45.756631" lon="6.816975">
        <ele>2323.9</ele>
        <time>2025-07-16T12:43:00.382Z</time>
      </trkpt>
      <trkpt lat="45.756768" lon="6.817305">
        <ele>2315.1</ele>
        <time>2025-07-16T12:44:18.283Z</time>
      </trkpt>
      <trkpt lat="45.756888" lon="6.817649">
        <ele>2307.1</ele>
        <time>2025-07-16T12:45:31.972Z</time>
      </trkpt>
      <trkpt lat="45.757000" lon="6.818000">
        <ele>2299.7</ele>
        <time>2025-07-16T12:46:41.916Z</time>
      </trkpt>
      <trkpt lat="45.757079" lon="6.818365">
        <ele>2297.3</ele>
        <time>2025-07-16T12:47:22.209Z</time>
      </trkpt>
      <trkpt lat="45.757178" lon="6.818718">
        <ele>2292.4</ele>
        <time>2025-07-16T12:48:16.782Z</time>
      </trkpt>
      <trkpt lat="45.757290" lon="6.819065">
        <ele>2290.5</ele>
        <time>2025-07-16T12:48:53.615Z</time>
      </trkpt>
      <trkpt lat="45.757417" lon="6.819403">
        <ele>2288.0</ele>
        <time>2025-07-16T12:49:34.206Z</time>
      </trkpt>
      <trkpt lat="45.757556" lon="6.819734">
        <ele>2284.0</ele>
        <time>2025-07-16T12:50:23.439Z</time>
      </trkpt>
      <trkpt lat="45.757696" lon="6.820065">
        <ele>2281.6</ele>
        <time>2025-07-16T12:51:03.799Z</time>
      </trkpt>
      <trkpt lat="45.757861" lon="6.820381">
        <ele>2278.3</ele>
        <time>2025-07-16T12:51:50.105Z</time>
      </trkpt>
      <trkpt lat="45.758026" lon="6.820698">
        <ele>2275.8</ele>
        <time>2025-07-16T12:52:30.899Z</time>
      </trkpt>
      <trkpt lat="45.758185" lon="6.821018">
        <ele>2272.7</ele>
        <time>2025-07-16T12:53:16.008Z</time>
      </trkpt>
      <trkpt lat="45.758325" lon="6.821348">
        <ele>2270.7</ele>
        <time>2025-07-16T12:53:53.755Z</time>
      </trkpt>
      <trkpt lat="45.758470" lon="6.821676">
        <ele>2266.7</ele>
        <time>2025-07-16T12:54:43.395Z</time>
      </trkpt>
      <trkpt lat="45.758576" lon="6.822026">
        <ele>2263.2</ele>
        <time>2025-07-16T12:55:29.609Z</time>
      </trkpt>
      <trkpt lat="45.758686" lon="6.822373">
        <ele>2258.3</ele>
        <time>2025-07-16T12:56:24.346Z</time>
      </trkpt>
      <trkpt lat="45.758805" lon="6.822716">
        <ele>2255.3</ele>
        <time>2025-07-16T12:57:08.094Z</time>
      </trkpt>
      <trkpt lat="45.758886" lon="6.823079">
        <ele>2250.8</ele>
        <time>2025-07-16T12:58:00.115Z</time>
      </trkpt>
      <trkpt lat="45.758915" lon="6.823472">
        <ele>2245.8</ele>
        <time>2025-07-16T12:58:56.530Z</time>
      </trkpt>
      <trkpt lat="45.758972" lon="6.823849">
        <ele>2241.7</ele>
        <time>2025-07-16T12:59:47.155Z</time>
      </trkpt>
      <trkpt lat="45.759001" lon="6.824242">
        <ele>2238.3</ele>
        <time>2025-07-16T13:00:33.777Z</time>
      </trkpt>
      <trkpt lat="45.759023" lon="6.824638">
        <ele>2233.4</ele>
        <time>2025-07-16T13:01:29.714Z</time>
      </trkpt>
      <trkpt lat="45.759067" lon="6.825023">
        <ele>2228.8</ele>
        <time>2025-07-16T13:02:23.062Z</time>
      </trkpt>
      <trkpt lat="45.759070" lon="6.825431">
        <ele>2225.7</ele>
        <time>2025-07-16T13:03:08.904Z</time>
      </trkpt>
      <trkpt lat="45.759103" lon="6.825821">
        <ele>2221.2</ele>
        <time>2025-07-16T13:04:01.590Z</time>
      </trkpt>
      <trkpt lat="45.759154" lon="6.826201">
        <ele>2218.1</ele>
        <time>2025-07-16T13:04:46.232Z</time>
      </trkpt>
      <trkpt lat="45.759215" lon="6.826576">
        <ele>2215.0</ele>
        <time>2025-07-16T13:05:30.451Z</time>
      </trkpt>
      <trkpt lat="45.759289" lon="6.826944">
        <ele>2212.7</ele>
        <time>2025-07-16T13:06:09.446Z</time>
      </trkpt>
      <trkpt lat="45.759362" lon="6.827312">
        <ele>2210.8</ele>
        <time>2025-07-16T13:06:46.254Z</time>
      </trkpt>
      <trkpt lat="45.759471" lon="6.827660">
        <ele>2206.9</ele>
        <time>2025-07-16T13:07:35.320Z</time>
      </trkpt>
      <trkpt lat="45.759592" lon="6.828002">
        <ele>2204.8</ele>
        <time>2025-07-16T13:08:13.131Z</time>
      </trkpt>
      <trkpt lat="45.759717" lon="6.828340">
        <ele>2201.6</ele>
        <time>2025-07-16T13:08:58.181Z</time>
      </trkpt>
      <trkpt lat="45.759858" lon="6.828671">
        <ele>2197.9</ele>
        <time>2025-07-16T13:09:45.787Z</time>
      </trkpt>
      <trkpt lat="45.760000" lon="6.829000">
        <ele>2194.2</ele>
        <time>2025-07-16T13:10:33.820Z</time>
      </trkpt>
    </trkseg>
  </trk>
</gpx>
