<?xml version="1.0" encoding="UTF-8"?>
<gpx version="1.1" creator="carnet-trek seed (OpenStreetMap, EU-DEM)" xmlns="http://www.topografix.com/GPX/1/1">
  <metadata>
    <name>GR10 – Refuge des Oulettes de Gaube → Gavarnie</name>
    <copyright author="OpenStreetMap contributors"><license>https://opendatacommons.org/licenses/odbl/</license></copyright>
  </metadata>
  <wpt lat="42.792712" lon="-0.141484">
    <name>Refuge des Oulettes de Gaube</name>
    <sym>Lodging</sym>
  </wpt>
  <wpt lat="42.779788" lon="-0.130344">
    <name>Point culminant (2725 m)</name>
    <sym>Summit</sym>
  </wpt>
  <wpt lat="42.739435" lon="-0.022671">
    <name>Chalet La Grange de Holle</name>
    <sym>Lodging</sym>
  </wpt>
  <wpt lat="42.779400" lon="-0.124203">
    <name>Refuge de Bayssellance</name>
    <sym>Lodging</sym>
  </wpt>
  <wpt lat="42.739274" lon="-0.020809">
    <name>Gavarnie</name>
    <sym>Convenience Store</sym>
  </wpt>
  <trk>
    <name>GR10 – Refuge des Oulettes de Gaube → Gavarnie</name>
    <type>hike</type>
    <trkseg>
      <trkpt lat="42.792712" lon="-0.141484">
        <ele>2144.5</ele>
        <time>2025-07-03T07:30:00.000Z</time>
      </trkpt>
      <trkpt lat="42.792682" lon="-0.141187">
        <ele>2144.7</ele>
        <time>2025-07-03T07:30:23.780Z</time>
      </trkpt>
      <trkpt lat="42.792652" lon="-0.140829">
        <ele>2147.1</ele>
        <time>2025-07-03T07:31:17.592Z</time>
      </trkpt>
      <trkpt lat="42.792550" lon="-0.140529">
        <ele>2151.2</ele>
        <time>2025-07-03T07:32:23.230Z</time>
      </trkpt>
      <trkpt lat="42.792366" lon="-0.140306">
        <ele>2154.3</ele>
        <time>2025-07-03T07:33:18.836Z</time>
      </trkpt>
      <trkpt lat="42.792079" lon="-0.140051">
        <ele>2157.8</ele>
        <time>2025-07-03T07:34:27.771Z</time>
      </trkpt>
      <trkpt lat="42.791866" lon="-0.139818">
        <ele>2163.3</ele>
        <time>2025-07-03T07:35:51.078Z</time>
      </trkpt>
      <trkpt lat="42.791568" lon="-0.139549">
        <ele>2170.6</ele>
        <time>2025-07-03T07:37:39.828Z</time>
      </trkpt>
      <trkpt lat="42.790968" lon="-0.139003">
        <ele>2193.6</ele>
        <time>2025-07-03T07:42:44.991Z</time>
      </trkpt>
      <trkpt lat="42.790748" lon="-0.138823">
        <ele>2193.7</ele>
        <time>2025-07-03T07:43:11.626Z</time>
      </trkpt>
      <trkpt lat="42.790542" lon="-0.138956">
        <ele>2193.8</ele>
        <time>2025-07-03T07:43:34.885Z</time>
      </trkpt>
      <trkpt lat="42.790235" lon="-0.138948">
        <ele>2197.6</ele>
        <time>2025-07-03T07:44:42.750Z</time>
      </trkpt>
      <trkpt lat="42.789924" lon="-0.138804">
        <ele>2202.8</ele>
        <time>2025-07-03T07:46:08.598Z</time>
      </trkpt>
      <trkpt lat="42.789795" lon="-0.138634">
        <ele>2210.1</ele>
        <time>2025-07-03T07:47:58.675Z</time>
      </trkpt>
      <trkpt lat="42.789580" lon="-0.138484">
        <ele>2214.4</ele>
        <time>2025-07-03T07:49:06.550Z</time>
      </trkpt>
      <trkpt lat="42.789805" lon="-0.138400">
        <ele>2219.5</ele>
        <time>2025-07-03T07:50:26.303Z</time>
      </trkpt>
      <trkpt lat="42.789581" lon="-0.138169">
        <ele>2227.8</ele>
        <time>2025-07-03T07:52:18.587Z</time>
      </trkpt>
      <trkpt lat="42.789294" lon="-0.138081">
        <ele>2236.5</ele>
        <time>2025-07-03T07:54:16.181Z</time>
      </trkpt>
      <trkpt lat="42.788995" lon="-0.138046">
        <ele>2239.3</ele>
        <time>2025-07-03T07:55:14.383Z</time>
      </trkpt>
      <trkpt lat="42.788721" lon="-0.138042">
        <ele>2241.4</ele>
        <time>2025-07-03T07:56:02.904Z</time>
      </trkpt>
      <trkpt lat="42.788457" lon="-0.138033">
        <ele>2241.6</ele>
        <time>2025-07-03T07:56:31.518Z</time>
      </trkpt>
      <trkpt lat="42.788264" lon="-0.137914">
        <ele>2244.1</ele>
        <time>2025-07-03T07:57:17.843Z</time>
      </trkpt>
      <trkpt lat="42.787951" lon="-0.137814">
        <ele>2251.5</ele>
        <time>2025-07-03T07:59:05.503Z</time>
      </trkpt>
      <trkpt lat="42.788143" lon="-0.137524">
        <ele>2263.2</ele>
        <time>2025-07-03T08:01:34.252Z</time>
      </trkpt>
      <trkpt lat="42.788392" lon="-0.137334">
        <ele>2275.4</ele>
        <time>2025-07-03T08:04:06.792Z</time>
      </trkpt>
      <trkpt lat="42.788612" lon="-0.137272">
        <ele>2277.2</ele>
        <time>2025-07-03T08:04:46.780Z</time>
      </trkpt>
      <trkpt lat="42.788844" lon="-0.137202">
        <ele>2279.0</ele>
        <time>2025-07-03T08:05:28.572Z</time>
      </trkpt>
      <trkpt lat="42.789245" lon="-0.137099">
        <ele>2281.3</ele>
        <time>2025-07-03T08:06:30.562Z</time>
      </trkpt>
      <trkpt lat="42.789472" lon="-0.137004">
        <ele>2282.6</ele>
        <time>2025-07-03T08:07:06.644Z</time>
      </trkpt>
      <trkpt lat="42.789637" lon="-0.136810">
        <ele>2284.6</ele>
        <time>2025-07-03T08:07:49.268Z</time>
      </trkpt>
      <trkpt lat="42.789874" lon="-0.136851">
        <ele>2286.7</ele>
        <time>2025-07-03T08:08:34.022Z</time>
      </trkpt>
      <trkpt lat="42.790205" lon="-0.136696">
        <ele>2296.6</ele>
        <time>2025-07-03T08:10:50.254Z</time>
      </trkpt>
      <trkpt lat="42.790028" lon="-0.136447">
        <ele>2303.8</ele>
        <time>2025-07-03T08:12:28.475Z</time>
      </trkpt>
      <trkpt lat="42.790248" lon="-0.136370">
        <ele>2309.6</ele>
        <time>2025-07-03T08:13:50.920Z</time>
      </trkpt>
      <trkpt lat="42.790138" lon="-0.136257">
        <ele>2316.7</ele>
        <time>2025-07-03T08:15:31.407Z</time>
      </trkpt>
      <trkpt lat="42.790165" lon="-0.136128">
        <ele>2323.1</ele>
        <time>2025-07-03T08:17:03.659Z</time>
      </trkpt>
      <trkpt lat="42.790356" lon="-0.136049">
        <ele>2327.6</ele>
        <time>2025-07-03T08:18:11.420Z</time>
      </trkpt>
      <trkpt lat="42.790322" lon="-0.135906">
        <ele>2331.3</ele>
        <time>2025-07-03T08:19:12.117Z</time>
      </trkpt>
      <trkpt lat="42.790534" lon="-0.135961">
        <ele>2334.9</ele>
        <time>2025-07-03T08:20:11.132Z</time>
      </trkpt>
      <trkpt lat="42.790577" lon="-0.135847">
        <ele>2341.7</ele>
        <time>2025-07-03T08:21:43.810Z</time>
      </trkpt>
      <trkpt lat="42.790364" lon="-0.135585">
        <ele>2350.1</ele>
        <time>2025-07-03T08:23:38.938Z</time>
      </trkpt>
      <trkpt lat="42.790640" lon="-0.135456">
        <ele>2356.1</ele>
        <time>2025-07-03T08:25:08.271Z</time>
      </trkpt>
      <trkpt lat="42.790380" lon="-0.135298">
        <ele>2361.9</ele>
        <time>2025-07-03T08:26:35.258Z</time>
      </trkpt>
      <trkpt lat="42.790077" lon="-0.135157">
        <ele>2365.1</ele>
        <time>2025-07-03T08:27:39.179Z</time>
      </trkpt>
      <trkpt lat="42.789821" lon="-0.135098">
        <ele>2369.8</ele>
        <time>2025-07-03T08:28:54.878Z</time>
      </trkpt>
      <trkpt lat="42.789839" lon="-0.134978">
        <ele>2376.0</ele>
        <time>2025-07-03T08:30:24.469Z</time>
      </trkpt>
      <trkpt lat="42.790120" lon="-0.134772">
        <ele>2380.7</ele>
        <time>2025-07-03T08:31:44.020Z</time>
      </trkpt>
      <trkpt lat="42.790412" lon="-0.134703">
        <ele>2381.7</ele>
        <time>2025-07-03T08:32:22.422Z</time>
      </trkpt>
      <trkpt lat="42.790579" lon="-0.134569">
        <ele>2384.8</ele>
        <time>2025-07-03T08:33:18.021Z</time>
      </trkpt>
      <trkpt lat="42.790297" lon="-0.134464">
        <ele>2389.9</ele>
        <time>2025-07-03T08:34:38.538Z</time>
      </trkpt>
      <trkpt lat="42.790235" lon="-0.134228">
        <ele>2396.6</ele>
        <time>2025-07-03T08:36:13.619Z</time>
      </trkpt>
      <trkpt lat="42.790507" lon="-0.133945">
        <ele>2404.1</ele>
        <time>2025-07-03T08:38:04.032Z</time>
      </trkpt>
      <trkpt lat="42.790706" lon="-0.133774">
        <ele>2408.6</ele>
        <time>2025-07-03T08:39:13.044Z</time>
      </trkpt>
      <trkpt lat="42.790396" lon="-0.133611">
        <ele>2414.9</ele>
        <time>2025-07-03T08:40:49.414Z</time>
      </trkpt>
      <trkpt lat="42.790530" lon="-0.133356">
        <ele>2420.8</ele>
        <time>2025-07-03T08:42:36.247Z</time>
      </trkpt>
      <trkpt lat="42.790328" lon="-0.133275">
        <ele>2425.0</ele>
        <time>2025-07-03T08:43:49.800Z</time>
      </trkpt>
      <trkpt lat="42.790496" lon="-0.133066">
        <ele>2428.3</ele>
        <time>2025-07-03T08:44:45.454Z</time>
      </trkpt>
      <trkpt lat="42.790236" lon="-0.133087">
        <ele>2432.6</ele>
        <time>2025-07-03T08:45:55.398Z</time>
      </trkpt>
      <trkpt lat="42.790001" lon="-0.133078">
        <ele>2436.6</ele>
        <time>2025-07-03T08:46:58.406Z</time>
      </trkpt>
      <trkpt lat="42.789943" lon="-0.132958">
        <ele>2439.1</ele>
        <time>2025-07-03T08:47:47.567Z</time>
      </trkpt>
      <trkpt lat="42.790087" lon="-0.132692">
        <ele>2441.6</ele>
        <time>2025-07-03T08:48:36.516Z</time>
      </trkpt>
      <trkpt lat="42.789944" lon="-0.132633">
        <ele>2444.2</ele>
        <time>2025-07-03T08:49:26.294Z</time>
      </trkpt>
      <trkpt lat="42.789800" lon="-0.132579">
        <ele>2447.0</ele>
        <time>2025-07-03T08:50:19.538Z</time>
      </trkpt>
      <trkpt lat="42.789569" lon="-0.132553">
        <ele>2452.1</ele>
        <time>2025-07-03T08:51:37.006Z</time>
      </trkpt>
      <trkpt lat="42.789287" lon="-0.132491">
        <ele>2458.3</ele>
        <time>2025-07-03T08:53:11.974Z</time>
      </trkpt>
      <trkpt lat="42.788980" lon="-0.132713">
        <ele>2466.8</ele>
        <time>2025-07-03T08:55:14.807Z</time>
      </trkpt>
      <trkpt lat="42.788839" lon="-0.132969">
        <ele>2471.9</ele>
        <time>2025-07-03T08:56:29.830Z</time>
      </trkpt>
      <trkpt lat="42.788695" lon="-0.133117">
        <ele>2477.1</ele>
        <time>2025-07-03T08:57:47.914Z</time>
      </trkpt>
      <trkpt lat="42.788526" lon="-0.133015">
        <ele>2483.6</ele>
        <time>2025-07-03T08:59:19.133Z</time>
      </trkpt>
      <trkpt lat="42.788282" lon="-0.132835">
        <ele>2491.9</ele>
        <time>2025-07-03T09:01:12.555Z</time>
      </trkpt>
      <trkpt lat="42.788126" lon="-0.132556">
        <ele>2495.0</ele>
        <time>2025-07-03T09:02:09.061Z</time>
      </trkpt>
      <trkpt lat="42.788061" lon="-0.132826">
        <ele>2498.1</ele>
        <time>2025-07-03T09:03:04.213Z</time>
      </trkpt>
      <trkpt lat="42.787918" lon="-0.133117">
        <ele>2499.9</ele>
        <time>2025-07-03T09:03:49.120Z</time>
      </trkpt>
      <trkpt lat="42.787769" lon="-0.133079">
        <ele>2502.8</ele>
        <time>2025-07-03T09:04:45.334Z</time>
      </trkpt>
      <trkpt lat="42.787552" lon="-0.133104">
        <ele>2507.5</ele>
        <time>2025-07-03T09:05:58.971Z</time>
      </trkpt>
      <trkpt lat="42.787315" lon="-0.133155">
        <ele>2511.5</ele>
        <time>2025-07-03T09:07:03.858Z</time>
      </trkpt>
      <trkpt lat="42.787127" lon="-0.133284">
        <ele>2515.1</ele>
        <time>2025-07-03T09:08:02.547Z</time>
      </trkpt>
      <trkpt lat="42.786809" lon="-0.133265">
        <ele>2520.8</ele>
        <time>2025-07-03T09:09:31.168Z</time>
      </trkpt>
      <trkpt lat="42.786532" lon="-0.133309">
        <ele>2526.9</ele>
        <time>2025-07-03T09:11:00.462Z</time>
      </trkpt>
      <trkpt lat="42.786140" lon="-0.133492">
        <ele>2533.9</ele>
        <time>2025-07-03T09:12:52.205Z</time>
      </trkpt>
      <trkpt lat="42.785868" lon="-0.133608">
        <ele>2536.1</ele>
        <time>2025-07-03T09:13:42.416Z</time>
      </trkpt>
      <trkpt lat="42.785643" lon="-0.133908">
        <ele>2534.8</ele>
        <time>2025-07-03T09:14:20.923Z</time>
      </trkpt>
      <trkpt lat="42.785316" lon="-0.134163">
        <ele>2538.7</ele>
        <time>2025-07-03T09:15:36.746Z</time>
      </trkpt>
      <trkpt lat="42.785138" lon="-0.134334">
        <ele>2541.8</ele>
        <time>2025-07-03T09:16:31.792Z</time>
      </trkpt>
      <trkpt lat="42.784959" lon="-0.134385">
        <ele>2545.3</ele>
        <time>2025-07-03T09:17:31.472Z</time>
      </trkpt>
      <trkpt lat="42.784840" lon="-0.134263">
        <ele>2548.5</ele>
        <time>2025-07-03T09:18:32.909Z</time>
      </trkpt>
      <trkpt lat="42.784706" lon="-0.134440">
        <ele>2551.0</ele>
        <time>2025-07-03T09:19:23.506Z</time>
      </trkpt>
      <trkpt lat="42.784196" lon="-0.134517">
        <ele>2564.0</ele>
        <time>2025-07-03T09:22:27.509Z</time>
      </trkpt>
      <trkpt lat="42.783970" lon="-0.134473">
        <ele>2570.3</ele>
        <time>2025-07-03T09:23:54.409Z</time>
      </trkpt>
      <trkpt lat="42.783731" lon="-0.134551">
        <ele>2575.1</ele>
        <time>2025-07-03T09:25:06.419Z</time>
      </trkpt>
      <trkpt lat="42.783592" lon="-0.134356">
        <ele>2579.4</ele>
        <time>2025-07-03T09:26:13.233Z</time>
      </trkpt>
      <trkpt lat="42.783390" lon="-0.134284">
        <ele>2582.8</ele>
        <time>2025-07-03T09:27:09.465Z</time>
      </trkpt>
      <trkpt lat="42.783195" lon="-0.134491">
        <ele>2587.4</ele>
        <time>2025-07-03T09:28:21.038Z</time>
      </trkpt>
      <trkpt lat="42.782990" lon="-0.134422">
        <ele>2594.5</ele>
        <time>2025-07-03T09:29:55.678Z</time>
      </trkpt>
      <trkpt lat="42.782772" lon="-0.134361">
        <ele>2601.5</ele>
        <time>2025-07-03T09:31:31.326Z</time>
      </trkpt>
      <trkpt lat="42.782557" lon="-0.134449">
        <ele>2603.8</ele>
        <time>2025-07-03T09:32:18.154Z</time>
      </trkpt>
      <trkpt lat="42.782312" lon="-0.134461">
        <ele>2606.2</ele>
        <time>2025-07-03T09:33:07.485Z</time>
      </trkpt>
      <trkpt lat="42.781985" lon="-0.134448">
        <ele>2607.0</ele>
        <time>2025-07-03T09:33:47.423Z</time>
      </trkpt>
      <trkpt lat="42.781771" lon="-0.134290">
        <ele>2608.5</ele>
        <time>2025-07-03T09:34:26.173Z</time>
      </trkpt>
      <trkpt lat="42.781533" lon="-0.134103">
        <ele>2612.0</ele>
        <time>2025-07-03T09:35:28.433Z</time>
      </trkpt>
      <trkpt lat="42.781404" lon="-0.133902">
        <ele>2616.5</ele>
        <time>2025-07-03T09:36:37.864Z</time>
      </trkpt>
      <trkpt lat="42.781316" lon="-0.133634">
        <ele>2626.1</ele>
        <time>2025-07-03T09:38:43.968Z</time>
      </trkpt>
      <trkpt lat="42.781206" lon="-0.133416">
        <ele>2632.2</ele>
        <time>2025-07-03T09:40:13.839Z</time>
      </trkpt>
      <trkpt lat="42.781202" lon="-0.133310">
        <ele>2636.7</ele>
        <time>2025-07-03T09:41:26.837Z</time>
      </trkpt>
      <trkpt lat="42.781203" lon="-0.133151">
        <ele>2644.3</ele>
        <time>2025-07-03T09:43:13.094Z</time>
      </trkpt>
      <trkpt lat="42.780873" lon="-0.132917">
        <ele>2654.8</ele>
        <time>2025-07-03T09:45:36.868Z</time>
      </trkpt>
      <trkpt lat="42.780621" lon="-0.132804">
        <ele>2663.1</ele>
        <time>2025-07-03T09:47:27.639Z</time>
      </trkpt>
      <trkpt lat="42.780389" lon="-0.132683">
        <ele>2668.8</ele>
        <time>2025-07-03T09:48:50.289Z</time>
      </trkpt>
      <trkpt lat="42.780058" lon="-0.132565">
        <ele>2675.5</ele>
        <time>2025-07-03T09:50:31.457Z</time>
      </trkpt>
      <trkpt lat="42.779835" lon="-0.132387">
        <ele>2680.6</ele>
        <time>2025-07-03T09:51:49.280Z</time>
      </trkpt>
      <trkpt lat="42.779601" lon="-0.132182">
        <ele>2686.1</ele>
        <time>2025-07-03T09:53:12.725Z</time>
      </trkpt>
      <trkpt lat="42.779601" lon="-0.131982">
        <ele>2690.4</ele>
        <time>2025-07-03T09:54:18.084Z</time>
      </trkpt>
      <trkpt lat="42.779485" lon="-0.131783">
        <ele>2698.1</ele>
        <time>2025-07-03T09:56:16.683Z</time>
      </trkpt>
      <trkpt lat="42.779430" lon="-0.131659">
        <ele>2702.4</ele>
        <time>2025-07-03T09:57:24.011Z</time>
      </trkpt>
      <trkpt lat="42.779591" lon="-0.131625">
        <ele>2706.8</ele>
        <time>2025-07-03T09:58:34.465Z</time>
      </trkpt>
      <trkpt lat="42.779366" lon="-0.131436">
        <ele>2707.9</ele>
        <time>2025-07-03T09:59:10.602Z</time>
      </trkpt>
      <trkpt lat="42.779335" lon="-0.131188">
        <ele>2708.8</ele>
        <time>2025-07-03T09:59:41.773Z</time>
      </trkpt>
      <trkpt lat="42.779431" lon="-0.130884">
        <ele>2714.8</ele>
        <time>2025-07-03T10:01:06.963Z</time>
      </trkpt>
      <trkpt lat="42.779594" lon="-0.130653">
        <ele>2720.7</ele>
        <time>2025-07-03T10:02:29.880Z</time>
      </trkpt>
      <trkpt lat="42.779788" lon="-0.130344">
        <ele>2725.4</ele>
        <time>2025-07-03T10:03:46.691Z</time>
      </trkpt>
      <trkpt lat="42.779970" lon="-0.129826">
        <ele>2724.0</ele>
        <time>2025-07-03T10:04:35.590Z</time>
      </trkpt>
      <trkpt lat="42.780002" lon="-0.129438">
        <ele>2718.6</ele>
        <time>2025-07-03T10:05:35.301Z</time>
      </trkpt>
      <trkpt lat="42.780049" lon="-0.128979">
        <ele>2707.2</ele>
        <time>2025-07-03T10:07:16.415Z</time>
      </trkpt>
      <trkpt lat="42.779965" lon="-0.128923">
        <ele>2699.9</ele>
        <time>2025-07-03T10:08:22.469Z</time>
      </trkpt>
      <trkpt lat="42.779928" lon="-0.128535">
        <ele>2692.0</ele>
        <time>2025-07-03T10:09:37.578Z</time>
      </trkpt>
      <trkpt lat="42.779995" lon="-0.128118">
        <ele>2686.3</ele>
        <time>2025-07-03T10:10:41.602Z</time>
      </trkpt>
      <trkpt lat="42.780041" lon="-0.127798">
        <ele>2683.5</ele>
        <time>2025-07-03T10:11:21.170Z</time>
      </trkpt>
      <trkpt lat="42.779937" lon="-0.127770">
        <ele>2679.1</ele>
        <time>2025-07-03T10:12:14.222Z</time>
      </trkpt>
      <trkpt lat="42.779748" lon="-0.127865">
        <ele>2674.9</ele>
        <time>2025-07-03T10:13:03.858Z</time>
      </trkpt>
      <trkpt lat="42.779784" lon="-0.127522">
        <ele>2673.5</ele>
        <time>2025-07-03T10:13:36.313Z</time>
      </trkpt>
      <trkpt lat="42.779965" lon="-0.127200">
        <ele>2671.4</ele>
        <time>2025-07-03T10:14:17.185Z</time>
      </trkpt>
      <trkpt lat="42.780085" lon="-0.126904">
        <ele>2668.5</ele>
        <time>2025-07-03T10:14:58.506Z</time>
      </trkpt>
      <trkpt lat="42.780005" lon="-0.126768">
        <ele>2665.2</ele>
        <time>2025-07-03T10:15:40.416Z</time>
      </trkpt>
      <trkpt lat="42.779716" lon="-0.126866">
        <ele>2658.8</ele>
        <time>2025-07-03T10:16:48.239Z</time>
      </trkpt>
      <trkpt lat="42.779555" lon="-0.126647">
        <ele>2653.5</ele>
        <time>2025-07-03T10:17:45.241Z</time>
      </trkpt>
      <trkpt lat="42.779557" lon="-0.126314">
        <ele>2648.4</ele>
        <time>2025-07-03T10:18:39.792Z</time>
      </trkpt>
      <trkpt lat="42.779567" lon="-0.125888">
        <ele>2644.8</ele>
        <time>2025-07-03T10:19:30.957Z</time>
      </trkpt>
      <trkpt lat="42.779558" lon="-0.125574">
        <ele>2642.9</ele>
        <time>2025-07-03T10:20:04.932Z</time>
      </trkpt>
      <trkpt lat="42.779432" lon="-0.125277">
        <ele>2641.0</ele>
        <time>2025-07-03T10:20:40.463Z</time>
      </trkpt>
      <trkpt lat="42.779368" lon="-0.124913">
        <ele>2638.9</ele>
        <time>2025-07-03T10:21:19.149Z</time>
      </trkpt>
      <trkpt lat="42.779300" lon="-0.124572">
        <ele>2638.7</ele>
        <time>2025-07-03T10:21:45.326Z</time>
      </trkpt>
      <trkpt lat="42.779248" lon="-0.124165">
        <ele>2636.8</ele>
        <time>2025-07-03T10:22:26.509Z</time>
      </trkpt>
      <trkpt lat="42.779054" lon="-0.123980">
        <ele>2632.6</ele>
        <time>2025-07-03T10:23:15.815Z</time>
      </trkpt>
      <trkpt lat="42.778892" lon="-0.123952">
        <ele>2628.1</ele>
        <time>2025-07-03T10:24:08.139Z</time>
      </trkpt>
      <trkpt lat="42.778706" lon="-0.123976">
        <ele>2623.1</ele>
        <time>2025-07-03T10:25:05.826Z</time>
      </trkpt>
      <trkpt lat="42.778661" lon="-0.123655">
        <ele>2618.1</ele>
        <time>2025-07-03T10:25:58.979Z</time>
      </trkpt>
      <trkpt lat="42.778545" lon="-0.123363">
        <ele>2612.1</ele>
        <time>2025-07-03T10:26:59.173Z</time>
      </trkpt>
      <trkpt lat="42.778485" lon="-0.123046">
        <ele>2605.6</ele>
        <time>2025-07-03T10:28:01.242Z</time>
      </trkpt>
      <trkpt lat="42.778444" lon="-0.122786">
        <ele>2599.4</ele>
        <time>2025-07-03T10:29:00.304Z</time>
      </trkpt>
      <trkpt lat="42.778445" lon="-0.122562">
        <ele>2593.5</ele>
        <time>2025-07-03T10:29:59.164Z</time>
      </trkpt>
      <trkpt lat="42.778223" lon="-0.122434">
        <ele>2587.4</ele>
        <time>2025-07-03T10:31:00.981Z</time>
      </trkpt>
      <trkpt lat="42.778089" lon="-0.122372">
        <ele>2583.6</ele>
        <time>2025-07-03T10:31:46.851Z</time>
      </trkpt>
      <trkpt lat="42.777974" lon="-0.122166">
        <ele>2580.0</ele>
        <time>2025-07-03T10:32:30.124Z</time>
      </trkpt>
      <trkpt lat="42.777795" lon="-0.121930">
        <ele>2573.6</ele>
        <time>2025-07-03T10:33:33.630Z</time>
      </trkpt>
      <trkpt lat="42.777724" lon="-0.121583">
        <ele>2567.4</ele>
        <time>2025-07-03T10:34:36.368Z</time>
      </trkpt>
      <trkpt lat="42.777563" lon="-0.121357">
        <ele>2562.0</ele>
        <time>2025-07-03T10:35:30.701Z</time>
      </trkpt>
      <trkpt lat="42.777414" lon="-0.121007">
        <ele>2555.4</ele>
        <time>2025-07-03T10:36:39.338Z</time>
      </trkpt>
      <trkpt lat="42.777404" lon="-0.120776">
        <ele>2550.9</ele>
        <time>2025-07-03T10:37:27.899Z</time>
      </trkpt>
      <trkpt lat="42.777422" lon="-0.120526">
        <ele>2545.0</ele>
        <time>2025-07-03T10:38:36.292Z</time>
      </trkpt>
      <trkpt lat="42.777210" lon="-0.120540">
        <ele>2541.6</ele>
        <time>2025-07-03T10:39:18.960Z</time>
      </trkpt>
      <trkpt lat="42.777004" lon="-0.120794">
        <ele>2537.5</ele>
        <time>2025-07-03T10:40:10.474Z</time>
      </trkpt>
      <trkpt lat="42.776840" lon="-0.121051">
        <ele>2533.9</ele>
        <time>2025-07-03T10:40:56.271Z</time>
      </trkpt>
      <trkpt lat="42.776842" lon="-0.120729">
        <ele>2526.4</ele>
        <time>2025-07-03T10:42:05.876Z</time>
      </trkpt>
      <trkpt lat="42.776560" lon="-0.121315">
        <ele>2518.6</ele>
        <time>2025-07-03T10:43:43.958Z</time>
      </trkpt>
      <trkpt lat="42.776385" lon="-0.121658">
        <ele>2514.1</ele>
        <time>2025-07-03T10:44:40.427Z</time>
      </trkpt>
      <trkpt lat="42.776216" lon="-0.121930">
        <ele>2506.4</ele>
        <time>2025-07-03T10:45:51.413Z</time>
      </trkpt>
      <trkpt lat="42.776003" lon="-0.122118">
        <ele>2496.7</ele>
        <time>2025-07-03T10:47:14.481Z</time>
      </trkpt>
      <trkpt lat="42.775805" lon="-0.122306">
        <ele>2486.1</ele>
        <time>2025-07-03T10:48:41.950Z</time>
      </trkpt>
      <trkpt lat="42.775592" lon="-0.122534">
        <ele>2478.0</ele>
        <time>2025-07-03T10:49:56.116Z</time>
      </trkpt>
      <trkpt lat="42.775472" lon="-0.122595">
        <ele>2471.8</ele>
        <time>2025-07-03T10:51:03.721Z</time>
      </trkpt>
      <trkpt lat="42.775405" lon="-0.122447">
        <ele>2463.9</ele>
        <time>2025-07-03T10:52:13.271Z</time>
      </trkpt>
      <trkpt lat="42.775369" lon="-0.122179">
        <ele>2455.7</ele>
        <time>2025-07-03T10:53:33.812Z</time>
      </trkpt>
      <trkpt lat="42.775479" lon="-0.121773">
        <ele>2453.0</ele>
        <time>2025-07-03T10:54:20.152Z</time>
      </trkpt>
      <trkpt lat="42.775486" lon="-0.121437">
        <ele>2447.8</ele>
        <time>2025-07-03T10:55:15.275Z</time>
      </trkpt>
      <trkpt lat="42.775539" lon="-0.121093">
        <ele>2441.1</ele>
        <time>2025-07-03T10:56:20.773Z</time>
      </trkpt>
      <trkpt lat="42.775534" lon="-0.120745">
        <ele>2430.5</ele>
        <time>2025-07-03T10:57:48.711Z</time>
      </trkpt>
      <trkpt lat="42.775554" lon="-0.120325">
        <ele>2416.0</ele>
        <time>2025-07-03T10:59:45.855Z</time>
      </trkpt>
      <trkpt lat="42.775542" lon="-0.119999">
        <ele>2404.3</ele>
        <time>2025-07-03T11:01:19.237Z</time>
      </trkpt>
      <trkpt lat="42.775575" lon="-0.119688">
        <ele>2392.8</ele>
        <time>2025-07-03T11:02:50.415Z</time>
      </trkpt>
      <trkpt lat="42.775571" lon="-0.119303">
        <ele>2383.4</ele>
        <time>2025-07-03T11:04:14.803Z</time>
      </trkpt>
      <trkpt lat="42.775607" lon="-0.118961">
        <ele>2375.1</ele>
        <time>2025-07-03T11:05:28.960Z</time>
      </trkpt>
      <trkpt lat="42.775603" lon="-0.118614">
        <ele>2366.1</ele>
        <time>2025-07-03T11:06:47.503Z</time>
      </trkpt>
      <trkpt lat="42.775584" lon="-0.118248">
        <ele>2357.4</ele>
        <time>2025-07-03T11:08:05.567Z</time>
      </trkpt>
      <trkpt lat="42.775695" lon="-0.118009">
        <ele>2352.1</ele>
        <time>2025-07-03T11:09:01.955Z</time>
      </trkpt>
      <trkpt lat="42.775549" lon="-0.117694">
        <ele>2350.7</ele>
        <time>2025-07-03T11:09:37.116Z</time>
      </trkpt>
      <trkpt lat="42.775770" lon="-0.117610">
        <ele>2353.9</ele>
        <time>2025-07-03T11:10:33.177Z</time>
      </trkpt>
      <trkpt lat="42.775781" lon="-0.117452">
        <ele>2345.9</ele>
        <time>2025-07-03T11:11:47.389Z</time>
      </trkpt>
      <trkpt lat="42.775551" lon="-0.117216">
        <ele>2327.9</ele>
        <time>2025-07-03T11:14:03.634Z</time>
      </trkpt>
      <trkpt lat="42.775353" lon="-0.117015">
        <ele>2314.7</ele>
        <time>2025-07-03T11:15:46.544Z</time>
      </trkpt>
      <trkpt lat="42.775174" lon="-0.116687">
        <ele>2299.9</ele>
        <time>2025-07-03T11:17:44.457Z</time>
      </trkpt>
      <trkpt lat="42.775023" lon="-0.116439">
        <ele>2291.1</ele>
        <time>2025-07-03T11:18:59.621Z</time>
      </trkpt>
      <trkpt lat="42.774806" lon="-0.116605">
        <ele>2282.7</ele>
        <time>2025-07-03T11:20:15.426Z</time>
      </trkpt>
      <trkpt lat="42.774667" lon="-0.116614">
        <ele>2277.5</ele>
        <time>2025-07-03T11:21:10.003Z</time>
      </trkpt>
      <trkpt lat="42.774458" lon="-0.116864">
        <ele>2270.8</ele>
        <time>2025-07-03T11:22:16.610Z</time>
      </trkpt>
      <trkpt lat="42.774280" lon="-0.117217">
        <ele>2261.0</ele>
        <time>2025-07-03T11:23:46.306Z</time>
      </trkpt>
      <trkpt lat="42.774142" lon="-0.117046">
        <ele>2256.3</ele>
        <time>2025-07-03T11:24:42.078Z</time>
      </trkpt>
      <trkpt lat="42.774127" lon="-0.116736">
        <ele>2253.4</ele>
        <time>2025-07-03T11:25:21.659Z</time>
      </trkpt>
      <trkpt lat="42.773861" lon="-0.116822">
        <ele>2239.9</ele>
        <time>2025-07-03T11:27:28.087Z</time>
      </trkpt>
      <trkpt lat="42.773738" lon="-0.116926">
        <ele>2233.2</ele>
        <time>2025-07-03T11:28:33.019Z</time>
      </trkpt>
      <trkpt lat="42.773620" lon="-0.116989">
        <ele>2227.1</ele>
        <time>2025-07-03T11:29:39.429Z</time>
      </trkpt>
      <trkpt lat="42.773669" lon="-0.117307">
        <ele>2224.9</ele>
        <time>2025-07-03T11:30:14.855Z</time>
      </trkpt>
      <trkpt lat="42.773721" lon="-0.117771">
        <ele>2223.2</ele>
        <time>2025-07-03T11:30:58.287Z</time>
      </trkpt>
      <trkpt lat="42.773720" lon="-0.118193">
        <ele>2223.3</ele>
        <time>2025-07-03T11:31:29.077Z</time>
      </trkpt>
      <trkpt lat="42.773593" lon="-0.118564">
        <ele>2223.5</ele>
        <time>2025-07-03T11:32:01.293Z</time>
      </trkpt>
      <trkpt lat="42.773294" lon="-0.118893">
        <ele>2223.8</ele>
        <time>2025-07-03T11:32:40.436Z</time>
      </trkpt>
      <trkpt lat="42.772998" lon="-0.119063">
        <ele>2222.8</ele>
        <time>2025-07-03T11:33:16.580Z</time>
      </trkpt>
      <trkpt lat="42.772764" lon="-0.119089">
        <ele>2222.1</ele>
        <time>2025-07-03T11:33:43.309Z</time>
      </trkpt>
      <trkpt lat="42.772552" lon="-0.119115">
        <ele>2221.4</ele>
        <time>2025-07-03T11:34:12.106Z</time>
      </trkpt>
      <trkpt lat="42.772326" lon="-0.118912">
        <ele>2221.1</ele>
        <time>2025-07-03T11:34:42.427Z</time>
      </trkpt>
      <trkpt lat="42.772098" lon="-0.118701">
        <ele>2222.1</ele>
        <time>2025-07-03T11:35:19.723Z</time>
      </trkpt>
      <trkpt lat="42.771897" lon="-0.118504">
        <ele>2218.9</ele>
        <time>2025-07-03T11:36:03.108Z</time>
      </trkpt>
      <trkpt lat="42.771669" lon="-0.118332">
        <ele>2212.4</ele>
        <time>2025-07-03T11:37:08.128Z</time>
      </trkpt>
      <trkpt lat="42.771415" lon="-0.118336">
        <ele>2205.1</ele>
        <time>2025-07-03T11:38:16.284Z</time>
      </trkpt>
      <trkpt lat="42.771165" lon="-0.118291">
        <ele>2196.0</ele>
        <time>2025-07-03T11:39:35.196Z</time>
      </trkpt>
      <trkpt lat="42.770958" lon="-0.118147">
        <ele>2187.2</ele>
        <time>2025-07-03T11:40:51.729Z</time>
      </trkpt>
      <trkpt lat="42.770738" lon="-0.118171">
        <ele>2179.0</ele>
        <time>2025-07-03T11:42:02.714Z</time>
      </trkpt>
      <trkpt lat="42.770479" lon="-0.118230">
        <ele>2169.8</ele>
        <time>2025-07-03T11:43:22.790Z</time>
      </trkpt>
      <trkpt lat="42.770473" lon="-0.118109">
        <ele>2162.1</ele>
        <time>2025-07-03T11:44:32.487Z</time>
      </trkpt>
      <trkpt lat="42.770252" lon="-0.118137">
        <ele>2156.7</ele>
        <time>2025-07-03T11:45:26.972Z</time>
      </trkpt>
      <trkpt lat="42.770104" lon="-0.118170">
        <ele>2152.7</ele>
        <time>2025-07-03T11:46:12.596Z</time>
      </trkpt>
      <trkpt lat="42.770132" lon="-0.118497">
        <ele>2153.0</ele>
        <time>2025-07-03T11:46:40.065Z</time>
      </trkpt>
      <trkpt lat="42.769976" lon="-0.118771">
        <ele>2155.3</ele>
        <time>2025-07-03T11:47:29.276Z</time>
      </trkpt>
      <trkpt lat="42.769887" lon="-0.118512">
        <ele>2147.6</ele>
        <time>2025-07-03T11:48:38.072Z</time>
      </trkpt>
      <trkpt lat="42.769872" lon="-0.118146">
        <ele>2137.3</ele>
        <time>2025-07-03T11:50:06.264Z</time>
      </trkpt>
      <trkpt lat="42.769841" lon="-0.117840">
        <ele>2131.8</ele>
        <time>2025-07-03T11:51:01.050Z</time>
      </trkpt>
      <trkpt lat="42.769694" lon="-0.117799">
        <ele>2123.9</ele>
        <time>2025-07-03T11:52:19.598Z</time>
      </trkpt>
      <trkpt lat="42.769527" lon="-0.118008">
        <ele>2121.9</ele>
        <time>2025-07-03T11:52:53.556Z</time>
      </trkpt>
      <trkpt lat="42.769386" lon="-0.118320">
        <ele>2119.6</ele>
        <time>2025-07-03T11:53:33.092Z</time>
      </trkpt>
      <trkpt lat="42.769244" lon="-0.118635">
        <ele>2115.7</ele>
        <time>2025-07-03T11:54:22.094Z</time>
      </trkpt>
      <trkpt lat="42.769138" lon="-0.118387">
        <ele>2112.4</ele>
        <time>2025-07-03T11:55:04.841Z</time>
      </trkpt>
      <trkpt lat="42.768874" lon="-0.118801">
        <ele>2102.6</ele>
        <time>2025-07-03T11:56:47.338Z</time>
      </trkpt>
      <trkpt lat="42.768681" lon="-0.119009">
        <ele>2091.8</ele>
        <time>2025-07-03T11:58:15.846Z</time>
      </trkpt>
      <trkpt lat="42.768156" lon="-0.118578">
        <ele>2085.2</ele>
        <time>2025-07-03T11:59:56.050Z</time>
      </trkpt>
      <trkpt lat="42.767882" lon="-0.118509">
        <ele>2083.6</ele>
        <time>2025-07-03T12:00:33.133Z</time>
      </trkpt>
      <trkpt lat="42.767854" lon="-0.118361">
        <ele>2081.3</ele>
        <time>2025-07-03T12:01:08.827Z</time>
      </trkpt>
      <trkpt lat="42.767656" lon="-0.118257">
        <ele>2077.9</ele>
        <time>2025-07-03T12:01:56.857Z</time>
      </trkpt>
      <trkpt lat="42.767497" lon="-0.117927">
        <ele>2072.9</ele>
        <time>2025-07-03T12:02:55.319Z</time>
      </trkpt>
      <trkpt lat="42.767360" lon="-0.117545">
        <ele>2065.7</ele>
        <time>2025-07-03T12:04:09.409Z</time>
      </trkpt>
      <trkpt lat="42.767273" lon="-0.117135">
        <ele>2059.6</ele>
        <time>2025-07-03T12:05:16.006Z</time>
      </trkpt>
      <trkpt lat="42.767244" lon="-0.116817">
        <ele>2055.4</ele>
        <time>2025-07-03T12:06:03.874Z</time>
      </trkpt>
      <trkpt lat="42.767227" lon="-0.116431">
        <ele>2047.0</ele>
        <time>2025-07-03T12:07:22.157Z</time>
      </trkpt>
      <trkpt lat="42.767205" lon="-0.116126">
        <ele>2040.0</ele>
        <time>2025-07-03T12:08:26.568Z</time>
      </trkpt>
      <trkpt lat="42.767108" lon="-0.115824">
        <ele>2036.6</ele>
        <time>2025-07-03T12:09:09.566Z</time>
      </trkpt>
      <trkpt lat="42.767251" lon="-0.115948">
        <ele>2031.3</ele>
        <time>2025-07-03T12:10:15.503Z</time>
      </trkpt>
      <trkpt lat="42.767172" lon="-0.115531">
        <ele>2026.2</ele>
        <time>2025-07-03T12:11:16.629Z</time>
      </trkpt>
      <trkpt lat="42.766929" lon="-0.115485">
        <ele>2027.7</ele>
        <time>2025-07-03T12:11:56.764Z</time>
      </trkpt>
      <trkpt lat="42.766773" lon="-0.115265">
        <ele>2029.1</ele>
        <time>2025-07-03T12:12:33.954Z</time>
      </trkpt>
      <trkpt lat="42.766548" lon="-0.114862">
        <ele>2021.2</ele>
        <time>2025-07-03T12:13:56.794Z</time>
      </trkpt>
      <trkpt lat="42.766336" lon="-0.114595">
        <ele>2017.7</ele>
        <time>2025-07-03T12:14:46.367Z</time>
      </trkpt>
      <trkpt lat="42.766148" lon="-0.114286">
        <ele>2015.6</ele>
        <time>2025-07-03T12:15:27.393Z</time>
      </trkpt>
      <trkpt lat="42.765942" lon="-0.114077">
        <ele>2014.9</ele>
        <time>2025-07-03T12:15:55.812Z</time>
      </trkpt>
      <trkpt lat="42.765828" lon="-0.113785">
        <ele>2014.3</ele>
        <time>2025-07-03T12:16:22.811Z</time>
      </trkpt>
      <trkpt lat="42.765682" lon="-0.113506">
        <ele>2012.9</ele>
        <time>2025-07-03T12:16:55.849Z</time>
      </trkpt>
      <trkpt lat="42.765584" lon="-0.113211">
        <ele>2011.0</ele>
        <time>2025-07-03T12:17:31.008Z</time>
      </trkpt>
      <trkpt lat="42.765761" lon="-0.113337">
        <ele>2007.6</ele>
        <time>2025-07-03T12:18:12.859Z</time>
      </trkpt>
      <trkpt lat="42.765658" lon="-0.112906">
        <ele>2001.9</ele>
        <time>2025-07-03T12:19:19.254Z</time>
      </trkpt>
      <trkpt lat="42.765604" lon="-0.112577">
        <ele>1996.2</ele>
        <time>2025-07-03T12:20:19.015Z</time>
      </trkpt>
      <trkpt lat="42.765306" lon="-0.112559">
        <ele>1993.9</ele>
        <time>2025-07-03T12:21:01.529Z</time>
      </trkpt>
      <trkpt lat="42.765093" lon="-0.112433">
        <ele>1995.1</ele>
        <time>2025-07-03T12:21:36.400Z</time>
      </trkpt>
      <trkpt lat="42.764850" lon="-0.112491">
        <ele>1995.4</ele>
        <time>2025-07-03T12:22:02.747Z</time>
      </trkpt>
      <trkpt lat="42.764622" lon="-0.112558">
        <ele>1995.3</ele>
        <time>2025-07-03T12:22:25.744Z</time>
      </trkpt>
      <trkpt lat="42.764330" lon="-0.112855">
        <ele>2010.7</ele>
        <time>2025-07-03T12:25:43.767Z</time>
      </trkpt>
      <trkpt lat="42.764076" lon="-0.112985">
        <ele>2008.7</ele>
        <time>2025-07-03T12:26:22.102Z</time>
      </trkpt>
      <trkpt lat="42.764108" lon="-0.112771">
        <ele>2000.2</ele>
        <time>2025-07-03T12:27:36.432Z</time>
      </trkpt>
      <trkpt lat="42.763915" lon="-0.112598">
        <ele>1982.4</ele>
        <time>2025-07-03T12:30:01.237Z</time>
      </trkpt>
      <trkpt lat="42.764007" lon="-0.112277">
        <ele>1968.9</ele>
        <time>2025-07-03T12:31:50.201Z</time>
      </trkpt>
      <trkpt lat="42.763893" lon="-0.112033">
        <ele>1954.9</ele>
        <time>2025-07-03T12:33:44.976Z</time>
      </trkpt>
      <trkpt lat="42.763743" lon="-0.111723">
        <ele>1945.2</ele>
        <time>2025-07-03T12:35:12.438Z</time>
      </trkpt>
      <trkpt lat="42.763533" lon="-0.111653">
        <ele>1940.4</ele>
        <time>2025-07-03T12:36:03.045Z</time>
      </trkpt>
      <trkpt lat="42.763465" lon="-0.111406">
        <ele>1929.3</ele>
        <time>2025-07-03T12:37:34.961Z</time>
      </trkpt>
      <trkpt lat="42.763474" lon="-0.111042">
        <ele>1915.5</ele>
        <time>2025-07-03T12:39:23.977Z</time>
      </trkpt>
      <trkpt lat="42.763297" lon="-0.110625">
        <ele>1905.5</ele>
        <time>2025-07-03T12:40:58.122Z</time>
      </trkpt>
      <trkpt lat="42.763199" lon="-0.110367">
        <ele>1899.6</ele>
        <time>2025-07-03T12:41:54.904Z</time>
      </trkpt>
      <trkpt lat="42.763106" lon="-0.110046">
        <ele>1893.3</ele>
        <time>2025-07-03T12:42:57.667Z</time>
      </trkpt>
      <trkpt lat="42.762963" lon="-0.109767">
        <ele>1887.3</ele>
        <time>2025-07-03T12:43:57.832Z</time>
      </trkpt>
      <trkpt lat="42.762980" lon="-0.109413">
        <ele>1881.0</ele>
        <time>2025-07-03T12:45:00.622Z</time>
      </trkpt>
      <trkpt lat="42.762937" lon="-0.109057">
        <ele>1874.8</ele>
        <time>2025-07-03T12:46:03.853Z</time>
      </trkpt>
      <trkpt lat="42.762766" lon="-0.108838">
        <ele>1869.1</ele>
        <time>2025-07-03T12:47:03.471Z</time>
      </trkpt>
      <trkpt lat="42.762581" lon="-0.108665">
        <ele>1867.0</ele>
        <time>2025-07-03T12:47:37.665Z</time>
      </trkpt>
      <trkpt lat="42.762621" lon="-0.108328">
        <ele>1864.4</ele>
        <time>2025-07-03T12:48:21.399Z</time>
      </trkpt>
      <trkpt lat="42.762533" lon="-0.108007">
        <ele>1864.6</ele>
        <time>2025-07-03T12:48:49.416Z</time>
      </trkpt>
      <trkpt lat="42.762395" lon="-0.107588">
        <ele>1864.8</ele>
        <time>2025-07-03T12:49:23.555Z</time>
      </trkpt>
      <trkpt lat="42.762255" lon="-0.107352">
        <ele>1863.3</ele>
        <time>2025-07-03T12:49:53.686Z</time>
      </trkpt>
      <trkpt lat="42.762171" lon="-0.107059">
        <ele>1861.9</ele>
        <time>2025-07-03T12:50:24.344Z</time>
      </trkpt>
      <trkpt lat="42.762136" lon="-0.106728">
        <ele>1860.3</ele>
        <time>2025-07-03T12:50:57.480Z</time>
      </trkpt>
      <trkpt lat="42.761897" lon="-0.106365">
        <ele>1857.9</ele>
        <time>2025-07-03T12:51:45.901Z</time>
      </trkpt>
      <trkpt lat="42.761627" lon="-0.105765">
        <ele>1854.0</ele>
        <time>2025-07-03T12:52:58.777Z</time>
      </trkpt>
      <trkpt lat="42.761480" lon="-0.105491">
        <ele>1851.6</ele>
        <time>2025-07-03T12:53:37.013Z</time>
      </trkpt>
      <trkpt lat="42.761281" lon="-0.104789">
        <ele>1850.1</ele>
        <time>2025-07-03T12:54:38.665Z</time>
      </trkpt>
      <trkpt lat="42.761185" lon="-0.104455">
        <ele>1850.5</ele>
        <time>2025-07-03T12:55:07.381Z</time>
      </trkpt>
      <trkpt lat="42.761090" lon="-0.104115">
        <ele>1850.6</ele>
        <time>2025-07-03T12:55:34.314Z</time>
      </trkpt>
      <trkpt lat="42.760896" lon="-0.103762">
        <ele>1849.9</ele>
        <time>2025-07-03T12:56:09.865Z</time>
      </trkpt>
      <trkpt lat="42.760767" lon="-0.103417">
        <ele>1849.1</ele>
        <time>2025-07-03T12:56:41.790Z</time>
      </trkpt>
      <trkpt lat="42.760628" lon="-0.103087">
        <ele>1848.1</ele>
        <time>2025-07-03T12:57:14.635Z</time>
      </trkpt>
      <trkpt lat="42.760468" lon="-0.102760">
        <ele>1847.1</ele>
        <time>2025-07-03T12:57:48.418Z</time>
      </trkpt>
      <trkpt lat="42.760272" lon="-0.102476">
        <ele>1846.7</ele>
        <time>2025-07-03T12:58:17.974Z</time>
      </trkpt>
      <trkpt lat="42.760108" lon="-0.102248">
        <ele>1846.4</ele>
        <time>2025-07-03T12:58:42.212Z</time>
      </trkpt>
      <trkpt lat="42.759937" lon="-0.101939">
        <ele>1845.3</ele>
        <time>2025-07-03T12:59:15.510Z</time>
      </trkpt>
      <trkpt lat="42.759688" lon="-0.101674">
        <ele>1844.2</ele>
        <time>2025-07-03T12:59:52.470Z</time>
      </trkpt>
      <trkpt lat="42.759537" lon="-0.101409">
        <ele>1843.4</ele>
        <time>2025-07-03T13:00:21.364Z</time>
      </trkpt>
      <trkpt lat="42.759436" lon="-0.101084">
        <ele>1842.6</ele>
        <time>2025-07-03T13:00:51.118Z</time>
      </trkpt>
      <trkpt lat="42.759407" lon="-0.100742">
        <ele>1844.0</ele>
        <time>2025-07-03T13:01:29.504Z</time>
      </trkpt>
      <trkpt lat="42.759361" lon="-0.100297">
        <ele>1845.8</ele>
        <time>2025-07-03T13:02:19.252Z</time>
      </trkpt>
      <trkpt lat="42.759245" lon="-0.100002">
        <ele>1844.3</ele>
        <time>2025-07-03T13:02:52.720Z</time>
      </trkpt>
      <trkpt lat="42.759169" lon="-0.099587">
        <ele>1842.5</ele>
        <time>2025-07-03T13:03:34.097Z</time>
      </trkpt>
      <trkpt lat="42.759089" lon="-0.099271">
        <ele>1841.7</ele>
        <time>2025-07-03T13:04:03.015Z</time>
      </trkpt>
      <trkpt lat="42.758968" lon="-0.098948">
        <ele>1840.7</ele>
        <time>2025-07-03T13:04:35.260Z</time>
      </trkpt>
      <trkpt lat="42.758857" lon="-0.098670">
        <ele>1839.3</ele>
        <time>2025-07-03T13:05:06.104Z</time>
      </trkpt>
      <trkpt lat="42.758743" lon="-0.098349">
        <ele>1838.3</ele>
        <time>2025-07-03T13:05:37.304Z</time>
      </trkpt>
      <trkpt lat="42.758602" lon="-0.098002">
        <ele>1838.4</ele>
        <time>2025-07-03T13:06:06.598Z</time>
      </trkpt>
      <trkpt lat="42.758359" lon="-0.097417">
        <ele>1838.5</ele>
        <time>2025-07-03T13:06:55.374Z</time>
      </trkpt>
      <trkpt lat="42.758290" lon="-0.097095">
        <ele>1839.5</ele>
        <time>2025-07-03T13:07:29.153Z</time>
      </trkpt>
      <trkpt lat="42.758202" lon="-0.096778">
        <ele>1841.0</ele>
        <time>2025-07-03T13:08:07.859Z</time>
      </trkpt>
      <trkpt lat="42.758121" lon="-0.096429">
        <ele>1842.4</ele>
        <time>2025-07-03T13:08:48.382Z</time>
      </trkpt>
      <trkpt lat="42.758028" lon="-0.096128">
        <ele>1843.5</ele>
        <time>2025-07-03T13:09:23.100Z</time>
      </trkpt>
      <trkpt lat="42.757917" lon="-0.095855">
        <ele>1844.6</ele>
        <time>2025-07-03T13:09:56.640Z</time>
      </trkpt>
      <trkpt lat="42.757823" lon="-0.095573">
        <ele>1844.0</ele>
        <time>2025-07-03T13:10:23.108Z</time>
      </trkpt>
      <trkpt lat="42.757691" lon="-0.095285">
        <ele>1843.2</ele>
        <time>2025-07-03T13:10:53.323Z</time>
      </trkpt>
      <trkpt lat="42.757606" lon="-0.095021">
        <ele>1843.5</ele>
        <time>2025-07-03T13:11:18.591Z</time>
      </trkpt>
      <trkpt lat="42.757502" lon="-0.094751">
        <ele>1843.9</ele>
        <time>2025-07-03T13:11:43.912Z</time>
      </trkpt>
      <trkpt lat="42.757334" lon="-0.094563">
        <ele>1841.0</ele>
        <time>2025-07-03T13:12:23.092Z</time>
      </trkpt>
      <trkpt lat="42.757127" lon="-0.094504">
        <ele>1838.1</ele>
        <time>2025-07-03T13:13:03.868Z</time>
      </trkpt>
      <trkpt lat="42.756957" lon="-0.094271">
        <ele>1837.3</ele>
        <time>2025-07-03T13:13:31.287Z</time>
      </trkpt>
      <trkpt lat="42.757075" lon="-0.094642">
        <ele>1836.4</ele>
        <time>2025-07-03T13:14:05.056Z</time>
      </trkpt>
      <trkpt lat="42.757049" lon="-0.094829">
        <ele>1836.3</ele>
        <time>2025-07-03T13:14:27.549Z</time>
      </trkpt>
      <trkpt lat="42.756844" lon="-0.094904">
        <ele>1836.2</ele>
        <time>2025-07-03T13:14:51.326Z</time>
      </trkpt>
      <trkpt lat="42.756700" lon="-0.095144">
        <ele>1837.0</ele>
        <time>2025-07-03T13:15:23.096Z</time>
      </trkpt>
      <trkpt lat="42.756641" lon="-0.095408">
        <ele>1837.9</ele>
        <time>2025-07-03T13:15:55.465Z</time>
      </trkpt>
      <trkpt lat="42.756529" lon="-0.095536">
        <ele>1839.0</ele>
        <time>2025-07-03T13:16:29.946Z</time>
      </trkpt>
      <trkpt lat="42.756389" lon="-0.095267">
        <ele>1840.1</ele>
        <time>2025-07-03T13:17:05.141Z</time>
      </trkpt>
      <trkpt lat="42.756185" lon="-0.095200">
        <ele>1842.0</ele>
        <time>2025-07-03T13:17:46.505Z</time>
      </trkpt>
      <trkpt lat="42.755997" lon="-0.095309">
        <ele>1843.9</ele>
        <time>2025-07-03T13:18:28.189Z</time>
      </trkpt>
      <trkpt lat="42.755822" lon="-0.095506">
        <ele>1846.7</ele>
        <time>2025-07-03T13:19:20.450Z</time>
      </trkpt>
      <trkpt lat="42.755546" lon="-0.095538">
        <ele>1850.1</ele>
        <time>2025-07-03T13:20:21.728Z</time>
      </trkpt>
      <trkpt lat="42.755285" lon="-0.095719">
        <ele>1854.1</ele>
        <time>2025-07-03T13:21:33.333Z</time>
      </trkpt>
      <trkpt lat="42.755096" lon="-0.095740">
        <ele>1854.7</ele>
        <time>2025-07-03T13:22:04.173Z</time>
      </trkpt>
      <trkpt lat="42.754916" lon="-0.095508">
        <ele>1853.9</ele>
        <time>2025-07-03T13:22:35.234Z</time>
      </trkpt>
      <trkpt lat="42.754659" lon="-0.095409">
        <ele>1852.4</ele>
        <time>2025-07-03T13:23:09.865Z</time>
      </trkpt>
      <trkpt lat="42.754489" lon="-0.095209">
        <ele>1851.4</ele>
        <time>2025-07-03T13:23:38.089Z</time>
      </trkpt>
      <trkpt lat="42.754273" lon="-0.095098">
        <ele>1851.5</ele>
        <time>2025-07-03T13:24:01.250Z</time>
      </trkpt>
      <trkpt lat="42.754061" lon="-0.095019">
        <ele>1851.9</ele>
        <time>2025-07-03T13:24:27.791Z</time>
      </trkpt>
      <trkpt lat="42.753850" lon="-0.095072">
        <ele>1855.4</ele>
        <time>2025-07-03T13:25:26.060Z</time>
      </trkpt>
      <trkpt lat="42.753624" lon="-0.094941">
        <ele>1859.1</ele>
        <time>2025-07-03T13:26:28.542Z</time>
      </trkpt>
      <trkpt lat="42.753469" lon="-0.094892">
        <ele>1861.7</ele>
        <time>2025-07-03T13:27:17.807Z</time>
      </trkpt>
      <trkpt lat="42.753358" lon="-0.094771">
        <ele>1863.1</ele>
        <time>2025-07-03T13:27:56.091Z</time>
      </trkpt>
      <trkpt lat="42.753181" lon="-0.094526">
        <ele>1860.6</ele>
        <time>2025-07-03T13:28:36.579Z</time>
      </trkpt>
      <trkpt lat="42.753024" lon="-0.094325">
        <ele>1861.2</ele>
        <time>2025-07-03T13:29:04.819Z</time>
      </trkpt>
      <trkpt lat="42.752830" lon="-0.094332">
        <ele>1866.0</ele>
        <time>2025-07-03T13:30:17.969Z</time>
      </trkpt>
      <trkpt lat="42.752576" lon="-0.094324">
        <ele>1871.3</ele>
        <time>2025-07-03T13:31:36.677Z</time>
      </trkpt>
      <trkpt lat="42.752386" lon="-0.094168">
        <ele>1875.9</ele>
        <time>2025-07-03T13:32:45.720Z</time>
      </trkpt>
      <trkpt lat="42.752229" lon="-0.093912">
        <ele>1880.3</ele>
        <time>2025-07-03T13:33:55.255Z</time>
      </trkpt>
      <trkpt lat="42.752060" lon="-0.093623">
        <ele>1884.3</ele>
        <time>2025-07-03T13:35:03.111Z</time>
      </trkpt>
      <trkpt lat="42.751981" lon="-0.093332">
        <ele>1886.2</ele>
        <time>2025-07-03T13:35:44.296Z</time>
      </trkpt>
      <trkpt lat="42.751855" lon="-0.093062">
        <ele>1885.9</ele>
        <time>2025-07-03T13:36:09.364Z</time>
      </trkpt>
      <trkpt lat="42.751728" lon="-0.092788">
        <ele>1887.0</ele>
        <time>2025-07-03T13:36:45.286Z</time>
      </trkpt>
      <trkpt lat="42.751568" lon="-0.092546">
        <ele>1889.3</ele>
        <time>2025-07-03T13:37:32.792Z</time>
      </trkpt>
      <trkpt lat="42.751450" lon="-0.092467">
        <ele>1893.4</ele>
        <time>2025-07-03T13:38:37.709Z</time>
      </trkpt>
      <trkpt lat="42.751307" lon="-0.092400">
        <ele>1898.1</ele>
        <time>2025-07-03T13:39:49.249Z</time>
      </trkpt>
      <trkpt lat="42.751192" lon="-0.092147">
        <ele>1902.5</ele>
        <time>2025-07-03T13:40:56.994Z</time>
      </trkpt>
      <trkpt lat="42.750945" lon="-0.092029">
        <ele>1907.3</ele>
        <time>2025-07-03T13:42:12.854Z</time>
      </trkpt>
      <trkpt lat="42.750678" lon="-0.092056">
        <ele>1918.6</ele>
        <time>2025-07-03T13:44:34.740Z</time>
      </trkpt>
      <trkpt lat="42.750449" lon="-0.092171">
        <ele>1926.9</ele>
        <time>2025-07-03T13:46:23.532Z</time>
      </trkpt>
      <trkpt lat="42.750224" lon="-0.092095">
        <ele>1929.3</ele>
        <time>2025-07-03T13:47:12.134Z</time>
      </trkpt>
      <trkpt lat="42.749972" lon="-0.092025">
        <ele>1931.5</ele>
        <time>2025-07-03T13:47:58.986Z</time>
      </trkpt>
      <trkpt lat="42.749726" lon="-0.091914">
        <ele>1932.9</ele>
        <time>2025-07-03T13:48:39.058Z</time>
      </trkpt>
      <trkpt lat="42.749527" lon="-0.091826">
        <ele>1934.2</ele>
        <time>2025-07-03T13:49:18.254Z</time>
      </trkpt>
      <trkpt lat="42.749256" lon="-0.091875">
        <ele>1935.3</ele>
        <time>2025-07-03T13:49:56.637Z</time>
      </trkpt>
      <trkpt lat="42.749024" lon="-0.091994">
        <ele>1937.1</ele>
        <time>2025-07-03T13:50:39.184Z</time>
      </trkpt>
      <trkpt lat="42.748777" lon="-0.092107">
        <ele>1939.1</ele>
        <time>2025-07-03T13:51:24.663Z</time>
      </trkpt>
      <trkpt lat="42.748683" lon="-0.091954">
        <ele>1937.5</ele>
        <time>2025-07-03T13:51:56.261Z</time>
      </trkpt>
      <trkpt lat="42.748633" lon="-0.091659">
        <ele>1935.7</ele>
        <time>2025-07-03T13:52:31.085Z</time>
      </trkpt>
      <trkpt lat="42.748403" lon="-0.091524">
        <ele>1934.2</ele>
        <time>2025-07-03T13:53:03.935Z</time>
      </trkpt>
      <trkpt lat="42.748137" lon="-0.091395">
        <ele>1932.6</ele>
        <time>2025-07-03T13:53:40.858Z</time>
      </trkpt>
      <trkpt lat="42.747828" lon="-0.091324">
        <ele>1931.2</ele>
        <time>2025-07-03T13:54:18.885Z</time>
      </trkpt>
      <trkpt lat="42.747541" lon="-0.091427">
        <ele>1931.2</ele>
        <time>2025-07-03T13:54:48.271Z</time>
      </trkpt>
      <trkpt lat="42.747296" lon="-0.091542">
        <ele>1932.5</ele>
        <time>2025-07-03T13:55:27.398Z</time>
      </trkpt>
      <trkpt lat="42.747029" lon="-0.091580">
        <ele>1934.8</ele>
        <time>2025-07-03T13:56:15.913Z</time>
      </trkpt>
      <trkpt lat="42.746790" lon="-0.091651">
        <ele>1937.2</ele>
        <time>2025-07-03T13:57:04.701Z</time>
      </trkpt>
      <trkpt lat="42.746692" lon="-0.091459">
        <ele>1938.6</ele>
        <time>2025-07-03T13:57:44.414Z</time>
      </trkpt>
      <trkpt lat="42.746471" lon="-0.091508">
        <ele>1939.8</ele>
        <time>2025-07-03T13:58:19.471Z</time>
      </trkpt>
      <trkpt lat="42.746064" lon="-0.091540">
        <ele>1941.9</ele>
        <time>2025-07-03T13:59:20.005Z</time>
      </trkpt>
      <trkpt lat="42.745814" lon="-0.091609">
        <ele>1943.2</ele>
        <time>2025-07-03T13:59:57.925Z</time>
      </trkpt>
      <trkpt lat="42.745309" lon="-0.091364">
        <ele>1941.9</ele>
        <time>2025-07-03T14:00:59.039Z</time>
      </trkpt>
      <trkpt lat="42.745062" lon="-0.091281">
        <ele>1943.1</ele>
        <time>2025-07-03T14:01:36.536Z</time>
      </trkpt>
      <trkpt lat="42.744847" lon="-0.091250">
        <ele>1943.9</ele>
        <time>2025-07-03T14:02:06.157Z</time>
      </trkpt>
      <trkpt lat="42.745003" lon="-0.090924">
        <ele>1942.4</ele>
        <time>2025-07-03T14:02:44.354Z</time>
      </trkpt>
      <trkpt lat="42.745253" lon="-0.090703">
        <ele>1941.9</ele>
        <time>2025-07-03T14:03:16.089Z</time>
      </trkpt>
      <trkpt lat="42.745401" lon="-0.090335">
        <ele>1941.9</ele>
        <time>2025-07-03T14:03:45.604Z</time>
      </trkpt>
      <trkpt lat="42.745579" lon="-0.090049">
        <ele>1943.2</ele>
        <time>2025-07-03T14:04:25.988Z</time>
      </trkpt>
      <trkpt lat="42.745852" lon="-0.089854">
        <ele>1944.8</ele>
        <time>2025-07-03T14:05:11.157Z</time>
      </trkpt>
      <trkpt lat="42.746091" lon="-0.089638">
        <ele>1944.3</ele>
        <time>2025-07-03T14:05:41.090Z</time>
      </trkpt>
      <trkpt lat="42.746409" lon="-0.089372">
        <ele>1942.9</ele>
        <time>2025-07-03T14:06:25.852Z</time>
      </trkpt>
      <trkpt lat="42.746600" lon="-0.089206">
        <ele>1941.5</ele>
        <time>2025-07-03T14:06:55.745Z</time>
      </trkpt>
      <trkpt lat="42.746756" lon="-0.088960">
        <ele>1941.4</ele>
        <time>2025-07-03T14:07:19.405Z</time>
      </trkpt>
      <trkpt lat="42.747017" lon="-0.088553">
        <ele>1942.3</ele>
        <time>2025-07-03T14:08:06.493Z</time>
      </trkpt>
      <trkpt lat="42.747162" lon="-0.088200">
        <ele>1944.0</ele>
        <time>2025-07-03T14:08:52.252Z</time>
      </trkpt>
      <trkpt lat="42.747277" lon="-0.087822">
        <ele>1944.8</ele>
        <time>2025-07-03T14:09:29.887Z</time>
      </trkpt>
      <trkpt lat="42.747445" lon="-0.087419">
        <ele>1944.2</ele>
        <time>2025-07-03T14:10:06.225Z</time>
      </trkpt>
      <trkpt lat="42.747553" lon="-0.087094">
        <ele>1943.5</ele>
        <time>2025-07-03T14:10:35.817Z</time>
      </trkpt>
      <trkpt lat="42.747642" lon="-0.086713">
        <ele>1941.8</ele>
        <time>2025-07-03T14:11:14.562Z</time>
      </trkpt>
      <trkpt lat="42.747725" lon="-0.086325">
        <ele>1938.0</ele>
        <time>2025-07-03T14:12:05.652Z</time>
      </trkpt>
      <trkpt lat="42.747882" lon="-0.086069">
        <ele>1935.0</ele>
        <time>2025-07-03T14:12:47.289Z</time>
      </trkpt>
      <trkpt lat="42.747911" lon="-0.085731">
        <ele>1932.1</ele>
        <time>2025-07-03T14:13:29.118Z</time>
      </trkpt>
      <trkpt lat="42.747866" lon="-0.085465">
        <ele>1931.2</ele>
        <time>2025-07-03T14:13:57.580Z</time>
      </trkpt>
      <trkpt lat="42.747666" lon="-0.085316">
        <ele>1933.1</ele>
        <time>2025-07-03T14:14:42.793Z</time>
      </trkpt>
      <trkpt lat="42.747743" lon="-0.084910">
        <ele>1932.6</ele>
        <time>2025-07-03T14:15:16.781Z</time>
      </trkpt>
      <trkpt lat="42.747693" lon="-0.084523">
        <ele>1930.3</ele>
        <time>2025-07-03T14:15:57.881Z</time>
      </trkpt>
      <trkpt lat="42.747588" lon="-0.084212">
        <ele>1932.0</ele>
        <time>2025-07-03T14:16:39.261Z</time>
      </trkpt>
      <trkpt lat="42.747478" lon="-0.083842">
        <ele>1933.9</ele>
        <time>2025-07-03T14:17:28.040Z</time>
      </trkpt>
      <trkpt lat="42.747393" lon="-0.083514">
        <ele>1937.4</ele>
        <time>2025-07-03T14:18:29.176Z</time>
      </trkpt>
      <trkpt lat="42.747159" lon="-0.083477">
        <ele>1940.2</ele>
        <time>2025-07-03T14:19:23.233Z</time>
      </trkpt>
      <trkpt lat="42.747087" lon="-0.083141">
        <ele>1941.5</ele>
        <time>2025-07-03T14:20:00.840Z</time>
      </trkpt>
      <trkpt lat="42.747011" lon="-0.082849">
        <ele>1942.6</ele>
        <time>2025-07-03T14:20:34.894Z</time>
      </trkpt>
      <trkpt lat="42.746998" lon="-0.082530">
        <ele>1943.9</ele>
        <time>2025-07-03T14:21:10.744Z</time>
      </trkpt>
      <trkpt lat="42.746825" lon="-0.082170">
        <ele>1943.4</ele>
        <time>2025-07-03T14:21:44.794Z</time>
      </trkpt>
      <trkpt lat="42.746811" lon="-0.081743">
        <ele>1938.5</ele>
        <time>2025-07-03T14:22:44.044Z</time>
      </trkpt>
      <trkpt lat="42.746643" lon="-0.081500">
        <ele>1936.7</ele>
        <time>2025-07-03T14:23:20.283Z</time>
      </trkpt>
      <trkpt lat="42.746481" lon="-0.081240">
        <ele>1936.1</ele>
        <time>2025-07-03T14:23:48.181Z</time>
      </trkpt>
      <trkpt lat="42.746271" lon="-0.081019">
        <ele>1938.2</ele>
        <time>2025-07-03T14:24:35.803Z</time>
      </trkpt>
      <trkpt lat="42.746042" lon="-0.080877">
        <ele>1942.4</ele>
        <time>2025-07-03T14:25:43.115Z</time>
      </trkpt>
      <trkpt lat="42.745786" lon="-0.080744">
        <ele>1946.3</ele>
        <time>2025-07-03T14:26:49.860Z</time>
      </trkpt>
      <trkpt lat="42.745595" lon="-0.080563">
        <ele>1949.2</ele>
        <time>2025-07-03T14:27:44.930Z</time>
      </trkpt>
      <trkpt lat="42.745472" lon="-0.080147">
        <ele>1947.1</ele>
        <time>2025-07-03T14:28:30.178Z</time>
      </trkpt>
      <trkpt lat="42.745536" lon="-0.079691">
        <ele>1939.5</ele>
        <time>2025-07-03T14:29:48.282Z</time>
      </trkpt>
      <trkpt lat="42.745533" lon="-0.079386">
        <ele>1937.4</ele>
        <time>2025-07-03T14:30:22.308Z</time>
      </trkpt>
      <trkpt lat="42.745419" lon="-0.079069">
        <ele>1935.0</ele>
        <time>2025-07-03T14:31:02.647Z</time>
      </trkpt>
      <trkpt lat="42.745281" lon="-0.078773">
        <ele>1933.0</ele>
        <time>2025-07-03T14:31:40.133Z</time>
      </trkpt>
      <trkpt lat="42.745206" lon="-0.078424">
        <ele>1930.1</ele>
        <time>2025-07-03T14:32:23.178Z</time>
      </trkpt>
      <trkpt lat="42.745194" lon="-0.078097">
        <ele>1925.3</ele>
        <time>2025-07-03T14:33:15.580Z</time>
      </trkpt>
      <trkpt lat="42.745125" lon="-0.077766">
        <ele>1921.1</ele>
        <time>2025-07-03T14:34:05.382Z</time>
      </trkpt>
      <trkpt lat="42.745036" lon="-0.077382">
        <ele>1916.9</ele>
        <time>2025-07-03T14:34:59.075Z</time>
      </trkpt>
      <trkpt lat="42.744850" lon="-0.076868">
        <ele>1913.0</ele>
        <time>2025-07-03T14:36:03.277Z</time>
      </trkpt>
      <trkpt lat="42.744711" lon="-0.076537">
        <ele>1910.8</ele>
        <time>2025-07-03T14:36:43.299Z</time>
      </trkpt>
      <trkpt lat="42.744599" lon="-0.076281">
        <ele>1909.4</ele>
        <time>2025-07-03T14:37:13.586Z</time>
      </trkpt>
      <trkpt lat="42.744329" lon="-0.076248">
        <ele>1912.1</ele>
        <time>2025-07-03T14:38:07.761Z</time>
      </trkpt>
      <trkpt lat="42.744077" lon="-0.076247">
        <ele>1917.3</ele>
        <time>2025-07-03T14:39:25.712Z</time>
      </trkpt>
      <trkpt lat="42.743851" lon="-0.075885">
        <ele>1919.6</ele>
        <time>2025-07-03T14:40:22.332Z</time>
      </trkpt>
      <trkpt lat="42.743747" lon="-0.075617">
        <ele>1919.9</ele>
        <time>2025-07-03T14:40:47.449Z</time>
      </trkpt>
      <trkpt lat="42.743693" lon="-0.074998">
        <ele>1913.7</ele>
        <time>2025-07-03T14:42:08.250Z</time>
      </trkpt>
      <trkpt lat="42.743604" lon="-0.074628">
        <ele>1908.8</ele>
        <time>2025-07-03T14:43:04.689Z</time>
      </trkpt>
      <trkpt lat="42.743512" lon="-0.074318">
        <ele>1904.6</ele>
        <time>2025-07-03T14:43:53.100Z</time>
      </trkpt>
      <trkpt lat="42.743416" lon="-0.073978">
        <ele>1901.1</ele>
        <time>2025-07-03T14:44:40.194Z</time>
      </trkpt>
      <trkpt lat="42.743302" lon="-0.073685">
        <ele>1897.9</ele>
        <time>2025-07-03T14:45:22.366Z</time>
      </trkpt>
      <trkpt lat="42.743155" lon="-0.073437">
        <ele>1899.3</ele>
        <time>2025-07-03T14:45:58.689Z</time>
      </trkpt>
      <trkpt lat="42.742767" lon="-0.073203">
        <ele>1901.8</ele>
        <time>2025-07-03T14:47:04.577Z</time>
      </trkpt>
      <trkpt lat="42.742523" lon="-0.073080">
        <ele>1905.4</ele>
        <time>2025-07-03T14:48:07.527Z</time>
      </trkpt>
      <trkpt lat="42.742280" lon="-0.073070">
        <ele>1908.0</ele>
        <time>2025-07-03T14:48:58.604Z</time>
      </trkpt>
      <trkpt lat="42.742040" lon="-0.072833">
        <ele>1903.5</ele>
        <time>2025-07-03T14:49:54.899Z</time>
      </trkpt>
      <trkpt lat="42.741678" lon="-0.072588">
        <ele>1898.0</ele>
        <time>2025-07-03T14:51:06.716Z</time>
      </trkpt>
      <trkpt lat="42.741221" lon="-0.072492">
        <ele>1896.5</ele>
        <time>2025-07-03T14:51:59.352Z</time>
      </trkpt>
      <trkpt lat="42.740966" lon="-0.072533">
        <ele>1898.0</ele>
        <time>2025-07-03T14:52:38.999Z</time>
      </trkpt>
      <trkpt lat="42.740660" lon="-0.072603">
        <ele>1900.8</ele>
        <time>2025-07-03T14:53:38.170Z</time>
      </trkpt>
      <trkpt lat="42.740344" lon="-0.072556">
        <ele>1903.6</ele>
        <time>2025-07-03T14:54:37.317Z</time>
      </trkpt>
      <trkpt lat="42.740097" lon="-0.072529">
        <ele>1905.0</ele>
        <time>2025-07-03T14:55:14.722Z</time>
      </trkpt>
      <trkpt lat="42.739782" lon="-0.072622">
        <ele>1906.8</ele>
        <time>2025-07-03T14:56:04.472Z</time>
      </trkpt>
      <trkpt lat="42.739526" lon="-0.072657">
        <ele>1908.3</ele>
        <time>2025-07-03T14:56:44.712Z</time>
      </trkpt>
      <trkpt lat="42.739280" lon="-0.072586">
        <ele>1909.3</ele>
        <time>2025-07-03T14:57:20.169Z</time>
      </trkpt>
      <trkpt lat="42.739029" lon="-0.072488">
        <ele>1910.2</ele>
        <time>2025-07-03T14:57:53.954Z</time>
      </trkpt>
      <trkpt lat="42.738821" lon="-0.072306">
        <ele>1910.0</ele>
        <time>2025-07-03T14:58:19.458Z</time>
      </trkpt>
      <trkpt lat="42.738602" lon="-0.072170">
        <ele>1909.5</ele>
        <time>2025-07-03T14:58:46.073Z</time>
      </trkpt>
      <trkpt lat="42.738387" lon="-0.072009">
        <ele>1907.0</ele>
        <time>2025-07-03T14:59:25.005Z</time>
      </trkpt>
      <trkpt lat="42.738222" lon="-0.071725">
        <ele>1902.8</ele>
        <time>2025-07-03T15:00:15.853Z</time>
      </trkpt>
      <trkpt lat="42.738026" lon="-0.071378">
        <ele>1899.3</ele>
        <time>2025-07-03T15:01:07.679Z</time>
      </trkpt>
      <trkpt lat="42.737712" lon="-0.071017">
        <ele>1897.9</ele>
        <time>2025-07-03T15:01:55.017Z</time>
      </trkpt>
      <trkpt lat="42.737402" lon="-0.070744">
        <ele>1898.7</ele>
        <time>2025-07-03T15:02:38.326Z</time>
      </trkpt>
      <trkpt lat="42.737496" lon="-0.070438">
        <ele>1898.9</ele>
        <time>2025-07-03T15:03:05.618Z</time>
      </trkpt>
      <trkpt lat="42.737805" lon="-0.070334">
        <ele>1898.8</ele>
        <time>2025-07-03T15:03:37.341Z</time>
      </trkpt>
      <trkpt lat="42.738468" lon="-0.070069">
        <ele>1892.8</ele>
        <time>2025-07-03T15:05:19.358Z</time>
      </trkpt>
      <trkpt lat="42.738657" lon="-0.069921">
        <ele>1893.3</ele>
        <time>2025-07-03T15:05:46.671Z</time>
      </trkpt>
      <trkpt lat="42.738811" lon="-0.069688">
        <ele>1893.9</ele>
        <time>2025-07-03T15:06:15.548Z</time>
      </trkpt>
      <trkpt lat="42.739106" lon="-0.069507">
        <ele>1893.1</ele>
        <time>2025-07-03T15:06:52.672Z</time>
      </trkpt>
      <trkpt lat="42.739331" lon="-0.069465">
        <ele>1892.4</ele>
        <time>2025-07-03T15:07:19.677Z</time>
      </trkpt>
      <trkpt lat="42.739643" lon="-0.069385">
        <ele>1890.9</ele>
        <time>2025-07-03T15:07:59.231Z</time>
      </trkpt>
      <trkpt lat="42.739914" lon="-0.069326">
        <ele>1890.6</ele>
        <time>2025-07-03T15:08:27.592Z</time>
      </trkpt>
      <trkpt lat="42.740147" lon="-0.069185">
        <ele>1890.5</ele>
        <time>2025-07-03T15:08:52.850Z</time>
      </trkpt>
      <trkpt lat="42.740382" lon="-0.069126">
        <ele>1889.7</ele>
        <time>2025-07-03T15:09:20.755Z</time>
      </trkpt>
      <trkpt lat="42.740592" lon="-0.068867">
        <ele>1888.9</ele>
        <time>2025-07-03T15:09:53.147Z</time>
      </trkpt>
      <trkpt lat="42.740743" lon="-0.068630">
        <ele>1888.5</ele>
        <time>2025-07-03T15:10:17.801Z</time>
      </trkpt>
      <trkpt lat="42.740876" lon="-0.068293">
        <ele>1887.5</ele>
        <time>2025-07-03T15:10:50.626Z</time>
      </trkpt>
      <trkpt lat="42.741060" lon="-0.068015">
        <ele>1884.7</ele>
        <time>2025-07-03T15:11:34.406Z</time>
      </trkpt>
      <trkpt lat="42.741365" lon="-0.067804">
        <ele>1881.2</ele>
        <time>2025-07-03T15:12:27.734Z</time>
      </trkpt>
      <trkpt lat="42.741597" lon="-0.067661">
        <ele>1878.4</ele>
        <time>2025-07-03T15:13:09.091Z</time>
      </trkpt>
      <trkpt lat="42.741562" lon="-0.067326">
        <ele>1878.6</ele>
        <time>2025-07-03T15:13:45.622Z</time>
      </trkpt>
      <trkpt lat="42.741473" lon="-0.067076">
        <ele>1883.5</ele>
        <time>2025-07-03T15:14:58.534Z</time>
      </trkpt>
      <trkpt lat="42.741558" lon="-0.066760">
        <ele>1885.2</ele>
        <time>2025-07-03T15:15:38.856Z</time>
      </trkpt>
      <trkpt lat="42.741659" lon="-0.066422">
        <ele>1884.2</ele>
        <time>2025-07-03T15:16:10.565Z</time>
      </trkpt>
      <trkpt lat="42.741680" lon="-0.066063">
        <ele>1884.1</ele>
        <time>2025-07-03T15:16:36.197Z</time>
      </trkpt>
      <trkpt lat="42.741711" lon="-0.065699">
        <ele>1884.4</ele>
        <time>2025-07-03T15:17:04.283Z</time>
      </trkpt>
      <trkpt lat="42.741742" lon="-0.065321">
        <ele>1882.5</ele>
        <time>2025-07-03T15:17:42.194Z</time>
      </trkpt>
      <trkpt lat="42.741876" lon="-0.065030">
        <ele>1880.8</ele>
        <time>2025-07-03T15:18:17.746Z</time>
      </trkpt>
      <trkpt lat="42.741965" lon="-0.064758">
        <ele>1879.0</ele>
        <time>2025-07-03T15:18:49.850Z</time>
      </trkpt>
      <trkpt lat="42.742167" lon="-0.064378">
        <ele>1877.6</ele>
        <time>2025-07-03T15:19:31.017Z</time>
      </trkpt>
      <trkpt lat="42.742169" lon="-0.064072">
        <ele>1877.5</ele>
        <time>2025-07-03T15:19:53.782Z</time>
      </trkpt>
      <trkpt lat="42.742176" lon="-0.063683">
        <ele>1875.1</ele>
        <time>2025-07-03T15:20:35.587Z</time>
      </trkpt>
      <trkpt lat="42.742391" lon="-0.063338">
        <ele>1871.5</ele>
        <time>2025-07-03T15:21:29.105Z</time>
      </trkpt>
      <trkpt lat="42.742515" lon="-0.063045">
        <ele>1869.1</ele>
        <time>2025-07-03T15:22:08.545Z</time>
      </trkpt>
      <trkpt lat="42.742476" lon="-0.062738">
        <ele>1867.6</ele>
        <time>2025-07-03T15:22:39.115Z</time>
      </trkpt>
      <trkpt lat="42.742360" lon="-0.062402">
        <ele>1870.4</ele>
        <time>2025-07-03T15:23:33.987Z</time>
      </trkpt>
      <trkpt lat="42.742193" lon="-0.062091">
        <ele>1873.3</ele>
        <time>2025-07-03T15:24:31.770Z</time>
      </trkpt>
      <trkpt lat="42.742008" lon="-0.061606">
        <ele>1876.6</ele>
        <time>2025-07-03T15:25:45.022Z</time>
      </trkpt>
      <trkpt lat="42.741971" lon="-0.061240">
        <ele>1877.5</ele>
        <time>2025-07-03T15:26:20.014Z</time>
      </trkpt>
      <trkpt lat="42.741913" lon="-0.060942">
        <ele>1877.8</ele>
        <time>2025-07-03T15:26:45.461Z</time>
      </trkpt>
      <trkpt lat="42.741931" lon="-0.060645">
        <ele>1879.6</ele>
        <time>2025-07-03T15:27:27.677Z</time>
      </trkpt>
      <trkpt lat="42.741882" lon="-0.060294">
        <ele>1882.8</ele>
        <time>2025-07-03T15:28:25.032Z</time>
      </trkpt>
      <trkpt lat="42.741814" lon="-0.059831">
        <ele>1887.4</ele>
        <time>2025-07-03T15:29:46.430Z</time>
      </trkpt>
      <trkpt lat="42.741785" lon="-0.059475">
        <ele>1891.1</ele>
        <time>2025-07-03T15:30:51.293Z</time>
      </trkpt>
      <trkpt lat="42.741796" lon="-0.059045">
        <ele>1895.1</ele>
        <time>2025-07-03T15:32:04.237Z</time>
      </trkpt>
      <trkpt lat="42.741833" lon="-0.058639">
        <ele>1898.5</ele>
        <time>2025-07-03T15:33:07.631Z</time>
      </trkpt>
      <trkpt lat="42.741805" lon="-0.058292">
        <ele>1901.3</ele>
        <time>2025-07-03T15:34:01.731Z</time>
      </trkpt>
      <trkpt lat="42.741719" lon="-0.057983">
        <ele>1904.6</ele>
        <time>2025-07-03T15:34:59.053Z</time>
      </trkpt>
      <trkpt lat="42.741650" lon="-0.057570">
        <ele>1907.2</ele>
        <time>2025-07-03T15:35:55.592Z</time>
      </trkpt>
      <trkpt lat="42.741767" lon="-0.057216">
        <ele>1905.8</ele>
        <time>2025-07-03T15:36:31.874Z</time>
      </trkpt>
      <trkpt lat="42.741908" lon="-0.056929">
        <ele>1906.1</ele>
        <time>2025-07-03T15:36:59.209Z</time>
      </trkpt>
      <trkpt lat="42.741705" lon="-0.056627">
        <ele>1907.4</ele>
        <time>2025-07-03T15:37:42.620Z</time>
      </trkpt>
      <trkpt lat="42.741642" lon="-0.056225">
        <ele>1909.0</ele>
        <time>2025-07-03T15:38:28.011Z</time>
      </trkpt>
      <trkpt lat="42.741594" lon="-0.055926">
        <ele>1909.6</ele>
        <time>2025-07-03T15:38:56.537Z</time>
      </trkpt>
      <trkpt lat="42.741655" lon="-0.055565">
        <ele>1908.5</ele>
        <time>2025-07-03T15:39:29.432Z</time>
      </trkpt>
      <trkpt lat="42.741736" lon="-0.055138">
        <ele>1907.4</ele>
        <time>2025-07-03T15:40:07.278Z</time>
      </trkpt>
      <trkpt lat="42.741664" lon="-0.054791">
        <ele>1906.6</ele>
        <time>2025-07-03T15:40:37.349Z</time>
      </trkpt>
      <trkpt lat="42.741682" lon="-0.054422">
        <ele>1904.4</ele>
        <time>2025-07-03T15:41:17.242Z</time>
      </trkpt>
      <trkpt lat="42.741605" lon="-0.054143">
        <ele>1902.6</ele>
        <time>2025-07-03T15:41:49.760Z</time>
      </trkpt>
      <trkpt lat="42.741557" lon="-0.053836">
        <ele>1901.0</ele>
        <time>2025-07-03T15:42:22.263Z</time>
      </trkpt>
      <trkpt lat="42.741497" lon="-0.053462">
        <ele>1899.3</ele>
        <time>2025-07-03T15:43:00.313Z</time>
      </trkpt>
      <trkpt lat="42.741320" lon="-0.053245">
        <ele>1898.6</ele>
        <time>2025-07-03T15:43:27.682Z</time>
      </trkpt>
      <trkpt lat="42.741435" lon="-0.052989">
        <ele>1896.4</ele>
        <time>2025-07-03T15:44:03.797Z</time>
      </trkpt>
      <trkpt lat="42.741583" lon="-0.052752">
        <ele>1892.7</ele>
        <time>2025-07-03T15:44:48.376Z</time>
      </trkpt>
      <trkpt lat="42.741707" lon="-0.052483">
        <ele>1889.5</ele>
        <time>2025-07-03T15:45:30.203Z</time>
      </trkpt>
      <trkpt lat="42.741834" lon="-0.052200">
        <ele>1886.8</ele>
        <time>2025-07-03T15:46:11.794Z</time>
      </trkpt>
      <trkpt lat="42.741961" lon="-0.051874">
        <ele>1883.9</ele>
        <time>2025-07-03T15:46:56.234Z</time>
      </trkpt>
      <trkpt lat="42.742241" lon="-0.051490">
        <ele>1879.5</ele>
        <time>2025-07-03T15:48:00.309Z</time>
      </trkpt>
      <trkpt lat="42.742345" lon="-0.051178">
        <ele>1881.8</ele>
        <time>2025-07-03T15:48:47.592Z</time>
      </trkpt>
      <trkpt lat="42.742439" lon="-0.050834">
        <ele>1884.4</ele>
        <time>2025-07-03T15:49:40.071Z</time>
      </trkpt>
      <trkpt lat="42.742588" lon="-0.050365">
        <ele>1888.2</ele>
        <time>2025-07-03T15:50:55.725Z</time>
      </trkpt>
      <trkpt lat="42.742583" lon="-0.050017">
        <ele>1889.5</ele>
        <time>2025-07-03T15:51:33.864Z</time>
      </trkpt>
      <trkpt lat="42.742652" lon="-0.049693">
        <ele>1889.9</ele>
        <time>2025-07-03T15:52:02.496Z</time>
      </trkpt>
      <trkpt lat="42.742746" lon="-0.049365">
        <ele>1884.9</ele>
        <time>2025-07-03T15:52:58.264Z</time>
      </trkpt>
      <trkpt lat="42.742900" lon="-0.048946">
        <ele>1877.0</ele>
        <time>2025-07-03T15:54:19.663Z</time>
      </trkpt>
      <trkpt lat="42.742880" lon="-0.048602">
        <ele>1875.4</ele>
        <time>2025-07-03T15:54:54.018Z</time>
      </trkpt>
      <trkpt lat="42.742812" lon="-0.048230">
        <ele>1873.7</ele>
        <time>2025-07-03T15:55:31.210Z</time>
      </trkpt>
      <trkpt lat="42.742772" lon="-0.047851">
        <ele>1870.4</ele>
        <time>2025-07-03T15:56:18.640Z</time>
      </trkpt>
      <trkpt lat="42.742723" lon="-0.047369">
        <ele>1867.3</ele>
        <time>2025-07-03T15:57:11.599Z</time>
      </trkpt>
      <trkpt lat="42.742731" lon="-0.047033">
        <ele>1866.1</ele>
        <time>2025-07-03T15:57:43.245Z</time>
      </trkpt>
      <trkpt lat="42.742803" lon="-0.046708">
        <ele>1866.2</ele>
        <time>2025-07-03T15:58:08.526Z</time>
      </trkpt>
      <trkpt lat="42.742778" lon="-0.046247">
        <ele>1868.1</ele>
        <time>2025-07-03T15:59:00.000Z</time>
      </trkpt>
      <trkpt lat="42.742867" lon="-0.045858">
        <ele>1864.5</ele>
        <time>2025-07-03T15:59:50.185Z</time>
      </trkpt>
      <trkpt lat="42.742939" lon="-0.045573">
        <ele>1862.1</ele>
        <time>2025-07-03T16:00:26.315Z</time>
      </trkpt>
      <trkpt lat="42.742967" lon="-0.045264">
        <ele>1860.6</ele>
        <time>2025-07-03T16:00:56.810Z</time>
      </trkpt>
      <trkpt lat="42.742736" lon="-0.044959">
        <ele>1863.0</ele>
        <time>2025-07-03T16:01:55.492Z</time>
      </trkpt>
      <trkpt lat="42.742474" lon="-0.044861">
        <ele>1870.6</ele>
        <time>2025-07-03T16:03:39.597Z</time>
      </trkpt>
      <trkpt lat="42.742252" lon="-0.044835">
        <ele>1871.4</ele>
        <time>2025-07-03T16:04:10.921Z</time>
      </trkpt>
      <trkpt lat="42.742065" lon="-0.044391">
        <ele>1869.4</ele>
        <time>2025-07-03T16:05:00.773Z</time>
      </trkpt>
      <trkpt lat="42.742017" lon="-0.044116">
        <ele>1861.2</ele>
        <time>2025-07-03T16:06:11.974Z</time>
      </trkpt>
      <trkpt lat="42.741934" lon="-0.043836">
        <ele>1852.4</ele>
        <time>2025-07-03T16:07:27.096Z</time>
      </trkpt>
      <trkpt lat="42.741708" lon="-0.043404">
        <ele>1848.2</ele>
        <time>2025-07-03T16:08:31.912Z</time>
      </trkpt>
      <trkpt lat="42.741703" lon="-0.043081">
        <ele>1844.3</ele>
        <time>2025-07-03T16:09:19.599Z</time>
      </trkpt>
      <trkpt lat="42.741612" lon="-0.042740">
        <ele>1839.9</ele>
        <time>2025-07-03T16:10:11.757Z</time>
      </trkpt>
      <trkpt lat="42.741484" lon="-0.042347">
        <ele>1840.1</ele>
        <time>2025-07-03T16:10:46.631Z</time>
      </trkpt>
      <trkpt lat="42.741396" lon="-0.041990">
        <ele>1840.3</ele>
        <time>2025-07-03T16:11:16.727Z</time>
      </trkpt>
      <trkpt lat="42.741304" lon="-0.041734">
        <ele>1840.4</ele>
        <time>2025-07-03T16:11:39.398Z</time>
      </trkpt>
      <trkpt lat="42.741310" lon="-0.041375">
        <ele>1837.5</ele>
        <time>2025-07-03T16:12:22.363Z</time>
      </trkpt>
      <trkpt lat="42.741287" lon="-0.041076">
        <ele>1833.4</ele>
        <time>2025-07-03T16:13:08.531Z</time>
      </trkpt>
      <trkpt lat="42.741338" lon="-0.040786">
        <ele>1829.7</ele>
        <time>2025-07-03T16:13:52.266Z</time>
      </trkpt>
      <trkpt lat="42.741342" lon="-0.040439">
        <ele>1825.4</ele>
        <time>2025-07-03T16:14:43.716Z</time>
      </trkpt>
      <trkpt lat="42.741346" lon="-0.040090">
        <ele>1822.2</ele>
        <time>2025-07-03T16:15:28.244Z</time>
      </trkpt>
      <trkpt lat="42.741374" lon="-0.039788">
        <ele>1819.9</ele>
        <time>2025-07-03T16:16:03.834Z</time>
      </trkpt>
      <trkpt lat="42.741404" lon="-0.039426">
        <ele>1816.7</ele>
        <time>2025-07-03T16:16:48.269Z</time>
      </trkpt>
      <trkpt lat="42.741417" lon="-0.039107">
        <ele>1813.9</ele>
        <time>2025-07-03T16:17:28.325Z</time>
      </trkpt>
      <trkpt lat="42.741535" lon="-0.038772">
        <ele>1811.9</ele>
        <time>2025-07-03T16:18:06.645Z</time>
      </trkpt>
      <trkpt lat="42.741512" lon="-0.038402">
        <ele>1810.5</ele>
        <time>2025-07-03T16:18:40.965Z</time>
      </trkpt>
      <trkpt lat="42.741405" lon="-0.038115">
        <ele>1813.9</ele>
        <time>2025-07-03T16:19:38.165Z</time>
      </trkpt>
      <trkpt lat="42.741256" lon="-0.037706">
        <ele>1818.5</ele>
        <time>2025-07-03T16:20:58.454Z</time>
      </trkpt>
      <trkpt lat="42.741295" lon="-0.037244">
        <ele>1813.3</ele>
        <time>2025-07-03T16:22:04.560Z</time>
      </trkpt>
      <trkpt lat="42.741382" lon="-0.036919">
        <ele>1809.5</ele>
        <time>2025-07-03T16:22:51.953Z</time>
      </trkpt>
      <trkpt lat="42.741354" lon="-0.036585">
        <ele>1805.4</ele>
        <time>2025-07-03T16:23:40.126Z</time>
      </trkpt>
      <trkpt lat="42.741336" lon="-0.036238">
        <ele>1802.0</ele>
        <time>2025-07-03T16:24:25.366Z</time>
      </trkpt>
      <trkpt lat="42.741141" lon="-0.035828">
        <ele>1799.2</ele>
        <time>2025-07-03T16:25:16.498Z</time>
      </trkpt>
      <trkpt lat="42.741001" lon="-0.035553">
        <ele>1796.7</ele>
        <time>2025-07-03T16:25:56.217Z</time>
      </trkpt>
      <trkpt lat="42.740920" lon="-0.035229">
        <ele>1794.0</ele>
        <time>2025-07-03T16:26:36.393Z</time>
      </trkpt>
      <trkpt lat="42.740894" lon="-0.034917">
        <ele>1790.5</ele>
        <time>2025-07-03T16:27:19.272Z</time>
      </trkpt>
      <trkpt lat="42.740813" lon="-0.034554">
        <ele>1786.2</ele>
        <time>2025-07-03T16:28:12.330Z</time>
      </trkpt>
      <trkpt lat="42.740703" lon="-0.034258">
        <ele>1785.8</ele>
        <time>2025-07-03T16:28:37.902Z</time>
      </trkpt>
      <trkpt lat="42.740494" lon="-0.033997">
        <ele>1784.9</ele>
        <time>2025-07-03T16:29:10.937Z</time>
      </trkpt>
      <trkpt lat="42.740362" lon="-0.033743">
        <ele>1782.7</ele>
        <time>2025-07-03T16:29:48.210Z</time>
      </trkpt>
      <trkpt lat="42.740313" lon="-0.033361">
        <ele>1778.9</ele>
        <time>2025-07-03T16:30:39.066Z</time>
      </trkpt>
      <trkpt lat="42.740282" lon="-0.032847">
        <ele>1771.6</ele>
        <time>2025-07-03T16:31:59.173Z</time>
      </trkpt>
      <trkpt lat="42.740151" lon="-0.032479">
        <ele>1769.3</ele>
        <time>2025-07-03T16:32:41.012Z</time>
      </trkpt>
      <trkpt lat="42.739983" lon="-0.031928">
        <ele>1768.5</ele>
        <time>2025-07-03T16:33:27.990Z</time>
      </trkpt>
      <trkpt lat="42.739896" lon="-0.031632">
        <ele>1769.1</ele>
        <time>2025-07-03T16:33:57.341Z</time>
      </trkpt>
      <trkpt lat="42.739968" lon="-0.031162">
        <ele>1764.1</ele>
        <time>2025-07-03T16:35:02.612Z</time>
      </trkpt>
      <trkpt lat="42.740127" lon="-0.030863">
        <ele>1761.0</ele>
        <time>2025-07-03T16:35:47.575Z</time>
      </trkpt>
      <trkpt lat="42.740355" lon="-0.030372">
        <ele>1757.0</ele>
        <time>2025-07-03T16:36:52.165Z</time>
      </trkpt>
      <trkpt lat="42.740311" lon="-0.029850">
        <ele>1751.0</ele>
        <time>2025-07-03T16:38:05.320Z</time>
      </trkpt>
      <trkpt lat="42.740265" lon="-0.029455">
        <ele>1747.7</ele>
        <time>2025-07-03T16:38:52.899Z</time>
      </trkpt>
      <trkpt lat="42.740079" lon="-0.029385">
        <ele>1747.3</ele>
        <time>2025-07-03T16:39:18.613Z</time>
      </trkpt>
      <trkpt lat="42.739830" lon="-0.029544">
        <ele>1742.3</ele>
        <time>2025-07-03T16:40:22.731Z</time>
      </trkpt>
      <trkpt lat="42.739517" lon="-0.029233">
        <ele>1733.7</ele>
        <time>2025-07-03T16:41:51.170Z</time>
      </trkpt>
      <trkpt lat="42.739425" lon="-0.028947">
        <ele>1728.3</ele>
        <time>2025-07-03T16:42:45.614Z</time>
      </trkpt>
      <trkpt lat="42.739416" lon="-0.028637">
        <ele>1722.8</ele>
        <time>2025-07-03T16:43:41.361Z</time>
      </trkpt>
      <trkpt lat="42.739359" lon="-0.028271">
        <ele>1716.7</ele>
        <time>2025-07-03T16:44:45.429Z</time>
      </trkpt>
      <trkpt lat="42.739418" lon="-0.027942">
        <ele>1710.5</ele>
        <time>2025-07-03T16:45:46.650Z</time>
      </trkpt>
      <trkpt lat="42.739340" lon="-0.027622">
        <ele>1700.6</ele>
        <time>2025-07-03T16:47:10.068Z</time>
      </trkpt>
      <trkpt lat="42.739384" lon="-0.027298">
        <ele>1688.7</ele>
        <time>2025-07-03T16:48:45.065Z</time>
      </trkpt>
      <trkpt lat="42.739310" lon="-0.026924">
        <ele>1668.1</ele>
        <time>2025-07-03T16:51:16.881Z</time>
      </trkpt>
      <trkpt lat="42.739200" lon="-0.026784">
        <ele>1661.9</ele>
        <time>2025-07-03T16:52:20.044Z</time>
      </trkpt>
      <trkpt lat="42.739088" lon="-0.026952">
        <ele>1670.7</ele>
        <time>2025-07-03T16:54:16.992Z</time>
      </trkpt>
      <trkpt lat="42.738989" lon="-0.027259">
        <ele>1680.0</ele>
        <time>2025-07-03T16:56:19.110Z</time>
      </trkpt>
      <trkpt lat="42.738884" lon="-0.027568">
        <ele>1689.5</ele>
        <time>2025-07-03T16:58:23.119Z</time>
      </trkpt>
      <trkpt lat="42.738730" lon="-0.027807">
        <ele>1685.0</ele>
        <time>2025-07-03T16:59:13.878Z</time>
      </trkpt>
      <trkpt lat="42.738645" lon="-0.027589">
        <ele>1681.0</ele>
        <time>2025-07-03T16:59:59.429Z</time>
      </trkpt>
      <trkpt lat="42.738497" lon="-0.027037">
        <ele>1662.0</ele>
        <time>2025-07-03T17:02:35.075Z</time>
      </trkpt>
      <trkpt lat="42.738408" lon="-0.027117">
        <ele>1659.0</ele>
        <time>2025-07-03T17:03:17.396Z</time>
      </trkpt>
      <trkpt lat="42.738217" lon="-0.027385">
        <ele>1658.6</ele>
        <time>2025-07-03T17:03:46.930Z</time>
      </trkpt>
      <trkpt lat="42.737935" lon="-0.027435">
        <ele>1649.7</ele>
        <time>2025-07-03T17:05:07.579Z</time>
      </trkpt>
      <trkpt lat="42.737639" lon="-0.027271">
        <ele>1639.8</ele>
        <time>2025-07-03T17:06:37.534Z</time>
      </trkpt>
      <trkpt lat="42.737448" lon="-0.026752">
        <ele>1635.1</ele>
        <time>2025-07-03T17:07:46.249Z</time>
      </trkpt>
      <trkpt lat="42.737651" lon="-0.026645">
        <ele>1626.2</ele>
        <time>2025-07-03T17:09:01.428Z</time>
      </trkpt>
      <trkpt lat="42.737821" lon="-0.026420">
        <ele>1615.5</ele>
        <time>2025-07-03T17:10:28.870Z</time>
      </trkpt>
      <trkpt lat="42.737683" lon="-0.026250">
        <ele>1609.3</ele>
        <time>2025-07-03T17:11:27.823Z</time>
      </trkpt>
      <trkpt lat="42.737725" lon="-0.026003">
        <ele>1602.9</ele>
        <time>2025-07-03T17:12:28.644Z</time>
      </trkpt>
      <trkpt lat="42.737846" lon="-0.025735">
        <ele>1596.4</ele>
        <time>2025-07-03T17:13:31.618Z</time>
      </trkpt>
      <trkpt lat="42.737992" lon="-0.025438">
        <ele>1589.2</ele>
        <time>2025-07-03T17:14:41.320Z</time>
      </trkpt>
      <trkpt lat="42.738176" lon="-0.025154">
        <ele>1584.3</ele>
        <time>2025-07-03T17:15:39.950Z</time>
      </trkpt>
      <trkpt lat="42.738411" lon="-0.024876">
        <ele>1575.3</ele>
        <time>2025-07-03T17:17:04.567Z</time>
      </trkpt>
      <trkpt lat="42.738433" lon="-0.024568">
        <ele>1564.6</ele>
        <time>2025-07-03T17:18:31.483Z</time>
      </trkpt>
      <trkpt lat="42.738507" lon="-0.024319">
        <ele>1556.6</ele>
        <time>2025-07-03T17:19:41.254Z</time>
      </trkpt>
      <trkpt lat="42.738461" lon="-0.024070">
        <ele>1549.3</ele>
        <time>2025-07-03T17:20:47.339Z</time>
      </trkpt>
      <trkpt lat="42.738504" lon="-0.023830">
        <ele>1542.3</ele>
        <time>2025-07-03T17:21:54.152Z</time>
      </trkpt>
      <trkpt lat="42.738702" lon="-0.023881">
        <ele>1536.3</ele>
        <time>2025-07-03T17:22:52.298Z</time>
      </trkpt>
      <trkpt lat="42.738708" lon="-0.023593">
        <ele>1529.1</ele>
        <time>2025-07-03T17:23:58.011Z</time>
      </trkpt>
      <trkpt lat="42.738869" lon="-0.023415">
        <ele>1521.1</ele>
        <time>2025-07-03T17:25:08.251Z</time>
      </trkpt>
      <trkpt lat="42.739075" lon="-0.023516">
        <ele>1516.3</ele>
        <time>2025-07-03T17:25:58.815Z</time>
      </trkpt>
      <trkpt lat="42.739236" lon="-0.023508">
        <ele>1512.7</ele>
        <time>2025-07-03T17:26:43.764Z</time>
      </trkpt>
      <trkpt lat="42.739192" lon="-0.023205">
        <ele>1508.4</ele>
        <time>2025-07-03T17:27:31.406Z</time>
      </trkpt>
      <trkpt lat="42.739141" lon="-0.022887">
        <ele>1503.0</ele>
        <time>2025-07-03T17:28:26.955Z</time>
      </trkpt>
      <trkpt lat="42.739263" lon="-0.022532">
        <ele>1498.2</ele>
        <time>2025-07-03T17:29:25.712Z</time>
      </trkpt>
      <trkpt lat="42.739269" lon="-0.022178">
        <ele>1495.0</ele>
        <time>2025-07-03T17:30:10.760Z</time>
      </trkpt>
      <trkpt lat="42.739306" lon="-0.021737">
        <ele>1492.3</ele>
        <time>2025-07-03T17:30:58.104Z</time>
      </trkpt>
      <trkpt lat="42.739414" lon="-0.021288">
        <ele>1489.1</ele>
        <time>2025-07-03T17:31:50.920Z</time>
      </trkpt>
      <trkpt lat="42.739323" lon="-0.020888">
        <ele>1486.0</ele>
        <time>2025-07-03T17:32:38.600Z</time>
      </trkpt>
      <trkpt lat="42.739274" lon="-0.020809">
        <ele>1487.0</ele>
        <time>2025-07-03T17:32:55.624Z</time>
      </trkpt>
    </trkseg>
  </trk>
</gpx>
