<?xml version="1.0" encoding="UTF-8"?>
<gpx version="1.1" creator="carnet-trek seed (OpenStreetMap, EU-DEM)" xmlns="http://www.topografix.com/GPX/1/1">
  <metadata>
    <name>GR10 – Le Perthus → Col de l&apos;Ouillat</name>
    <copyright author="OpenStreetMap contributors"><license>https://opendatacommons.org/licenses/odbl/</license></copyright>
  </metadata>
  <wpt lat="42.464538" lon="2.862320">
    <name>Le Perthus</name>
    <sym>Convenience Store</sym>
  </wpt>
  <wpt lat="42.481803" lon="2.946795">
    <name>Point culminant (1234 m)</name>
    <sym>Summit</sym>
  </wpt>
  <wpt lat="42.465128" lon="2.864103">
    <name>Chez Paco</name>
    <sym>Lodging</sym>
  </wpt>
  <wpt lat="42.478459" lon="2.951726">
    <name>Source de Tagnarede</name>
    <sym>Lodging</sym>
  </wpt>
  <wpt lat="42.478530" lon="2.951740">
    <name>Col de l&apos;Ouillat</name>
    <sym>Convenience Store</sym>
  </wpt>
  <trk>
    <name>GR10 – Le Perthus → Col de l&apos;Ouillat</name>
    <type>hike</type>
    <trkseg>
      <trkpt lat="42.464538" lon="2.862320">
        <ele>295.6</ele>
        <time>2025-08-03T07:30:00.000Z</time>
      </trkpt>
      <trkpt lat="42.464919" lon="2.862293">
        <ele>296.7</ele>
        <time>2025-08-03T07:30:47.373Z</time>
      </trkpt>
      <trkpt lat="42.465202" lon="2.862343">
        <ele>295.9</ele>
        <time>2025-08-03T07:31:19.279Z</time>
      </trkpt>
      <trkpt lat="42.465235" lon="2.862695">
        <ele>294.6</ele>
        <time>2025-08-03T07:31:53.486Z</time>
      </trkpt>
      <trkpt lat="42.465222" lon="2.863083">
        <ele>291.9</ele>
        <time>2025-08-03T07:32:37.055Z</time>
      </trkpt>
      <trkpt lat="42.465376" lon="2.863187">
        <ele>289.8</ele>
        <time>2025-08-03T07:33:11.839Z</time>
      </trkpt>
      <trkpt lat="42.465705" lon="2.863175">
        <ele>289.7</ele>
        <time>2025-08-03T07:33:43.493Z</time>
      </trkpt>
      <trkpt lat="42.465941" lon="2.863065">
        <ele>288.8</ele>
        <time>2025-08-03T07:34:12.769Z</time>
      </trkpt>
      <trkpt lat="42.466286" lon="2.862790">
        <ele>284.8</ele>
        <time>2025-08-03T07:35:14.999Z</time>
      </trkpt>
      <trkpt lat="42.466421" lon="2.863057">
        <ele>279.2</ele>
        <time>2025-08-03T07:36:11.312Z</time>
      </trkpt>
      <trkpt lat="42.466682" lon="2.863349">
        <ele>271.2</ele>
        <time>2025-08-03T07:37:31.843Z</time>
      </trkpt>
      <trkpt lat="42.466910" lon="2.863569">
        <ele>266.1</ele>
        <time>2025-08-03T07:38:29.422Z</time>
      </trkpt>
      <trkpt lat="42.466850" lon="2.864067">
        <ele>267.1</ele>
        <time>2025-08-03T07:39:16.725Z</time>
      </trkpt>
      <trkpt lat="42.466780" lon="2.864441">
        <ele>272.5</ele>
        <time>2025-08-03T07:40:39.548Z</time>
      </trkpt>
      <trkpt lat="42.466760" lon="2.864793">
        <ele>278.1</ele>
        <time>2025-08-03T07:42:02.272Z</time>
      </trkpt>
      <trkpt lat="42.466681" lon="2.865164">
        <ele>284.2</ele>
        <time>2025-08-03T07:43:32.891Z</time>
      </trkpt>
      <trkpt lat="42.466519" lon="2.865413">
        <ele>289.2</ele>
        <time>2025-08-03T07:44:48.416Z</time>
      </trkpt>
      <trkpt lat="42.466388" lon="2.865788">
        <ele>295.3</ele>
        <time>2025-08-03T07:46:20.329Z</time>
      </trkpt>
      <trkpt lat="42.466202" lon="2.866001">
        <ele>300.3</ele>
        <time>2025-08-03T07:47:34.473Z</time>
      </trkpt>
      <trkpt lat="42.466179" lon="2.866293">
        <ele>303.7</ele>
        <time>2025-08-03T07:48:31.563Z</time>
      </trkpt>
      <trkpt lat="42.466112" lon="2.866544">
        <ele>305.5</ele>
        <time>2025-08-03T07:49:13.844Z</time>
      </trkpt>
      <trkpt lat="42.465953" lon="2.866067">
        <ele>307.0</ele>
        <time>2025-08-03T07:50:06.723Z</time>
      </trkpt>
      <trkpt lat="42.465772" lon="2.866106">
        <ele>307.2</ele>
        <time>2025-08-03T07:50:35.355Z</time>
      </trkpt>
      <trkpt lat="42.465759" lon="2.866499">
        <ele>312.3</ele>
        <time>2025-08-03T07:51:55.954Z</time>
      </trkpt>
      <trkpt lat="42.465877" lon="2.866920">
        <ele>320.2</ele>
        <time>2025-08-03T07:53:53.055Z</time>
      </trkpt>
      <trkpt lat="42.465970" lon="2.867295">
        <ele>327.9</ele>
        <time>2025-08-03T07:55:42.240Z</time>
      </trkpt>
      <trkpt lat="42.466058" lon="2.867643">
        <ele>340.8</ele>
        <time>2025-08-03T07:58:24.389Z</time>
      </trkpt>
      <trkpt lat="42.466079" lon="2.868007">
        <ele>352.0</ele>
        <time>2025-08-03T08:00:45.015Z</time>
      </trkpt>
      <trkpt lat="42.466048" lon="2.868428">
        <ele>362.7</ele>
        <time>2025-08-03T08:03:05.643Z</time>
      </trkpt>
      <trkpt lat="42.466023" lon="2.868860">
        <ele>372.6</ele>
        <time>2025-08-03T08:05:17.504Z</time>
      </trkpt>
      <trkpt lat="42.465954" lon="2.869149">
        <ele>378.3</ele>
        <time>2025-08-03T08:06:38.019Z</time>
      </trkpt>
      <trkpt lat="42.465999" lon="2.869590">
        <ele>386.6</ele>
        <time>2025-08-03T08:08:34.584Z</time>
      </trkpt>
      <trkpt lat="42.466043" lon="2.869936">
        <ele>394.8</ele>
        <time>2025-08-03T08:10:23.585Z</time>
      </trkpt>
      <trkpt lat="42.466247" lon="2.870472">
        <ele>406.9</ele>
        <time>2025-08-03T08:13:11.412Z</time>
      </trkpt>
      <trkpt lat="42.466223" lon="2.870995">
        <ele>415.7</ele>
        <time>2025-08-03T08:15:19.222Z</time>
      </trkpt>
      <trkpt lat="42.466368" lon="2.870499">
        <ele>409.7</ele>
        <time>2025-08-03T08:16:37.761Z</time>
      </trkpt>
      <trkpt lat="42.466467" lon="2.870145">
        <ele>406.6</ele>
        <time>2025-08-03T08:17:22.889Z</time>
      </trkpt>
      <trkpt lat="42.466728" lon="2.869817">
        <ele>406.0</ele>
        <time>2025-08-03T08:18:00.995Z</time>
      </trkpt>
      <trkpt lat="42.466952" lon="2.869565">
        <ele>405.4</ele>
        <time>2025-08-03T08:18:32.100Z</time>
      </trkpt>
      <trkpt lat="42.467303" lon="2.869409">
        <ele>407.8</ele>
        <time>2025-08-03T08:19:32.359Z</time>
      </trkpt>
      <trkpt lat="42.467248" lon="2.869623">
        <ele>411.4</ele>
        <time>2025-08-03T08:20:35.452Z</time>
      </trkpt>
      <trkpt lat="42.467075" lon="2.870062">
        <ele>417.3</ele>
        <time>2025-08-03T08:22:11.425Z</time>
      </trkpt>
      <trkpt lat="42.466997" lon="2.870358">
        <ele>420.5</ele>
        <time>2025-08-03T08:23:06.656Z</time>
      </trkpt>
      <trkpt lat="42.466981" lon="2.870728">
        <ele>424.3</ele>
        <time>2025-08-03T08:24:11.764Z</time>
      </trkpt>
      <trkpt lat="42.466949" lon="2.871106">
        <ele>425.8</ele>
        <time>2025-08-03T08:24:53.770Z</time>
      </trkpt>
      <trkpt lat="42.466730" lon="2.871436">
        <ele>427.6</ele>
        <time>2025-08-03T08:25:43.260Z</time>
      </trkpt>
      <trkpt lat="42.466576" lon="2.871811">
        <ele>431.6</ele>
        <time>2025-08-03T08:26:54.683Z</time>
      </trkpt>
      <trkpt lat="42.466513" lon="2.872123">
        <ele>434.6</ele>
        <time>2025-08-03T08:27:48.445Z</time>
      </trkpt>
      <trkpt lat="42.466347" lon="2.872544">
        <ele>441.3</ele>
        <time>2025-08-03T08:29:30.718Z</time>
      </trkpt>
      <trkpt lat="42.466246" lon="2.872929">
        <ele>447.0</ele>
        <time>2025-08-03T08:30:58.241Z</time>
      </trkpt>
      <trkpt lat="42.466173" lon="2.873359">
        <ele>451.6</ele>
        <time>2025-08-03T08:32:17.224Z</time>
      </trkpt>
      <trkpt lat="42.466074" lon="2.873958">
        <ele>458.1</ele>
        <time>2025-08-03T08:34:06.904Z</time>
      </trkpt>
      <trkpt lat="42.465826" lon="2.874509">
        <ele>462.3</ele>
        <time>2025-08-03T08:35:36.127Z</time>
      </trkpt>
      <trkpt lat="42.465683" lon="2.874754">
        <ele>464.1</ele>
        <time>2025-08-03T08:36:16.019Z</time>
      </trkpt>
      <trkpt lat="42.465504" lon="2.875016">
        <ele>466.1</ele>
        <time>2025-08-03T08:37:01.601Z</time>
      </trkpt>
      <trkpt lat="42.465200" lon="2.875298">
        <ele>467.9</ele>
        <time>2025-08-03T08:37:55.233Z</time>
      </trkpt>
      <trkpt lat="42.464793" lon="2.875551">
        <ele>470.9</ele>
        <time>2025-08-03T08:39:09.278Z</time>
      </trkpt>
      <trkpt lat="42.464720" lon="2.875679">
        <ele>473.0</ele>
        <time>2025-08-03T08:39:54.109Z</time>
      </trkpt>
      <trkpt lat="42.464944" lon="2.875798">
        <ele>475.0</ele>
        <time>2025-08-03T08:40:38.420Z</time>
      </trkpt>
      <trkpt lat="42.464755" lon="2.875979">
        <ele>476.9</ele>
        <time>2025-08-03T08:41:21.508Z</time>
      </trkpt>
      <trkpt lat="42.464515" lon="2.876194">
        <ele>481.2</ele>
        <time>2025-08-03T08:42:33.311Z</time>
      </trkpt>
      <trkpt lat="42.464500" lon="2.876503">
        <ele>484.8</ele>
        <time>2025-08-03T08:43:32.727Z</time>
      </trkpt>
      <trkpt lat="42.464405" lon="2.876960">
        <ele>490.8</ele>
        <time>2025-08-03T08:45:07.694Z</time>
      </trkpt>
      <trkpt lat="42.464336" lon="2.877390">
        <ele>495.2</ele>
        <time>2025-08-03T08:46:23.603Z</time>
      </trkpt>
      <trkpt lat="42.464329" lon="2.877714">
        <ele>498.0</ele>
        <time>2025-08-03T08:47:16.240Z</time>
      </trkpt>
      <trkpt lat="42.464321" lon="2.878067">
        <ele>499.1</ele>
        <time>2025-08-03T08:47:52.431Z</time>
      </trkpt>
      <trkpt lat="42.464342" lon="2.878335">
        <ele>500.1</ele>
        <time>2025-08-03T08:48:24.210Z</time>
      </trkpt>
      <trkpt lat="42.464235" lon="2.878665">
        <ele>504.9</ele>
        <time>2025-08-03T08:49:38.998Z</time>
      </trkpt>
      <trkpt lat="42.463966" lon="2.879415">
        <ele>516.0</ele>
        <time>2025-08-03T08:52:32.852Z</time>
      </trkpt>
      <trkpt lat="42.463890" lon="2.879819">
        <ele>522.0</ele>
        <time>2025-08-03T08:54:03.337Z</time>
      </trkpt>
      <trkpt lat="42.463746" lon="2.880158">
        <ele>527.6</ele>
        <time>2025-08-03T08:55:28.328Z</time>
      </trkpt>
      <trkpt lat="42.463606" lon="2.880486">
        <ele>532.5</ele>
        <time>2025-08-03T08:56:45.865Z</time>
      </trkpt>
      <trkpt lat="42.463506" lon="2.880788">
        <ele>536.8</ele>
        <time>2025-08-03T08:57:53.372Z</time>
      </trkpt>
      <trkpt lat="42.463332" lon="2.881053">
        <ele>541.9</ele>
        <time>2025-08-03T08:59:10.328Z</time>
      </trkpt>
      <trkpt lat="42.462986" lon="2.881409">
        <ele>550.1</ele>
        <time>2025-08-03T09:01:16.663Z</time>
      </trkpt>
      <trkpt lat="42.462865" lon="2.881793">
        <ele>551.0</ele>
        <time>2025-08-03T09:01:57.424Z</time>
      </trkpt>
      <trkpt lat="42.462785" lon="2.882080">
        <ele>552.7</ele>
        <time>2025-08-03T09:02:36.378Z</time>
      </trkpt>
      <trkpt lat="42.462618" lon="2.882329">
        <ele>557.4</ele>
        <time>2025-08-03T09:03:48.132Z</time>
      </trkpt>
      <trkpt lat="42.462406" lon="2.882701">
        <ele>563.1</ele>
        <time>2025-08-03T09:05:19.879Z</time>
      </trkpt>
      <trkpt lat="42.462286" lon="2.883067">
        <ele>566.8</ele>
        <time>2025-08-03T09:06:26.161Z</time>
      </trkpt>
      <trkpt lat="42.462302" lon="2.883390">
        <ele>566.3</ele>
        <time>2025-08-03T09:06:52.587Z</time>
      </trkpt>
      <trkpt lat="42.462345" lon="2.883692">
        <ele>564.2</ele>
        <time>2025-08-03T09:07:26.534Z</time>
      </trkpt>
      <trkpt lat="42.462308" lon="2.884000">
        <ele>562.2</ele>
        <time>2025-08-03T09:08:00.712Z</time>
      </trkpt>
      <trkpt lat="42.462300" lon="2.884362">
        <ele>565.5</ele>
        <time>2025-08-03T09:08:59.677Z</time>
      </trkpt>
      <trkpt lat="42.462159" lon="2.884671">
        <ele>568.8</ele>
        <time>2025-08-03T09:10:00.307Z</time>
      </trkpt>
      <trkpt lat="42.461684" lon="2.885174">
        <ele>588.0</ele>
        <time>2025-08-03T09:14:15.107Z</time>
      </trkpt>
      <trkpt lat="42.461445" lon="2.885676">
        <ele>592.3</ele>
        <time>2025-08-03T09:15:42.157Z</time>
      </trkpt>
      <trkpt lat="42.461242" lon="2.886288">
        <ele>597.1</ele>
        <time>2025-08-03T09:17:18.660Z</time>
      </trkpt>
      <trkpt lat="42.461132" lon="2.886823">
        <ele>598.9</ele>
        <time>2025-08-03T09:18:15.705Z</time>
      </trkpt>
      <trkpt lat="42.461014" lon="2.887233">
        <ele>600.3</ele>
        <time>2025-08-03T09:19:00.856Z</time>
      </trkpt>
      <trkpt lat="42.460894" lon="2.887608">
        <ele>601.2</ele>
        <time>2025-08-03T09:19:39.280Z</time>
      </trkpt>
      <trkpt lat="42.460880" lon="2.888027">
        <ele>601.1</ele>
        <time>2025-08-03T09:20:09.429Z</time>
      </trkpt>
      <trkpt lat="42.461118" lon="2.888043">
        <ele>599.6</ele>
        <time>2025-08-03T09:20:41.587Z</time>
      </trkpt>
      <trkpt lat="42.461975" lon="2.887752">
        <ele>593.9</ele>
        <time>2025-08-03T09:22:39.886Z</time>
      </trkpt>
      <trkpt lat="42.462502" lon="2.887958">
        <ele>594.0</ele>
        <time>2025-08-03T09:23:33.938Z</time>
      </trkpt>
      <trkpt lat="42.462746" lon="2.888168">
        <ele>592.6</ele>
        <time>2025-08-03T09:24:10.091Z</time>
      </trkpt>
      <trkpt lat="42.462929" lon="2.888436">
        <ele>592.2</ele>
        <time>2025-08-03T09:24:38.326Z</time>
      </trkpt>
      <trkpt lat="42.462860" lon="2.888961">
        <ele>594.0</ele>
        <time>2025-08-03T09:25:36.652Z</time>
      </trkpt>
      <trkpt lat="42.462543" lon="2.889670">
        <ele>604.7</ele>
        <time>2025-08-03T09:28:24.781Z</time>
      </trkpt>
      <trkpt lat="42.462487" lon="2.890001">
        <ele>602.0</ele>
        <time>2025-08-03T09:29:05.068Z</time>
      </trkpt>
      <trkpt lat="42.462657" lon="2.890567">
        <ele>597.2</ele>
        <time>2025-08-03T09:30:16.937Z</time>
      </trkpt>
      <trkpt lat="42.462703" lon="2.891737">
        <ele>591.6</ele>
        <time>2025-08-03T09:32:13.264Z</time>
      </trkpt>
      <trkpt lat="42.462622" lon="2.892525">
        <ele>594.6</ele>
        <time>2025-08-03T09:33:40.163Z</time>
      </trkpt>
      <trkpt lat="42.462713" lon="2.893010">
        <ele>591.4</ele>
        <time>2025-08-03T09:34:34.664Z</time>
      </trkpt>
      <trkpt lat="42.462742" lon="2.893414">
        <ele>592.3</ele>
        <time>2025-08-03T09:35:12.762Z</time>
      </trkpt>
      <trkpt lat="42.462487" lon="2.893828">
        <ele>600.5</ele>
        <time>2025-08-03T09:37:15.654Z</time>
      </trkpt>
      <trkpt lat="42.462337" lon="2.894086">
        <ele>604.3</ele>
        <time>2025-08-03T09:38:17.516Z</time>
      </trkpt>
      <trkpt lat="42.462262" lon="2.894377">
        <ele>607.8</ele>
        <time>2025-08-03T09:39:15.503Z</time>
      </trkpt>
      <trkpt lat="42.462259" lon="2.894691">
        <ele>605.8</ele>
        <time>2025-08-03T09:39:50.184Z</time>
      </trkpt>
      <trkpt lat="42.462369" lon="2.895379">
        <ele>601.1</ele>
        <time>2025-08-03T09:41:07.665Z</time>
      </trkpt>
      <trkpt lat="42.462247" lon="2.895745">
        <ele>605.7</ele>
        <time>2025-08-03T09:42:24.915Z</time>
      </trkpt>
      <trkpt lat="42.461930" lon="2.895977">
        <ele>611.1</ele>
        <time>2025-08-03T09:43:54.463Z</time>
      </trkpt>
      <trkpt lat="42.461740" lon="2.896430">
        <ele>612.4</ele>
        <time>2025-08-03T09:44:44.865Z</time>
      </trkpt>
      <trkpt lat="42.461465" lon="2.896908">
        <ele>614.3</ele>
        <time>2025-08-03T09:45:46.980Z</time>
      </trkpt>
      <trkpt lat="42.461233" lon="2.897557">
        <ele>614.8</ele>
        <time>2025-08-03T09:46:43.128Z</time>
      </trkpt>
      <trkpt lat="42.460939" lon="2.898498">
        <ele>614.2</ele>
        <time>2025-08-03T09:47:58.420Z</time>
      </trkpt>
      <trkpt lat="42.460998" lon="2.899243">
        <ele>608.9</ele>
        <time>2025-08-03T09:49:23.176Z</time>
      </trkpt>
      <trkpt lat="42.460948" lon="2.899568">
        <ele>609.6</ele>
        <time>2025-08-03T09:49:53.606Z</time>
      </trkpt>
      <trkpt lat="42.460810" lon="2.899837">
        <ele>610.2</ele>
        <time>2025-08-03T09:50:23.605Z</time>
      </trkpt>
      <trkpt lat="42.460347" lon="2.900243">
        <ele>619.0</ele>
        <time>2025-08-03T09:52:46.521Z</time>
      </trkpt>
      <trkpt lat="42.460259" lon="2.900637">
        <ele>617.2</ele>
        <time>2025-08-03T09:53:26.868Z</time>
      </trkpt>
      <trkpt lat="42.459975" lon="2.900856">
        <ele>619.0</ele>
        <time>2025-08-03T09:54:17.418Z</time>
      </trkpt>
      <trkpt lat="42.459618" lon="2.901017">
        <ele>624.2</ele>
        <time>2025-08-03T09:55:47.852Z</time>
      </trkpt>
      <trkpt lat="42.459437" lon="2.901206">
        <ele>625.5</ele>
        <time>2025-08-03T09:56:22.547Z</time>
      </trkpt>
      <trkpt lat="42.459250" lon="2.901692">
        <ele>627.7</ele>
        <time>2025-08-03T09:57:24.798Z</time>
      </trkpt>
      <trkpt lat="42.459294" lon="2.902210">
        <ele>623.9</ele>
        <time>2025-08-03T09:58:24.602Z</time>
      </trkpt>
      <trkpt lat="42.459488" lon="2.902641">
        <ele>620.2</ele>
        <time>2025-08-03T09:59:22.198Z</time>
      </trkpt>
      <trkpt lat="42.459715" lon="2.903088">
        <ele>612.2</ele>
        <time>2025-08-03T10:00:48.450Z</time>
      </trkpt>
      <trkpt lat="42.459630" lon="2.903726">
        <ele>614.5</ele>
        <time>2025-08-03T10:01:57.574Z</time>
      </trkpt>
      <trkpt lat="42.459239" lon="2.903978">
        <ele>623.4</ele>
        <time>2025-08-03T10:04:12.609Z</time>
      </trkpt>
      <trkpt lat="42.459060" lon="2.904184">
        <ele>629.2</ele>
        <time>2025-08-03T10:05:34.699Z</time>
      </trkpt>
      <trkpt lat="42.458983" lon="2.904493">
        <ele>626.7</ele>
        <time>2025-08-03T10:06:12.995Z</time>
      </trkpt>
      <trkpt lat="42.459144" lon="2.904718">
        <ele>624.3</ele>
        <time>2025-08-03T10:06:49.457Z</time>
      </trkpt>
      <trkpt lat="42.459278" lon="2.905126">
        <ele>622.2</ele>
        <time>2025-08-03T10:07:33.318Z</time>
      </trkpt>
      <trkpt lat="42.459271" lon="2.905482">
        <ele>620.6</ele>
        <time>2025-08-03T10:08:08.244Z</time>
      </trkpt>
      <trkpt lat="42.459225" lon="2.906134">
        <ele>630.0</ele>
        <time>2025-08-03T10:10:30.751Z</time>
      </trkpt>
      <trkpt lat="42.459397" lon="2.906467">
        <ele>626.4</ele>
        <time>2025-08-03T10:11:23.025Z</time>
      </trkpt>
      <trkpt lat="42.459754" lon="2.906515">
        <ele>622.5</ele>
        <time>2025-08-03T10:12:20.587Z</time>
      </trkpt>
      <trkpt lat="42.460196" lon="2.906973">
        <ele>624.4</ele>
        <time>2025-08-03T10:13:32.907Z</time>
      </trkpt>
      <trkpt lat="42.460643" lon="2.907347">
        <ele>621.7</ele>
        <time>2025-08-03T10:14:38.794Z</time>
      </trkpt>
      <trkpt lat="42.460771" lon="2.907762">
        <ele>626.5</ele>
        <time>2025-08-03T10:16:00.217Z</time>
      </trkpt>
      <trkpt lat="42.460811" lon="2.908089">
        <ele>630.0</ele>
        <time>2025-08-03T10:16:58.926Z</time>
      </trkpt>
      <trkpt lat="42.460937" lon="2.908414">
        <ele>626.0</ele>
        <time>2025-08-03T10:17:48.931Z</time>
      </trkpt>
      <trkpt lat="42.461201" lon="2.908793">
        <ele>620.3</ele>
        <time>2025-08-03T10:18:59.254Z</time>
      </trkpt>
      <trkpt lat="42.461233" lon="2.909181">
        <ele>625.6</ele>
        <time>2025-08-03T10:20:21.882Z</time>
      </trkpt>
      <trkpt lat="42.460998" lon="2.909841">
        <ele>635.3</ele>
        <time>2025-08-03T10:22:52.438Z</time>
      </trkpt>
      <trkpt lat="42.460990" lon="2.910159">
        <ele>633.9</ele>
        <time>2025-08-03T10:23:23.749Z</time>
      </trkpt>
      <trkpt lat="42.461320" lon="2.910242">
        <ele>631.8</ele>
        <time>2025-08-03T10:24:09.155Z</time>
      </trkpt>
      <trkpt lat="42.461688" lon="2.910206">
        <ele>625.1</ele>
        <time>2025-08-03T10:25:24.744Z</time>
      </trkpt>
      <trkpt lat="42.461906" lon="2.910238">
        <ele>625.0</ele>
        <time>2025-08-03T10:25:46.644Z</time>
      </trkpt>
      <trkpt lat="42.461886" lon="2.910769">
        <ele>631.9</ele>
        <time>2025-08-03T10:27:34.258Z</time>
      </trkpt>
      <trkpt lat="42.462587" lon="2.911638">
        <ele>630.9</ele>
        <time>2025-08-03T10:29:13.151Z</time>
      </trkpt>
      <trkpt lat="42.462701" lon="2.912126">
        <ele>632.9</ele>
        <time>2025-08-03T10:30:09.791Z</time>
      </trkpt>
      <trkpt lat="42.462769" lon="2.912990">
        <ele>639.9</ele>
        <time>2025-08-03T10:32:25.562Z</time>
      </trkpt>
      <trkpt lat="42.462630" lon="2.913296">
        <ele>644.7</ele>
        <time>2025-08-03T10:33:39.274Z</time>
      </trkpt>
      <trkpt lat="42.462468" lon="2.914315">
        <ele>658.4</ele>
        <time>2025-08-03T10:37:13.464Z</time>
      </trkpt>
      <trkpt lat="42.462472" lon="2.914814">
        <ele>663.3</ele>
        <time>2025-08-03T10:38:39.025Z</time>
      </trkpt>
      <trkpt lat="42.462729" lon="2.914996">
        <ele>662.7</ele>
        <time>2025-08-03T10:39:19.722Z</time>
      </trkpt>
      <trkpt lat="42.462970" lon="2.914669">
        <ele>657.4</ele>
        <time>2025-08-03T10:40:24.287Z</time>
      </trkpt>
      <trkpt lat="42.463584" lon="2.914154">
        <ele>645.8</ele>
        <time>2025-08-03T10:42:42.236Z</time>
      </trkpt>
      <trkpt lat="42.463944" lon="2.913999">
        <ele>645.5</ele>
        <time>2025-08-03T10:43:20.452Z</time>
      </trkpt>
      <trkpt lat="42.464368" lon="2.914117">
        <ele>645.1</ele>
        <time>2025-08-03T10:44:04.167Z</time>
      </trkpt>
      <trkpt lat="42.464605" lon="2.914385">
        <ele>648.7</ele>
        <time>2025-08-03T10:45:11.250Z</time>
      </trkpt>
      <trkpt lat="42.464910" lon="2.914503">
        <ele>652.5</ele>
        <time>2025-08-03T10:46:20.039Z</time>
      </trkpt>
      <trkpt lat="42.465291" lon="2.914908">
        <ele>662.5</ele>
        <time>2025-08-03T10:48:54.743Z</time>
      </trkpt>
      <trkpt lat="42.465415" lon="2.915301">
        <ele>668.3</ele>
        <time>2025-08-03T10:50:24.710Z</time>
      </trkpt>
      <trkpt lat="42.465672" lon="2.914785">
        <ele>670.3</ele>
        <time>2025-08-03T10:51:41.296Z</time>
      </trkpt>
      <trkpt lat="42.465862" lon="2.914682">
        <ele>672.9</ele>
        <time>2025-08-03T10:52:37.443Z</time>
      </trkpt>
      <trkpt lat="42.465933" lon="2.914740">
        <ele>678.8</ele>
        <time>2025-08-03T10:54:19.450Z</time>
      </trkpt>
      <trkpt lat="42.466041" lon="2.915313">
        <ele>686.1</ele>
        <time>2025-08-03T10:56:16.983Z</time>
      </trkpt>
      <trkpt lat="42.466200" lon="2.915488">
        <ele>690.4</ele>
        <time>2025-08-03T10:57:23.195Z</time>
      </trkpt>
      <trkpt lat="42.466362" lon="2.915102">
        <ele>696.8</ele>
        <time>2025-08-03T10:59:02.144Z</time>
      </trkpt>
      <trkpt lat="42.466542" lon="2.914715">
        <ele>704.2</ele>
        <time>2025-08-03T11:00:50.592Z</time>
      </trkpt>
      <trkpt lat="42.466928" lon="2.914379">
        <ele>716.4</ele>
        <time>2025-08-03T11:03:45.796Z</time>
      </trkpt>
      <trkpt lat="42.467132" lon="2.914205">
        <ele>718.9</ele>
        <time>2025-08-03T11:04:34.421Z</time>
      </trkpt>
      <trkpt lat="42.467487" lon="2.913878">
        <ele>723.1</ele>
        <time>2025-08-03T11:06:00.466Z</time>
      </trkpt>
      <trkpt lat="42.467785" lon="2.913548">
        <ele>719.2</ele>
        <time>2025-08-03T11:07:01.035Z</time>
      </trkpt>
      <trkpt lat="42.468033" lon="2.913311">
        <ele>716.7</ele>
        <time>2025-08-03T11:07:44.830Z</time>
      </trkpt>
      <trkpt lat="42.468248" lon="2.913177">
        <ele>715.0</ele>
        <time>2025-08-03T11:08:17.518Z</time>
      </trkpt>
      <trkpt lat="42.468632" lon="2.913869">
        <ele>724.3</ele>
        <time>2025-08-03T11:10:55.000Z</time>
      </trkpt>
      <trkpt lat="42.468820" lon="2.914929">
        <ele>744.0</ele>
        <time>2025-08-03T11:15:35.274Z</time>
      </trkpt>
      <trkpt lat="42.468781" lon="2.915479">
        <ele>756.0</ele>
        <time>2025-08-03T11:18:16.649Z</time>
      </trkpt>
      <trkpt lat="42.468701" lon="2.915989">
        <ele>767.2</ele>
        <time>2025-08-03T11:20:48.912Z</time>
      </trkpt>
      <trkpt lat="42.468873" lon="2.916524">
        <ele>776.3</ele>
        <time>2025-08-03T11:23:04.540Z</time>
      </trkpt>
      <trkpt lat="42.469224" lon="2.917294">
        <ele>790.4</ele>
        <time>2025-08-03T11:26:33.680Z</time>
      </trkpt>
      <trkpt lat="42.469451" lon="2.917794">
        <ele>799.7</ele>
        <time>2025-08-03T11:28:50.967Z</time>
      </trkpt>
      <trkpt lat="42.469849" lon="2.919209">
        <ele>823.7</ele>
        <time>2025-08-03T11:34:44.685Z</time>
      </trkpt>
      <trkpt lat="42.470194" lon="2.919939">
        <ele>835.2</ele>
        <time>2025-08-03T11:37:43.834Z</time>
      </trkpt>
      <trkpt lat="42.470403" lon="2.920192">
        <ele>840.4</ele>
        <time>2025-08-03T11:39:05.184Z</time>
      </trkpt>
      <trkpt lat="42.470535" lon="2.920454">
        <ele>844.8</ele>
        <time>2025-08-03T11:40:12.537Z</time>
      </trkpt>
      <trkpt lat="42.470693" lon="2.920805">
        <ele>850.8</ele>
        <time>2025-08-03T11:41:44.931Z</time>
      </trkpt>
      <trkpt lat="42.470784" lon="2.921261">
        <ele>857.1</ele>
        <time>2025-08-03T11:43:23.310Z</time>
      </trkpt>
      <trkpt lat="42.470886" lon="2.921595">
        <ele>862.9</ele>
        <time>2025-08-03T11:44:51.120Z</time>
      </trkpt>
      <trkpt lat="42.471016" lon="2.922319">
        <ele>873.7</ele>
        <time>2025-08-03T11:47:34.575Z</time>
      </trkpt>
      <trkpt lat="42.471113" lon="2.922720">
        <ele>881.5</ele>
        <time>2025-08-03T11:49:24.605Z</time>
      </trkpt>
      <trkpt lat="42.471223" lon="2.923144">
        <ele>889.4</ele>
        <time>2025-08-03T11:51:18.058Z</time>
      </trkpt>
      <trkpt lat="42.471381" lon="2.923335">
        <ele>894.4</ele>
        <time>2025-08-03T11:52:30.875Z</time>
      </trkpt>
      <trkpt lat="42.471771" lon="2.923535">
        <ele>903.8</ele>
        <time>2025-08-03T11:54:46.651Z</time>
      </trkpt>
      <trkpt lat="42.472158" lon="2.923940">
        <ele>914.7</ele>
        <time>2025-08-03T11:57:26.236Z</time>
      </trkpt>
      <trkpt lat="42.472435" lon="2.924222">
        <ele>918.5</ele>
        <time>2025-08-03T11:58:37.956Z</time>
      </trkpt>
      <trkpt lat="42.472731" lon="2.924427">
        <ele>922.1</ele>
        <time>2025-08-03T11:59:46.799Z</time>
      </trkpt>
      <trkpt lat="42.473662" lon="2.925096">
        <ele>907.2</ele>
        <time>2025-08-03T12:02:56.786Z</time>
      </trkpt>
      <trkpt lat="42.473846" lon="2.925540">
        <ele>908.5</ele>
        <time>2025-08-03T12:03:46.959Z</time>
      </trkpt>
      <trkpt lat="42.474370" lon="2.926292">
        <ele>911.1</ele>
        <time>2025-08-03T12:05:26.659Z</time>
      </trkpt>
      <trkpt lat="42.475659" lon="2.925889">
        <ele>949.7</ele>
        <time>2025-08-03T12:14:11.630Z</time>
      </trkpt>
      <trkpt lat="42.475939" lon="2.925667">
        <ele>948.5</ele>
        <time>2025-08-03T12:14:49.873Z</time>
      </trkpt>
      <trkpt lat="42.476388" lon="2.925063">
        <ele>946.1</ele>
        <time>2025-08-03T12:16:04.448Z</time>
      </trkpt>
      <trkpt lat="42.477050" lon="2.924715">
        <ele>955.5</ele>
        <time>2025-08-03T12:18:48.983Z</time>
      </trkpt>
      <trkpt lat="42.477304" lon="2.924313">
        <ele>953.3</ele>
        <time>2025-08-03T12:19:39.557Z</time>
      </trkpt>
      <trkpt lat="42.477677" lon="2.924187">
        <ele>951.1</ele>
        <time>2025-08-03T12:20:29.294Z</time>
      </trkpt>
      <trkpt lat="42.477898" lon="2.923971">
        <ele>948.7</ele>
        <time>2025-08-03T12:21:10.771Z</time>
      </trkpt>
      <trkpt lat="42.478271" lon="2.923709">
        <ele>945.1</ele>
        <time>2025-08-03T12:22:12.729Z</time>
      </trkpt>
      <trkpt lat="42.478546" lon="2.923541">
        <ele>942.9</ele>
        <time>2025-08-03T12:22:54.529Z</time>
      </trkpt>
      <trkpt lat="42.478741" lon="2.923136">
        <ele>941.0</ele>
        <time>2025-08-03T12:23:40.189Z</time>
      </trkpt>
      <trkpt lat="42.478884" lon="2.922865">
        <ele>940.0</ele>
        <time>2025-08-03T12:24:10.296Z</time>
      </trkpt>
      <trkpt lat="42.479202" lon="2.922672">
        <ele>941.0</ele>
        <time>2025-08-03T12:24:54.230Z</time>
      </trkpt>
      <trkpt lat="42.479374" lon="2.922749">
        <ele>943.7</ele>
        <time>2025-08-03T12:25:47.508Z</time>
      </trkpt>
      <trkpt lat="42.479294" lon="2.923255">
        <ele>945.9</ele>
        <time>2025-08-03T12:26:46.713Z</time>
      </trkpt>
      <trkpt lat="42.479160" lon="2.923652">
        <ele>948.7</ele>
        <time>2025-08-03T12:27:46.863Z</time>
      </trkpt>
      <trkpt lat="42.478963" lon="2.923967">
        <ele>952.5</ele>
        <time>2025-08-03T12:28:55.123Z</time>
      </trkpt>
      <trkpt lat="42.478809" lon="2.924359">
        <ele>959.5</ele>
        <time>2025-08-03T12:30:37.918Z</time>
      </trkpt>
      <trkpt lat="42.478604" lon="2.924863">
        <ele>969.5</ele>
        <time>2025-08-03T12:33:01.173Z</time>
      </trkpt>
      <trkpt lat="42.478436" lon="2.925285">
        <ele>978.5</ele>
        <time>2025-08-03T12:35:07.426Z</time>
      </trkpt>
      <trkpt lat="42.478174" lon="2.925695">
        <ele>989.8</ele>
        <time>2025-08-03T12:37:41.858Z</time>
      </trkpt>
      <trkpt lat="42.477939" lon="2.926070">
        <ele>1000.0</ele>
        <time>2025-08-03T12:40:01.513Z</time>
      </trkpt>
      <trkpt lat="42.477875" lon="2.926477">
        <ele>1008.5</ele>
        <time>2025-08-03T12:41:58.865Z</time>
      </trkpt>
      <trkpt lat="42.477778" lon="2.926958">
        <ele>1019.9</ele>
        <time>2025-08-03T12:44:31.108Z</time>
      </trkpt>
      <trkpt lat="42.477711" lon="2.927312">
        <ele>1028.2</ele>
        <time>2025-08-03T12:46:22.427Z</time>
      </trkpt>
      <trkpt lat="42.477740" lon="2.927773">
        <ele>1037.4</ele>
        <time>2025-08-03T12:48:29.656Z</time>
      </trkpt>
      <trkpt lat="42.477665" lon="2.928090">
        <ele>1044.0</ele>
        <time>2025-08-03T12:50:00.879Z</time>
      </trkpt>
      <trkpt lat="42.477306" lon="2.928513">
        <ele>1058.3</ele>
        <time>2025-08-03T12:53:13.151Z</time>
      </trkpt>
      <trkpt lat="42.476978" lon="2.928722">
        <ele>1065.2</ele>
        <time>2025-08-03T12:54:57.973Z</time>
      </trkpt>
      <trkpt lat="42.476745" lon="2.928775">
        <ele>1068.6</ele>
        <time>2025-08-03T12:55:58.092Z</time>
      </trkpt>
      <trkpt lat="42.476560" lon="2.928973">
        <ele>1070.5</ele>
        <time>2025-08-03T12:56:40.560Z</time>
      </trkpt>
      <trkpt lat="42.476356" lon="2.929158">
        <ele>1072.6</ele>
        <time>2025-08-03T12:57:25.980Z</time>
      </trkpt>
      <trkpt lat="42.476125" lon="2.929353">
        <ele>1075.2</ele>
        <time>2025-08-03T12:58:18.649Z</time>
      </trkpt>
      <trkpt lat="42.475868" lon="2.929640">
        <ele>1078.2</ele>
        <time>2025-08-03T12:59:22.005Z</time>
      </trkpt>
      <trkpt lat="42.475642" lon="2.929823">
        <ele>1080.5</ele>
        <time>2025-08-03T13:00:10.573Z</time>
      </trkpt>
      <trkpt lat="42.475694" lon="2.930210">
        <ele>1086.8</ele>
        <time>2025-08-03T13:01:46.625Z</time>
      </trkpt>
      <trkpt lat="42.475823" lon="2.930521">
        <ele>1091.2</ele>
        <time>2025-08-03T13:02:57.343Z</time>
      </trkpt>
      <trkpt lat="42.475824" lon="2.930883">
        <ele>1094.5</ele>
        <time>2025-08-03T13:03:56.904Z</time>
      </trkpt>
      <trkpt lat="42.475745" lon="2.931172">
        <ele>1096.3</ele>
        <time>2025-08-03T13:04:38.281Z</time>
      </trkpt>
      <trkpt lat="42.475756" lon="2.931484">
        <ele>1097.2</ele>
        <time>2025-08-03T13:05:09.595Z</time>
      </trkpt>
      <trkpt lat="42.475710" lon="2.931799">
        <ele>1097.9</ele>
        <time>2025-08-03T13:05:39.083Z</time>
      </trkpt>
      <trkpt lat="42.475611" lon="2.932200">
        <ele>1097.9</ele>
        <time>2025-08-03T13:06:08.867Z</time>
      </trkpt>
      <trkpt lat="42.475521" lon="2.932612">
        <ele>1097.3</ele>
        <time>2025-08-03T13:06:42.752Z</time>
      </trkpt>
      <trkpt lat="42.475423" lon="2.932927">
        <ele>1096.5</ele>
        <time>2025-08-03T13:07:11.434Z</time>
      </trkpt>
      <trkpt lat="42.475330" lon="2.933368">
        <ele>1095.3</ele>
        <time>2025-08-03T13:07:51.224Z</time>
      </trkpt>
      <trkpt lat="42.475293" lon="2.933718">
        <ele>1095.5</ele>
        <time>2025-08-03T13:08:19.001Z</time>
      </trkpt>
      <trkpt lat="42.475091" lon="2.933934">
        <ele>1097.7</ele>
        <time>2025-08-03T13:09:07.908Z</time>
      </trkpt>
      <trkpt lat="42.474885" lon="2.934195">
        <ele>1098.8</ele>
        <time>2025-08-03T13:09:51.438Z</time>
      </trkpt>
      <trkpt lat="42.474795" lon="2.934520">
        <ele>1099.3</ele>
        <time>2025-08-03T13:10:20.854Z</time>
      </trkpt>
      <trkpt lat="42.474843" lon="2.934905">
        <ele>1099.5</ele>
        <time>2025-08-03T13:10:50.635Z</time>
      </trkpt>
      <trkpt lat="42.475038" lon="2.935408">
        <ele>1099.9</ele>
        <time>2025-08-03T13:11:34.012Z</time>
      </trkpt>
      <trkpt lat="42.475173" lon="2.935733">
        <ele>1100.1</ele>
        <time>2025-08-03T13:12:03.905Z</time>
      </trkpt>
      <trkpt lat="42.475351" lon="2.936083">
        <ele>1100.4</ele>
        <time>2025-08-03T13:12:36.851Z</time>
      </trkpt>
      <trkpt lat="42.475558" lon="2.936264">
        <ele>1101.9</ele>
        <time>2025-08-03T13:13:15.610Z</time>
      </trkpt>
      <trkpt lat="42.475728" lon="2.936722">
        <ele>1104.1</ele>
        <time>2025-08-03T13:14:15.208Z</time>
      </trkpt>
      <trkpt lat="42.475933" lon="2.937045">
        <ele>1106.5</ele>
        <time>2025-08-03T13:15:09.823Z</time>
      </trkpt>
      <trkpt lat="42.476331" lon="2.937276">
        <ele>1110.6</ele>
        <time>2025-08-03T13:16:34.465Z</time>
      </trkpt>
      <trkpt lat="42.476807" lon="2.937656">
        <ele>1116.9</ele>
        <time>2025-08-03T13:18:31.036Z</time>
      </trkpt>
      <trkpt lat="42.477199" lon="2.937969">
        <ele>1125.4</ele>
        <time>2025-08-03T13:20:42.094Z</time>
      </trkpt>
      <trkpt lat="42.477492" lon="2.938414">
        <ele>1133.0</ele>
        <time>2025-08-03T13:22:42.316Z</time>
      </trkpt>
      <trkpt lat="42.477883" lon="2.939273">
        <ele>1145.8</ele>
        <time>2025-08-03T13:26:04.919Z</time>
      </trkpt>
      <trkpt lat="42.478113" lon="2.939670">
        <ele>1149.7</ele>
        <time>2025-08-03T13:27:20.976Z</time>
      </trkpt>
      <trkpt lat="42.478342" lon="2.940233">
        <ele>1154.7</ele>
        <time>2025-08-03T13:28:57.740Z</time>
      </trkpt>
      <trkpt lat="42.478468" lon="2.940667">
        <ele>1158.4</ele>
        <time>2025-08-03T13:30:08.227Z</time>
      </trkpt>
      <trkpt lat="42.478694" lon="2.940977">
        <ele>1162.6</ele>
        <time>2025-08-03T13:31:22.308Z</time>
      </trkpt>
      <trkpt lat="42.478875" lon="2.941474">
        <ele>1169.2</ele>
        <time>2025-08-03T13:33:09.826Z</time>
      </trkpt>
      <trkpt lat="42.479265" lon="2.942360">
        <ele>1180.3</ele>
        <time>2025-08-03T13:36:17.372Z</time>
      </trkpt>
      <trkpt lat="42.479329" lon="2.942686">
        <ele>1183.9</ele>
        <time>2025-08-03T13:37:18.743Z</time>
      </trkpt>
      <trkpt lat="42.479444" lon="2.943029">
        <ele>1188.0</ele>
        <time>2025-08-03T13:38:27.092Z</time>
      </trkpt>
      <trkpt lat="42.479592" lon="2.943411">
        <ele>1192.8</ele>
        <time>2025-08-03T13:39:46.948Z</time>
      </trkpt>
      <trkpt lat="42.479724" lon="2.944060">
        <ele>1200.3</ele>
        <time>2025-08-03T13:41:51.597Z</time>
      </trkpt>
      <trkpt lat="42.479937" lon="2.944595">
        <ele>1205.1</ele>
        <time>2025-08-03T13:43:23.550Z</time>
      </trkpt>
      <trkpt lat="42.480089" lon="2.944854">
        <ele>1208.0</ele>
        <time>2025-08-03T13:44:16.671Z</time>
      </trkpt>
      <trkpt lat="42.480253" lon="2.945323">
        <ele>1212.9</ele>
        <time>2025-08-03T13:45:45.009Z</time>
      </trkpt>
      <trkpt lat="42.480413" lon="2.945656">
        <ele>1215.6</ele>
        <time>2025-08-03T13:46:40.671Z</time>
      </trkpt>
      <trkpt lat="42.480754" lon="2.945981">
        <ele>1219.4</ele>
        <time>2025-08-03T13:47:59.390Z</time>
      </trkpt>
      <trkpt lat="42.480997" lon="2.946148">
        <ele>1222.2</ele>
        <time>2025-08-03T13:48:54.617Z</time>
      </trkpt>
      <trkpt lat="42.481322" lon="2.946333">
        <ele>1225.9</ele>
        <time>2025-08-03T13:50:05.905Z</time>
      </trkpt>
      <trkpt lat="42.481584" lon="2.946579">
        <ele>1230.2</ele>
        <time>2025-08-03T13:51:20.129Z</time>
      </trkpt>
      <trkpt lat="42.481803" lon="2.946795">
        <ele>1233.8</ele>
        <time>2025-08-03T13:52:23.033Z</time>
      </trkpt>
      <trkpt lat="42.481984" lon="2.947009">
        <ele>1233.5</ele>
        <time>2025-08-03T13:52:47.649Z</time>
      </trkpt>
      <trkpt lat="42.481978" lon="2.946694">
        <ele>1233.2</ele>
        <time>2025-08-03T13:53:12.948Z</time>
      </trkpt>
      <trkpt lat="42.482176" lon="2.946539">
        <ele>1232.1</ele>
        <time>2025-08-03T13:53:41.747Z</time>
      </trkpt>
      <trkpt lat="42.482391" lon="2.946694">
        <ele>1230.8</ele>
        <time>2025-08-03T13:54:16.037Z</time>
      </trkpt>
      <trkpt lat="42.482630" lon="2.946939">
        <ele>1229.0</ele>
        <time>2025-08-03T13:54:55.465Z</time>
      </trkpt>
      <trkpt lat="42.482920" lon="2.947142">
        <ele>1227.0</ele>
        <time>2025-08-03T13:55:39.073Z</time>
      </trkpt>
      <trkpt lat="42.483108" lon="2.947453">
        <ele>1224.9</ele>
        <time>2025-08-03T13:56:19.670Z</time>
      </trkpt>
      <trkpt lat="42.483120" lon="2.947795">
        <ele>1226.1</ele>
        <time>2025-08-03T13:56:58.260Z</time>
      </trkpt>
      <trkpt lat="42.482862" lon="2.948085">
        <ele>1230.7</ele>
        <time>2025-08-03T13:58:17.336Z</time>
      </trkpt>
      <trkpt lat="42.482535" lon="2.948385">
        <ele>1230.3</ele>
        <time>2025-08-03T13:58:57.244Z</time>
      </trkpt>
      <trkpt lat="42.482335" lon="2.948593">
        <ele>1230.0</ele>
        <time>2025-08-03T13:59:23.100Z</time>
      </trkpt>
      <trkpt lat="42.482045" lon="2.948524">
        <ele>1229.8</ele>
        <time>2025-08-03T13:59:53.816Z</time>
      </trkpt>
      <trkpt lat="42.481786" lon="2.948418">
        <ele>1226.2</ele>
        <time>2025-08-03T14:00:41.115Z</time>
      </trkpt>
      <trkpt lat="42.481546" lon="2.948469">
        <ele>1221.8</ele>
        <time>2025-08-03T14:01:30.805Z</time>
      </trkpt>
      <trkpt lat="42.481202" lon="2.948699">
        <ele>1211.3</ele>
        <time>2025-08-03T14:03:10.425Z</time>
      </trkpt>
      <trkpt lat="42.481012" lon="2.948893">
        <ele>1201.8</ele>
        <time>2025-08-03T14:04:31.500Z</time>
      </trkpt>
      <trkpt lat="42.480781" lon="2.949109">
        <ele>1189.0</ele>
        <time>2025-08-03T14:06:15.475Z</time>
      </trkpt>
      <trkpt lat="42.480590" lon="2.949314">
        <ele>1177.4</ele>
        <time>2025-08-03T14:07:48.695Z</time>
      </trkpt>
      <trkpt lat="42.480595" lon="2.949626">
        <ele>1169.7</ele>
        <time>2025-08-03T14:08:57.317Z</time>
      </trkpt>
      <trkpt lat="42.480528" lon="2.949930">
        <ele>1161.7</ele>
        <time>2025-08-03T14:10:08.280Z</time>
      </trkpt>
      <trkpt lat="42.480365" lon="2.950086">
        <ele>1154.3</ele>
        <time>2025-08-03T14:11:16.792Z</time>
      </trkpt>
      <trkpt lat="42.480010" lon="2.949999">
        <ele>1142.1</ele>
        <time>2025-08-03T14:13:05.614Z</time>
      </trkpt>
      <trkpt lat="42.479800" lon="2.950110">
        <ele>1133.9</ele>
        <time>2025-08-03T14:14:16.878Z</time>
      </trkpt>
      <trkpt lat="42.479668" lon="2.950368">
        <ele>1123.6</ele>
        <time>2025-08-03T14:15:42.278Z</time>
      </trkpt>
      <trkpt lat="42.479405" lon="2.950637">
        <ele>1108.9</ele>
        <time>2025-08-03T14:17:41.594Z</time>
      </trkpt>
      <trkpt lat="42.479175" lon="2.950885">
        <ele>1098.0</ele>
        <time>2025-08-03T14:19:16.206Z</time>
      </trkpt>
      <trkpt lat="42.478969" lon="2.951120">
        <ele>1088.4</ele>
        <time>2025-08-03T14:20:39.656Z</time>
      </trkpt>
      <trkpt lat="42.478783" lon="2.951451">
        <ele>1079.9</ele>
        <time>2025-08-03T14:22:00.767Z</time>
      </trkpt>
      <trkpt lat="42.478556" lon="2.951581">
        <ele>1073.4</ele>
        <time>2025-08-03T14:23:03.957Z</time>
      </trkpt>
      <trkpt lat="42.478530" lon="2.951740">
        <ele>1070.9</ele>
        <time>2025-08-03T14:23:30.625Z</time>
      </trkpt>
    </trkseg>
  </trk>
</gpx>
