<?xml version="1.0" encoding="UTF-8"?>
<gpx version="1.1" creator="carnet-trek seed (OpenStreetMap, EU-DEM)" xmlns="http://www.topografix.com/GPX/1/1">
  <metadata>
    <name>GR10 – Refuge des Bésines → Refuge des Bouillouses</name>
    <copyright author="OpenStreetMap contributors"><license>https://opendatacommons.org/licenses/odbl/</license></copyright>
  </metadata>
  <wpt lat="42.620147" lon="1.874148">
    <name>Refuge des Bésines</name>
    <sym>Lodging</sym>
  </wpt>
  <wpt lat="42.610560" lon="1.898222">
    <name>Point culminant (2482 m)</name>
    <sym>Summit</sym>
  </wpt>
  <wpt lat="42.603899" lon="1.868528">
    <name>Refuge des Besines</name>
    <sym>Lodging</sym>
  </wpt>
  <wpt lat="42.560432" lon="1.998021">
    <name>Refuge des Bouillouses</name>
    <sym>Lodging</sym>
  </wpt>
  <trk>
    <name>GR10 – Refuge des Bésines → Refuge des Bouillouses</name>
    <type>hike</type>
    <trkseg>
      <trkpt lat="42.620147" lon="1.874148">
        <ele>2148.9</ele>
        <time>2025-07-25T07:30:00.000Z</time>
      </trkpt>
      <trkpt lat="42.619963" lon="1.873970">
        <ele>2155.3</ele>
        <time>2025-07-25T07:31:27.149Z</time>
      </trkpt>
      <trkpt lat="42.619682" lon="1.873800">
        <ele>2169.3</ele>
        <time>2025-07-25T07:34:23.913Z</time>
      </trkpt>
      <trkpt lat="42.619255" lon="1.874111">
        <ele>2186.3</ele>
        <time>2025-07-25T07:38:17.948Z</time>
      </trkpt>
      <trkpt lat="42.619028" lon="1.873979">
        <ele>2191.8</ele>
        <time>2025-07-25T07:39:37.754Z</time>
      </trkpt>
      <trkpt lat="42.618680" lon="1.873953">
        <ele>2204.3</ele>
        <time>2025-07-25T07:42:19.734Z</time>
      </trkpt>
      <trkpt lat="42.618438" lon="1.874127">
        <ele>2214.2</ele>
        <time>2025-07-25T07:44:27.185Z</time>
      </trkpt>
      <trkpt lat="42.618033" lon="1.873973">
        <ele>2234.7</ele>
        <time>2025-07-25T07:48:37.939Z</time>
      </trkpt>
      <trkpt lat="42.617745" lon="1.873949">
        <ele>2247.4</ele>
        <time>2025-07-25T07:51:17.836Z</time>
      </trkpt>
      <trkpt lat="42.617516" lon="1.873970">
        <ele>2255.5</ele>
        <time>2025-07-25T07:53:05.918Z</time>
      </trkpt>
      <trkpt lat="42.617331" lon="1.874093">
        <ele>2262.9</ele>
        <time>2025-07-25T07:54:43.507Z</time>
      </trkpt>
      <trkpt lat="42.617095" lon="1.874118">
        <ele>2271.0</ele>
        <time>2025-07-25T07:56:30.251Z</time>
      </trkpt>
      <trkpt lat="42.616864" lon="1.874043">
        <ele>2280.4</ele>
        <time>2025-07-25T07:58:29.589Z</time>
      </trkpt>
      <trkpt lat="42.616676" lon="1.873835">
        <ele>2292.2</ele>
        <time>2025-07-25T08:00:56.611Z</time>
      </trkpt>
      <trkpt lat="42.616476" lon="1.873498">
        <ele>2305.5</ele>
        <time>2025-07-25T08:03:43.940Z</time>
      </trkpt>
      <trkpt lat="42.616310" lon="1.873200">
        <ele>2315.1</ele>
        <time>2025-07-25T08:05:49.506Z</time>
      </trkpt>
      <trkpt lat="42.616154" lon="1.872945">
        <ele>2322.6</ele>
        <time>2025-07-25T08:07:30.813Z</time>
      </trkpt>
      <trkpt lat="42.615950" lon="1.872749">
        <ele>2328.2</ele>
        <time>2025-07-25T08:08:52.845Z</time>
      </trkpt>
      <trkpt lat="42.615817" lon="1.872509">
        <ele>2331.9</ele>
        <time>2025-07-25T08:09:52.166Z</time>
      </trkpt>
      <trkpt lat="42.615648" lon="1.872244">
        <ele>2332.2</ele>
        <time>2025-07-25T08:10:20.072Z</time>
      </trkpt>
      <trkpt lat="42.615601" lon="1.871904">
        <ele>2331.6</ele>
        <time>2025-07-25T08:10:48.500Z</time>
      </trkpt>
      <trkpt lat="42.615445" lon="1.871734">
        <ele>2328.8</ele>
        <time>2025-07-25T08:11:27.559Z</time>
      </trkpt>
      <trkpt lat="42.615220" lon="1.871531">
        <ele>2323.2</ele>
        <time>2025-07-25T08:12:28.868Z</time>
      </trkpt>
      <trkpt lat="42.615008" lon="1.871393">
        <ele>2316.1</ele>
        <time>2025-07-25T08:13:33.804Z</time>
      </trkpt>
      <trkpt lat="42.614791" lon="1.871391">
        <ele>2308.3</ele>
        <time>2025-07-25T08:14:42.648Z</time>
      </trkpt>
      <trkpt lat="42.614497" lon="1.871128">
        <ele>2293.6</ele>
        <time>2025-07-25T08:16:46.811Z</time>
      </trkpt>
      <trkpt lat="42.614017" lon="1.870758">
        <ele>2265.9</ele>
        <time>2025-07-25T08:20:25.847Z</time>
      </trkpt>
      <trkpt lat="42.613729" lon="1.870641">
        <ele>2259.8</ele>
        <time>2025-07-25T08:21:34.922Z</time>
      </trkpt>
      <trkpt lat="42.613830" lon="1.870385">
        <ele>2255.2</ele>
        <time>2025-07-25T08:22:27.633Z</time>
      </trkpt>
      <trkpt lat="42.613602" lon="1.870367">
        <ele>2246.9</ele>
        <time>2025-07-25T08:23:39.280Z</time>
      </trkpt>
      <trkpt lat="42.613433" lon="1.870342">
        <ele>2236.9</ele>
        <time>2025-07-25T08:25:06.181Z</time>
      </trkpt>
      <trkpt lat="42.613094" lon="1.870010">
        <ele>2225.1</ele>
        <time>2025-07-25T08:26:57.475Z</time>
      </trkpt>
      <trkpt lat="42.612791" lon="1.869762">
        <ele>2215.2</ele>
        <time>2025-07-25T08:28:30.216Z</time>
      </trkpt>
      <trkpt lat="42.612340" lon="1.869184">
        <ele>2207.3</ele>
        <time>2025-07-25T08:30:17.157Z</time>
      </trkpt>
      <trkpt lat="42.611499" lon="1.868523">
        <ele>2194.7</ele>
        <time>2025-07-25T08:33:04.922Z</time>
      </trkpt>
      <trkpt lat="42.610948" lon="1.868035">
        <ele>2188.9</ele>
        <time>2025-07-25T08:34:42.841Z</time>
      </trkpt>
      <trkpt lat="42.610626" lon="1.867794">
        <ele>2186.1</ele>
        <time>2025-07-25T08:35:35.226Z</time>
      </trkpt>
      <trkpt lat="42.610265" lon="1.867585">
        <ele>2180.6</ele>
        <time>2025-07-25T08:36:45.973Z</time>
      </trkpt>
      <trkpt lat="42.609834" lon="1.867531">
        <ele>2173.7</ele>
        <time>2025-07-25T08:38:09.491Z</time>
      </trkpt>
      <trkpt lat="42.609550" lon="1.867392">
        <ele>2167.8</ele>
        <time>2025-07-25T08:39:13.668Z</time>
      </trkpt>
      <trkpt lat="42.609134" lon="1.867288">
        <ele>2159.6</ele>
        <time>2025-07-25T08:40:43.426Z</time>
      </trkpt>
      <trkpt lat="42.608797" lon="1.867111">
        <ele>2152.7</ele>
        <time>2025-07-25T08:41:59.330Z</time>
      </trkpt>
      <trkpt lat="42.608438" lon="1.866964">
        <ele>2143.7</ele>
        <time>2025-07-25T08:43:29.547Z</time>
      </trkpt>
      <trkpt lat="42.608159" lon="1.866776">
        <ele>2135.4</ele>
        <time>2025-07-25T08:44:49.036Z</time>
      </trkpt>
      <trkpt lat="42.607926" lon="1.866557">
        <ele>2124.7</ele>
        <time>2025-07-25T08:46:20.438Z</time>
      </trkpt>
      <trkpt lat="42.607673" lon="1.866559">
        <ele>2115.3</ele>
        <time>2025-07-25T08:47:41.077Z</time>
      </trkpt>
      <trkpt lat="42.607431" lon="1.866505">
        <ele>2106.2</ele>
        <time>2025-07-25T08:48:59.068Z</time>
      </trkpt>
      <trkpt lat="42.607133" lon="1.866559">
        <ele>2096.1</ele>
        <time>2025-07-25T08:50:30.288Z</time>
      </trkpt>
      <trkpt lat="42.606915" lon="1.866860">
        <ele>2088.7</ele>
        <time>2025-07-25T08:51:45.429Z</time>
      </trkpt>
      <trkpt lat="42.606734" lon="1.867109">
        <ele>2084.4</ele>
        <time>2025-07-25T08:52:37.302Z</time>
      </trkpt>
      <trkpt lat="42.606604" lon="1.867406">
        <ele>2080.5</ele>
        <time>2025-07-25T08:53:25.986Z</time>
      </trkpt>
      <trkpt lat="42.606567" lon="1.867716">
        <ele>2080.9</ele>
        <time>2025-07-25T08:53:53.526Z</time>
      </trkpt>
      <trkpt lat="42.606483" lon="1.867988">
        <ele>2081.3</ele>
        <time>2025-07-25T08:54:18.833Z</time>
      </trkpt>
      <trkpt lat="42.606518" lon="1.868345">
        <ele>2084.9</ele>
        <time>2025-07-25T08:55:22.843Z</time>
      </trkpt>
      <trkpt lat="42.606397" lon="1.868635">
        <ele>2088.2</ele>
        <time>2025-07-25T08:56:21.504Z</time>
      </trkpt>
      <trkpt lat="42.606226" lon="1.868821">
        <ele>2091.6</ele>
        <time>2025-07-25T08:57:18.193Z</time>
      </trkpt>
      <trkpt lat="42.606023" lon="1.868953">
        <ele>2095.8</ele>
        <time>2025-07-25T08:58:27.037Z</time>
      </trkpt>
      <trkpt lat="42.605847" lon="1.869034">
        <ele>2100.7</ele>
        <time>2025-07-25T08:59:40.042Z</time>
      </trkpt>
      <trkpt lat="42.605673" lon="1.869198">
        <ele>2104.4</ele>
        <time>2025-07-25T09:00:41.718Z</time>
      </trkpt>
      <trkpt lat="42.605404" lon="1.869177">
        <ele>2104.6</ele>
        <time>2025-07-25T09:01:09.767Z</time>
      </trkpt>
      <trkpt lat="42.605135" lon="1.869085">
        <ele>2102.7</ele>
        <time>2025-07-25T09:01:48.062Z</time>
      </trkpt>
      <trkpt lat="42.604919" lon="1.868916">
        <ele>2098.8</ele>
        <time>2025-07-25T09:02:35.671Z</time>
      </trkpt>
      <trkpt lat="42.604677" lon="1.868848">
        <ele>2097.1</ele>
        <time>2025-07-25T09:03:10.211Z</time>
      </trkpt>
      <trkpt lat="42.604440" lon="1.868832">
        <ele>2096.3</ele>
        <time>2025-07-25T09:03:38.170Z</time>
      </trkpt>
      <trkpt lat="42.604247" lon="1.868785">
        <ele>2094.6</ele>
        <time>2025-07-25T09:04:10.933Z</time>
      </trkpt>
      <trkpt lat="42.603945" lon="1.868723">
        <ele>2091.6</ele>
        <time>2025-07-25T09:04:59.779Z</time>
      </trkpt>
      <trkpt lat="42.603716" lon="1.868698">
        <ele>2087.2</ele>
        <time>2025-07-25T09:05:52.043Z</time>
      </trkpt>
      <trkpt lat="42.603568" lon="1.868848">
        <ele>2083.5</ele>
        <time>2025-07-25T09:06:35.909Z</time>
      </trkpt>
      <trkpt lat="42.603452" lon="1.868593">
        <ele>2075.9</ele>
        <time>2025-07-25T09:07:47.537Z</time>
      </trkpt>
      <trkpt lat="42.603468" lon="1.868230">
        <ele>2069.9</ele>
        <time>2025-07-25T09:08:49.151Z</time>
      </trkpt>
      <trkpt lat="42.603353" lon="1.868234">
        <ele>2066.8</ele>
        <time>2025-07-25T09:09:29.991Z</time>
      </trkpt>
      <trkpt lat="42.603232" lon="1.868527">
        <ele>2063.4</ele>
        <time>2025-07-25T09:10:14.372Z</time>
      </trkpt>
      <trkpt lat="42.603090" lon="1.868958">
        <ele>2061.1</ele>
        <time>2025-07-25T09:11:01.188Z</time>
      </trkpt>
      <trkpt lat="42.602958" lon="1.869211">
        <ele>2060.1</ele>
        <time>2025-07-25T09:11:29.301Z</time>
      </trkpt>
      <trkpt lat="42.602866" lon="1.869537">
        <ele>2059.4</ele>
        <time>2025-07-25T09:11:58.206Z</time>
      </trkpt>
      <trkpt lat="42.602867" lon="1.869867">
        <ele>2062.1</ele>
        <time>2025-07-25T09:12:49.183Z</time>
      </trkpt>
      <trkpt lat="42.602882" lon="1.870249">
        <ele>2066.5</ele>
        <time>2025-07-25T09:14:01.709Z</time>
      </trkpt>
      <trkpt lat="42.602960" lon="1.870713">
        <ele>2075.4</ele>
        <time>2025-07-25T09:16:07.026Z</time>
      </trkpt>
      <trkpt lat="42.603084" lon="1.871031">
        <ele>2083.3</ele>
        <time>2025-07-25T09:17:53.415Z</time>
      </trkpt>
      <trkpt lat="42.603198" lon="1.871383">
        <ele>2092.6</ele>
        <time>2025-07-25T09:19:57.096Z</time>
      </trkpt>
      <trkpt lat="42.603291" lon="1.871687">
        <ele>2100.6</ele>
        <time>2025-07-25T09:21:43.018Z</time>
      </trkpt>
      <trkpt lat="42.603406" lon="1.871940">
        <ele>2107.9</ele>
        <time>2025-07-25T09:23:20.810Z</time>
      </trkpt>
      <trkpt lat="42.603565" lon="1.872252">
        <ele>2114.2</ele>
        <time>2025-07-25T09:24:54.220Z</time>
      </trkpt>
      <trkpt lat="42.603556" lon="1.872571">
        <ele>2118.5</ele>
        <time>2025-07-25T09:26:01.148Z</time>
      </trkpt>
      <trkpt lat="42.603569" lon="1.872875">
        <ele>2120.9</ele>
        <time>2025-07-25T09:26:47.474Z</time>
      </trkpt>
      <trkpt lat="42.603680" lon="1.873188">
        <ele>2123.6</ele>
        <time>2025-07-25T09:27:40.529Z</time>
      </trkpt>
      <trkpt lat="42.603749" lon="1.873545">
        <ele>2127.3</ele>
        <time>2025-07-25T09:28:45.300Z</time>
      </trkpt>
      <trkpt lat="42.603830" lon="1.873861">
        <ele>2130.7</ele>
        <time>2025-07-25T09:29:43.945Z</time>
      </trkpt>
      <trkpt lat="42.603957" lon="1.874187">
        <ele>2134.3</ele>
        <time>2025-07-25T09:30:47.223Z</time>
      </trkpt>
      <trkpt lat="42.604038" lon="1.874464">
        <ele>2137.4</ele>
        <time>2025-07-25T09:31:40.535Z</time>
      </trkpt>
      <trkpt lat="42.604151" lon="1.874823">
        <ele>2137.8</ele>
        <time>2025-07-25T09:32:12.837Z</time>
      </trkpt>
      <trkpt lat="42.604219" lon="1.875337">
        <ele>2136.5</ele>
        <time>2025-07-25T09:32:56.961Z</time>
      </trkpt>
      <trkpt lat="42.604318" lon="1.875757">
        <ele>2133.5</ele>
        <time>2025-07-25T09:33:47.503Z</time>
      </trkpt>
      <trkpt lat="42.604488" lon="1.876020">
        <ele>2139.2</ele>
        <time>2025-07-25T09:35:11.810Z</time>
      </trkpt>
      <trkpt lat="42.604720" lon="1.876126">
        <ele>2145.1</ele>
        <time>2025-07-25T09:36:38.587Z</time>
      </trkpt>
      <trkpt lat="42.604847" lon="1.876418">
        <ele>2143.4</ele>
        <time>2025-07-25T09:37:13.435Z</time>
      </trkpt>
      <trkpt lat="42.604982" lon="1.876849">
        <ele>2142.6</ele>
        <time>2025-07-25T09:37:51.302Z</time>
      </trkpt>
      <trkpt lat="42.605104" lon="1.877281">
        <ele>2144.1</ele>
        <time>2025-07-25T09:38:40.321Z</time>
      </trkpt>
      <trkpt lat="42.605204" lon="1.877646">
        <ele>2148.2</ele>
        <time>2025-07-25T09:39:49.149Z</time>
      </trkpt>
      <trkpt lat="42.605437" lon="1.878087">
        <ele>2153.9</ele>
        <time>2025-07-25T09:41:26.858Z</time>
      </trkpt>
      <trkpt lat="42.605635" lon="1.878499">
        <ele>2159.4</ele>
        <time>2025-07-25T09:42:58.302Z</time>
      </trkpt>
      <trkpt lat="42.606041" lon="1.879232">
        <ele>2168.6</ele>
        <time>2025-07-25T09:45:39.767Z</time>
      </trkpt>
      <trkpt lat="42.606221" lon="1.879485">
        <ele>2170.3</ele>
        <time>2025-07-25T09:46:22.624Z</time>
      </trkpt>
      <trkpt lat="42.606473" lon="1.879976">
        <ele>2173.2</ele>
        <time>2025-07-25T09:47:34.288Z</time>
      </trkpt>
      <trkpt lat="42.606692" lon="1.880237">
        <ele>2174.0</ele>
        <time>2025-07-25T09:48:10.535Z</time>
      </trkpt>
      <trkpt lat="42.606865" lon="1.880470">
        <ele>2175.6</ele>
        <time>2025-07-25T09:48:53.444Z</time>
      </trkpt>
      <trkpt lat="42.607065" lon="1.880659">
        <ele>2178.0</ele>
        <time>2025-07-25T09:49:41.463Z</time>
      </trkpt>
      <trkpt lat="42.607313" lon="1.880958">
        <ele>2182.5</ele>
        <time>2025-07-25T09:51:00.274Z</time>
      </trkpt>
      <trkpt lat="42.607540" lon="1.881200">
        <ele>2187.8</ele>
        <time>2025-07-25T09:52:26.046Z</time>
      </trkpt>
      <trkpt lat="42.607838" lon="1.881414">
        <ele>2197.3</ele>
        <time>2025-07-25T09:54:36.303Z</time>
      </trkpt>
      <trkpt lat="42.608002" lon="1.881717">
        <ele>2201.5</ele>
        <time>2025-07-25T09:55:45.803Z</time>
      </trkpt>
      <trkpt lat="42.608040" lon="1.882054">
        <ele>2202.3</ele>
        <time>2025-07-25T09:56:18.499Z</time>
      </trkpt>
      <trkpt lat="42.608166" lon="1.882497">
        <ele>2203.5</ele>
        <time>2025-07-25T09:57:03.958Z</time>
      </trkpt>
      <trkpt lat="42.608243" lon="1.882832">
        <ele>2202.8</ele>
        <time>2025-07-25T09:57:33.402Z</time>
      </trkpt>
      <trkpt lat="42.608399" lon="1.883237">
        <ele>2206.9</ele>
        <time>2025-07-25T09:58:47.394Z</time>
      </trkpt>
      <trkpt lat="42.608616" lon="1.883467">
        <ele>2216.9</ele>
        <time>2025-07-25T10:00:57.380Z</time>
      </trkpt>
      <trkpt lat="42.608734" lon="1.883883">
        <ele>2223.8</ele>
        <time>2025-07-25T10:02:43.747Z</time>
      </trkpt>
      <trkpt lat="42.608811" lon="1.884146">
        <ele>2226.8</ele>
        <time>2025-07-25T10:03:35.560Z</time>
      </trkpt>
      <trkpt lat="42.608836" lon="1.884476">
        <ele>2229.8</ele>
        <time>2025-07-25T10:04:32.387Z</time>
      </trkpt>
      <trkpt lat="42.608730" lon="1.884697">
        <ele>2232.8</ele>
        <time>2025-07-25T10:05:26.844Z</time>
      </trkpt>
      <trkpt lat="42.608635" lon="1.884851">
        <ele>2236.5</ele>
        <time>2025-07-25T10:06:28.974Z</time>
      </trkpt>
      <trkpt lat="42.608527" lon="1.885125">
        <ele>2240.2</ele>
        <time>2025-07-25T10:07:29.026Z</time>
      </trkpt>
      <trkpt lat="42.608433" lon="1.885321">
        <ele>2246.7</ele>
        <time>2025-07-25T10:08:57.927Z</time>
      </trkpt>
      <trkpt lat="42.608387" lon="1.885616">
        <ele>2253.6</ele>
        <time>2025-07-25T10:10:31.235Z</time>
      </trkpt>
      <trkpt lat="42.608375" lon="1.885932">
        <ele>2263.5</ele>
        <time>2025-07-25T10:12:36.008Z</time>
      </trkpt>
      <trkpt lat="42.608386" lon="1.886245">
        <ele>2273.8</ele>
        <time>2025-07-25T10:14:45.488Z</time>
      </trkpt>
      <trkpt lat="42.608401" lon="1.886540">
        <ele>2281.2</ele>
        <time>2025-07-25T10:16:23.421Z</time>
      </trkpt>
      <trkpt lat="42.608312" lon="1.886773">
        <ele>2290.6</ele>
        <time>2025-07-25T10:18:27.274Z</time>
      </trkpt>
      <trkpt lat="42.608259" lon="1.887111">
        <ele>2300.4</ele>
        <time>2025-07-25T10:20:33.387Z</time>
      </trkpt>
      <trkpt lat="42.608187" lon="1.887516">
        <ele>2310.0</ele>
        <time>2025-07-25T10:22:41.476Z</time>
      </trkpt>
      <trkpt lat="42.608314" lon="1.887788">
        <ele>2315.2</ele>
        <time>2025-07-25T10:23:58.834Z</time>
      </trkpt>
      <trkpt lat="42.608514" lon="1.887947">
        <ele>2320.1</ele>
        <time>2025-07-25T10:25:12.283Z</time>
      </trkpt>
      <trkpt lat="42.608680" lon="1.888286">
        <ele>2326.1</ele>
        <time>2025-07-25T10:26:42.622Z</time>
      </trkpt>
      <trkpt lat="42.608846" lon="1.888616">
        <ele>2331.5</ele>
        <time>2025-07-25T10:28:07.421Z</time>
      </trkpt>
      <trkpt lat="42.608917" lon="1.888896">
        <ele>2335.3</ele>
        <time>2025-07-25T10:29:07.497Z</time>
      </trkpt>
      <trkpt lat="42.609079" lon="1.889123">
        <ele>2339.1</ele>
        <time>2025-07-25T10:30:10.994Z</time>
      </trkpt>
      <trkpt lat="42.609193" lon="1.889406">
        <ele>2342.2</ele>
        <time>2025-07-25T10:31:05.144Z</time>
      </trkpt>
      <trkpt lat="42.609327" lon="1.889723">
        <ele>2345.8</ele>
        <time>2025-07-25T10:32:08.914Z</time>
      </trkpt>
      <trkpt lat="42.609364" lon="1.890102">
        <ele>2350.3</ele>
        <time>2025-07-25T10:33:23.082Z</time>
      </trkpt>
      <trkpt lat="42.609311" lon="1.890452">
        <ele>2353.3</ele>
        <time>2025-07-25T10:34:19.076Z</time>
      </trkpt>
      <trkpt lat="42.609680" lon="1.891219">
        <ele>2358.6</ele>
        <time>2025-07-25T10:36:17.988Z</time>
      </trkpt>
      <trkpt lat="42.609802" lon="1.891524">
        <ele>2360.6</ele>
        <time>2025-07-25T10:37:03.632Z</time>
      </trkpt>
      <trkpt lat="42.609944" lon="1.892005">
        <ele>2364.7</ele>
        <time>2025-07-25T10:38:23.172Z</time>
      </trkpt>
      <trkpt lat="42.609959" lon="1.892303">
        <ele>2367.6</ele>
        <time>2025-07-25T10:39:14.381Z</time>
      </trkpt>
      <trkpt lat="42.610149" lon="1.892657">
        <ele>2373.1</ele>
        <time>2025-07-25T10:40:42.588Z</time>
      </trkpt>
      <trkpt lat="42.610306" lon="1.892883">
        <ele>2377.2</ele>
        <time>2025-07-25T10:41:47.812Z</time>
      </trkpt>
      <trkpt lat="42.610216" lon="1.893161">
        <ele>2380.4</ele>
        <time>2025-07-25T10:42:42.806Z</time>
      </trkpt>
      <trkpt lat="42.610134" lon="1.893504">
        <ele>2384.2</ele>
        <time>2025-07-25T10:43:48.067Z</time>
      </trkpt>
      <trkpt lat="42.610188" lon="1.893917">
        <ele>2392.4</ele>
        <time>2025-07-25T10:45:45.369Z</time>
      </trkpt>
      <trkpt lat="42.610289" lon="1.894205">
        <ele>2398.5</ele>
        <time>2025-07-25T10:47:12.004Z</time>
      </trkpt>
      <trkpt lat="42.610411" lon="1.894447">
        <ele>2404.2</ele>
        <time>2025-07-25T10:48:32.754Z</time>
      </trkpt>
      <trkpt lat="42.610555" lon="1.894708">
        <ele>2410.5</ele>
        <time>2025-07-25T10:50:02.745Z</time>
      </trkpt>
      <trkpt lat="42.610480" lon="1.895054">
        <ele>2417.2</ele>
        <time>2025-07-25T10:51:37.196Z</time>
      </trkpt>
      <trkpt lat="42.610241" lon="1.895057">
        <ele>2420.0</ele>
        <time>2025-07-25T10:52:32.080Z</time>
      </trkpt>
      <trkpt lat="42.610073" lon="1.895219">
        <ele>2423.6</ele>
        <time>2025-07-25T10:53:35.960Z</time>
      </trkpt>
      <trkpt lat="42.609984" lon="1.895596">
        <ele>2434.1</ele>
        <time>2025-07-25T10:55:53.325Z</time>
      </trkpt>
      <trkpt lat="42.609965" lon="1.895935">
        <ele>2442.8</ele>
        <time>2025-07-25T10:57:47.463Z</time>
      </trkpt>
      <trkpt lat="42.610004" lon="1.896251">
        <ele>2449.8</ele>
        <time>2025-07-25T10:59:22.607Z</time>
      </trkpt>
      <trkpt lat="42.610060" lon="1.896612">
        <ele>2457.5</ele>
        <time>2025-07-25T11:01:08.633Z</time>
      </trkpt>
      <trkpt lat="42.610164" lon="1.896917">
        <ele>2464.1</ele>
        <time>2025-07-25T11:02:39.677Z</time>
      </trkpt>
      <trkpt lat="42.610231" lon="1.897304">
        <ele>2471.1</ele>
        <time>2025-07-25T11:04:20.377Z</time>
      </trkpt>
      <trkpt lat="42.610374" lon="1.897694">
        <ele>2478.3</ele>
        <time>2025-07-25T11:06:04.324Z</time>
      </trkpt>
      <trkpt lat="42.610560" lon="1.898222">
        <ele>2481.9</ele>
        <time>2025-07-25T11:07:22.548Z</time>
      </trkpt>
      <trkpt lat="42.610664" lon="1.898836">
        <ele>2481.0</ele>
        <time>2025-07-25T11:08:11.828Z</time>
      </trkpt>
      <trkpt lat="42.610694" lon="1.899180">
        <ele>2478.5</ele>
        <time>2025-07-25T11:08:51.058Z</time>
      </trkpt>
      <trkpt lat="42.610898" lon="1.899804">
        <ele>2477.9</ele>
        <time>2025-07-25T11:09:42.517Z</time>
      </trkpt>
      <trkpt lat="42.610982" lon="1.900376">
        <ele>2473.1</ele>
        <time>2025-07-25T11:10:52.452Z</time>
      </trkpt>
      <trkpt lat="42.610929" lon="1.900700">
        <ele>2469.7</ele>
        <time>2025-07-25T11:11:37.658Z</time>
      </trkpt>
      <trkpt lat="42.610804" lon="1.901275">
        <ele>2462.7</ele>
        <time>2025-07-25T11:13:01.497Z</time>
      </trkpt>
      <trkpt lat="42.610523" lon="1.901417">
        <ele>2452.6</ele>
        <time>2025-07-25T11:14:32.108Z</time>
      </trkpt>
      <trkpt lat="42.610303" lon="1.901753">
        <ele>2441.6</ele>
        <time>2025-07-25T11:16:10.754Z</time>
      </trkpt>
      <trkpt lat="42.610150" lon="1.902358">
        <ele>2440.1</ele>
        <time>2025-07-25T11:17:04.822Z</time>
      </trkpt>
      <trkpt lat="42.610030" lon="1.902686">
        <ele>2438.4</ele>
        <time>2025-07-25T11:17:40.437Z</time>
      </trkpt>
      <trkpt lat="42.609787" lon="1.903093">
        <ele>2431.8</ele>
        <time>2025-07-25T11:18:57.612Z</time>
      </trkpt>
      <trkpt lat="42.609501" lon="1.903117">
        <ele>2423.2</ele>
        <time>2025-07-25T11:20:18.486Z</time>
      </trkpt>
      <trkpt lat="42.609267" lon="1.903052">
        <ele>2418.6</ele>
        <time>2025-07-25T11:21:08.805Z</time>
      </trkpt>
      <trkpt lat="42.609072" lon="1.903471">
        <ele>2411.6</ele>
        <time>2025-07-25T11:22:25.597Z</time>
      </trkpt>
      <trkpt lat="42.608852" lon="1.903737">
        <ele>2407.9</ele>
        <time>2025-07-25T11:23:16.539Z</time>
      </trkpt>
      <trkpt lat="42.608667" lon="1.904029">
        <ele>2404.0</ele>
        <time>2025-07-25T11:24:08.966Z</time>
      </trkpt>
      <trkpt lat="42.608476" lon="1.904225">
        <ele>2401.7</ele>
        <time>2025-07-25T11:24:45.605Z</time>
      </trkpt>
      <trkpt lat="42.608334" lon="1.904467">
        <ele>2399.5</ele>
        <time>2025-07-25T11:25:20.565Z</time>
      </trkpt>
      <trkpt lat="42.608051" lon="1.904533">
        <ele>2394.3</ele>
        <time>2025-07-25T11:26:18.745Z</time>
      </trkpt>
      <trkpt lat="42.607750" lon="1.904983">
        <ele>2388.2</ele>
        <time>2025-07-25T11:27:39.525Z</time>
      </trkpt>
      <trkpt lat="42.607302" lon="1.905384">
        <ele>2376.6</ele>
        <time>2025-07-25T11:29:41.540Z</time>
      </trkpt>
      <trkpt lat="42.607019" lon="1.905571">
        <ele>2370.8</ele>
        <time>2025-07-25T11:30:47.496Z</time>
      </trkpt>
      <trkpt lat="42.606968" lon="1.905903">
        <ele>2366.8</ele>
        <time>2025-07-25T11:31:36.876Z</time>
      </trkpt>
      <trkpt lat="42.606755" lon="1.906407">
        <ele>2354.3</ele>
        <time>2025-07-25T11:33:34.073Z</time>
      </trkpt>
      <trkpt lat="42.606468" lon="1.906300">
        <ele>2345.8</ele>
        <time>2025-07-25T11:34:53.275Z</time>
      </trkpt>
      <trkpt lat="42.606078" lon="1.906184">
        <ele>2337.2</ele>
        <time>2025-07-25T11:36:26.346Z</time>
      </trkpt>
      <trkpt lat="42.605766" lon="1.906050">
        <ele>2329.1</ele>
        <time>2025-07-25T11:37:45.766Z</time>
      </trkpt>
      <trkpt lat="42.605387" lon="1.906119">
        <ele>2319.1</ele>
        <time>2025-07-25T11:39:22.254Z</time>
      </trkpt>
      <trkpt lat="42.605498" lon="1.906413">
        <ele>2315.3</ele>
        <time>2025-07-25T11:40:08.274Z</time>
      </trkpt>
      <trkpt lat="42.605518" lon="1.906683">
        <ele>2310.5</ele>
        <time>2025-07-25T11:41:06.831Z</time>
      </trkpt>
      <trkpt lat="42.605283" lon="1.906829">
        <ele>2300.6</ele>
        <time>2025-07-25T11:42:31.673Z</time>
      </trkpt>
      <trkpt lat="42.604941" lon="1.906964">
        <ele>2287.6</ele>
        <time>2025-07-25T11:44:23.584Z</time>
      </trkpt>
      <trkpt lat="42.604588" lon="1.907291">
        <ele>2279.4</ele>
        <time>2025-07-25T11:45:53.647Z</time>
      </trkpt>
      <trkpt lat="42.603847" lon="1.907303">
        <ele>2265.1</ele>
        <time>2025-07-25T11:48:29.728Z</time>
      </trkpt>
      <trkpt lat="42.603344" lon="1.907684">
        <ele>2255.2</ele>
        <time>2025-07-25T11:50:24.562Z</time>
      </trkpt>
      <trkpt lat="42.603156" lon="1.907867">
        <ele>2252.5</ele>
        <time>2025-07-25T11:51:02.546Z</time>
      </trkpt>
      <trkpt lat="42.602962" lon="1.908082">
        <ele>2249.6</ele>
        <time>2025-07-25T11:51:44.334Z</time>
      </trkpt>
      <trkpt lat="42.602737" lon="1.908148">
        <ele>2248.5</ele>
        <time>2025-07-25T11:52:12.389Z</time>
      </trkpt>
      <trkpt lat="42.602341" lon="1.908415">
        <ele>2246.5</ele>
        <time>2025-07-25T11:53:06.535Z</time>
      </trkpt>
      <trkpt lat="42.602001" lon="1.908750">
        <ele>2243.9</ele>
        <time>2025-07-25T11:54:02.618Z</time>
      </trkpt>
      <trkpt lat="42.601769" lon="1.908936">
        <ele>2241.3</ele>
        <time>2025-07-25T11:54:45.125Z</time>
      </trkpt>
      <trkpt lat="42.601498" lon="1.909537">
        <ele>2235.6</ele>
        <time>2025-07-25T11:56:09.738Z</time>
      </trkpt>
      <trkpt lat="42.601258" lon="1.909817">
        <ele>2233.7</ele>
        <time>2025-07-25T11:56:53.519Z</time>
      </trkpt>
      <trkpt lat="42.601204" lon="1.910176">
        <ele>2232.1</ele>
        <time>2025-07-25T11:57:28.381Z</time>
      </trkpt>
      <trkpt lat="42.601082" lon="1.910550">
        <ele>2231.1</ele>
        <time>2025-07-25T11:58:03.055Z</time>
      </trkpt>
      <trkpt lat="42.601072" lon="1.910876">
        <ele>2230.2</ele>
        <time>2025-07-25T11:58:34.712Z</time>
      </trkpt>
      <trkpt lat="42.600989" lon="1.911239">
        <ele>2233.2</ele>
        <time>2025-07-25T11:59:32.890Z</time>
      </trkpt>
      <trkpt lat="42.600870" lon="1.911614">
        <ele>2235.7</ele>
        <time>2025-07-25T12:00:27.473Z</time>
      </trkpt>
      <trkpt lat="42.600760" lon="1.911829">
        <ele>2236.4</ele>
        <time>2025-07-25T12:00:56.884Z</time>
      </trkpt>
      <trkpt lat="42.600593" lon="1.912213">
        <ele>2236.3</ele>
        <time>2025-07-25T12:01:31.608Z</time>
      </trkpt>
      <trkpt lat="42.600376" lon="1.912441">
        <ele>2235.7</ele>
        <time>2025-07-25T12:02:01.686Z</time>
      </trkpt>
      <trkpt lat="42.600175" lon="1.912750">
        <ele>2230.4</ele>
        <time>2025-07-25T12:03:02.968Z</time>
      </trkpt>
      <trkpt lat="42.599984" lon="1.913038">
        <ele>2225.3</ele>
        <time>2025-07-25T12:04:01.328Z</time>
      </trkpt>
      <trkpt lat="42.600009" lon="1.913372">
        <ele>2226.2</ele>
        <time>2025-07-25T12:04:33.818Z</time>
      </trkpt>
      <trkpt lat="42.600056" lon="1.913684">
        <ele>2227.1</ele>
        <time>2025-07-25T12:05:06.993Z</time>
      </trkpt>
      <trkpt lat="42.600217" lon="1.914272">
        <ele>2229.8</ele>
        <time>2025-07-25T12:06:20.486Z</time>
      </trkpt>
      <trkpt lat="42.600181" lon="1.914909">
        <ele>2229.4</ele>
        <time>2025-07-25T12:07:07.837Z</time>
      </trkpt>
      <trkpt lat="42.599907" lon="1.915046">
        <ele>2227.8</ele>
        <time>2025-07-25T12:07:45.174Z</time>
      </trkpt>
      <trkpt lat="42.599899" lon="1.915517">
        <ele>2226.9</ele>
        <time>2025-07-25T12:08:24.524Z</time>
      </trkpt>
      <trkpt lat="42.599695" lon="1.915712">
        <ele>2227.4</ele>
        <time>2025-07-25T12:08:59.179Z</time>
      </trkpt>
      <trkpt lat="42.599421" lon="1.915514">
        <ele>2227.9</ele>
        <time>2025-07-25T12:09:33.830Z</time>
      </trkpt>
      <trkpt lat="42.599135" lon="1.915379">
        <ele>2227.9</ele>
        <time>2025-07-25T12:10:04.160Z</time>
      </trkpt>
      <trkpt lat="42.598588" lon="1.915140">
        <ele>2229.7</ele>
        <time>2025-07-25T12:11:17.752Z</time>
      </trkpt>
      <trkpt lat="42.598479" lon="1.915508">
        <ele>2235.3</ele>
        <time>2025-07-25T12:12:47.258Z</time>
      </trkpt>
      <trkpt lat="42.598326" lon="1.915803">
        <ele>2241.9</ele>
        <time>2025-07-25T12:14:23.983Z</time>
      </trkpt>
      <trkpt lat="42.598339" lon="1.916132">
        <ele>2249.3</ele>
        <time>2025-07-25T12:16:02.584Z</time>
      </trkpt>
      <trkpt lat="42.598324" lon="1.916519">
        <ele>2258.0</ele>
        <time>2025-07-25T12:17:59.122Z</time>
      </trkpt>
      <trkpt lat="42.598280" lon="1.916825">
        <ele>2263.1</ele>
        <time>2025-07-25T12:19:13.872Z</time>
      </trkpt>
      <trkpt lat="42.598243" lon="1.917124">
        <ele>2268.4</ele>
        <time>2025-07-25T12:20:31.627Z</time>
      </trkpt>
      <trkpt lat="42.598059" lon="1.917537">
        <ele>2270.8</ele>
        <time>2025-07-25T12:21:30.695Z</time>
      </trkpt>
      <trkpt lat="42.597996" lon="1.918029">
        <ele>2273.8</ele>
        <time>2025-07-25T12:22:37.298Z</time>
      </trkpt>
      <trkpt lat="42.598006" lon="1.918400">
        <ele>2275.3</ele>
        <time>2025-07-25T12:23:19.771Z</time>
      </trkpt>
      <trkpt lat="42.598008" lon="1.919025">
        <ele>2274.7</ele>
        <time>2025-07-25T12:24:07.522Z</time>
      </trkpt>
      <trkpt lat="42.597922" lon="1.919349">
        <ele>2270.2</ele>
        <time>2025-07-25T12:25:04.659Z</time>
      </trkpt>
      <trkpt lat="42.597717" lon="1.919585">
        <ele>2266.3</ele>
        <time>2025-07-25T12:25:53.481Z</time>
      </trkpt>
      <trkpt lat="42.597584" lon="1.920033">
        <ele>2263.5</ele>
        <time>2025-07-25T12:26:44.701Z</time>
      </trkpt>
      <trkpt lat="42.597480" lon="1.921037">
        <ele>2257.8</ele>
        <time>2025-07-25T12:28:30.450Z</time>
      </trkpt>
      <trkpt lat="42.597418" lon="1.921479">
        <ele>2258.6</ele>
        <time>2025-07-25T12:29:11.135Z</time>
      </trkpt>
      <trkpt lat="42.597488" lon="1.922336">
        <ele>2259.9</ele>
        <time>2025-07-25T12:30:25.311Z</time>
      </trkpt>
      <trkpt lat="42.597497" lon="1.922745">
        <ele>2261.6</ele>
        <time>2025-07-25T12:31:11.058Z</time>
      </trkpt>
      <trkpt lat="42.597524" lon="1.923210">
        <ele>2263.4</ele>
        <time>2025-07-25T12:32:03.146Z</time>
      </trkpt>
      <trkpt lat="42.597544" lon="1.923519">
        <ele>2264.9</ele>
        <time>2025-07-25T12:32:40.326Z</time>
      </trkpt>
      <trkpt lat="42.597594" lon="1.923847">
        <ele>2266.5</ele>
        <time>2025-07-25T12:33:20.288Z</time>
      </trkpt>
      <trkpt lat="42.597584" lon="1.924435">
        <ele>2269.5</ele>
        <time>2025-07-25T12:34:33.044Z</time>
      </trkpt>
      <trkpt lat="42.597556" lon="1.925969">
        <ele>2277.0</ele>
        <time>2025-07-25T12:37:38.394Z</time>
      </trkpt>
      <trkpt lat="42.597607" lon="1.926384">
        <ele>2281.5</ele>
        <time>2025-07-25T12:38:53.916Z</time>
      </trkpt>
      <trkpt lat="42.597643" lon="1.927093">
        <ele>2289.1</ele>
        <time>2025-07-25T12:41:01.796Z</time>
      </trkpt>
      <trkpt lat="42.597599" lon="1.927409">
        <ele>2294.7</ele>
        <time>2025-07-25T12:42:21.705Z</time>
      </trkpt>
      <trkpt lat="42.597606" lon="1.927724">
        <ele>2300.2</ele>
        <time>2025-07-25T12:43:40.244Z</time>
      </trkpt>
      <trkpt lat="42.597578" lon="1.928218">
        <ele>2311.5</ele>
        <time>2025-07-25T12:46:11.796Z</time>
      </trkpt>
      <trkpt lat="42.597560" lon="1.928707">
        <ele>2322.7</ele>
        <time>2025-07-25T12:48:41.412Z</time>
      </trkpt>
      <trkpt lat="42.597513" lon="1.929000">
        <ele>2329.6</ele>
        <time>2025-07-25T12:50:14.523Z</time>
      </trkpt>
      <trkpt lat="42.597567" lon="1.929451">
        <ele>2339.5</ele>
        <time>2025-07-25T12:52:28.072Z</time>
      </trkpt>
      <trkpt lat="42.597648" lon="1.929891">
        <ele>2348.2</ele>
        <time>2025-07-25T12:54:29.730Z</time>
      </trkpt>
      <trkpt lat="42.597838" lon="1.930312">
        <ele>2357.7</ele>
        <time>2025-07-25T12:56:42.212Z</time>
      </trkpt>
      <trkpt lat="42.597901" lon="1.930609">
        <ele>2364.1</ele>
        <time>2025-07-25T12:58:09.495Z</time>
      </trkpt>
      <trkpt lat="42.598013" lon="1.930876">
        <ele>2370.5</ele>
        <time>2025-07-25T12:59:36.552Z</time>
      </trkpt>
      <trkpt lat="42.598109" lon="1.931213">
        <ele>2378.9</ele>
        <time>2025-07-25T13:01:28.534Z</time>
      </trkpt>
      <trkpt lat="42.598231" lon="1.931671">
        <ele>2389.8</ele>
        <time>2025-07-25T13:03:55.271Z</time>
      </trkpt>
      <trkpt lat="42.598267" lon="1.932091">
        <ele>2398.8</ele>
        <time>2025-07-25T13:05:56.772Z</time>
      </trkpt>
      <trkpt lat="42.598443" lon="1.932686">
        <ele>2410.7</ele>
        <time>2025-07-25T13:08:44.634Z</time>
      </trkpt>
      <trkpt lat="42.598717" lon="1.933000">
        <ele>2417.2</ele>
        <time>2025-07-25T13:10:26.376Z</time>
      </trkpt>
      <trkpt lat="42.599004" lon="1.933263">
        <ele>2423.0</ele>
        <time>2025-07-25T13:11:59.612Z</time>
      </trkpt>
      <trkpt lat="42.599211" lon="1.933520">
        <ele>2427.4</ele>
        <time>2025-07-25T13:13:11.030Z</time>
      </trkpt>
      <trkpt lat="42.599377" lon="1.933925">
        <ele>2430.0</ele>
        <time>2025-07-25T13:14:10.378Z</time>
      </trkpt>
      <trkpt lat="42.599458" lon="1.934299">
        <ele>2430.7</ele>
        <time>2025-07-25T13:14:44.936Z</time>
      </trkpt>
      <trkpt lat="42.599625" lon="1.934754">
        <ele>2428.9</ele>
        <time>2025-07-25T13:15:31.156Z</time>
      </trkpt>
      <trkpt lat="42.599721" lon="1.935161">
        <ele>2424.1</ele>
        <time>2025-07-25T13:16:29.905Z</time>
      </trkpt>
      <trkpt lat="42.599741" lon="1.935435">
        <ele>2418.6</ele>
        <time>2025-07-25T13:17:28.318Z</time>
      </trkpt>
      <trkpt lat="42.599779" lon="1.935777">
        <ele>2411.2</ele>
        <time>2025-07-25T13:18:39.513Z</time>
      </trkpt>
      <trkpt lat="42.599756" lon="1.936106">
        <ele>2403.2</ele>
        <time>2025-07-25T13:19:51.906Z</time>
      </trkpt>
      <trkpt lat="42.599754" lon="1.936422">
        <ele>2395.0</ele>
        <time>2025-07-25T13:21:02.899Z</time>
      </trkpt>
      <trkpt lat="42.599639" lon="1.936335">
        <ele>2394.2</ele>
        <time>2025-07-25T13:21:34.645Z</time>
      </trkpt>
      <trkpt lat="42.599412" lon="1.936269">
        <ele>2396.4</ele>
        <time>2025-07-25T13:22:19.937Z</time>
      </trkpt>
      <trkpt lat="42.599307" lon="1.936493">
        <ele>2394.5</ele>
        <time>2025-07-25T13:22:54.794Z</time>
      </trkpt>
      <trkpt lat="42.599167" lon="1.936667">
        <ele>2385.5</ele>
        <time>2025-07-25T13:24:17.657Z</time>
      </trkpt>
      <trkpt lat="42.599286" lon="1.937022">
        <ele>2373.8</ele>
        <time>2025-07-25T13:25:56.277Z</time>
      </trkpt>
      <trkpt lat="42.599529" lon="1.937757">
        <ele>2348.5</ele>
        <time>2025-07-25T13:29:25.283Z</time>
      </trkpt>
      <trkpt lat="42.599604" lon="1.938079">
        <ele>2341.7</ele>
        <time>2025-07-25T13:30:29.776Z</time>
      </trkpt>
      <trkpt lat="42.599723" lon="1.938452">
        <ele>2333.5</ele>
        <time>2025-07-25T13:31:47.443Z</time>
      </trkpt>
      <trkpt lat="42.599773" lon="1.939087">
        <ele>2322.1</ele>
        <time>2025-07-25T13:33:40.950Z</time>
      </trkpt>
      <trkpt lat="42.599882" lon="1.939403">
        <ele>2319.9</ele>
        <time>2025-07-25T13:34:18.775Z</time>
      </trkpt>
      <trkpt lat="42.600108" lon="1.939744">
        <ele>2317.0</ele>
        <time>2025-07-25T13:35:08.611Z</time>
      </trkpt>
      <trkpt lat="42.600447" lon="1.940583">
        <ele>2310.5</ele>
        <time>2025-07-25T13:36:54.470Z</time>
      </trkpt>
      <trkpt lat="42.600654" lon="1.941044">
        <ele>2309.3</ele>
        <time>2025-07-25T13:37:39.758Z</time>
      </trkpt>
      <trkpt lat="42.600808" lon="1.941304">
        <ele>2308.5</ele>
        <time>2025-07-25T13:38:07.812Z</time>
      </trkpt>
      <trkpt lat="42.600916" lon="1.941574">
        <ele>2308.0</ele>
        <time>2025-07-25T13:38:32.300Z</time>
      </trkpt>
      <trkpt lat="42.601112" lon="1.942125">
        <ele>2307.0</ele>
        <time>2025-07-25T13:39:22.949Z</time>
      </trkpt>
      <trkpt lat="42.601131" lon="1.942850">
        <ele>2303.2</ele>
        <time>2025-07-25T13:40:40.757Z</time>
      </trkpt>
      <trkpt lat="42.601134" lon="1.943159">
        <ele>2301.4</ele>
        <time>2025-07-25T13:41:13.180Z</time>
      </trkpt>
      <trkpt lat="42.601032" lon="1.943539">
        <ele>2299.1</ele>
        <time>2025-07-25T13:41:55.636Z</time>
      </trkpt>
      <trkpt lat="42.601138" lon="1.943810">
        <ele>2298.9</ele>
        <time>2025-07-25T13:42:19.179Z</time>
      </trkpt>
      <trkpt lat="42.601032" lon="1.944083">
        <ele>2298.8</ele>
        <time>2025-07-25T13:42:42.853Z</time>
      </trkpt>
      <trkpt lat="42.601201" lon="1.944502">
        <ele>2297.7</ele>
        <time>2025-07-25T13:43:24.211Z</time>
      </trkpt>
      <trkpt lat="42.601296" lon="1.944837">
        <ele>2297.0</ele>
        <time>2025-07-25T13:43:53.860Z</time>
      </trkpt>
      <trkpt lat="42.601272" lon="1.945542">
        <ele>2295.9</ele>
        <time>2025-07-25T13:44:50.016Z</time>
      </trkpt>
      <trkpt lat="42.601328" lon="1.946198">
        <ele>2294.3</ele>
        <time>2025-07-25T13:45:46.217Z</time>
      </trkpt>
      <trkpt lat="42.601356" lon="1.946674">
        <ele>2291.9</ele>
        <time>2025-07-25T13:46:35.691Z</time>
      </trkpt>
      <trkpt lat="42.601348" lon="1.946986">
        <ele>2289.8</ele>
        <time>2025-07-25T13:47:10.333Z</time>
      </trkpt>
      <trkpt lat="42.601361" lon="1.947328">
        <ele>2286.7</ele>
        <time>2025-07-25T13:47:53.247Z</time>
      </trkpt>
      <trkpt lat="42.601337" lon="1.947653">
        <ele>2283.8</ele>
        <time>2025-07-25T13:48:33.468Z</time>
      </trkpt>
      <trkpt lat="42.601304" lon="1.947987">
        <ele>2281.2</ele>
        <time>2025-07-25T13:49:14.658Z</time>
      </trkpt>
      <trkpt lat="42.601357" lon="1.948388">
        <ele>2277.3</ele>
        <time>2025-07-25T13:50:06.572Z</time>
      </trkpt>
      <trkpt lat="42.601456" lon="1.948740">
        <ele>2271.4</ele>
        <time>2025-07-25T13:51:10.287Z</time>
      </trkpt>
      <trkpt lat="42.601514" lon="1.949156">
        <ele>2264.7</ele>
        <time>2025-07-25T13:52:19.946Z</time>
      </trkpt>
      <trkpt lat="42.601580" lon="1.949735">
        <ele>2253.9</ele>
        <time>2025-07-25T13:54:06.804Z</time>
      </trkpt>
      <trkpt lat="42.601603" lon="1.950044">
        <ele>2247.3</ele>
        <time>2025-07-25T13:55:08.401Z</time>
      </trkpt>
      <trkpt lat="42.601622" lon="1.950436">
        <ele>2240.6</ele>
        <time>2025-07-25T13:56:16.826Z</time>
      </trkpt>
      <trkpt lat="42.601541" lon="1.950792">
        <ele>2235.0</ele>
        <time>2025-07-25T13:57:17.239Z</time>
      </trkpt>
      <trkpt lat="42.601452" lon="1.951208">
        <ele>2229.8</ele>
        <time>2025-07-25T13:58:21.223Z</time>
      </trkpt>
      <trkpt lat="42.601376" lon="1.951507">
        <ele>2226.3</ele>
        <time>2025-07-25T13:59:04.402Z</time>
      </trkpt>
      <trkpt lat="42.601337" lon="1.951897">
        <ele>2222.1</ele>
        <time>2025-07-25T13:59:56.813Z</time>
      </trkpt>
      <trkpt lat="42.601140" lon="1.952461">
        <ele>2215.6</ele>
        <time>2025-07-25T14:01:19.882Z</time>
      </trkpt>
      <trkpt lat="42.600968" lon="1.953103">
        <ele>2207.1</ele>
        <time>2025-07-25T14:02:59.104Z</time>
      </trkpt>
      <trkpt lat="42.600838" lon="1.953681">
        <ele>2196.7</ele>
        <time>2025-07-25T14:04:43.771Z</time>
      </trkpt>
      <trkpt lat="42.600944" lon="1.954083">
        <ele>2189.5</ele>
        <time>2025-07-25T14:05:57.376Z</time>
      </trkpt>
      <trkpt lat="42.601008" lon="1.954491">
        <ele>2182.8</ele>
        <time>2025-07-25T14:07:07.596Z</time>
      </trkpt>
      <trkpt lat="42.600920" lon="1.954774">
        <ele>2179.5</ele>
        <time>2025-07-25T14:07:52.668Z</time>
      </trkpt>
      <trkpt lat="42.600704" lon="1.955054">
        <ele>2179.0</ele>
        <time>2025-07-25T14:08:24.330Z</time>
      </trkpt>
      <trkpt lat="42.600447" lon="1.955527">
        <ele>2173.6</ele>
        <time>2025-07-25T14:09:37.837Z</time>
      </trkpt>
      <trkpt lat="42.600395" lon="1.955877">
        <ele>2169.9</ele>
        <time>2025-07-25T14:10:25.212Z</time>
      </trkpt>
      <trkpt lat="42.600334" lon="1.956200">
        <ele>2166.6</ele>
        <time>2025-07-25T14:11:08.206Z</time>
      </trkpt>
      <trkpt lat="42.600203" lon="1.956488">
        <ele>2163.3</ele>
        <time>2025-07-25T14:11:51.806Z</time>
      </trkpt>
      <trkpt lat="42.600016" lon="1.956935">
        <ele>2159.5</ele>
        <time>2025-07-25T14:12:51.708Z</time>
      </trkpt>
      <trkpt lat="42.599576" lon="1.957283">
        <ele>2156.8</ele>
        <time>2025-07-25T14:13:56.424Z</time>
      </trkpt>
      <trkpt lat="42.599163" lon="1.957951">
        <ele>2155.2</ele>
        <time>2025-07-25T14:15:09.712Z</time>
      </trkpt>
      <trkpt lat="42.598962" lon="1.958311">
        <ele>2153.5</ele>
        <time>2025-07-25T14:15:51.570Z</time>
      </trkpt>
      <trkpt lat="42.598722" lon="1.958691">
        <ele>2151.7</ele>
        <time>2025-07-25T14:16:37.843Z</time>
      </trkpt>
      <trkpt lat="42.598574" lon="1.959067">
        <ele>2148.8</ele>
        <time>2025-07-25T14:17:27.158Z</time>
      </trkpt>
      <trkpt lat="42.598369" lon="1.959362">
        <ele>2146.7</ele>
        <time>2025-07-25T14:18:08.479Z</time>
      </trkpt>
      <trkpt lat="42.598073" lon="1.959768">
        <ele>2144.8</ele>
        <time>2025-07-25T14:19:00.164Z</time>
      </trkpt>
      <trkpt lat="42.597677" lon="1.960211">
        <ele>2144.1</ele>
        <time>2025-07-25T14:19:55.068Z</time>
      </trkpt>
      <trkpt lat="42.597477" lon="1.960406">
        <ele>2143.7</ele>
        <time>2025-07-25T14:20:20.639Z</time>
      </trkpt>
      <trkpt lat="42.597211" lon="1.960651">
        <ele>2143.7</ele>
        <time>2025-07-25T14:20:52.219Z</time>
      </trkpt>
      <trkpt lat="42.596958" lon="1.960865">
        <ele>2144.3</ele>
        <time>2025-07-25T14:21:27.197Z</time>
      </trkpt>
      <trkpt lat="42.596694" lon="1.961245">
        <ele>2145.5</ele>
        <time>2025-07-25T14:22:16.358Z</time>
      </trkpt>
      <trkpt lat="42.596441" lon="1.961606">
        <ele>2146.8</ele>
        <time>2025-07-25T14:23:05.343Z</time>
      </trkpt>
      <trkpt lat="42.596187" lon="1.961815">
        <ele>2148.2</ele>
        <time>2025-07-25T14:23:48.394Z</time>
      </trkpt>
      <trkpt lat="42.595971" lon="1.962145">
        <ele>2148.8</ele>
        <time>2025-07-25T14:24:26.980Z</time>
      </trkpt>
      <trkpt lat="42.595908" lon="1.962482">
        <ele>2148.9</ele>
        <time>2025-07-25T14:24:52.309Z</time>
      </trkpt>
      <trkpt lat="42.595737" lon="1.962838">
        <ele>2149.0</ele>
        <time>2025-07-25T14:25:23.141Z</time>
      </trkpt>
      <trkpt lat="42.595487" lon="1.963217">
        <ele>2147.4</ele>
        <time>2025-07-25T14:26:08.393Z</time>
      </trkpt>
      <trkpt lat="42.595369" lon="1.963900">
        <ele>2144.3</ele>
        <time>2025-07-25T14:27:17.620Z</time>
      </trkpt>
      <trkpt lat="42.595308" lon="1.964307">
        <ele>2142.3</ele>
        <time>2025-07-25T14:27:59.003Z</time>
      </trkpt>
      <trkpt lat="42.595176" lon="1.964701">
        <ele>2140.5</ele>
        <time>2025-07-25T14:28:40.328Z</time>
      </trkpt>
      <trkpt lat="42.595049" lon="1.965255">
        <ele>2138.2</ele>
        <time>2025-07-25T14:29:35.048Z</time>
      </trkpt>
      <trkpt lat="42.594832" lon="1.965585">
        <ele>2136.4</ele>
        <time>2025-07-25T14:30:16.535Z</time>
      </trkpt>
      <trkpt lat="42.594792" lon="1.965890">
        <ele>2135.6</ele>
        <time>2025-07-25T14:30:43.506Z</time>
      </trkpt>
      <trkpt lat="42.594782" lon="1.966200">
        <ele>2134.8</ele>
        <time>2025-07-25T14:31:10.047Z</time>
      </trkpt>
      <trkpt lat="42.594554" lon="1.966568">
        <ele>2135.3</ele>
        <time>2025-07-25T14:31:48.896Z</time>
      </trkpt>
      <trkpt lat="42.594468" lon="1.966872">
        <ele>2133.5</ele>
        <time>2025-07-25T14:32:23.542Z</time>
      </trkpt>
      <trkpt lat="42.594504" lon="1.967404">
        <ele>2128.8</ele>
        <time>2025-07-25T14:33:30.303Z</time>
      </trkpt>
      <trkpt lat="42.594380" lon="1.967735">
        <ele>2126.3</ele>
        <time>2025-07-25T14:34:11.430Z</time>
      </trkpt>
      <trkpt lat="42.594247" lon="1.968211">
        <ele>2122.8</ele>
        <time>2025-07-25T14:35:08.432Z</time>
      </trkpt>
      <trkpt lat="42.594195" lon="1.968534">
        <ele>2120.7</ele>
        <time>2025-07-25T14:35:43.834Z</time>
      </trkpt>
      <trkpt lat="42.594111" lon="1.968871">
        <ele>2118.5</ele>
        <time>2025-07-25T14:36:22.950Z</time>
      </trkpt>
      <trkpt lat="42.594006" lon="1.969160">
        <ele>2117.1</ele>
        <time>2025-07-25T14:36:54.240Z</time>
      </trkpt>
      <trkpt lat="42.593797" lon="1.969389">
        <ele>2115.3</ele>
        <time>2025-07-25T14:37:31.252Z</time>
      </trkpt>
      <trkpt lat="42.593718" lon="1.969785">
        <ele>2112.3</ele>
        <time>2025-07-25T14:38:18.889Z</time>
      </trkpt>
      <trkpt lat="42.593644" lon="1.970252">
        <ele>2109.1</ele>
        <time>2025-07-25T14:39:12.308Z</time>
      </trkpt>
      <trkpt lat="42.593567" lon="1.970566">
        <ele>2107.1</ele>
        <time>2025-07-25T14:39:47.503Z</time>
      </trkpt>
      <trkpt lat="42.593529" lon="1.970948">
        <ele>2104.4</ele>
        <time>2025-07-25T14:40:31.673Z</time>
      </trkpt>
      <trkpt lat="42.593543" lon="1.971250">
        <ele>2102.2</ele>
        <time>2025-07-25T14:41:06.859Z</time>
      </trkpt>
      <trkpt lat="42.593465" lon="1.971800">
        <ele>2098.3</ele>
        <time>2025-07-25T14:42:10.656Z</time>
      </trkpt>
      <trkpt lat="42.593314" lon="1.972377">
        <ele>2094.0</ele>
        <time>2025-07-25T14:43:18.917Z</time>
      </trkpt>
      <trkpt lat="42.593150" lon="1.972755">
        <ele>2092.6</ele>
        <time>2025-07-25T14:43:58.406Z</time>
      </trkpt>
      <trkpt lat="42.593013" lon="1.973030">
        <ele>2091.2</ele>
        <time>2025-07-25T14:44:30.247Z</time>
      </trkpt>
      <trkpt lat="42.592881" lon="1.973380">
        <ele>2088.9</ele>
        <time>2025-07-25T14:45:12.810Z</time>
      </trkpt>
      <trkpt lat="42.592758" lon="1.973726">
        <ele>2086.7</ele>
        <time>2025-07-25T14:45:53.169Z</time>
      </trkpt>
      <trkpt lat="42.592677" lon="1.974099">
        <ele>2084.5</ele>
        <time>2025-07-25T14:46:33.497Z</time>
      </trkpt>
      <trkpt lat="42.592477" lon="1.974616">
        <ele>2081.6</ele>
        <time>2025-07-25T14:47:31.863Z</time>
      </trkpt>
      <trkpt lat="42.592368" lon="1.974962">
        <ele>2079.6</ele>
        <time>2025-07-25T14:48:10.521Z</time>
      </trkpt>
      <trkpt lat="42.592366" lon="1.975324">
        <ele>2077.2</ele>
        <time>2025-07-25T14:48:50.387Z</time>
      </trkpt>
      <trkpt lat="42.592227" lon="1.975942">
        <ele>2074.6</ele>
        <time>2025-07-25T14:49:51.638Z</time>
      </trkpt>
      <trkpt lat="42.592104" lon="1.976341">
        <ele>2073.7</ele>
        <time>2025-07-25T14:50:27.526Z</time>
      </trkpt>
      <trkpt lat="42.591975" lon="1.976662">
        <ele>2073.3</ele>
        <time>2025-07-25T14:50:56.105Z</time>
      </trkpt>
      <trkpt lat="42.591740" lon="1.976916">
        <ele>2073.3</ele>
        <time>2025-07-25T14:51:26.630Z</time>
      </trkpt>
      <trkpt lat="42.591436" lon="1.977356">
        <ele>2073.8</ele>
        <time>2025-07-25T14:52:15.421Z</time>
      </trkpt>
      <trkpt lat="42.591261" lon="1.977619">
        <ele>2073.3</ele>
        <time>2025-07-25T14:52:43.005Z</time>
      </trkpt>
      <trkpt lat="42.591003" lon="1.978087">
        <ele>2072.4</ele>
        <time>2025-07-25T14:53:29.746Z</time>
      </trkpt>
      <trkpt lat="42.590822" lon="1.978411">
        <ele>2071.6</ele>
        <time>2025-07-25T14:54:04.117Z</time>
      </trkpt>
      <trkpt lat="42.590655" lon="1.978672">
        <ele>2071.3</ele>
        <time>2025-07-25T14:54:29.911Z</time>
      </trkpt>
      <trkpt lat="42.590522" lon="1.979182">
        <ele>2070.9</ele>
        <time>2025-07-25T14:55:10.662Z</time>
      </trkpt>
      <trkpt lat="42.590343" lon="1.979602">
        <ele>2070.9</ele>
        <time>2025-07-25T14:55:44.825Z</time>
      </trkpt>
      <trkpt lat="42.590269" lon="1.979890">
        <ele>2070.9</ele>
        <time>2025-07-25T14:56:06.350Z</time>
      </trkpt>
      <trkpt lat="42.589852" lon="1.980894">
        <ele>2069.1</ele>
        <time>2025-07-25T14:57:38.312Z</time>
      </trkpt>
      <trkpt lat="42.589625" lon="1.981753">
        <ele>2066.8</ele>
        <time>2025-07-25T14:58:56.201Z</time>
      </trkpt>
      <trkpt lat="42.589280" lon="1.982427">
        <ele>2067.6</ele>
        <time>2025-07-25T15:00:01.787Z</time>
      </trkpt>
      <trkpt lat="42.589165" lon="1.982797">
        <ele>2067.2</ele>
        <time>2025-07-25T15:00:32.667Z</time>
      </trkpt>
      <trkpt lat="42.589040" lon="1.983358">
        <ele>2066.6</ele>
        <time>2025-07-25T15:01:17.406Z</time>
      </trkpt>
      <trkpt lat="42.588898" lon="1.983750">
        <ele>2065.4</ele>
        <time>2025-07-25T15:01:55.244Z</time>
      </trkpt>
      <trkpt lat="42.588795" lon="1.984020">
        <ele>2064.5</ele>
        <time>2025-07-25T15:02:22.356Z</time>
      </trkpt>
      <trkpt lat="42.588598" lon="1.984432">
        <ele>2067.3</ele>
        <time>2025-07-25T15:03:25.659Z</time>
      </trkpt>
      <trkpt lat="42.588345" lon="1.984852">
        <ele>2070.4</ele>
        <time>2025-07-25T15:04:35.485Z</time>
      </trkpt>
      <trkpt lat="42.588156" lon="1.985383">
        <ele>2069.0</ele>
        <time>2025-07-25T15:05:25.647Z</time>
      </trkpt>
      <trkpt lat="42.587953" lon="1.985865">
        <ele>2067.9</ele>
        <time>2025-07-25T15:06:11.845Z</time>
      </trkpt>
      <trkpt lat="42.587786" lon="1.986213">
        <ele>2066.2</ele>
        <time>2025-07-25T15:06:51.230Z</time>
      </trkpt>
      <trkpt lat="42.587686" lon="1.986530">
        <ele>2063.1</ele>
        <time>2025-07-25T15:07:34.041Z</time>
      </trkpt>
      <trkpt lat="42.587502" lon="1.986801">
        <ele>2061.0</ele>
        <time>2025-07-25T15:08:12.984Z</time>
      </trkpt>
      <trkpt lat="42.587325" lon="1.986994">
        <ele>2060.5</ele>
        <time>2025-07-25T15:08:38.627Z</time>
      </trkpt>
      <trkpt lat="42.586963" lon="1.987396">
        <ele>2059.5</ele>
        <time>2025-07-25T15:09:29.034Z</time>
      </trkpt>
      <trkpt lat="42.586519" lon="1.987936">
        <ele>2061.2</ele>
        <time>2025-07-25T15:10:43.658Z</time>
      </trkpt>
      <trkpt lat="42.586325" lon="1.988228">
        <ele>2060.8</ele>
        <time>2025-07-25T15:11:13.680Z</time>
      </trkpt>
      <trkpt lat="42.586098" lon="1.988852">
        <ele>2058.9</ele>
        <time>2025-07-25T15:12:14.752Z</time>
      </trkpt>
      <trkpt lat="42.585856" lon="1.989257">
        <ele>2057.2</ele>
        <time>2025-07-25T15:13:01.342Z</time>
      </trkpt>
      <trkpt lat="42.585648" lon="1.989450">
        <ele>2056.3</ele>
        <time>2025-07-25T15:13:30.600Z</time>
      </trkpt>
      <trkpt lat="42.585411" lon="1.989766">
        <ele>2054.4</ele>
        <time>2025-07-25T15:14:13.730Z</time>
      </trkpt>
      <trkpt lat="42.585194" lon="1.990131">
        <ele>2052.4</ele>
        <time>2025-07-25T15:14:59.138Z</time>
      </trkpt>
      <trkpt lat="42.584986" lon="1.990295">
        <ele>2052.5</ele>
        <time>2025-07-25T15:15:23.477Z</time>
      </trkpt>
      <trkpt lat="42.584736" lon="1.990633">
        <ele>2052.7</ele>
        <time>2025-07-25T15:15:59.487Z</time>
      </trkpt>
      <trkpt lat="42.584511" lon="1.990877">
        <ele>2054.4</ele>
        <time>2025-07-25T15:16:44.179Z</time>
      </trkpt>
      <trkpt lat="42.584244" lon="1.991178">
        <ele>2056.3</ele>
        <time>2025-07-25T15:17:36.938Z</time>
      </trkpt>
      <trkpt lat="42.583874" lon="1.991547">
        <ele>2058.3</ele>
        <time>2025-07-25T15:18:41.617Z</time>
      </trkpt>
      <trkpt lat="42.583715" lon="1.991763">
        <ele>2058.4</ele>
        <time>2025-07-25T15:19:04.939Z</time>
      </trkpt>
      <trkpt lat="42.583496" lon="1.992010">
        <ele>2058.6</ele>
        <time>2025-07-25T15:19:33.923Z</time>
      </trkpt>
      <trkpt lat="42.583211" lon="1.992194">
        <ele>2060.0</ele>
        <time>2025-07-25T15:20:19.062Z</time>
      </trkpt>
      <trkpt lat="42.583047" lon="1.992571">
        <ele>2059.9</ele>
        <time>2025-07-25T15:20:52.997Z</time>
      </trkpt>
      <trkpt lat="42.582765" lon="1.993019">
        <ele>2057.7</ele>
        <time>2025-07-25T15:21:49.237Z</time>
      </trkpt>
      <trkpt lat="42.582574" lon="1.993245">
        <ele>2058.3</ele>
        <time>2025-07-25T15:22:19.448Z</time>
      </trkpt>
      <trkpt lat="42.582415" lon="1.993523">
        <ele>2058.9</ele>
        <time>2025-07-25T15:22:51.305Z</time>
      </trkpt>
      <trkpt lat="42.582288" lon="1.993849">
        <ele>2058.8</ele>
        <time>2025-07-25T15:23:18.301Z</time>
      </trkpt>
      <trkpt lat="42.582121" lon="1.994128">
        <ele>2058.7</ele>
        <time>2025-07-25T15:23:45.483Z</time>
      </trkpt>
      <trkpt lat="42.581980" lon="1.994499">
        <ele>2058.6</ele>
        <time>2025-07-25T15:24:16.001Z</time>
      </trkpt>
      <trkpt lat="42.581790" lon="1.994757">
        <ele>2058.4</ele>
        <time>2025-07-25T15:24:42.642Z</time>
      </trkpt>
      <trkpt lat="42.581553" lon="1.994998">
        <ele>2058.9</ele>
        <time>2025-07-25T15:25:18.915Z</time>
      </trkpt>
      <trkpt lat="42.580982" lon="1.995289">
        <ele>2059.1</ele>
        <time>2025-07-25T15:26:19.055Z</time>
      </trkpt>
      <trkpt lat="42.580695" lon="1.995728">
        <ele>2053.3</ele>
        <time>2025-07-25T15:27:35.024Z</time>
      </trkpt>
      <trkpt lat="42.580421" lon="1.995880">
        <ele>2050.4</ele>
        <time>2025-07-25T15:28:20.941Z</time>
      </trkpt>
      <trkpt lat="42.580084" lon="1.996323">
        <ele>2046.3</ele>
        <time>2025-07-25T15:29:31.127Z</time>
      </trkpt>
      <trkpt lat="42.579874" lon="1.996060">
        <ele>2048.6</ele>
        <time>2025-07-25T15:30:26.153Z</time>
      </trkpt>
      <trkpt lat="42.579744" lon="1.995757">
        <ele>2050.0</ele>
        <time>2025-07-25T15:31:06.022Z</time>
      </trkpt>
      <trkpt lat="42.579466" lon="1.995440">
        <ele>2051.1</ele>
        <time>2025-07-25T15:31:52.337Z</time>
      </trkpt>
      <trkpt lat="42.579187" lon="1.995343">
        <ele>2051.6</ele>
        <time>2025-07-25T15:32:25.201Z</time>
      </trkpt>
      <trkpt lat="42.579086" lon="1.994842">
        <ele>2052.3</ele>
        <time>2025-07-25T15:33:08.417Z</time>
      </trkpt>
      <trkpt lat="42.578751" lon="1.994418">
        <ele>2050.1</ele>
        <time>2025-07-25T15:34:06.371Z</time>
      </trkpt>
      <trkpt lat="42.578562" lon="1.994123">
        <ele>2049.1</ele>
        <time>2025-07-25T15:34:40.324Z</time>
      </trkpt>
      <trkpt lat="42.578330" lon="1.994023">
        <ele>2047.4</ele>
        <time>2025-07-25T15:35:14.978Z</time>
      </trkpt>
      <trkpt lat="42.577748" lon="1.993825">
        <ele>2039.7</ele>
        <time>2025-07-25T15:36:58.559Z</time>
      </trkpt>
      <trkpt lat="42.577494" lon="1.993826">
        <ele>2037.0</ele>
        <time>2025-07-25T15:37:38.940Z</time>
      </trkpt>
      <trkpt lat="42.577254" lon="1.993848">
        <ele>2034.6</ele>
        <time>2025-07-25T15:38:16.856Z</time>
      </trkpt>
      <trkpt lat="42.576978" lon="1.993917">
        <ele>2031.3</ele>
        <time>2025-07-25T15:39:03.318Z</time>
      </trkpt>
      <trkpt lat="42.576757" lon="1.993976">
        <ele>2028.3</ele>
        <time>2025-07-25T15:39:44.809Z</time>
      </trkpt>
      <trkpt lat="42.576626" lon="1.994229">
        <ele>2026.2</ele>
        <time>2025-07-25T15:40:20.858Z</time>
      </trkpt>
      <trkpt lat="42.576396" lon="1.994076">
        <ele>2023.9</ele>
        <time>2025-07-25T15:41:00.476Z</time>
      </trkpt>
      <trkpt lat="42.576068" lon="1.994081">
        <ele>2024.8</ele>
        <time>2025-07-25T15:41:43.300Z</time>
      </trkpt>
      <trkpt lat="42.575602" lon="1.993912">
        <ele>2026.2</ele>
        <time>2025-07-25T15:42:43.180Z</time>
      </trkpt>
      <trkpt lat="42.575369" lon="1.993776">
        <ele>2027.4</ele>
        <time>2025-07-25T15:43:19.337Z</time>
      </trkpt>
      <trkpt lat="42.575119" lon="1.993673">
        <ele>2028.6</ele>
        <time>2025-07-25T15:43:56.640Z</time>
      </trkpt>
      <trkpt lat="42.574848" lon="1.993569">
        <ele>2027.8</ele>
        <time>2025-07-25T15:44:28.479Z</time>
      </trkpt>
      <trkpt lat="42.574522" lon="1.993332">
        <ele>2026.7</ele>
        <time>2025-07-25T15:45:10.445Z</time>
      </trkpt>
      <trkpt lat="42.574311" lon="1.993101">
        <ele>2024.5</ele>
        <time>2025-07-25T15:45:49.394Z</time>
      </trkpt>
      <trkpt lat="42.573952" lon="1.992875">
        <ele>2028.9</ele>
        <time>2025-07-25T15:47:12.841Z</time>
      </trkpt>
      <trkpt lat="42.573611" lon="1.992856">
        <ele>2038.7</ele>
        <time>2025-07-25T15:49:25.574Z</time>
      </trkpt>
      <trkpt lat="42.573237" lon="1.992658">
        <ele>2043.5</ele>
        <time>2025-07-25T15:50:53.564Z</time>
      </trkpt>
      <trkpt lat="42.572984" lon="1.992673">
        <ele>2041.9</ele>
        <time>2025-07-25T15:51:27.305Z</time>
      </trkpt>
      <trkpt lat="42.572718" lon="1.992776">
        <ele>2039.0</ele>
        <time>2025-07-25T15:52:11.085Z</time>
      </trkpt>
      <trkpt lat="42.572360" lon="1.993132">
        <ele>2026.6</ele>
        <time>2025-07-25T15:54:09.848Z</time>
      </trkpt>
      <trkpt lat="42.572109" lon="1.993279">
        <ele>2025.0</ele>
        <time>2025-07-25T15:54:47.110Z</time>
      </trkpt>
      <trkpt lat="42.571910" lon="1.993142">
        <ele>2023.8</ele>
        <time>2025-07-25T15:55:16.302Z</time>
      </trkpt>
      <trkpt lat="42.571662" lon="1.992780">
        <ele>2029.2</ele>
        <time>2025-07-25T15:56:46.923Z</time>
      </trkpt>
      <trkpt lat="42.571447" lon="1.992606">
        <ele>2032.9</ele>
        <time>2025-07-25T15:57:49.627Z</time>
      </trkpt>
      <trkpt lat="42.571180" lon="1.992457">
        <ele>2033.2</ele>
        <time>2025-07-25T15:58:19.945Z</time>
      </trkpt>
      <trkpt lat="42.570888" lon="1.992648">
        <ele>2030.2</ele>
        <time>2025-07-25T15:59:10.352Z</time>
      </trkpt>
      <trkpt lat="42.570570" lon="1.992969">
        <ele>2022.0</ele>
        <time>2025-07-25T16:00:37.022Z</time>
      </trkpt>
      <trkpt lat="42.570374" lon="1.993144">
        <ele>2018.7</ele>
        <time>2025-07-25T16:01:20.600Z</time>
      </trkpt>
      <trkpt lat="42.570201" lon="1.993349">
        <ele>2015.5</ele>
        <time>2025-07-25T16:02:02.523Z</time>
      </trkpt>
      <trkpt lat="42.569966" lon="1.993478">
        <ele>2016.3</ele>
        <time>2025-07-25T16:02:37.009Z</time>
      </trkpt>
      <trkpt lat="42.569737" lon="1.993780">
        <ele>2017.4</ele>
        <time>2025-07-25T16:03:20.325Z</time>
      </trkpt>
      <trkpt lat="42.569479" lon="1.993985">
        <ele>2018.6</ele>
        <time>2025-07-25T16:04:01.006Z</time>
      </trkpt>
      <trkpt lat="42.569257" lon="1.993984">
        <ele>2019.9</ele>
        <time>2025-07-25T16:04:35.846Z</time>
      </trkpt>
      <trkpt lat="42.568876" lon="1.994332">
        <ele>2022.7</ele>
        <time>2025-07-25T16:05:48.638Z</time>
      </trkpt>
      <trkpt lat="42.568654" lon="1.994446">
        <ele>2023.3</ele>
        <time>2025-07-25T16:06:18.119Z</time>
      </trkpt>
      <trkpt lat="42.568386" lon="1.994461">
        <ele>2024.1</ele>
        <time>2025-07-25T16:06:52.094Z</time>
      </trkpt>
      <trkpt lat="42.568072" lon="1.994260">
        <ele>2028.2</ele>
        <time>2025-07-25T16:08:09.188Z</time>
      </trkpt>
      <trkpt lat="42.567799" lon="1.994262">
        <ele>2029.2</ele>
        <time>2025-07-25T16:08:47.686Z</time>
      </trkpt>
      <trkpt lat="42.567603" lon="1.994290">
        <ele>2028.6</ele>
        <time>2025-07-25T16:09:12.375Z</time>
      </trkpt>
      <trkpt lat="42.567330" lon="1.994712">
        <ele>2026.6</ele>
        <time>2025-07-25T16:10:05.094Z</time>
      </trkpt>
      <trkpt lat="42.567099" lon="1.994750">
        <ele>2025.1</ele>
        <time>2025-07-25T16:10:37.850Z</time>
      </trkpt>
      <trkpt lat="42.566920" lon="1.994619">
        <ele>2025.6</ele>
        <time>2025-07-25T16:11:05.645Z</time>
      </trkpt>
      <trkpt lat="42.566709" lon="1.994840">
        <ele>2026.3</ele>
        <time>2025-07-25T16:11:38.124Z</time>
      </trkpt>
      <trkpt lat="42.566593" lon="1.995202">
        <ele>2024.5</ele>
        <time>2025-07-25T16:12:16.835Z</time>
      </trkpt>
      <trkpt lat="42.566384" lon="1.995442">
        <ele>2023.2</ele>
        <time>2025-07-25T16:12:50.979Z</time>
      </trkpt>
      <trkpt lat="42.565826" lon="1.995558">
        <ele>2023.2</ele>
        <time>2025-07-25T16:13:46.796Z</time>
      </trkpt>
      <trkpt lat="42.565596" lon="1.995520">
        <ele>2023.9</ele>
        <time>2025-07-25T16:14:16.571Z</time>
      </trkpt>
      <trkpt lat="42.565391" lon="1.995575">
        <ele>2024.7</ele>
        <time>2025-07-25T16:14:48.643Z</time>
      </trkpt>
      <trkpt lat="42.565095" lon="1.995589">
        <ele>2026.7</ele>
        <time>2025-07-25T16:15:38.936Z</time>
      </trkpt>
      <trkpt lat="42.564799" lon="1.995533">
        <ele>2028.6</ele>
        <time>2025-07-25T16:16:27.546Z</time>
      </trkpt>
      <trkpt lat="42.564586" lon="1.995452">
        <ele>2031.6</ele>
        <time>2025-07-25T16:17:22.037Z</time>
      </trkpt>
      <trkpt lat="42.564387" lon="1.995282">
        <ele>2034.5</ele>
        <time>2025-07-25T16:18:14.177Z</time>
      </trkpt>
      <trkpt lat="42.564076" lon="1.995634">
        <ele>2031.5</ele>
        <time>2025-07-25T16:19:13.302Z</time>
      </trkpt>
      <trkpt lat="42.563766" lon="1.996107">
        <ele>2027.3</ele>
        <time>2025-07-25T16:20:23.435Z</time>
      </trkpt>
      <trkpt lat="42.563534" lon="1.996342">
        <ele>2025.1</ele>
        <time>2025-07-25T16:21:05.677Z</time>
      </trkpt>
      <trkpt lat="42.563307" lon="1.996447">
        <ele>2024.8</ele>
        <time>2025-07-25T16:21:31.881Z</time>
      </trkpt>
      <trkpt lat="42.563038" lon="1.996560">
        <ele>2027.2</ele>
        <time>2025-07-25T16:22:23.862Z</time>
      </trkpt>
      <trkpt lat="42.562769" lon="1.996621">
        <ele>2031.0</ele>
        <time>2025-07-25T16:23:31.114Z</time>
      </trkpt>
      <trkpt lat="42.562531" lon="1.996762">
        <ele>2030.3</ele>
        <time>2025-07-25T16:24:01.145Z</time>
      </trkpt>
      <trkpt lat="42.562277" lon="1.996908">
        <ele>2029.5</ele>
        <time>2025-07-25T16:24:33.784Z</time>
      </trkpt>
      <trkpt lat="42.561922" lon="1.997085">
        <ele>2024.8</ele>
        <time>2025-07-25T16:25:41.149Z</time>
      </trkpt>
      <trkpt lat="42.561691" lon="1.997245">
        <ele>2022.4</ele>
        <time>2025-07-25T16:26:20.526Z</time>
      </trkpt>
      <trkpt lat="42.561319" lon="1.997478">
        <ele>2019.4</ele>
        <time>2025-07-25T16:27:17.305Z</time>
      </trkpt>
      <trkpt lat="42.561078" lon="1.997563">
        <ele>2020.9</ele>
        <time>2025-07-25T16:27:56.866Z</time>
      </trkpt>
      <trkpt lat="42.560845" lon="1.997625">
        <ele>2021.7</ele>
        <time>2025-07-25T16:28:28.591Z</time>
      </trkpt>
      <trkpt lat="42.560507" lon="1.997974">
        <ele>2015.7</ele>
        <time>2025-07-25T16:29:49.024Z</time>
      </trkpt>
      <trkpt lat="42.560432" lon="1.998021">
        <ele>2015.7</ele>
        <time>2025-07-25T16:29:57.079Z</time>
      </trkpt>
    </trkseg>
  </trk>
</gpx>
